{"type": "FeatureCollection", "crs": {"type": "name", "properties": {"name": "urn:ogc:def:crs:OGC:1.3:CRS84"}}, "features": [{"type": "Feature", "geometry": {"geodesic": false, "type": "Polygon", "coordinates": [[[26.010823770186704, 39.284919428496224], [26.011901748527663, 39.284919428496224], [26.011901748527663, 39.28599740683717], [26.013518716039073, 39.28599740683717], [26.013518716039073, 39.287075385178106], [26.011362759357183, 39.287075385178106], [26.011362759357183, 39.28653639600764], [26.010823770186704, 39.28653639600764], [26.010823770186704, 39.284919428496224]]]}, "properties": {"area_ha": 3.6141962167541197, "mean_dnbr": 0.27985175252590355, "compactness": 0.51, "rectangularity": 0.65, "cropland_frac": 0.207, "persistent": true}}, {"type": "Feature", "geometry": {"geodesic": false, "type": "Polygon", "coordinates": [[[26.21402268745453, 39.55926491626632], [26.21563965496597, 39.55926491626632], [26.21563965496597, 39.559803905436794], [26.2167176333069, 39.559803905436794], [26.2167176333069, 39.56142087294821], [26.21725662247738, 39.56142087294821], [26.21725662247738, 39.561959862118684], [26.21779561164783, 39.561959862118684], [26.21779561164783, 39.562498851289156], [26.21833460081831, 39.562498851289156], [26.21833460081831, 39.56303784045963], [26.2167176333069, 39.56303784045963], [26.2167176333069, 39.5635768296301], [26.21563965496597, 39.5635768296301], [26.21563965496597, 39.562498851289156], [26.21456167662501, 39.562498851289156], [26.21456167662501, 39.561959862118684], [26.21402268745453, 39.561959862118684], [26.21402268745453, 39.56142087294821], [26.21456167662501, 39.56142087294821], [26.21456167662501, 39.56088188377774], [26.21402268745453, 39.56088188377774], [26.21402268745453, 39.55926491626632]]]}, "properties": {"area_ha": 9.969089191711682, "mean_dnbr": 0.3494986281359023, "compactness": 0.391, "rectangularity": 0.599, "cropland_frac": 0.065, "persistent": true}}, {"type": "Feature", "geometry": {"geodesic": false, "type": "Polygon", "coordinates": [[[26.224263481693498, 39.21377285799396], [26.225880449204908, 39.21377285799396], [26.225880449204908, 39.21538982550537], [26.227497416716346, 39.21538982550537], [26.227497416716346, 39.217006793016786], [26.226958427545867, 39.217006793016786], [26.226958427545867, 39.216467803846314], [26.226419438375387, 39.216467803846314], [26.226419438375387, 39.21808477135773], [26.225341460034457, 39.21808477135773], [26.225341460034457, 39.216467803846314], [26.224802470863978, 39.216467803846314], [26.224802470863978, 39.21538982550537], [26.225341460034457, 39.21538982550537], [26.225341460034457, 39.2148508363349], [26.224263481693498, 39.2148508363349], [26.224263481693498, 39.21377285799396]]]}, "properties": {"area_ha": 6.679047089788713, "mean_dnbr": 0.37377371371062645, "compactness": 0.281, "rectangularity": 0.513, "cropland_frac": 0.201, "persistent": true}}, {"type": "Feature", "geometry": {"geodesic": false, "type": "Polygon", "coordinates": [[[26.410753734676717, 39.665984772019726], [26.412909691358607, 39.665984772019726], [26.412909691358607, 39.6665237611902], [26.413987669699537, 39.6665237611902], [26.413987669699537, 39.667601739531136], [26.413448680529086, 39.667601739531136], [26.413448680529086, 39.66814072870161], [26.412909691358607, 39.66814072870161], [26.412909691358607, 39.66867971787208], [26.412370702188127, 39.66867971787208], [26.412370702188127, 39.66814072870161], [26.411831713017648, 39.66814072870161], [26.411831713017648, 39.66867971787208], [26.411292723847197, 39.66867971787208], [26.411292723847197, 39.66921870704255], [26.410753734676717, 39.66921870704255], [26.410753734676717, 39.665984772019726]]]}, "properties": {"area_ha": 6.91238560942373, "mean_dnbr": 0.3141282740995936, "compactness": 0.448, "rectangularity": 0.694, "cropland_frac": 0.249, "persistent": true}}, {"type": "Feature", "geometry": {"geodesic": false, "type": "Polygon", "coordinates": [[[26.415065648040496, 39.58028549391472], [26.416143626381427, 39.58028549391472], [26.416143626381427, 39.58136347225567], [26.415604637210976, 39.58136347225567], [26.415604637210976, 39.58298043976708], [26.416143626381427, 39.58298043976708], [26.416143626381427, 39.58351942893755], [26.415604637210976, 39.58351942893755], [26.415604637210976, 39.58405841810802], [26.414526658870017, 39.58405841810802], [26.414526658870017, 39.580824483085195], [26.415065648040496, 39.580824483085195], [26.415065648040496, 39.58028549391472]]]}, "properties": {"area_ha": 4.429379080624655, "mean_dnbr": 0.2952657622593866, "compactness": 0.381, "rectangularity": 0.762, "cropland_frac": 0.462, "persistent": true}}]}