{"type": "FeatureCollection", "crs": {"type": "name", "properties": {"name": "urn:ogc:def:crs:OGC:1.3:CRS84"}}, "features": [{"type": "Feature", "geometry": {"geodesic": false, "type": "Polygon", "coordinates": [[[26.011901748527663, 39.28384145015528], [26.012979726868593, 39.28384145015528], [26.012979726868593, 39.284919428496224], [26.012440737698114, 39.284919428496224], [26.012440737698114, 39.285458417666696], [26.011901748527663, 39.285458417666696], [26.011901748527663, 39.28599740683717], [26.012979726868593, 39.28599740683717], [26.012979726868593, 39.287075385178106], [26.012440737698114, 39.287075385178106], [26.012440737698114, 39.28761437434858], [26.011901748527663, 39.28761437434858], [26.011901748527663, 39.287075385178106], [26.011362759357183, 39.287075385178106], [26.011362759357183, 39.28815336351905], [26.010284781016225, 39.28815336351905], [26.010284781016225, 39.28761437434858], [26.009745791845774, 39.28761437434858], [26.009745791845774, 39.28815336351905], [26.009206802675294, 39.28815336351905], [26.009206802675294, 39.287075385178106], [26.011362759357183, 39.287075385178106], [26.011362759357183, 39.28653639600764], [26.010823770186704, 39.28653639600764], [26.010823770186704, 39.284919428496224], [26.011362759357183, 39.284919428496224], [26.011362759357183, 39.28438043932575], [26.011901748527663, 39.28438043932575], [26.011901748527663, 39.28384145015528]]]}, "properties": {"area_ha": 6.950362316641158, "mean_dnbr": 0.3298527465179419, "compactness": 0.193, "rectangularity": 0.446, "cropland_frac": 0.054, "persistent": true}}, {"type": "Feature", "geometry": {"geodesic": false, "type": "Polygon", "coordinates": [[[26.187073228930956, 39.20083711790264], [26.187612218101435, 39.20083711790264], [26.187612218101435, 39.20353206375499], [26.185456261419546, 39.20353206375499], [26.185456261419546, 39.204071052925464], [26.184378283078587, 39.204071052925464], [26.184378283078587, 39.20353206375499], [26.184917272249066, 39.20353206375499], [26.184917272249066, 39.20299307458452], [26.185456261419546, 39.20299307458452], [26.185456261419546, 39.20245408541405], [26.186534239760476, 39.20245408541405], [26.186534239760476, 39.20137610707311], [26.187073228930956, 39.20137610707311], [26.187073228930956, 39.20083711790264]]]}, "properties": {"area_ha": 4.453540098198532, "mean_dnbr": 0.3678503558965354, "compactness": 0.343, "rectangularity": 0.444, "cropland_frac": 0.453, "persistent": true}}, {"type": "Feature", "geometry": {"geodesic": false, "type": "Polygon", "coordinates": [[[26.21402268745453, 39.55926491626632], [26.21563965496597, 39.55926491626632], [26.21563965496597, 39.559803905436794], [26.2167176333069, 39.559803905436794], [26.2167176333069, 39.56088188377774], [26.21617864413642, 39.56088188377774], [26.21617864413642, 39.56142087294821], [26.21725662247738, 39.56142087294821], [26.21725662247738, 39.561959862118684], [26.21779561164783, 39.561959862118684], [26.21779561164783, 39.562498851289156], [26.2167176333069, 39.562498851289156], [26.2167176333069, 39.56303784045963], [26.21617864413642, 39.56303784045963], [26.21617864413642, 39.5635768296301], [26.21563965496597, 39.5635768296301], [26.21563965496597, 39.562498851289156], [26.21456167662501, 39.562498851289156], [26.21456167662501, 39.56088188377774], [26.21402268745453, 39.56088188377774], [26.21402268745453, 39.55926491626632]]]}, "properties": {"area_ha": 8.307595267167798, "mean_dnbr": 0.3355821280884549, "compactness": 0.362, "rectangularity": 0.577, "cropland_frac": 0.078, "persistent": true}}, {"type": "Feature", "geometry": {"geodesic": false, "type": "Polygon", "coordinates": [[[26.243667091830474, 39.70802592731652], [26.246901026853322, 39.70802592731652], [26.246901026853322, 39.70910390565746], [26.248517994364732, 39.70910390565746], [26.248517994364732, 39.70964289482793], [26.249595972705663, 39.70964289482793], [26.249595972705663, 39.7101818839984], [26.250134961876142, 39.7101818839984], [26.250134961876142, 39.71125986233935], [26.251751929387552, 39.71125986233935], [26.251751929387552, 39.713415819021236], [26.2512129402171, 39.713415819021236], [26.2512129402171, 39.71449379736218], [26.247979005194253, 39.71449379736218], [26.247979005194253, 39.71233784068029], [26.247440016023802, 39.71233784068029], [26.247440016023802, 39.71179885150982], [26.245823048512364, 39.71179885150982], [26.245823048512364, 39.71233784068029], [26.245284059341913, 39.71233784068029], [26.245284059341913, 39.71179885150982], [26.244206081000954, 39.71179885150982], [26.244206081000954, 39.71125986233935], [26.243667091830474, 39.71125986233935], [26.243667091830474, 39.710720873168874], [26.244206081000954, 39.710720873168874], [26.244206081000954, 39.7101818839984], [26.242589113489544, 39.7101818839984], [26.242589113489544, 39.70964289482793], [26.242050124319064, 39.70964289482793], [26.242050124319064, 39.70910390565746], [26.241511135148613, 39.70910390565746], [26.241511135148613, 39.70802592731652], [26.243128102660023, 39.70802592731652], [26.243128102660023, 39.70856491648699], [26.242589113489544, 39.70856491648699], [26.242589113489544, 39.70910390565746], [26.243667091830474, 39.70910390565746], [26.243667091830474, 39.70802592731652]], [[26.249056983535212, 39.71233784068029], [26.249056983535212, 39.712876829850764], [26.248517994364732, 39.712876829850764], [26.248517994364732, 39.71233784068029], [26.249056983535212, 39.71233784068029]], [[26.245284059341913, 39.7101818839984], [26.245284059341913, 39.710720873168874], [26.244745070171433, 39.710720873168874], [26.244745070171433, 39.7101818839984], [26.245284059341913, 39.7101818839984]], [[26.247979005194253, 39.7101818839984], [26.247979005194253, 39.710720873168874], [26.245823048512364, 39.710720873168874], [26.245823048512364, 39.7101818839984], [26.247979005194253, 39.7101818839984]]]}, "properties": {"area_ha": 29.842657793692755, "mean_dnbr": 0.41527888821727077, "compactness": 0.174, "rectangularity": 0.556, "cropland_frac": 0.005, "persistent": true}}, {"type": "Feature", "geometry": {"geodesic": false, "type": "Polygon", "coordinates": [[[26.25552485358085, 39.496203183321136], [26.25714182109229, 39.496203183321136], [26.25714182109229, 39.49674217249161], [26.25768081026274, 39.49674217249161], [26.25768081026274, 39.49728116166208], [26.25714182109229, 39.49728116166208], [26.25714182109229, 39.49782015083255], [26.25660283192181, 39.49782015083255], [26.25660283192181, 39.49835914000302], [26.2549858644104, 39.49835914000302], [26.2549858644104, 39.49674217249161], [26.25552485358085, 39.49674217249161], [26.25552485358085, 39.496203183321136]]]}, "properties": {"area_ha": 4.1576259758554155, "mean_dnbr": 0.37637677082394316, "compactness": 0.589, "rectangularity": 0.75, "cropland_frac": 0, "persistent": true}}]}