{"type": "FeatureCollection", "crs": {"type": "name", "properties": {"name": "urn:ogc:def:crs:OGC:1.3:CRS84"}}, "features": [{"type": "Feature", "geometry": {"geodesic": false, "type": "Polygon", "coordinates": [[[26.16928658630539, 39.593221234006045], [26.16982557547587, 39.593221234006045], [26.16982557547587, 39.59429921234699], [26.17036456464632, 39.59429921234699], [26.17036456464632, 39.59537719068793], [26.16928658630539, 39.59537719068793], [26.16928658630539, 39.5959161798584], [26.16820860796446, 39.5959161798584], [26.16820860796446, 39.59429921234699], [26.16874759713491, 39.59429921234699], [26.16874759713491, 39.59376022317652], [26.16820860796446, 39.59376022317652], [26.16820860796446, 39.593221234006045], [26.16874759713491, 39.593221234006045], [26.16874759713491, 39.59376022317652], [26.16928658630539, 39.59376022317652], [26.16928658630539, 39.593221234006045]]]}, "properties": {"area_ha": 3.875010295798957, "mean_dnbr": 0.292340832482887, "compactness": 0.349, "rectangularity": 0.7, "cropland_frac": 0, "persistent": true}}, {"type": "Feature", "geometry": {"geodesic": false, "type": "Polygon", "coordinates": [[[26.426384420620394, 39.57759054806236], [26.426923409790874, 39.57759054806236], [26.426923409790874, 39.57812953723283], [26.428540377302284, 39.57812953723283], [26.428540377302284, 39.578668526403305], [26.429079366472763, 39.578668526403305], [26.429079366472763, 39.57974650474425], [26.426923409790874, 39.57974650474425], [26.426923409790874, 39.57812953723283], [26.426384420620394, 39.57812953723283], [26.426384420620394, 39.57759054806236]]]}, "properties": {"area_ha": 3.3221953146337815, "mean_dnbr": 0.24494495079183592, "compactness": 0.471, "rectangularity": 0.6, "cropland_frac": 0.009, "persistent": true}}, {"type": "Feature", "geometry": {"geodesic": false, "type": "Polygon", "coordinates": [[[26.429079366472763, 39.58028549391472], [26.429618355643214, 39.58028549391472], [26.429618355643214, 39.58190246142614], [26.430157344813693, 39.58190246142614], [26.430157344813693, 39.582441450596605], [26.430696333984173, 39.582441450596605], [26.430696333984173, 39.58298043976708], [26.431235323154652, 39.58298043976708], [26.431235323154652, 39.58351942893755], [26.430696333984173, 39.58351942893755], [26.430696333984173, 39.585136396448966], [26.428001388131804, 39.585136396448966], [26.428001388131804, 39.58567538561944], [26.427462398961353, 39.58567538561944], [26.427462398961353, 39.58621437478991], [26.426384420620394, 39.58621437478991], [26.426384420620394, 39.587292353130856], [26.429618355643214, 39.587292353130856], [26.429618355643214, 39.58783134230133], [26.430696333984173, 39.58783134230133], [26.430696333984173, 39.58837033147179], [26.431235323154652, 39.58837033147179], [26.431235323154652, 39.58944830981274], [26.430157344813693, 39.58944830981274], [26.430157344813693, 39.591065277324155], [26.429079366472763, 39.591065277324155], [26.429079366472763, 39.58998729898321], [26.428540377302284, 39.58998729898321], [26.428540377302284, 39.59052628815368], [26.425845431449915, 39.59052628815368], [26.425845431449915, 39.59160426649463], [26.424767453108984, 39.59160426649463], [26.424767453108984, 39.591065277324155], [26.424228463938505, 39.591065277324155], [26.424228463938505, 39.59052628815368], [26.423689474768025, 39.59052628815368], [26.423689474768025, 39.58998729898321], [26.423150485597574, 39.58998729898321], [26.423150485597574, 39.59052628815368], [26.422611496427095, 39.59052628815368], [26.422611496427095, 39.58998729898321], [26.421533518086164, 39.58998729898321], [26.421533518086164, 39.58944830981274], [26.420994528915685, 39.58944830981274], [26.420994528915685, 39.588909320642266], [26.419916550574726, 39.588909320642266], [26.419916550574726, 39.58675336396038], [26.419377561404275, 39.58675336396038], [26.419377561404275, 39.585136396448966], [26.419916550574726, 39.585136396448966], [26.419916550574726, 39.58567538561944], [26.420994528915685, 39.58567538561944], [26.420994528915685, 39.58621437478991], [26.420455539745205, 39.58621437478991], [26.420455539745205, 39.58675336396038], [26.422611496427095, 39.58675336396038], [26.422611496427095, 39.585136396448966], [26.423150485597574, 39.585136396448966], [26.423150485597574, 39.584597407278494], [26.425306442279464, 39.584597407278494], [26.425306442279464, 39.58405841810802], [26.424767453108984, 39.58405841810802], [26.424767453108984, 39.58351942893755], [26.426384420620394, 39.58351942893755], [26.426384420620394, 39.582441450596605], [26.424228463938505, 39.582441450596605], [26.424228463938505, 39.58136347225567], [26.424767453108984, 39.58136347225567], [26.424767453108984, 39.580824483085195], [26.424228463938505, 39.580824483085195], [26.424228463938505, 39.58028549391472], [26.428540377302284, 39.58028549391472], [26.428540377302284, 39.580824483085195], [26.429079366472763, 39.580824483085195], [26.429079366472763, 39.58028549391472]], [[26.425306442279464, 39.58944830981274], [26.425306442279464, 39.58998729898321], [26.424767453108984, 39.58998729898321], [26.424767453108984, 39.58944830981274], [26.425306442279464, 39.58944830981274]], [[26.428001388131804, 39.58944830981274], [26.428001388131804, 39.58998729898321], [26.427462398961353, 39.58998729898321], [26.427462398961353, 39.58944830981274], [26.428001388131804, 39.58944830981274]], [[26.423150485597574, 39.588909320642266], [26.423150485597574, 39.58944830981274], [26.422611496427095, 39.58944830981274], [26.422611496427095, 39.588909320642266], [26.423150485597574, 39.588909320642266]], [[26.426923409790874, 39.58837033147179], [26.426923409790874, 39.588909320642266], [26.426384420620394, 39.588909320642266], [26.426384420620394, 39.58837033147179], [26.426923409790874, 39.58837033147179]], [[26.425306442279464, 39.58783134230133], [26.425306442279464, 39.58837033147179], [26.424228463938505, 39.58837033147179], [26.424228463938505, 39.58783134230133], [26.425306442279464, 39.58783134230133]], [[26.426384420620394, 39.584597407278494], [26.426384420620394, 39.585136396448966], [26.425845431449915, 39.585136396448966], [26.425845431449915, 39.584597407278494], [26.426384420620394, 39.584597407278494]], [[26.429618355643214, 39.582441450596605], [26.429618355643214, 39.58298043976708], [26.429079366472763, 39.58298043976708], [26.429079366472763, 39.582441450596605], [26.429618355643214, 39.582441450596605]], [[26.425845431449915, 39.58136347225567], [26.425845431449915, 39.58190246142614], [26.425306442279464, 39.58190246142614], [26.425306442279464, 39.58136347225567], [26.425845431449915, 39.58136347225567]]]}, "properties": {"area_ha": 66.1599582897882, "mean_dnbr": 0.351146737557135, "compactness": 0.111, "rectangularity": 0.517, "cropland_frac": 0.141, "persistent": true}}]}