{"type": "FeatureCollection", "crs": {"type": "name", "properties": {"name": "urn:ogc:def:crs:OGC:1.3:CRS84"}}, "features": [{"type": "Feature", "geometry": {"geodesic": false, "type": "Polygon", "coordinates": [[[26.57891835586389, 38.302881159896764], [26.57945734503437, 38.302881159896764], [26.57945734503437, 38.303420149067236], [26.57999633420482, 38.303420149067236], [26.57999633420482, 38.305037116578646], [26.5805353233753, 38.305037116578646], [26.5805353233753, 38.30665408409006], [26.58107431254578, 38.30665408409006], [26.58107431254578, 38.307193073260535], [26.58161330171626, 38.307193073260535], [26.58161330171626, 38.30881004077195], [26.5805353233753, 38.30881004077195], [26.5805353233753, 38.309349029942425], [26.58161330171626, 38.309349029942425], [26.58161330171626, 38.313121954135724], [26.58107431254578, 38.313121954135724], [26.58107431254578, 38.31851184584044], [26.57999633420482, 38.31851184584044], [26.57999633420482, 38.317433867499496], [26.57945734503437, 38.317433867499496], [26.57945734503437, 38.31527791081761], [26.57999633420482, 38.31527791081761], [26.57999633420482, 38.31473892164714], [26.57945734503437, 38.31473892164714], [26.57945734503437, 38.31150498662431], [26.57891835586389, 38.31150498662431], [26.57891835586389, 38.310965997453835], [26.57837936669341, 38.310965997453835], [26.57837936669341, 38.307193073260535], [26.57784037752296, 38.307193073260535], [26.57784037752296, 38.30665408409006], [26.57730138835248, 38.30665408409006], [26.57730138835248, 38.30611509491959], [26.57784037752296, 38.30611509491959], [26.57784037752296, 38.30557610574912], [26.57730138835248, 38.30557610574912], [26.57730138835248, 38.30449812740817], [26.57837936669341, 38.30449812740817], [26.57837936669341, 38.30395913823771], [26.57891835586389, 38.30395913823771], [26.57891835586389, 38.302881159896764]]]}, "properties": {"area_ha": 33.258228995711264, "mean_dnbr": 0.4098763606377024, "compactness": 0.197, "rectangularity": 0.526, "cropland_frac": 0.029, "persistent": true}}]}