{"type": "FeatureCollection", "crs": {"type": "name", "properties": {"name": "urn:ogc:def:crs:OGC:1.3:CRS84"}}, "features": [{"type": "Feature", "geometry": {"geodesic": false, "type": "Polygon", "coordinates": [[[26.76648658718804, 38.2753927122027], [26.76702557635852, 38.2753927122027], [26.76702557635852, 38.27754866888459], [26.767564565529, 38.27754866888459], [26.767564565529, 38.278087658055064], [26.76810355469945, 38.278087658055064], [26.76810355469945, 38.278626647225536], [26.76972052221089, 38.278626647225536], [26.76972052221089, 38.280243614736946], [26.76918153304041, 38.280243614736946], [26.76918153304041, 38.28078260390742], [26.76810355469945, 38.28078260390742], [26.76810355469945, 38.282399571418836], [26.76864254386993, 38.282399571418836], [26.76864254386993, 38.28293856058931], [26.767564565529, 38.28293856058931], [26.767564565529, 38.28347754975978], [26.76810355469945, 38.28347754975978], [26.76810355469945, 38.28401653893025], [26.76648658718804, 38.28401653893025], [26.76648658718804, 38.28293856058931], [26.76594759801759, 38.28293856058931], [26.76594759801759, 38.282399571418836], [26.76540860884711, 38.282399571418836], [26.76540860884711, 38.28186058224836], [26.76486961967663, 38.28186058224836], [26.76486961967663, 38.28132159307789], [26.76433063050615, 38.28132159307789], [26.76433063050615, 38.28078260390742], [26.7637916413357, 38.28078260390742], [26.7637916413357, 38.27916563639601], [26.76271366299474, 38.27916563639601], [26.76271366299474, 38.278626647225536], [26.76433063050615, 38.278626647225536], [26.76433063050615, 38.278087658055064], [26.7637916413357, 38.278087658055064], [26.7637916413357, 38.27647069054365], [26.76271366299474, 38.27647069054365], [26.76271366299474, 38.275931701373175], [26.7637916413357, 38.275931701373175], [26.7637916413357, 38.2753927122027], [26.76486961967663, 38.2753927122027], [26.76486961967663, 38.275931701373175], [26.76648658718804, 38.275931701373175], [26.76648658718804, 38.2753927122027]], [[26.76486961967663, 38.275931701373175], [26.76486961967663, 38.27647069054365], [26.7637916413357, 38.27647069054365], [26.7637916413357, 38.275931701373175], [26.76486961967663, 38.275931701373175]]]}, "properties": {"area_ha": 30.452530224130616, "mean_dnbr": 0.5526582818620666, "compactness": 0.235, "rectangularity": 0.534, "cropland_frac": 0, "persistent": true}}]}