{"type": "FeatureCollection", "crs": {"type": "name", "properties": {"name": "urn:ogc:def:crs:OGC:1.3:CRS84"}}, "features": [{"type": "Feature", "geometry": {"geodesic": false, "type": "Polygon", "coordinates": [[[26.222646514182088, 37.587103541510324], [26.223185503352568, 37.587103541510324], [26.223185503352568, 37.58872050902174], [26.222646514182088, 37.58872050902174], [26.222646514182088, 37.58925949819221], [26.221568535841158, 37.58925949819221], [26.221568535841158, 37.589798487362685], [26.21995156832972, 37.589798487362685], [26.21995156832972, 37.58818151985127], [26.2204905575002, 37.58818151985127], [26.2204905575002, 37.58872050902174], [26.221029546670678, 37.58872050902174], [26.221029546670678, 37.58818151985127], [26.221568535841158, 37.58818151985127], [26.221568535841158, 37.587642530680796], [26.22210752501161, 37.587642530680796], [26.22210752501161, 37.58818151985127], [26.222646514182088, 37.58818151985127], [26.222646514182088, 37.587103541510324]]]}, "properties": {"area_ha": 4.554086736363183, "mean_dnbr": 0.2474104545649711, "compactness": 0.288, "rectangularity": 0.533, "cropland_frac": 0, "persistent": null}}, {"type": "Feature", "geometry": {"geodesic": false, "type": "Polygon", "coordinates": [[[26.25282990772851, 37.60273422745401], [26.25336889689899, 37.60273422745401], [26.25336889689899, 37.604351194965425], [26.25229091855803, 37.604351194965425], [26.25229091855803, 37.60542917330636], [26.250673951046622, 37.60542917330636], [26.250673951046622, 37.605968162476834], [26.250134961876142, 37.605968162476834], [26.250134961876142, 37.60542917330636], [26.250673951046622, 37.60542917330636], [26.250673951046622, 37.60381220579495], [26.2512129402171, 37.60381220579495], [26.2512129402171, 37.60327321662448], [26.25282990772851, 37.60327321662448], [26.25282990772851, 37.60273422745401]]]}, "properties": {"area_ha": 4.837701002058577, "mean_dnbr": 0.31402468166206443, "compactness": 0.366, "rectangularity": 0.472, "cropland_frac": 0, "persistent": null}}, {"type": "Feature", "geometry": {"geodesic": false, "type": "Polygon", "coordinates": [[[26.30672882477569, 37.64800931777363], [26.30726781394614, 37.64800931777363], [26.30726781394614, 37.64908729611457], [26.30780680311662, 37.64908729611457], [26.30780680311662, 37.65016527445552], [26.3083457922871, 37.65016527445552], [26.3083457922871, 37.65070426362599], [26.30888478145755, 37.65070426362599], [26.30888478145755, 37.65124325279646], [26.30780680311662, 37.65124325279646], [26.30780680311662, 37.65070426362599], [26.30672882477569, 37.65070426362599], [26.30672882477569, 37.65124325279646], [26.30618983560521, 37.65124325279646], [26.30618983560521, 37.65070426362599], [26.30565084643473, 37.65070426362599], [26.30565084643473, 37.65016527445552], [26.30726781394614, 37.65016527445552], [26.30726781394614, 37.649626285285045], [26.30672882477569, 37.649626285285045], [26.30672882477569, 37.64800931777363]]]}, "properties": {"area_ha": 3.6971382775749677, "mean_dnbr": 0.19404775047338338, "compactness": 0.206, "rectangularity": 0.361, "cropland_frac": 0, "persistent": null}}, {"type": "Feature", "geometry": {"geodesic": false, "type": "Polygon", "coordinates": [[[26.31104073813944, 37.639385491046085], [26.31157972730992, 37.639385491046085], [26.31157972730992, 37.63992448021656], [26.31104073813944, 37.63992448021656], [26.31104073813944, 37.64046346938703], [26.312657705650878, 37.64046346938703], [26.312657705650878, 37.63992448021656], [26.31319669482133, 37.63992448021656], [26.31319669482133, 37.64046346938703], [26.314274673162288, 37.64046346938703], [26.314274673162288, 37.641002458557494], [26.31481366233274, 37.641002458557494], [26.31481366233274, 37.64154144772797], [26.312657705650878, 37.64154144772797], [26.312657705650878, 37.64208043689844], [26.3121187164804, 37.64208043689844], [26.3121187164804, 37.64154144772797], [26.31157972730992, 37.64154144772797], [26.31157972730992, 37.64208043689844], [26.31104073813944, 37.64208043689844], [26.31104073813944, 37.641002458557494], [26.31050174896899, 37.641002458557494], [26.31050174896899, 37.64208043689844], [26.30942377062803, 37.64208043689844], [26.30942377062803, 37.64154144772797], [26.30996275979851, 37.64154144772797], [26.30996275979851, 37.64046346938703], [26.31050174896899, 37.64046346938703], [26.31050174896899, 37.63992448021656], [26.31104073813944, 37.63992448021656], [26.31104073813944, 37.639385491046085]]]}, "properties": {"area_ha": 6.541893759064171, "mean_dnbr": 0.2678849146659779, "compactness": 0.182, "rectangularity": 0.46, "cropland_frac": 0, "persistent": null}}]}