{"type": "FeatureCollection", "crs": {"type": "name", "properties": {"name": "urn:ogc:def:crs:OGC:1.3:CRS84"}}, "features": [{"type": "Feature", "geometry": {"geodesic": false, "type": "Polygon", "coordinates": [[[27.05538478256088, 39.26335986167735], [27.055923771731358, 39.26335986167735], [27.055923771731358, 39.26389885084782], [27.05700175007229, 39.26389885084782], [27.05700175007229, 39.264437840018296], [27.058079728413247, 39.264437840018296], [27.058079728413247, 39.26497682918877], [27.059157706754178, 39.26497682918877], [27.059157706754178, 39.26551581835924], [27.059696695924657, 39.26551581835924], [27.059696695924657, 39.26605480752971], [27.060235685095137, 39.26605480752971], [27.060235685095137, 39.266593796700185], [27.060774674265616, 39.266593796700185], [27.060774674265616, 39.26713278587066], [27.061852652606547, 39.26713278587066], [27.061852652606547, 39.2682107642116], [27.062391641777026, 39.2682107642116], [27.062391641777026, 39.26767177504113], [27.062930630947477, 39.26767177504113], [27.062930630947477, 39.26713278587066], [27.062391641777026, 39.26713278587066], [27.062391641777026, 39.266593796700185], [27.063469620117957, 39.266593796700185], [27.063469620117957, 39.2682107642116], [27.062391641777026, 39.2682107642116], [27.062391641777026, 39.26982773172301], [27.061852652606547, 39.26982773172301], [27.061852652606547, 39.26928874255254], [27.060774674265616, 39.26928874255254], [27.060774674265616, 39.26874975338207], [27.059157706754178, 39.26874975338207], [27.059157706754178, 39.26928874255254], [27.058618717583727, 39.26928874255254], [27.058618717583727, 39.26874975338207], [27.058079728413247, 39.26874975338207], [27.058079728413247, 39.27090571006396], [27.057540739242768, 39.27090571006396], [27.057540739242768, 39.26928874255254], [27.05700175007229, 39.26928874255254], [27.05700175007229, 39.270366720893485], [27.055923771731358, 39.270366720893485], [27.055923771731358, 39.26982773172301], [27.05538478256088, 39.26982773172301], [27.05538478256088, 39.270366720893485], [27.054845793390427, 39.270366720893485], [27.054845793390427, 39.26982773172301], [27.05538478256088, 39.26982773172301], [27.05538478256088, 39.26767177504113], [27.055923771731358, 39.26767177504113], [27.055923771731358, 39.26713278587066], [27.056462760901837, 39.26713278587066], [27.056462760901837, 39.26767177504113], [27.055923771731358, 39.26767177504113], [27.055923771731358, 39.2682107642116], [27.057540739242768, 39.2682107642116], [27.057540739242768, 39.26767177504113], [27.058079728413247, 39.26767177504113], [27.058079728413247, 39.26713278587066], [27.05700175007229, 39.26713278587066], [27.05700175007229, 39.26605480752971], [27.055923771731358, 39.26605480752971], [27.055923771731358, 39.266593796700185], [27.054845793390427, 39.266593796700185], [27.054845793390427, 39.26713278587066], [27.05376781504947, 39.26713278587066], [27.05376781504947, 39.26767177504113], [27.054306804219948, 39.26767177504113], [27.054306804219948, 39.2682107642116], [27.052689836708538, 39.2682107642116], [27.052689836708538, 39.26713278587066], [27.05322882587899, 39.26713278587066], [27.05322882587899, 39.266593796700185], [27.052689836708538, 39.266593796700185], [27.052689836708538, 39.26551581835924], [27.054845793390427, 39.26551581835924], [27.054845793390427, 39.26497682918877], [27.05538478256088, 39.26497682918877], [27.05538478256088, 39.264437840018296], [27.055923771731358, 39.264437840018296], [27.055923771731358, 39.26389885084782], [27.05538478256088, 39.26389885084782], [27.05538478256088, 39.26335986167735]], [[27.058079728413247, 39.2682107642116], [27.058079728413247, 39.26874975338207], [27.057540739242768, 39.26874975338207], [27.057540739242768, 39.2682107642116], [27.058079728413247, 39.2682107642116]], [[27.059157706754178, 39.2682107642116], [27.059157706754178, 39.26874975338207], [27.058618717583727, 39.26874975338207], [27.058618717583727, 39.2682107642116], [27.059157706754178, 39.2682107642116]], [[27.061313663436067, 39.2682107642116], [27.061313663436067, 39.26874975338207], [27.060774674265616, 39.26874975338207], [27.060774674265616, 39.2682107642116], [27.061313663436067, 39.2682107642116]], [[27.060235685095137, 39.26767177504113], [27.060235685095137, 39.2682107642116], [27.059157706754178, 39.2682107642116], [27.059157706754178, 39.26767177504113], [27.060235685095137, 39.26767177504113]], [[27.060774674265616, 39.26713278587066], [27.060774674265616, 39.26767177504113], [27.060235685095137, 39.26767177504113], [27.060235685095137, 39.26713278587066], [27.060774674265616, 39.26713278587066]], [[27.05538478256088, 39.26551581835924], [27.05538478256088, 39.26605480752971], [27.054845793390427, 39.26605480752971], [27.054845793390427, 39.26551581835924], [27.05538478256088, 39.26551581835924]], [[27.055923771731358, 39.26497682918877], [27.055923771731358, 39.26551581835924], [27.05538478256088, 39.26551581835924], [27.05538478256088, 39.26497682918877], [27.055923771731358, 39.26497682918877]], [[27.057540739242768, 39.26497682918877], [27.057540739242768, 39.26551581835924], [27.056462760901837, 39.26551581835924], [27.056462760901837, 39.26497682918877], [27.057540739242768, 39.26497682918877]], [[27.056462760901837, 39.264437840018296], [27.056462760901837, 39.26497682918877], [27.055923771731358, 39.26497682918877], [27.055923771731358, 39.264437840018296], [27.056462760901837, 39.264437840018296]]]}, "properties": {"area_ha": 27.530902422327017, "mean_dnbr": 0.23011464477028182, "compactness": 0.048, "rectangularity": 0.393, "cropland_frac": 0.499, "persistent": true}}]}