{"type": "FeatureCollection", "crs": {"type": "name", "properties": {"name": "urn:ogc:def:crs:OGC:1.3:CRS84"}}, "features": [{"type": "Feature", "geometry": {"geodesic": false, "type": "Polygon", "coordinates": [[[25.93159236212736, 39.13993134163933], [25.93267034046832, 39.13993134163933], [25.93267034046832, 39.140470330809805], [25.93536528632066, 39.140470330809805], [25.93536528632066, 39.14154830915075], [25.93374831880925, 39.14154830915075], [25.93374831880925, 39.14100931998028], [25.93213135129784, 39.14100931998028], [25.93213135129784, 39.140470330809805], [25.93159236212736, 39.140470330809805], [25.93159236212736, 39.13993134163933]]]}, "properties": {"area_ha": 3.064493871049148, "mean_dnbr": 0.3149751496274112, "compactness": 0.377, "rectangularity": 0.564, "cropland_frac": 0.015, "persistent": null}}, {"type": "Feature", "geometry": {"geodesic": false, "type": "Polygon", "coordinates": [[[26.174137488839648, 39.63148946510953], [26.178449402203398, 39.63148946510953], [26.178449402203398, 39.632567443450476], [26.178988391373878, 39.632567443450476], [26.178988391373878, 39.63310643262095], [26.179527380544357, 39.63310643262095], [26.179527380544357, 39.63364542179142], [26.175754456351058, 39.63364542179142], [26.175754456351058, 39.63310643262095], [26.1746764780101, 39.63310643262095], [26.1746764780101, 39.632567443450476], [26.174137488839648, 39.632567443450476], [26.174137488839648, 39.63148946510953]]]}, "properties": {"area_ha": 8.575664019440017, "mean_dnbr": 0.3725000761740354, "compactness": 0.548, "rectangularity": 0.775, "cropland_frac": 0.002, "persistent": null}}, {"type": "Feature", "geometry": {"geodesic": false, "type": "Polygon", "coordinates": [[[26.410753734676717, 39.665984772019726], [26.412909691358607, 39.665984772019726], [26.412909691358607, 39.6665237611902], [26.413987669699537, 39.6665237611902], [26.413987669699537, 39.667601739531136], [26.412370702188127, 39.667601739531136], [26.412370702188127, 39.66814072870161], [26.411831713017648, 39.66814072870161], [26.411831713017648, 39.667601739531136], [26.411292723847197, 39.667601739531136], [26.411292723847197, 39.667062750360664], [26.410753734676717, 39.667062750360664], [26.410753734676717, 39.665984772019726]], [[26.412370702188127, 39.6665237611902], [26.412370702188127, 39.667062750360664], [26.411831713017648, 39.667062750360664], [26.411831713017648, 39.6665237611902], [26.412370702188127, 39.6665237611902]]]}, "properties": {"area_ha": 4.147456993061518, "mean_dnbr": 0.2296355574059832, "compactness": 0.336, "rectangularity": 0.625, "cropland_frac": 0.07, "persistent": null}}]}