{"type": "FeatureCollection", "crs": {"type": "name", "properties": {"name": "urn:ogc:def:crs:OGC:1.3:CRS84"}}, "features": [{"type": "Feature", "geometry": {"geodesic": false, "type": "Polygon", "coordinates": [[[26.243667091830474, 39.70802592731652], [26.246901026853322, 39.70802592731652], [26.246901026853322, 39.70910390565746], [26.248517994364732, 39.70910390565746], [26.248517994364732, 39.70964289482793], [26.249595972705663, 39.70964289482793], [26.249595972705663, 39.7101818839984], [26.250134961876142, 39.7101818839984], [26.250134961876142, 39.71125986233935], [26.251751929387552, 39.71125986233935], [26.251751929387552, 39.713415819021236], [26.2512129402171, 39.713415819021236], [26.2512129402171, 39.71449379736218], [26.247979005194253, 39.71449379736218], [26.247979005194253, 39.71233784068029], [26.247440016023802, 39.71233784068029], [26.247440016023802, 39.71179885150982], [26.245823048512364, 39.71179885150982], [26.245823048512364, 39.71233784068029], [26.245284059341913, 39.71233784068029], [26.245284059341913, 39.71179885150982], [26.244206081000954, 39.71179885150982], [26.244206081000954, 39.71125986233935], [26.243667091830474, 39.71125986233935], [26.243667091830474, 39.710720873168874], [26.244206081000954, 39.710720873168874], [26.244206081000954, 39.7101818839984], [26.242589113489544, 39.7101818839984], [26.242589113489544, 39.70910390565746], [26.241511135148613, 39.70910390565746], [26.241511135148613, 39.70802592731652], [26.243128102660023, 39.70802592731652], [26.243128102660023, 39.70856491648699], [26.242589113489544, 39.70856491648699], [26.242589113489544, 39.70910390565746], [26.243667091830474, 39.70910390565746], [26.243667091830474, 39.70802592731652]], [[26.249056983535212, 39.71233784068029], [26.249056983535212, 39.712876829850764], [26.248517994364732, 39.712876829850764], [26.248517994364732, 39.71233784068029], [26.249056983535212, 39.71233784068029]], [[26.245284059341913, 39.7101818839984], [26.245284059341913, 39.710720873168874], [26.244745070171433, 39.710720873168874], [26.244745070171433, 39.7101818839984], [26.245284059341913, 39.7101818839984]], [[26.247979005194253, 39.7101818839984], [26.247979005194253, 39.710720873168874], [26.245823048512364, 39.710720873168874], [26.245823048512364, 39.7101818839984], [26.247979005194253, 39.7101818839984]]]}, "properties": {"area_ha": 29.566331040733353, "mean_dnbr": 0.35688360532779406, "compactness": 0.172, "rectangularity": 0.55, "cropland_frac": 0.005, "persistent": true}}, {"type": "Feature", "geometry": {"geodesic": false, "type": "Polygon", "coordinates": [[[26.25552485358085, 39.496203183321136], [26.25714182109229, 39.496203183321136], [26.25714182109229, 39.49674217249161], [26.25768081026274, 39.49674217249161], [26.25768081026274, 39.49728116166208], [26.25714182109229, 39.49728116166208], [26.25714182109229, 39.49782015083255], [26.25660283192181, 39.49782015083255], [26.25660283192181, 39.49835914000302], [26.2549858644104, 39.49835914000302], [26.2549858644104, 39.49674217249161], [26.25552485358085, 39.49674217249161], [26.25552485358085, 39.496203183321136]]]}, "properties": {"area_ha": 4.1576259758554155, "mean_dnbr": 0.3274896040854293, "compactness": 0.589, "rectangularity": 0.75, "cropland_frac": 0, "persistent": true}}, {"type": "Feature", "geometry": {"geodesic": false, "type": "Polygon", "coordinates": [[[26.370329546891327, 39.748450115101896], [26.370329546891327, 39.74629415842001], [26.369790557720876, 39.74629415842001], [26.369790557720876, 39.744138201738124], [26.374102471084655, 39.744138201738124], [26.374102471084655, 39.7446771909086], [26.374641460255106, 39.7446771909086], [26.374641460255106, 39.745755169249534], [26.375180449425585, 39.745755169249534], [26.375180449425585, 39.74521618007906], [26.376258427766516, 39.74521618007906], [26.376258427766516, 39.744138201738124], [26.375180449425585, 39.744138201738124], [26.375180449425585, 39.74306022339718], [26.375719438596064, 39.74306022339718], [26.375719438596064, 39.74359921256765], [26.377336406107474, 39.74359921256765], [26.377336406107474, 39.744138201738124], [26.380570341130294, 39.744138201738124], [26.380570341130294, 39.7446771909086], [26.381648319471253, 39.7446771909086], [26.381648319471253, 39.74359921256765], [26.382726297812184, 39.74359921256765], [26.382726297812184, 39.744138201738124], [26.388655178687372, 39.744138201738124], [26.388655178687372, 39.74521618007906], [26.389194167857852, 39.74521618007906], [26.389194167857852, 39.745755169249534], [26.38973315702833, 39.745755169249534], [26.38973315702833, 39.74629415842001], [26.390811135369262, 39.74629415842001], [26.390811135369262, 39.74683314759048], [26.39135012453974, 39.74683314759048], [26.39135012453974, 39.74737213676095], [26.39296709205115, 39.74737213676095], [26.39296709205115, 39.747911125931424], [26.39350608122163, 39.747911125931424], [26.39350608122163, 39.748450115101896], [26.370329546891327, 39.748450115101896]], [[26.387038211175962, 39.74629415842001], [26.387038211175962, 39.74683314759048], [26.386499222005483, 39.74683314759048], [26.386499222005483, 39.74629415842001], [26.387038211175962, 39.74629415842001]], [[26.387577200346442, 39.7446771909086], [26.387577200346442, 39.74521618007906], [26.387038211175962, 39.74521618007906], [26.387038211175962, 39.7446771909086], [26.387577200346442, 39.7446771909086]], [[26.371946514402765, 39.74629415842001], [26.371946514402765, 39.74683314759048], [26.370868536061806, 39.74683314759048], [26.370868536061806, 39.74629415842001], [26.371946514402765, 39.74629415842001]], [[26.375719438596064, 39.74629415842001], [26.375719438596064, 39.74683314759048], [26.375180449425585, 39.74683314759048], [26.375180449425585, 39.74629415842001], [26.375719438596064, 39.74629415842001]], [[26.370868536061806, 39.7446771909086], [26.370868536061806, 39.74521618007906], [26.370329546891327, 39.74521618007906], [26.370329546891327, 39.7446771909086], [26.370868536061806, 39.7446771909086]]]}, "properties": {"area_ha": 81.75724274882845, "mean_dnbr": 0.48161900369036487, "compactness": 0.199, "rectangularity": 0.673, "cropland_frac": 0.207, "persistent": true}}]}