{"type": "FeatureCollection", "crs": {"type": "name", "properties": {"name": "urn:ogc:def:crs:OGC:1.3:CRS84"}}, "features": [{"type": "Feature", "geometry": {"geodesic": false, "type": "Polygon", "coordinates": [[[26.410753734676717, 39.665984772019726], [26.412909691358607, 39.665984772019726], [26.412909691358607, 39.6665237611902], [26.413987669699537, 39.6665237611902], [26.413987669699537, 39.667601739531136], [26.413448680529086, 39.667601739531136], [26.413448680529086, 39.66814072870161], [26.412909691358607, 39.66814072870161], [26.412909691358607, 39.66867971787208], [26.412370702188127, 39.66867971787208], [26.412370702188127, 39.66814072870161], [26.411831713017648, 39.66814072870161], [26.411831713017648, 39.667601739531136], [26.411292723847197, 39.667601739531136], [26.411292723847197, 39.667062750360664], [26.410753734676717, 39.667062750360664], [26.410753734676717, 39.665984772019726]]]}, "properties": {"area_ha": 5.253430788451943, "mean_dnbr": 0.3551606383281737, "compactness": 0.497, "rectangularity": 0.633, "cropland_frac": 0.096, "persistent": true}}]}