{"type": "FeatureCollection", "crs": {"type": "name", "properties": {"name": "urn:ogc:def:crs:OGC:1.3:CRS84"}}, "features": [{"type": "Feature", "geometry": {"geodesic": false, "type": "Polygon", "coordinates": [[[28.069762401388658, 39.47302664899085], [28.071379368900068, 39.47302664899085], [28.071379368900068, 39.47464361650226], [28.071918358070548, 39.47464361650226], [28.071918358070548, 39.475182605672735], [28.072996336411478, 39.475182605672735], [28.072996336411478, 39.47572159484321], [28.073535325581958, 39.47572159484321], [28.073535325581958, 39.47626058401368], [28.074074314752437, 39.47626058401368], [28.074074314752437, 39.47572159484321], [28.076230271434298, 39.47572159484321], [28.076230271434298, 39.475182605672735], [28.076769260604777, 39.475182605672735], [28.076769260604777, 39.47464361650226], [28.078386228116187, 39.47464361650226], [28.078386228116187, 39.47410462733179], [28.078925217286667, 39.47410462733179], [28.078925217286667, 39.47464361650226], [28.080003195627626, 39.47464361650226], [28.080003195627626, 39.475182605672735], [28.081620163139036, 39.475182605672735], [28.081620163139036, 39.47572159484321], [28.081081173968556, 39.47572159484321], [28.081081173968556, 39.47626058401368], [28.080542184798077, 39.47626058401368], [28.080542184798077, 39.47679957318415], [28.080003195627626, 39.47679957318415], [28.080003195627626, 39.477338562354625], [28.081081173968556, 39.477338562354625], [28.081081173968556, 39.47895552986604], [28.080542184798077, 39.47895552986604], [28.080542184798077, 39.479494519036514], [28.079464206457146, 39.479494519036514], [28.079464206457146, 39.48003350820698], [28.078925217286667, 39.48003350820698], [28.078925217286667, 39.481650475718396], [28.078386228116187, 39.481650475718396], [28.078386228116187, 39.48434542157076], [28.078925217286667, 39.48434542157076], [28.078925217286667, 39.48488441074123], [28.079464206457146, 39.48488441074123], [28.079464206457146, 39.48596238908217], [28.080003195627626, 39.48596238908217], [28.080003195627626, 39.487579356593585], [28.080542184798077, 39.487579356593585], [28.080542184798077, 39.48865733493453], [28.078925217286667, 39.48865733493453], [28.078925217286667, 39.49081329161642], [28.078386228116187, 39.49081329161642], [28.078386228116187, 39.49135228078689], [28.077847238945736, 39.49135228078689], [28.077847238945736, 39.493508237468774], [28.078386228116187, 39.493508237468774], [28.078386228116187, 39.494047226639246], [28.077847238945736, 39.494047226639246], [28.077847238945736, 39.49458621580972], [28.076769260604777, 39.49458621580972], [28.076769260604777, 39.496203183321136], [28.075691282263847, 39.496203183321136], [28.075691282263847, 39.49674217249161], [28.075152293093367, 39.49674217249161], [28.075152293093367, 39.49782015083255], [28.075691282263847, 39.49782015083255], [28.075691282263847, 39.49835914000302], [28.075152293093367, 39.49835914000302], [28.075152293093367, 39.49943711834396], [28.074074314752437, 39.49943711834396], [28.074074314752437, 39.499976107514435], [28.073535325581958, 39.499976107514435], [28.073535325581958, 39.50051509668491], [28.072996336411478, 39.50051509668491], [28.072996336411478, 39.50105408585538], [28.072457347241, 39.50105408585538], [28.072457347241, 39.5026710533668], [28.071918358070548, 39.5026710533668], [28.071918358070548, 39.506443977560096], [28.072457347241, 39.506443977560096], [28.072457347241, 39.50752195590104], [28.072996336411478, 39.50752195590104], [28.072996336411478, 39.50913892341246], [28.072457347241, 39.50913892341246], [28.072457347241, 39.50967791258293], [28.072996336411478, 39.50967791258293], [28.072996336411478, 39.510216901753395], [28.074074314752437, 39.510216901753395], [28.074074314752437, 39.51075589092387], [28.073535325581958, 39.51075589092387], [28.073535325581958, 39.51345083677623], [28.072996336411478, 39.51345083677623], [28.072996336411478, 39.514528815117174], [28.072457347241, 39.514528815117174], [28.072457347241, 39.512372858435285], [28.072996336411478, 39.512372858435285], [28.072996336411478, 39.51075589092387], [28.072457347241, 39.51075589092387], [28.072457347241, 39.510216901753395], [28.071918358070548, 39.510216901753395], [28.071918358070548, 39.50967791258293], [28.07030139055911, 39.50967791258293], [28.07030139055911, 39.50913892341246], [28.069762401388658, 39.50913892341246], [28.069762401388658, 39.508599934241985], [28.06922341221818, 39.508599934241985], [28.06922341221818, 39.50806094507151], [28.06437250968392, 39.50806094507151], [28.06437250968392, 39.505904988389624], [28.06383352051347, 39.505904988389624], [28.06383352051347, 39.50482701004868], [28.06329453134299, 39.50482701004868], [28.06329453134299, 39.50321004253727], [28.06383352051347, 39.50321004253727], [28.06383352051347, 39.5026710533668], [28.0649114988544, 39.5026710533668], [28.0649114988544, 39.50105408585538], [28.06545048802488, 39.50105408585538], [28.06545048802488, 39.499976107514435], [28.06598947719536, 39.499976107514435], [28.06598947719536, 39.49728116166208], [28.06706745553629, 39.49728116166208], [28.06706745553629, 39.496203183321136], [28.06652846636581, 39.496203183321136], [28.06652846636581, 39.49458621580972], [28.06598947719536, 39.49458621580972], [28.06598947719536, 39.4929692482983], [28.06652846636581, 39.4929692482983], [28.06652846636581, 39.489735313275474], [28.06598947719536, 39.489735313275474], [28.06598947719536, 39.48865733493453], [28.06652846636581, 39.48865733493453], [28.06652846636581, 39.483806432400286], [28.06760644470677, 39.483806432400286], [28.06760644470677, 39.48272845405934], [28.06814543387725, 39.48272845405934], [28.06814543387725, 39.48057249737745], [28.06760644470677, 39.48057249737745], [28.06760644470677, 39.48003350820698], [28.06814543387725, 39.48003350820698], [28.06814543387725, 39.479494519036514], [28.0686844230477, 39.479494519036514], [28.0686844230477, 39.47895552986604], [28.06922341221818, 39.47895552986604], [28.06922341221818, 39.477338562354625], [28.06814543387725, 39.477338562354625], [28.06814543387725, 39.47572159484321], [28.0686844230477, 39.47572159484321], [28.0686844230477, 39.475182605672735], [28.07030139055911, 39.475182605672735], [28.07030139055911, 39.47410462733179], [28.069762401388658, 39.47410462733179], [28.069762401388658, 39.47302664899085]], [[28.071918358070548, 39.50159307502585], [28.071918358070548, 39.5026710533668], [28.071379368900068, 39.5026710533668], [28.071379368900068, 39.50159307502585], [28.071918358070548, 39.50159307502585]], [[28.07030139055911, 39.49728116166208], [28.07030139055911, 39.49835914000302], [28.069762401388658, 39.49835914000302], [28.069762401388658, 39.49728116166208], [28.07030139055911, 39.49728116166208]], [[28.071379368900068, 39.49674217249161], [28.071379368900068, 39.49728116166208], [28.07084037972959, 39.49728116166208], [28.07084037972959, 39.49674217249161], [28.071379368900068, 39.49674217249161]], [[28.075152293093367, 39.496203183321136], [28.075152293093367, 39.49674217249161], [28.074613303922888, 39.49674217249161], [28.074613303922888, 39.496203183321136], [28.075152293093367, 39.496203183321136]], [[28.071918358070548, 39.48811834576406], [28.071918358070548, 39.48865733493453], [28.072457347241, 39.48865733493453], [28.072457347241, 39.489196324105], [28.07084037972959, 39.489196324105], [28.07084037972959, 39.48865733493453], [28.071379368900068, 39.48865733493453], [28.071379368900068, 39.48811834576406], [28.071918358070548, 39.48811834576406]]]}, "properties": {"area_ha": 342.3441557289859, "mean_dnbr": 0.5471294232403445, "compactness": 0.16, "rectangularity": 0.594, "cropland_frac": 0.261, "persistent": true}}]}