{"type": "FeatureCollection", "crs": {"type": "name", "properties": {"name": "urn:ogc:def:crs:OGC:1.3:CRS84"}}, "features": [{"type": "Feature", "geometry": {"geodesic": false, "type": "Polygon", "coordinates": [[[27.0968869486872, 35.60524036168584], [27.09904290536909, 35.60524036168584], [27.09904290536909, 35.60577935085631], [27.09850391619861, 35.60577935085631], [27.09850391619861, 35.60631834002678], [27.09904290536909, 35.60631834002678], [27.09904290536909, 35.606857329197254], [27.09958189453957, 35.606857329197254], [27.09958189453957, 35.60739631836773], [27.10119886205098, 35.60739631836773], [27.10119886205098, 35.6079353075382], [27.101737851221458, 35.6079353075382], [27.101737851221458, 35.60847429670867], [27.1006598728805, 35.60847429670867], [27.1006598728805, 35.60955227504961], [27.09850391619861, 35.60955227504961], [27.09850391619861, 35.61009126422008], [27.09796492702816, 35.61009126422008], [27.09796492702816, 35.60955227504961], [27.09742593785768, 35.60955227504961], [27.09742593785768, 35.60847429670867], [27.09796492702816, 35.60847429670867], [27.09796492702816, 35.60739631836773], [27.09742593785768, 35.60739631836773], [27.09742593785768, 35.606857329197254], [27.09634795951675, 35.606857329197254], [27.09634795951675, 35.60577935085631], [27.0968869486872, 35.60577935085631], [27.0968869486872, 35.60524036168584]], [[27.1006598728805, 35.6079353075382], [27.1006598728805, 35.60847429670867], [27.100120883710048, 35.60847429670867], [27.100120883710048, 35.6079353075382], [27.1006598728805, 35.6079353075382]]]}, "properties": {"area_ha": 12.265440456400999, "mean_dnbr": 0.24477568125280272, "compactness": 0.254, "rectangularity": 0.512, "cropland_frac": 0, "persistent": true}}]}