{"type": "FeatureCollection", "crs": {"type": "name", "properties": {"name": "urn:ogc:def:crs:OGC:1.3:CRS84"}}, "features": [{"type": "Feature", "geometry": {"geodesic": false, "type": "Polygon", "coordinates": [[[27.859017635734205, 38.88498946400621], [27.860095614075163, 38.88498946400621], [27.860095614075163, 38.886067442347155], [27.860634603245614, 38.886067442347155], [27.860634603245614, 38.88552845317668], [27.861173592416094, 38.88552845317668], [27.861173592416094, 38.88660643151763], [27.860095614075163, 38.88660643151763], [27.860095614075163, 38.888223399029044], [27.860634603245614, 38.888223399029044], [27.860634603245614, 38.88876238819952], [27.859556624904684, 38.88876238819952], [27.859556624904684, 38.88930137736998], [27.858478646563725, 38.88930137736998], [27.858478646563725, 38.889840366540454], [27.857939657393274, 38.889840366540454], [27.857939657393274, 38.8909183448814], [27.857400668222795, 38.8909183448814], [27.857400668222795, 38.89145733405187], [27.856861679052315, 38.89145733405187], [27.856861679052315, 38.892535312392816], [27.856322689881864, 38.892535312392816], [27.856322689881864, 38.89415227990423], [27.855783700711385, 38.89415227990423], [27.855783700711385, 38.89523025824517], [27.854705722370426, 38.89523025824517], [27.854705722370426, 38.89576924741564], [27.853627744029495, 38.89576924741564], [27.853627744029495, 38.896308236586115], [27.852549765688536, 38.896308236586115], [27.852549765688536, 38.89900318243848], [27.852010776518085, 38.89900318243848], [27.852010776518085, 38.900620149949894], [27.850932798177126, 38.900620149949894], [27.850932798177126, 38.90115913912036], [27.850393809006675, 38.90115913912036], [27.850393809006675, 38.902237117461304], [27.849315830665716, 38.902237117461304], [27.849315830665716, 38.90277610663178], [27.848776841495237, 38.90277610663178], [27.848776841495237, 38.902237117461304], [27.849315830665716, 38.902237117461304], [27.849315830665716, 38.90169812829083], [27.849854819836196, 38.90169812829083], [27.849854819836196, 38.90115913912036], [27.850393809006675, 38.90115913912036], [27.850393809006675, 38.900620149949894], [27.849854819836196, 38.900620149949894], [27.849854819836196, 38.90008116077942], [27.849315830665716, 38.90008116077942], [27.849315830665716, 38.89900318243848], [27.848776841495237, 38.89900318243848], [27.848776841495237, 38.898464193268005], [27.849315830665716, 38.898464193268005], [27.849315830665716, 38.89684722575659], [27.849854819836196, 38.89684722575659], [27.849854819836196, 38.896308236586115], [27.849315830665716, 38.896308236586115], [27.849315830665716, 38.89576924741564], [27.849854819836196, 38.89576924741564], [27.849854819836196, 38.89523025824517], [27.850393809006675, 38.89523025824517], [27.850393809006675, 38.89307430156329], [27.849854819836196, 38.89307430156329], [27.849854819836196, 38.892535312392816], [27.850932798177126, 38.892535312392816], [27.850932798177126, 38.89307430156329], [27.851471787347606, 38.89307430156329], [27.851471787347606, 38.89145733405187], [27.850932798177126, 38.89145733405187], [27.850932798177126, 38.88876238819952], [27.855783700711385, 38.88876238819952], [27.855783700711385, 38.888223399029044], [27.856861679052315, 38.888223399029044], [27.856861679052315, 38.88768440985857], [27.857400668222795, 38.88768440985857], [27.857400668222795, 38.8871454206881], [27.857939657393274, 38.8871454206881], [27.857939657393274, 38.88660643151763], [27.858478646563725, 38.88660643151763], [27.858478646563725, 38.88552845317668], [27.859017635734205, 38.88552845317668], [27.859017635734205, 38.88498946400621]], [[27.853088754859016, 38.894691269074706], [27.853088754859016, 38.89523025824517], [27.852549765688536, 38.89523025824517], [27.852549765688536, 38.894691269074706], [27.853088754859016, 38.894691269074706]], [[27.854705722370426, 38.89415227990423], [27.854705722370426, 38.894691269074706], [27.854166733199975, 38.894691269074706], [27.854166733199975, 38.89415227990423], [27.854705722370426, 38.89415227990423]], [[27.854166733199975, 38.8909183448814], [27.854166733199975, 38.891996323222344], [27.854705722370426, 38.891996323222344], [27.854705722370426, 38.89307430156329], [27.853627744029495, 38.89307430156329], [27.853627744029495, 38.89361329073376], [27.854166733199975, 38.89361329073376], [27.854166733199975, 38.89415227990423], [27.851471787347606, 38.89415227990423], [27.851471787347606, 38.89307430156329], [27.852010776518085, 38.89307430156329], [27.852010776518085, 38.89361329073376], [27.852549765688536, 38.89361329073376], [27.852549765688536, 38.89307430156329], [27.853088754859016, 38.89307430156329], [27.853088754859016, 38.891996323222344], [27.852549765688536, 38.891996323222344], [27.852549765688536, 38.89145733405187], [27.853088754859016, 38.89145733405187], [27.853088754859016, 38.8909183448814], [27.854166733199975, 38.8909183448814]]]}, "properties": {"area_ha": 61.78486787032518, "mean_dnbr": 0.28912047123251156, "compactness": 0.096, "rectangularity": 0.384, "cropland_frac": 0.042, "persistent": true}}]}