{"type": "FeatureCollection", "crs": {"type": "name", "properties": {"name": "urn:ogc:def:crs:OGC:1.3:CRS84"}}, "features": [{"type": "Feature", "geometry": {"geodesic": false, "type": "Polygon", "coordinates": [[[27.88327214840544, 37.87600173688317], [27.88488911591685, 37.87600173688317], [27.88488911591685, 37.87654072605363], [27.88650608342826, 37.87654072605363], [27.88650608342826, 37.87869668273552], [27.890279007621558, 37.87869668273552], [27.890279007621558, 37.88085263941741], [27.888662040110148, 37.88085263941741], [27.888662040110148, 37.881391628587885], [27.889201029280628, 37.881391628587885], [27.889201029280628, 37.88246960692882], [27.887584061769218, 37.88246960692882], [27.887584061769218, 37.883008596099295], [27.88650608342826, 37.883008596099295], [27.88650608342826, 37.88193061775836], [27.885967094257808, 37.88193061775836], [27.885967094257808, 37.883008596099295], [27.88542810508733, 37.883008596099295], [27.88542810508733, 37.88246960692882], [27.88435012674637, 37.88246960692882], [27.88435012674637, 37.88193061775836], [27.88381113757592, 37.88193061775836], [27.88381113757592, 37.88246960692882], [27.88327214840544, 37.88246960692882], [27.88327214840544, 37.88193061775836], [27.88219417006448, 37.88193061775836], [27.88219417006448, 37.88031365024694], [27.88165518089403, 37.88031365024694], [27.88165518089403, 37.87977466107647], [27.88219417006448, 37.87977466107647], [27.88219417006448, 37.87869668273552], [27.88327214840544, 37.87869668273552], [27.88327214840544, 37.87600173688317]], [[27.88812305093967, 37.88085263941741], [27.88812305093967, 37.881391628587885], [27.887584061769218, 37.881391628587885], [27.887584061769218, 37.88085263941741], [27.88812305093967, 37.88085263941741]], [[27.887584061769218, 37.87977466107647], [27.887584061769218, 37.88031365024694], [27.887045072598738, 37.88031365024694], [27.887045072598738, 37.87977466107647], [27.887584061769218, 37.87977466107647]], [[27.887045072598738, 37.879235671905995], [27.887045072598738, 37.87977466107647], [27.88650608342826, 37.87977466107647], [27.88650608342826, 37.879235671905995], [27.887045072598738, 37.879235671905995]]]}, "properties": {"area_ha": 34.58856863748121, "mean_dnbr": 0.4102993781332494, "compactness": 0.25, "rectangularity": 0.63, "cropland_frac": 0, "persistent": true}}, {"type": "Feature", "geometry": {"geodesic": false, "type": "Polygon", "coordinates": [[[27.900519801860526, 37.86091004010996], [27.902136769371936, 37.86091004010996], [27.902136769371936, 37.86144902928043], [27.902675758542415, 37.86144902928043], [27.902675758542415, 37.8619880184509], [27.903753736883374, 37.8619880184509], [27.903753736883374, 37.863065996791846], [27.904831715224304, 37.863065996791846], [27.904831715224304, 37.86360498596232], [27.905370704394784, 37.86360498596232], [27.905370704394784, 37.864143975132784], [27.905909693565235, 37.864143975132784], [27.905909693565235, 37.8657609426442], [27.905370704394784, 37.8657609426442], [27.905370704394784, 37.86791689932609], [27.903214747712894, 37.86791689932609], [27.903214747712894, 37.86845588849656], [27.902675758542415, 37.86845588849656], [27.902675758542415, 37.868994877667035], [27.902136769371936, 37.868994877667035], [27.902136769371936, 37.86953386683751], [27.900519801860526, 37.86953386683751], [27.900519801860526, 37.87007285600797], [27.897824856008185, 37.87007285600797], [27.897824856008185, 37.86953386683751], [27.897285866837706, 37.86953386683751], [27.897285866837706, 37.86629993181467], [27.897824856008185, 37.86629993181467], [27.897824856008185, 37.86522195347373], [27.897285866837706, 37.86522195347373], [27.897285866837706, 37.864143975132784], [27.897824856008185, 37.864143975132784], [27.897824856008185, 37.863065996791846], [27.898363845178636, 37.863065996791846], [27.898363845178636, 37.862527007621374], [27.898902834349116, 37.862527007621374], [27.898902834349116, 37.8619880184509], [27.899980812690046, 37.8619880184509], [27.899980812690046, 37.86144902928043], [27.900519801860526, 37.86144902928043], [27.900519801860526, 37.86091004010996]]]}, "properties": {"area_ha": 55.295721057892884, "mean_dnbr": 0.38280773572949633, "compactness": 0.523, "rectangularity": 0.717, "cropland_frac": 0, "persistent": true}}, {"type": "Feature", "geometry": {"geodesic": false, "type": "Polygon", "coordinates": [[[27.943638935498257, 38.594474301121956], [27.944716913839216, 38.594474301121956], [27.944716913839216, 38.59501329029243], [27.945794892180146, 38.59501329029243], [27.945794892180146, 38.5955522794629], [27.946333881350625, 38.5955522794629], [27.946333881350625, 38.59609126863337], [27.950645794714404, 38.59609126863337], [27.950645794714404, 38.5955522794629], [27.952801751396294, 38.5955522794629], [27.952801751396294, 38.596630257803845], [27.952262762225814, 38.596630257803845], [27.952262762225814, 38.59770823614479], [27.951723773055335, 38.59770823614479], [27.951723773055335, 38.59824722531526], [27.951184783884884, 38.59824722531526], [27.951184783884884, 38.598786214485735], [27.950645794714404, 38.598786214485735], [27.950645794714404, 38.59986419282667], [27.950106805543925, 38.59986419282667], [27.950106805543925, 38.600403181997144], [27.949567816373445, 38.600403181997144], [27.949567816373445, 38.60148116033809], [27.949028827202994, 38.60148116033809], [27.949028827202994, 38.60202014950856], [27.948489838032515, 38.60202014950856], [27.948489838032515, 38.603098127849506], [27.947411859691584, 38.603098127849506], [27.947411859691584, 38.60417610619045], [27.946872870521105, 38.60417610619045], [27.946872870521105, 38.605254084531396], [27.946333881350625, 38.605254084531396], [27.946333881350625, 38.60579307370186], [27.945794892180146, 38.60579307370186], [27.945794892180146, 38.60633206287233], [27.945255903009695, 38.60633206287233], [27.945255903009695, 38.605254084531396], [27.943638935498257, 38.605254084531396], [27.943638935498257, 38.60417610619045], [27.943099946327806, 38.60417610619045], [27.943099946327806, 38.59501329029243], [27.943638935498257, 38.59501329029243], [27.943638935498257, 38.594474301121956]]]}, "properties": {"area_ha": 63.723419221408165, "mean_dnbr": 0.5311133296387617, "compactness": 0.406, "rectangularity": 0.573, "cropland_frac": 0.038, "persistent": true}}, {"type": "Feature", "geometry": {"geodesic": false, "type": "Polygon", "coordinates": [[[28.183489116358174, 38.24574830782676], [28.184567094699133, 38.24574830782676], [28.184567094699133, 38.24628729699723], [28.186184062210543, 38.24628729699723], [28.186184062210543, 38.2468262861677], [28.185645073040064, 38.2468262861677], [28.185645073040064, 38.247365275338176], [28.186723051381023, 38.247365275338176], [28.186723051381023, 38.24844325367912], [28.186184062210543, 38.24844325367912], [28.186184062210543, 38.24898224284959], [28.187262040551474, 38.24898224284959], [28.187262040551474, 38.249521232020065], [28.186184062210543, 38.249521232020065], [28.186184062210543, 38.25006022119053], [28.185645073040064, 38.25006022119053], [28.185645073040064, 38.249521232020065], [28.185106083869584, 38.249521232020065], [28.185106083869584, 38.24898224284959], [28.184028105528654, 38.24898224284959], [28.184028105528654, 38.249521232020065], [28.182950127187723, 38.249521232020065], [28.182950127187723, 38.250599210361], [28.181872148846765, 38.250599210361], [28.181872148846765, 38.251138199531475], [28.181333159676285, 38.251138199531475], [28.181333159676285, 38.250599210361], [28.180794170505834, 38.250599210361], [28.180794170505834, 38.25006022119053], [28.179716192164875, 38.25006022119053], [28.179716192164875, 38.249521232020065], [28.178638213823945, 38.249521232020065], [28.178638213823945, 38.250599210361], [28.178099224653465, 38.250599210361], [28.178099224653465, 38.251138199531475], [28.178638213823945, 38.251138199531475], [28.178638213823945, 38.25167718870195], [28.177021246312535, 38.25167718870195], [28.177021246312535, 38.253294156213364], [28.177560235482986, 38.253294156213364], [28.177560235482986, 38.25383314538384], [28.175943267971576, 38.25383314538384], [28.175943267971576, 38.25491112372478], [28.176482257142055, 38.25491112372478], [28.176482257142055, 38.25437213455431], [28.177560235482986, 38.25437213455431], [28.177560235482986, 38.25491112372478], [28.178638213823945, 38.25491112372478], [28.178638213823945, 38.25437213455431], [28.178099224653465, 38.25437213455431], [28.178099224653465, 38.25383314538384], [28.179177202994396, 38.25383314538384], [28.179177202994396, 38.25437213455431], [28.180255181335355, 38.25437213455431], [28.180255181335355, 38.25383314538384], [28.180794170505834, 38.25383314538384], [28.180794170505834, 38.253294156213364], [28.180255181335355, 38.253294156213364], [28.180255181335355, 38.25221617787242], [28.181872148846765, 38.25221617787242], [28.181872148846765, 38.25275516704289], [28.182411138017244, 38.25275516704289], [28.182411138017244, 38.25383314538384], [28.181872148846765, 38.25383314538384], [28.181872148846765, 38.25491112372478], [28.182411138017244, 38.25491112372478], [28.182411138017244, 38.25598910206572], [28.181333159676285, 38.25598910206572], [28.181333159676285, 38.255450112895254], [28.180794170505834, 38.255450112895254], [28.180794170505834, 38.25598910206572], [28.179716192164875, 38.25598910206572], [28.179716192164875, 38.255450112895254], [28.179177202994396, 38.255450112895254], [28.179177202994396, 38.25491112372478], [28.178638213823945, 38.25491112372478], [28.178638213823945, 38.25598910206572], [28.179177202994396, 38.25598910206572], [28.179177202994396, 38.25652809123619], [28.178638213823945, 38.25652809123619], [28.178638213823945, 38.25814505874761], [28.179177202994396, 38.25814505874761], [28.179177202994396, 38.25868404791808], [28.178638213823945, 38.25868404791808], [28.178638213823945, 38.259762026259025], [28.178099224653465, 38.259762026259025], [28.178099224653465, 38.25922303708855], [28.177021246312535, 38.25922303708855], [28.177021246312535, 38.259762026259025], [28.176482257142055, 38.259762026259025], [28.176482257142055, 38.25922303708855], [28.177021246312535, 38.25922303708855], [28.177021246312535, 38.25868404791808], [28.176482257142055, 38.25868404791808], [28.176482257142055, 38.25814505874761], [28.178099224653465, 38.25814505874761], [28.178099224653465, 38.257067080406664], [28.177560235482986, 38.257067080406664], [28.177560235482986, 38.25652809123619], [28.178638213823945, 38.25652809123619], [28.178638213823945, 38.25598910206572], [28.176482257142055, 38.25598910206572], [28.176482257142055, 38.25652809123619], [28.177021246312535, 38.25652809123619], [28.177021246312535, 38.257067080406664], [28.175943267971576, 38.257067080406664], [28.175943267971576, 38.25652809123619], [28.175404278801096, 38.25652809123619], [28.175404278801096, 38.257606069577136], [28.175943267971576, 38.257606069577136], [28.175943267971576, 38.259762026259025], [28.175404278801096, 38.259762026259025], [28.175404278801096, 38.257606069577136], [28.173787311289686, 38.257606069577136], [28.173787311289686, 38.25814505874761], [28.173248322119207, 38.25814505874761], [28.173248322119207, 38.25868404791808], [28.172709332948756, 38.25868404791808], [28.172709332948756, 38.25814505874761], [28.173248322119207, 38.25814505874761], [28.173248322119207, 38.257606069577136], [28.172709332948756, 38.257606069577136], [28.172709332948756, 38.25598910206572], [28.173248322119207, 38.25598910206572], [28.173248322119207, 38.255450112895254], [28.175943267971576, 38.255450112895254], [28.175943267971576, 38.25491112372478], [28.175404278801096, 38.25491112372478], [28.175404278801096, 38.25437213455431], [28.174865289630645, 38.25437213455431], [28.174865289630645, 38.25383314538384], [28.175404278801096, 38.25383314538384], [28.175404278801096, 38.253294156213364], [28.176482257142055, 38.253294156213364], [28.176482257142055, 38.25275516704289], [28.175943267971576, 38.25275516704289], [28.175943267971576, 38.25221617787242], [28.176482257142055, 38.25221617787242], [28.176482257142055, 38.25167718870195], [28.177021246312535, 38.25167718870195], [28.177021246312535, 38.251138199531475], [28.177560235482986, 38.251138199531475], [28.177560235482986, 38.250599210361], [28.177021246312535, 38.250599210361], [28.177021246312535, 38.249521232020065], [28.175943267971576, 38.249521232020065], [28.175943267971576, 38.25006022119053], [28.176482257142055, 38.25006022119053], [28.176482257142055, 38.251138199531475], [28.175943267971576, 38.251138199531475], [28.175943267971576, 38.250599210361], [28.175404278801096, 38.250599210361], [28.175404278801096, 38.249521232020065], [28.175943267971576, 38.249521232020065], [28.175943267971576, 38.24844325367912], [28.175404278801096, 38.24844325367912], [28.175404278801096, 38.24790426450865], [28.176482257142055, 38.24790426450865], [28.176482257142055, 38.247365275338176], [28.177560235482986, 38.247365275338176], [28.177560235482986, 38.249521232020065], [28.178638213823945, 38.249521232020065], [28.178638213823945, 38.24844325367912], [28.179716192164875, 38.24844325367912], [28.179716192164875, 38.24790426450865], [28.180794170505834, 38.24790426450865], [28.180794170505834, 38.25006022119053], [28.181333159676285, 38.25006022119053], [28.181333159676285, 38.249521232020065], [28.181872148846765, 38.249521232020065], [28.181872148846765, 38.247365275338176], [28.184028105528654, 38.247365275338176], [28.184028105528654, 38.24844325367912], [28.184567094699133, 38.24844325367912], [28.184567094699133, 38.24790426450865], [28.185106083869584, 38.24790426450865], [28.185106083869584, 38.247365275338176], [28.184567094699133, 38.247365275338176], [28.184567094699133, 38.24628729699723], [28.183489116358174, 38.24628729699723], [28.183489116358174, 38.24574830782676]], [[28.184028105528654, 38.24844325367912], [28.184028105528654, 38.24898224284959], [28.183489116358174, 38.24898224284959], [28.183489116358174, 38.24844325367912], [28.184028105528654, 38.24844325367912]]]}, "properties": {"area_ha": 51.619231404491416, "mean_dnbr": 0.4152251060582873, "compactness": 0.031, "rectangularity": 0.294, "cropland_frac": 0.5, "persistent": true}}]}