{"type": "FeatureCollection", "crs": {"type": "name", "properties": {"name": "urn:ogc:def:crs:OGC:1.3:CRS84"}}, "features": [{"type": "Feature", "geometry": {"geodesic": false, "type": "Polygon", "coordinates": [[[27.733972148184762, 38.12663170115251], [27.73451113735524, 38.12663170115251], [27.73451113735524, 38.12770967949346], [27.7355891156962, 38.12770967949346], [27.7355891156962, 38.1287876578344], [27.733972148184762, 38.1287876578344], [27.733972148184762, 38.129326647004866], [27.73343315901431, 38.129326647004866], [27.73343315901431, 38.12986563617534], [27.729121245650532, 38.12986563617534], [27.729121245650532, 38.129326647004866], [27.726426299798163, 38.129326647004866], [27.726426299798163, 38.1287876578344], [27.724809332286753, 38.1287876578344], [27.724809332286753, 38.12770967949346], [27.724270343116274, 38.12770967949346], [27.724270343116274, 38.127170690322984], [27.724809332286753, 38.127170690322984], [27.724809332286753, 38.12663170115251], [27.728582256480053, 38.12663170115251], [27.728582256480053, 38.127170690322984], [27.729121245650532, 38.127170690322984], [27.729121245650532, 38.12770967949346], [27.73127720233242, 38.12770967949346], [27.73127720233242, 38.12824866866393], [27.73343315901431, 38.12824866866393], [27.73343315901431, 38.12770967949346], [27.73289416984383, 38.12770967949346], [27.73289416984383, 38.127170690322984], [27.732355180673352, 38.127170690322984], [27.732355180673352, 38.12663170115251], [27.73343315901431, 38.12663170115251], [27.73343315901431, 38.12770967949346], [27.733972148184762, 38.12770967949346], [27.733972148184762, 38.12663170115251]]]}, "properties": {"area_ha": 22.321807383700836, "mean_dnbr": 0.4009056425962377, "compactness": 0.231, "rectangularity": 0.627, "cropland_frac": 0.211, "persistent": true}}]}