{"type": "FeatureCollection", "crs": {"type": "name", "properties": {"name": "urn:ogc:def:crs:OGC:1.3:CRS84"}}, "features": [{"type": "Feature", "geometry": {"geodesic": false, "type": "Polygon", "coordinates": [[[27.287689115034198, 37.029788739242576], [27.289306082545608, 37.029788739242576], [27.289306082545608, 37.03086671758352], [27.290384060886566, 37.03086671758352], [27.290384060886566, 37.03140570675399], [27.290923050057017, 37.03140570675399], [27.290923050057017, 37.03086671758352], [27.291462039227497, 37.03086671758352], [27.291462039227497, 37.031944695924466], [27.290923050057017, 37.031944695924466], [27.290923050057017, 37.0330226742654], [27.289845071716087, 37.0330226742654], [27.289845071716087, 37.033561663435876], [27.288767093375128, 37.033561663435876], [27.288767093375128, 37.03410065260635], [27.287150125863718, 37.03410065260635], [27.287150125863718, 37.03463964177682], [27.28661113669324, 37.03463964177682], [27.28661113669324, 37.03410065260635], [27.2839161908409, 37.03410065260635], [27.2839161908409, 37.0330226742654], [27.286072147522788, 37.0330226742654], [27.286072147522788, 37.03248368509493], [27.285533158352308, 37.03248368509493], [27.285533158352308, 37.031944695924466], [27.284455180011378, 37.031944695924466], [27.284455180011378, 37.03032772841305], [27.28499416918183, 37.03032772841305], [27.28499416918183, 37.029788739242576], [27.286072147522788, 37.029788739242576], [27.286072147522788, 37.03032772841305], [27.287689115034198, 37.03032772841305], [27.287689115034198, 37.029788739242576]], [[27.289845071716087, 37.031944695924466], [27.289845071716087, 37.03248368509493], [27.289306082545608, 37.03248368509493], [27.289306082545608, 37.031944695924466], [27.289845071716087, 37.031944695924466]]]}, "properties": {"area_ha": 22.366141572403357, "mean_dnbr": 0.4767740065982716, "compactness": 0.281, "rectangularity": 0.619, "cropland_frac": 0.117, "persistent": true}}, {"type": "Feature", "geometry": {"geodesic": false, "type": "Polygon", "coordinates": [[[27.358835685536462, 37.41516599612985], [27.35937467470694, 37.41516599612985], [27.35937467470694, 37.41570498530032], [27.360452653047872, 37.41570498530032], [27.360452653047872, 37.41678296364127], [27.362069620559282, 37.41678296364127], [27.362069620559282, 37.41732195281174], [27.36260860972976, 37.41732195281174], [27.36260860972976, 37.41786094198221], [27.362069620559282, 37.41786094198221], [27.362069620559282, 37.41839993115268], [27.36314759890024, 37.41839993115268], [27.36314759890024, 37.41893892032315], [27.36476456641165, 37.41893892032315], [27.36476456641165, 37.41947790949362], [27.36530355558213, 37.41947790949362], [27.36530355558213, 37.42055588783457], [27.36476456641165, 37.42055588783457], [27.36476456641165, 37.42163386617551], [27.36530355558213, 37.42163386617551], [27.36530355558213, 37.422711844516456], [27.36584254475258, 37.422711844516456], [27.36584254475258, 37.42540679036881], [27.36638153392306, 37.42540679036881], [27.36638153392306, 37.426484768709756], [27.36692052309354, 37.426484768709756], [27.36692052309354, 37.42702375788023], [27.36799850143447, 37.42702375788023], [27.36799850143447, 37.42917971456212], [27.36745951226402, 37.42917971456212], [27.36745951226402, 37.4275627470507], [27.36692052309354, 37.4275627470507], [27.36692052309354, 37.42702375788023], [27.36638153392306, 37.42702375788023], [27.36638153392306, 37.4275627470507], [27.36584254475258, 37.4275627470507], [27.36584254475258, 37.42702375788023], [27.36530355558213, 37.42702375788023], [27.36530355558213, 37.426484768709756], [27.36584254475258, 37.426484768709756], [27.36584254475258, 37.42540679036881], [27.36530355558213, 37.42540679036881], [27.36530355558213, 37.42486780119834], [27.36476456641165, 37.42486780119834], [27.36476456641165, 37.424328812027866], [27.36314759890024, 37.424328812027866], [27.36314759890024, 37.4237898228574], [27.362069620559282, 37.4237898228574], [27.362069620559282, 37.422711844516456], [27.36099164221835, 37.422711844516456], [27.36099164221835, 37.422172855345984], [27.360452653047872, 37.422172855345984], [27.360452653047872, 37.42109487700504], [27.359913663877393, 37.42109487700504], [27.359913663877393, 37.42055588783457], [27.35937467470694, 37.42055588783457], [27.35937467470694, 37.41732195281174], [27.359913663877393, 37.41732195281174], [27.359913663877393, 37.41678296364127], [27.35937467470694, 37.41678296364127], [27.35937467470694, 37.416243974470795], [27.358835685536462, 37.416243974470795], [27.358835685536462, 37.41516599612985]]]}, "properties": {"area_ha": 36.229275828433444, "mean_dnbr": 0.5174678671183583, "compactness": 0.166, "rectangularity": 0.403, "cropland_frac": 0.014, "persistent": true}}, {"type": "Feature", "geometry": {"geodesic": false, "type": "Polygon", "coordinates": [[[27.37662232816203, 37.40815913691372], [27.377161317332508, 37.40815913691372], [27.377161317332508, 37.40923711525466], [27.378778284843918, 37.40923711525466], [27.378778284843918, 37.409776104425134], [27.379317274014397, 37.409776104425134], [27.379317274014397, 37.41031509359561], [27.37985626318485, 37.41031509359561], [27.37985626318485, 37.41139307193655], [27.379317274014397, 37.41139307193655], [27.379317274014397, 37.41193206110702], [27.37985626318485, 37.41193206110702], [27.37985626318485, 37.41247105027749], [27.379317274014397, 37.41247105027749], [27.379317274014397, 37.414088017788906], [27.378778284843918, 37.414088017788906], [27.378778284843918, 37.416243974470795], [27.380934241525807, 37.416243974470795], [27.380934241525807, 37.41786094198221], [27.38147323069626, 37.41786094198221], [27.38147323069626, 37.41893892032315], [27.380934241525807, 37.41893892032315], [27.380934241525807, 37.41947790949362], [27.38147323069626, 37.41947790949362], [27.38147323069626, 37.420016898664095], [27.382012219866738, 37.420016898664095], [27.382012219866738, 37.422172855345984], [27.38147323069626, 37.422172855345984], [27.38147323069626, 37.42325083368693], [27.382012219866738, 37.42325083368693], [27.382012219866738, 37.42486780119834], [27.380934241525807, 37.42486780119834], [27.380934241525807, 37.42540679036881], [27.379317274014397, 37.42540679036881], [27.379317274014397, 37.424328812027866], [27.37823929567344, 37.424328812027866], [27.37823929567344, 37.4237898228574], [27.37770030650296, 37.4237898228574], [27.37770030650296, 37.42325083368693], [27.377161317332508, 37.42325083368693], [27.377161317332508, 37.42055588783457], [27.37662232816203, 37.42055588783457], [27.37662232816203, 37.41947790949362], [27.377161317332508, 37.41947790949362], [27.377161317332508, 37.420016898664095], [27.37823929567344, 37.420016898664095], [27.37823929567344, 37.41893892032315], [27.37662232816203, 37.41893892032315], [27.37662232816203, 37.41678296364127], [27.37608333899155, 37.41678296364127], [27.37608333899155, 37.41516599612985], [27.37662232816203, 37.41516599612985], [27.37662232816203, 37.413549028618434], [27.37608333899155, 37.413549028618434], [27.37608333899155, 37.41301003944796], [27.377161317332508, 37.41301003944796], [27.377161317332508, 37.41085408276608], [27.37662232816203, 37.41085408276608], [27.37662232816203, 37.41031509359561], [27.37823929567344, 37.41031509359561], [27.37823929567344, 37.409776104425134], [27.377161317332508, 37.409776104425134], [27.377161317332508, 37.40923711525466], [27.37662232816203, 37.40923711525466], [27.37662232816203, 37.40815913691372]], [[27.379317274014397, 37.41193206110702], [27.379317274014397, 37.41247105027749], [27.378778284843918, 37.41247105027749], [27.378778284843918, 37.41193206110702], [27.379317274014397, 37.41193206110702]], [[27.37823929567344, 37.41139307193655], [27.37823929567344, 37.41193206110702], [27.37770030650296, 37.41193206110702], [27.37770030650296, 37.41139307193655], [27.37823929567344, 37.41139307193655]], [[27.378778284843918, 37.41031509359561], [27.378778284843918, 37.41139307193655], [27.37823929567344, 37.41139307193655], [27.37823929567344, 37.41031509359561], [27.378778284843918, 37.41031509359561]]]}, "properties": {"area_ha": 53.34749987680862, "mean_dnbr": 0.5228352510602085, "compactness": 0.137, "rectangularity": 0.571, "cropland_frac": 0.053, "persistent": true}}, {"type": "Feature", "geometry": {"geodesic": false, "type": "Polygon", "coordinates": [[[27.51244759912089, 37.614591989204385], [27.51352557746185, 37.614591989204385], [27.51352557746185, 37.61566996754533], [27.5140645666323, 37.61566996754533], [27.5140645666323, 37.6162089567158], [27.51622052331419, 37.6162089567158], [27.51622052331419, 37.618364913397684], [27.51675951248467, 37.618364913397684], [27.51675951248467, 37.61890390256816], [27.517298501655148, 37.61890390256816], [27.517298501655148, 37.618364913397684], [27.517837490825627, 37.618364913397684], [27.517837490825627, 37.61890390256816], [27.518915469166558, 37.61890390256816], [27.518915469166558, 37.618364913397684], [27.51837647999608, 37.618364913397684], [27.51837647999608, 37.61782592422721], [27.519454458337037, 37.61782592422721], [27.519454458337037, 37.6199818809091], [27.517837490825627, 37.6199818809091], [27.517837490825627, 37.620520870079574], [27.51837647999608, 37.620520870079574], [27.51837647999608, 37.621059859250046], [27.517837490825627, 37.621059859250046], [27.517837490825627, 37.62213783759099], [27.51675951248467, 37.62213783759099], [27.51675951248467, 37.62321581593193], [27.51622052331419, 37.62321581593193], [27.51622052331419, 37.62429379427287], [27.51675951248467, 37.62429379427287], [27.51675951248467, 37.62591076178429], [27.51622052331419, 37.62591076178429], [27.51622052331419, 37.62644975095476], [27.5140645666323, 37.62644975095476], [27.5140645666323, 37.62537177261382], [27.51298658829137, 37.62537177261382], [27.51298658829137, 37.624832783443345], [27.51352557746185, 37.624832783443345], [27.51352557746185, 37.62429379427287], [27.51298658829137, 37.62429379427287], [27.51298658829137, 37.62321581593193], [27.51352557746185, 37.62321581593193], [27.51352557746185, 37.62267682676146], [27.5140645666323, 37.62267682676146], [27.5140645666323, 37.62213783759099], [27.51460355580278, 37.62213783759099], [27.51460355580278, 37.621059859250046], [27.51622052331419, 37.621059859250046], [27.51622052331419, 37.620520870079574], [27.515681534143738, 37.620520870079574], [27.515681534143738, 37.6199818809091], [27.5140645666323, 37.6199818809091], [27.5140645666323, 37.618364913397684], [27.51352557746185, 37.618364913397684], [27.51352557746185, 37.61782592422721], [27.51298658829137, 37.61782592422721], [27.51298658829137, 37.61728693505674], [27.51244759912089, 37.61728693505674], [27.51244759912089, 37.616747945886274], [27.51190860995044, 37.616747945886274], [27.51190860995044, 37.61566996754533], [27.51244759912089, 37.61566996754533], [27.51244759912089, 37.614591989204385]], [[27.51460355580278, 37.6237548051024], [27.51460355580278, 37.62429379427287], [27.5140645666323, 37.62429379427287], [27.5140645666323, 37.6237548051024], [27.51460355580278, 37.6237548051024]], [[27.51675951248467, 37.62159884842052], [27.51675951248467, 37.62213783759099], [27.51622052331419, 37.62213783759099], [27.51622052331419, 37.62159884842052], [27.51675951248467, 37.62159884842052]], [[27.51352557746185, 37.6162089567158], [27.51352557746185, 37.616747945886274], [27.51298658829137, 37.616747945886274], [27.51298658829137, 37.6162089567158], [27.51352557746185, 37.6162089567158]]]}, "properties": {"area_ha": 35.56350610847172, "mean_dnbr": 0.3168570812971216, "compactness": 0.128, "rectangularity": 0.407, "cropland_frac": 0.001, "persistent": true}}, {"type": "Feature", "geometry": {"geodesic": false, "type": "Polygon", "coordinates": [[[27.910221606929014, 37.73532556339005], [27.911838574440452, 37.73532556339005], [27.911838574440452, 37.73586455256052], [27.912916552781383, 37.73586455256052], [27.912916552781383, 37.73640354173099], [27.916150487804202, 37.73640354173099], [27.916150487804202, 37.736942530901466], [27.91561149863375, 37.736942530901466], [27.91561149863375, 37.73748152007193], [27.916150487804202, 37.73748152007193], [27.916150487804202, 37.7380205092424], [27.916689476974682, 37.7380205092424], [27.916689476974682, 37.73909848758335], [27.91722846614516, 37.73909848758335], [27.91722846614516, 37.73963747675382], [27.916689476974682, 37.73963747675382], [27.916689476974682, 37.740715455094765], [27.916150487804202, 37.740715455094765], [27.916150487804202, 37.74017646592429], [27.914533520292792, 37.74017646592429], [27.914533520292792, 37.740715455094765], [27.913455541951862, 37.740715455094765], [27.913455541951862, 37.74017646592429], [27.912377563610903, 37.74017646592429], [27.912377563610903, 37.73909848758335], [27.911299585269973, 37.73909848758335], [27.911299585269973, 37.73963747675382], [27.910221606929014, 37.73963747675382], [27.910221606929014, 37.74017646592429], [27.911838574440452, 37.74017646592429], [27.911838574440452, 37.74125444426524], [27.910760596099493, 37.74125444426524], [27.910760596099493, 37.74179343343571], [27.909682617758563, 37.74179343343571], [27.909682617758563, 37.74233242260618], [27.909143628588083, 37.74233242260618], [27.909143628588083, 37.74179343343571], [27.908604639417604, 37.74179343343571], [27.908604639417604, 37.74233242260618], [27.907526661076673, 37.74233242260618], [27.907526661076673, 37.74179343343571], [27.906448682735714, 37.74179343343571], [27.906448682735714, 37.74125444426524], [27.905909693565235, 37.74125444426524], [27.905909693565235, 37.74233242260618], [27.906987671906194, 37.74233242260618], [27.906987671906194, 37.74394939011759], [27.906448682735714, 37.74394939011759], [27.906448682735714, 37.74610534679948], [27.905909693565235, 37.74610534679948], [27.905909693565235, 37.746644335969954], [27.905370704394784, 37.746644335969954], [27.905370704394784, 37.747183325140426], [27.904831715224304, 37.747183325140426], [27.904831715224304, 37.74826130348137], [27.902136769371936, 37.74826130348137], [27.902136769371936, 37.747183325140426], [27.901058791031005, 37.747183325140426], [27.901058791031005, 37.746644335969954], [27.900519801860526, 37.746644335969954], [27.900519801860526, 37.747183325140426], [27.899980812690046, 37.747183325140426], [27.899980812690046, 37.7477223143109], [27.899441823519595, 37.7477223143109], [27.899441823519595, 37.74826130348137], [27.896207888496747, 37.74826130348137], [27.896207888496747, 37.7477223143109], [27.894051931814857, 37.7477223143109], [27.894051931814857, 37.747183325140426], [27.888662040110148, 37.747183325140426], [27.888662040110148, 37.7477223143109], [27.88812305093967, 37.7477223143109], [27.88812305093967, 37.74880029265184], [27.887584061769218, 37.74880029265184], [27.887584061769218, 37.749339281822316], [27.887045072598738, 37.749339281822316], [27.887045072598738, 37.74880029265184], [27.88650608342826, 37.74880029265184], [27.88650608342826, 37.749339281822316], [27.88542810508733, 37.749339281822316], [27.88542810508733, 37.74826130348137], [27.88381113757592, 37.74826130348137], [27.88381113757592, 37.74880029265184], [27.88327214840544, 37.74880029265184], [27.88327214840544, 37.749339281822316], [27.88273315923496, 37.749339281822316], [27.88273315923496, 37.75041726016325], [27.88219417006448, 37.75041726016325], [27.88219417006448, 37.750956249333726], [27.88273315923496, 37.750956249333726], [27.88273315923496, 37.7514952385042], [27.88219417006448, 37.7514952385042], [27.88219417006448, 37.75203422767467], [27.88057720255307, 37.75203422767467], [27.88057720255307, 37.750956249333726], [27.87949922421214, 37.750956249333726], [27.87949922421214, 37.749339281822316], [27.87896023504166, 37.749339281822316], [27.87896023504166, 37.74880029265184], [27.87788225670073, 37.74880029265184], [27.87788225670073, 37.74826130348137], [27.87734326753025, 37.74826130348137], [27.87734326753025, 37.747183325140426], [27.87680427835977, 37.747183325140426], [27.87680427835977, 37.74610534679948], [27.87626528918929, 37.74610534679948], [27.87626528918929, 37.74556635762901], [27.87464832167788, 37.74556635762901], [27.87464832167788, 37.74502736845854], [27.87357034333695, 37.74502736845854], [27.87357034333695, 37.744488379288065], [27.87195337582554, 37.744488379288065], [27.87195337582554, 37.74394939011759], [27.872492364995992, 37.74394939011759], [27.872492364995992, 37.742871411776655], [27.870875397484582, 37.742871411776655], [27.870875397484582, 37.74341040094713], [27.870336408314103, 37.74341040094713], [27.870336408314103, 37.742871411776655], [27.870875397484582, 37.742871411776655], [27.870875397484582, 37.74233242260618], [27.87195337582554, 37.74233242260618], [27.87195337582554, 37.74179343343571], [27.872492364995992, 37.74179343343571], [27.872492364995992, 37.74125444426524], [27.87357034333695, 37.74125444426524], [27.87357034333695, 37.74179343343571], [27.87303135416647, 37.74179343343571], [27.87303135416647, 37.74233242260618], [27.87410933250743, 37.74233242260618], [27.87410933250743, 37.742871411776655], [27.87464832167788, 37.742871411776655], [27.87464832167788, 37.74233242260618], [27.87518731084836, 37.74233242260618], [27.87518731084836, 37.74125444426524], [27.87464832167788, 37.74125444426524], [27.87464832167788, 37.740715455094765], [27.87572630001884, 37.740715455094765], [27.87572630001884, 37.74125444426524], [27.87734326753025, 37.74125444426524], [27.87734326753025, 37.74179343343571], [27.87842124587118, 37.74179343343571], [27.87842124587118, 37.74017646592429], [27.87896023504166, 37.74017646592429], [27.87896023504166, 37.73963747675382], [27.88003821338262, 37.73963747675382], [27.88003821338262, 37.738559498412876], [27.88111619172355, 37.738559498412876], [27.88111619172355, 37.7380205092424], [27.88165518089403, 37.7380205092424], [27.88165518089403, 37.73748152007193], [27.887045072598738, 37.73748152007193], [27.887045072598738, 37.73640354173099], [27.88812305093967, 37.73640354173099], [27.88812305093967, 37.736942530901466], [27.888662040110148, 37.736942530901466], [27.888662040110148, 37.73640354173099], [27.889201029280628, 37.73640354173099], [27.889201029280628, 37.736942530901466], [27.890279007621558, 37.736942530901466], [27.890279007621558, 37.73748152007193], [27.891356985962517, 37.73748152007193], [27.891356985962517, 37.7380205092424], [27.891895975132996, 37.7380205092424], [27.891895975132996, 37.738559498412876], [27.893512942644406, 37.738559498412876], [27.893512942644406, 37.7380205092424], [27.892973953473927, 37.7380205092424], [27.892973953473927, 37.73748152007193], [27.894590920985337, 37.73748152007193], [27.894590920985337, 37.7380205092424], [27.895129910155816, 37.7380205092424], [27.895129910155816, 37.738559498412876], [27.895668899326296, 37.738559498412876], [27.895668899326296, 37.73909848758335], [27.896207888496747, 37.73909848758335], [27.896207888496747, 37.73963747675382], [27.899980812690046, 37.73963747675382], [27.899980812690046, 37.73909848758335], [27.899441823519595, 37.73909848758335], [27.899441823519595, 37.738559498412876], [27.898902834349116, 37.738559498412876], [27.898902834349116, 37.7380205092424], [27.897824856008185, 37.7380205092424], [27.897824856008185, 37.73748152007193], [27.897285866837706, 37.73748152007193], [27.897285866837706, 37.736942530901466], [27.896746877667226, 37.736942530901466], [27.896746877667226, 37.73640354173099], [27.899441823519595, 37.73640354173099], [27.899441823519595, 37.73586455256052], [27.900519801860526, 37.73586455256052], [27.900519801860526, 37.736942530901466], [27.901058791031005, 37.736942530901466], [27.901058791031005, 37.738559498412876], [27.901597780201485, 37.738559498412876], [27.901597780201485, 37.73909848758335], [27.903214747712894, 37.73909848758335], [27.903214747712894, 37.7380205092424], [27.902136769371936, 37.7380205092424], [27.902136769371936, 37.73748152007193], [27.902675758542415, 37.73748152007193], [27.902675758542415, 37.736942530901466], [27.903214747712894, 37.736942530901466], [27.903214747712894, 37.73640354173099], [27.904292726053825, 37.73640354173099], [27.904292726053825, 37.736942530901466], [27.906448682735714, 37.736942530901466], [27.906448682735714, 37.73640354173099], [27.906987671906194, 37.73640354173099], [27.906987671906194, 37.73586455256052], [27.909682617758563, 37.73586455256052], [27.909682617758563, 37.73640354173099], [27.910221606929014, 37.73640354173099], [27.910221606929014, 37.73532556339005]], [[27.88219417006448, 37.750956249333726], [27.88219417006448, 37.7514952385042], [27.88165518089403, 37.7514952385042], [27.88165518089403, 37.750956249333726], [27.88219417006448, 37.750956249333726]], [[27.88327214840544, 37.7477223143109], [27.88327214840544, 37.74826130348137], [27.88219417006448, 37.74826130348137], [27.88219417006448, 37.7477223143109], [27.88327214840544, 37.7477223143109]], [[27.896746877667226, 37.747183325140426], [27.896746877667226, 37.7477223143109], [27.896207888496747, 37.7477223143109], [27.896207888496747, 37.747183325140426], [27.896746877667226, 37.747183325140426]], [[27.88273315923496, 37.74556635762901], [27.88273315923496, 37.74610534679948], [27.88219417006448, 37.74610534679948], [27.88219417006448, 37.74556635762901], [27.88273315923496, 37.74556635762901]], [[27.896207888496747, 37.74502736845854], [27.896207888496747, 37.74556635762901], [27.897285866837706, 37.74556635762901], [27.897285866837706, 37.74610534679948], [27.897824856008185, 37.74610534679948], [27.897824856008185, 37.746644335969954], [27.896746877667226, 37.746644335969954], [27.896746877667226, 37.74610534679948], [27.895668899326296, 37.74610534679948], [27.895668899326296, 37.74502736845854], [27.896207888496747, 37.74502736845854]], [[27.888662040110148, 37.742871411776655], [27.888662040110148, 37.74341040094713], [27.88812305093967, 37.74341040094713], [27.88812305093967, 37.74394939011759], [27.887584061769218, 37.74394939011759], [27.887584061769218, 37.742871411776655], [27.888662040110148, 37.742871411776655]], [[27.892973953473927, 37.73909848758335], [27.892973953473927, 37.73963747675382], [27.892434964303447, 37.73963747675382], [27.892434964303447, 37.73909848758335], [27.892973953473927, 37.73909848758335]]]}, "properties": {"area_ha": 361.30010658520956, "mean_dnbr": 0.3849856882337114, "compactness": 0.106, "rectangularity": 0.542, "cropland_frac": 0, "persistent": true}}, {"type": "Feature", "geometry": {"geodesic": false, "type": "Polygon", "coordinates": [[[28.130668177651955, 37.92397177305515], [28.132824134333845, 37.92397177305515], [28.132824134333845, 37.92612772973703], [28.131746155992886, 37.92612772973703], [28.131746155992886, 37.926666718907505], [28.131207166822435, 37.926666718907505], [28.131207166822435, 37.92720570807798], [28.132285145163365, 37.92720570807798], [28.132285145163365, 37.928822675589394], [28.131746155992886, 37.928822675589394], [28.131746155992886, 37.92990065393034], [28.131207166822435, 37.92990065393034], [28.131207166822435, 37.93097863227128], [28.130668177651955, 37.93097863227128], [28.130668177651955, 37.93151762144175], [28.130129188481476, 37.93151762144175], [28.130129188481476, 37.932595599782694], [28.129590199310996, 37.932595599782694], [28.129590199310996, 37.93205661061222], [28.128512220970066, 37.93205661061222], [28.128512220970066, 37.93151762144175], [28.125817275117697, 37.93151762144175], [28.125817275117697, 37.92990065393034], [28.126356264288177, 37.92990065393034], [28.126356264288177, 37.92936166475987], [28.127434242629135, 37.92936166475987], [28.127434242629135, 37.92612772973703], [28.129051210140545, 37.92612772973703], [28.129051210140545, 37.924510762225616], [28.129590199310996, 37.924510762225616], [28.129590199310996, 37.92504975139609], [28.130129188481476, 37.92504975139609], [28.130129188481476, 37.924510762225616], [28.130668177651955, 37.924510762225616], [28.130668177651955, 37.92397177305515]], [[28.130668177651955, 37.92720570807798], [28.130668177651955, 37.92774469724845], [28.131207166822435, 37.92774469724845], [28.131207166822435, 37.92828368641892], [28.130668177651955, 37.92828368641892], [28.130668177651955, 37.92936166475987], [28.130129188481476, 37.92936166475987], [28.130129188481476, 37.930439643100804], [28.129590199310996, 37.930439643100804], [28.129590199310996, 37.93097863227128], [28.127434242629135, 37.93097863227128], [28.127434242629135, 37.930439643100804], [28.128512220970066, 37.930439643100804], [28.128512220970066, 37.92936166475987], [28.129590199310996, 37.92936166475987], [28.129590199310996, 37.92720570807798], [28.130668177651955, 37.92720570807798]]]}, "properties": {"area_ha": 27.766086439289094, "mean_dnbr": 0.3864555866043516, "compactness": 0.142, "rectangularity": 0.557, "cropland_frac": 0, "persistent": true}}]}