{"type": "FeatureCollection", "crs": {"type": "name", "properties": {"name": "urn:ogc:def:crs:OGC:1.3:CRS84"}}, "features": [{"type": "Feature", "geometry": {"geodesic": false, "type": "Polygon", "coordinates": [[[28.286436047918272, 39.55064108953878], [28.28751402625923, 39.55064108953878], [28.28751402625923, 39.55225805705019], [28.288053015429682, 39.55225805705019], [28.288053015429682, 39.55279704622066], [28.28697503708875, 39.55279704622066], [28.28697503708875, 39.55333603539113], [28.284819080406862, 39.55333603539113], [28.284819080406862, 39.55225805705019], [28.28535806957734, 39.55225805705019], [28.28535806957734, 39.55118007870925], [28.286436047918272, 39.55118007870925], [28.286436047918272, 39.55064108953878]]]}, "properties": {"area_ha": 5.53912734133882, "mean_dnbr": 0.19446206616812842, "compactness": 0.523, "rectangularity": 0.667, "cropland_frac": 0.072, "persistent": null}}, {"type": "Feature", "geometry": {"geodesic": false, "type": "Polygon", "coordinates": [[[28.34302991081782, 38.810069969310646], [28.34410788915875, 38.810069969310646], [28.34410788915875, 38.811147947651584], [28.34356889998827, 38.811147947651584], [28.34356889998827, 38.81222592599253], [28.34249092164734, 38.81222592599253], [28.34249092164734, 38.811686936822056], [28.34195193247686, 38.811686936822056], [28.34195193247686, 38.81060895848111], [28.34302991081782, 38.81060895848111], [28.34302991081782, 38.810069969310646]]]}, "properties": {"area_ha": 3.0788010544244373, "mean_dnbr": 0.25644282192585094, "compactness": 0.532, "rectangularity": 0.687, "cropland_frac": 0, "persistent": null}}, {"type": "Feature", "geometry": {"geodesic": false, "type": "Polygon", "coordinates": [[[28.408247600444895, 38.980929536350175], [28.409325578785825, 38.980929536350175], [28.409325578785825, 38.98146852552065], [28.408786589615346, 38.98146852552065], [28.408786589615346, 38.983085493032064], [28.408247600444895, 38.983085493032064], [28.408247600444895, 38.983624482202536], [28.408786589615346, 38.983624482202536], [28.408786589615346, 38.98416347137301], [28.408247600444895, 38.98416347137301], [28.408247600444895, 38.98524144971395], [28.407708611274415, 38.98524144971395], [28.407708611274415, 38.98416347137301], [28.408247600444895, 38.98416347137301], [28.408247600444895, 38.983624482202536], [28.407708611274415, 38.983624482202536], [28.407708611274415, 38.98254650386159], [28.407169622103936, 38.98254650386159], [28.407169622103936, 38.98200751469112], [28.408247600444895, 38.98200751469112], [28.408247600444895, 38.980929536350175]]]}, "properties": {"area_ha": 3.350583121939665, "mean_dnbr": 0.22402061037290766, "compactness": 0.183, "rectangularity": 0.387, "cropland_frac": 0, "persistent": null}}, {"type": "Feature", "geometry": {"geodesic": false, "type": "Polygon", "coordinates": [[[28.841055904333672, 39.51991870682189], [28.84159489350415, 39.51991870682189], [28.84159489350415, 39.520996685162835], [28.83997792599274, 39.520996685162835], [28.83997792599274, 39.522613652674245], [28.839438936822262, 39.522613652674245], [28.839438936822262, 39.52207466350377], [28.838360958481303, 39.52207466350377], [28.838360958481303, 39.52045769599236], [28.838899947651782, 39.52045769599236], [28.838899947651782, 39.520996685162835], [28.83997792599274, 39.520996685162835], [28.83997792599274, 39.52045769599236], [28.841055904333672, 39.52045769599236], [28.841055904333672, 39.51991870682189]]]}, "properties": {"area_ha": 3.324956034035598, "mean_dnbr": 0.1582948159956525, "compactness": 0.257, "rectangularity": 0.4, "cropland_frac": 0.345, "persistent": null}}, {"type": "Feature", "geometry": {"geodesic": false, "type": "Polygon", "coordinates": [[[28.85506962276594, 39.46763675728614], [28.855608611936418, 39.46763675728614], [28.855608611936418, 39.4681757464566], [28.85614760110687, 39.4681757464566], [28.85614760110687, 39.468714735627074], [28.855608611936418, 39.468714735627074], [28.855608611936418, 39.46979271396802], [28.85506962276594, 39.46979271396802], [28.85506962276594, 39.46925372479755], [28.85453063359546, 39.46925372479755], [28.85453063359546, 39.46979271396802], [28.85345265525453, 39.46979271396802], [28.85345265525453, 39.47033170313849], [28.85291366608405, 39.47033170313849], [28.85291366608405, 39.470870692308964], [28.85237467691357, 39.470870692308964], [28.85237467691357, 39.471409681479436], [28.85075770940216, 39.471409681479436], [28.85075770940216, 39.470870692308964], [28.85237467691357, 39.470870692308964], [28.85237467691357, 39.46925372479755], [28.85453063359546, 39.46925372479755], [28.85453063359546, 39.4681757464566], [28.85506962276594, 39.4681757464566], [28.85506962276594, 39.46763675728614]]]}, "properties": {"area_ha": 4.713845890826819, "mean_dnbr": 0.16849006373225378, "compactness": 0.167, "rectangularity": 0.369, "cropland_frac": 0.415, "persistent": null}}, {"type": "Feature", "geometry": {"geodesic": false, "type": "Polygon", "coordinates": [[[29.012454460543665, 39.308095962826506], [29.012993449714145, 39.308095962826506], [29.012993449714145, 39.30917394116745], [29.012454460543665, 39.30917394116745], [29.012454460543665, 39.310251919508396], [29.011915471373214, 39.310251919508396], [29.011915471373214, 39.31079090867887], [29.013532438884624, 39.31079090867887], [29.013532438884624, 39.31132989784933], [29.011915471373214, 39.31132989784933], [29.011915471373214, 39.31079090867887], [29.010298503861776, 39.31079090867887], [29.010298503861776, 39.310251919508396], [29.011376482202735, 39.310251919508396], [29.011376482202735, 39.30971293033792], [29.010298503861776, 39.30971293033792], [29.010298503861776, 39.30917394116745], [29.011915471373214, 39.30917394116745], [29.011915471373214, 39.30863495199698], [29.012454460543665, 39.30863495199698], [29.012454460543665, 39.308095962826506]]]}, "properties": {"area_ha": 4.16880957797972, "mean_dnbr": 0.15939892015821483, "compactness": 0.193, "rectangularity": 0.417, "cropland_frac": 0.03, "persistent": null}}, {"type": "Feature", "geometry": {"geodesic": false, "type": "Polygon", "coordinates": [[[29.03401402736253, 39.330194518815844], [29.03455301653301, 39.330194518815844], [29.03455301653301, 39.33073350798632], [29.03509200570349, 39.33073350798632], [29.03509200570349, 39.332889464668206], [29.03455301653301, 39.332889464668206], [29.03455301653301, 39.33342845383868], [29.03401402736253, 39.33342845383868], [29.03401402736253, 39.33396744300915], [29.03347503819208, 39.33396744300915], [29.03347503819208, 39.33612339969103], [29.0329360490216, 39.33612339969103], [29.0329360490216, 39.336662388861505], [29.03239705985112, 39.336662388861505], [29.03239705985112, 39.33720137803198], [29.03131908151019, 39.33720137803198], [29.03131908151019, 39.33774036720245], [29.03078009233971, 39.33774036720245], [29.03078009233971, 39.33720137803198], [29.03024110316923, 39.33720137803198], [29.03024110316923, 39.33774036720245], [29.02862413565782, 39.33774036720245], [29.02862413565782, 39.33720137803198], [29.0291631248283, 39.33720137803198], [29.0291631248283, 39.336662388861505], [29.03185807068067, 39.336662388861505], [29.03185807068067, 39.33612339969103], [29.03239705985112, 39.33612339969103], [29.03239705985112, 39.33558441052056], [29.03185807068067, 39.33558441052056], [29.03185807068067, 39.33450643217962], [29.03239705985112, 39.33450643217962], [29.03239705985112, 39.33396744300915], [29.0329360490216, 39.33396744300915], [29.0329360490216, 39.33342845383868], [29.03347503819208, 39.33342845383868], [29.03347503819208, 39.332350475497734], [29.0329360490216, 39.332350475497734], [29.0329360490216, 39.33181148632726], [29.03185807068067, 39.33181148632726], [29.03185807068067, 39.33127249715679], [29.0329360490216, 39.33127249715679], [29.0329360490216, 39.33073350798632], [29.03347503819208, 39.33073350798632], [29.03347503819208, 39.332350475497734], [29.03401402736253, 39.332350475497734], [29.03401402736253, 39.330194518815844]]]}, "properties": {"area_ha": 11.390774339325178, "mean_dnbr": 0.18270532775191717, "compactness": 0.108, "rectangularity": 0.347, "cropland_frac": 0.13, "persistent": null}}, {"type": "Feature", "geometry": {"geodesic": false, "type": "Polygon", "coordinates": [[[29.03940391906727, 39.30971293033792], [29.03994290823772, 39.30971293033792], [29.03994290823772, 39.31079090867887], [29.0404818974082, 39.31079090867887], [29.0404818974082, 39.31132989784933], [29.04102088657868, 39.31132989784933], [29.04102088657868, 39.311868887019806], [29.041559875749158, 39.311868887019806], [29.041559875749158, 39.31294686536075], [29.04263785409009, 39.31294686536075], [29.04263785409009, 39.314024843701695], [29.04102088657868, 39.314024843701695], [29.04102088657868, 39.31294686536075], [29.0404818974082, 39.31294686536075], [29.0404818974082, 39.311868887019806], [29.03994290823772, 39.311868887019806], [29.03994290823772, 39.31132989784933], [29.03886492989679, 39.31132989784933], [29.03886492989679, 39.31079090867887], [29.03832594072631, 39.31079090867887], [29.03832594072631, 39.310251919508396], [29.03940391906727, 39.310251919508396], [29.03940391906727, 39.30971293033792]]]}, "properties": {"area_ha": 5.280334500563702, "mean_dnbr": 0.1771916306364139, "compactness": 0.229, "rectangularity": 0.524, "cropland_frac": 0.038, "persistent": null}}, {"type": "Feature", "geometry": {"geodesic": false, "type": "Polygon", "coordinates": [[[29.26739633817681, 38.80414108843546], [29.26793532734726, 38.80414108843546], [29.26793532734726, 38.80468007760592], [29.26847431651774, 38.80468007760592], [29.26847431651774, 38.805219066776395], [29.26901330568822, 38.805219066776395], [29.26901330568822, 38.80629704511734], [29.26955229485867, 38.80629704511734], [29.26955229485867, 38.80683603428781], [29.27009128402915, 38.80683603428781], [29.27009128402915, 38.80791401262876], [29.26901330568822, 38.80791401262876], [29.26901330568822, 38.807375023458285], [29.26847431651774, 38.807375023458285], [29.26847431651774, 38.80683603428781], [29.26739633817681, 38.80683603428781], [29.26739633817681, 38.80629704511734], [29.26685734900633, 38.80629704511734], [29.26685734900633, 38.80575805594687], [29.26739633817681, 38.80575805594687], [29.26739633817681, 38.80414108843546]]]}, "properties": {"area_ha": 5.318299198654471, "mean_dnbr": 0.33870620043845057, "compactness": 0.341, "rectangularity": 0.507, "cropland_frac": 0.259, "persistent": null}}]}