{"type": "FeatureCollection", "crs": {"type": "name", "properties": {"name": "urn:ogc:def:crs:OGC:1.3:CRS84"}}, "features": [{"type": "Feature", "geometry": {"geodesic": false, "type": "Polygon", "coordinates": [[[28.62168731195169, 36.94408946113757], [28.62222630112217, 36.94408946113757], [28.62222630112217, 36.944628450308045], [28.62276529029262, 36.944628450308045], [28.62276529029262, 36.94570642864899], [28.6233042794631, 36.94570642864899], [28.6233042794631, 36.94624541781946], [28.62168731195169, 36.94624541781946], [28.62168731195169, 36.946784406989934], [28.62114832278121, 36.946784406989934], [28.62114832278121, 36.94624541781946], [28.62060933361073, 36.94624541781946], [28.62060933361073, 36.94516743947852], [28.62114832278121, 36.94516743947852], [28.62114832278121, 36.944628450308045], [28.62168731195169, 36.944628450308045], [28.62168731195169, 36.94408946113757]]]}, "properties": {"area_ha": 4.019007748289069, "mean_dnbr": 0.21952557988629326, "compactness": 0.434, "rectangularity": 0.591, "cropland_frac": 0.117, "persistent": true}}, {"type": "Feature", "geometry": {"geodesic": false, "type": "Polygon", "coordinates": [[[28.629772149508767, 36.92684180768248], [28.630311138679218, 36.92684180768248], [28.630311138679218, 36.92738079685295], [28.630850127849698, 36.92738079685295], [28.630850127849698, 36.928458775193896], [28.630311138679218, 36.928458775193896], [28.630311138679218, 36.92899776436437], [28.629772149508767, 36.92899776436437], [28.629772149508767, 36.92953675353484], [28.630311138679218, 36.92953675353484], [28.630311138679218, 36.930075742705306], [28.629772149508767, 36.930075742705306], [28.629772149508767, 36.92953675353484], [28.628155181997357, 36.92953675353484], [28.628155181997357, 36.92899776436437], [28.62869417116781, 36.92899776436437], [28.62869417116781, 36.92791978602342], [28.629233160338288, 36.92791978602342], [28.629233160338288, 36.92738079685295], [28.629772149508767, 36.92738079685295], [28.629772149508767, 36.92684180768248]]]}, "properties": {"area_ha": 4.307044353137454, "mean_dnbr": 0.28075932009625365, "compactness": 0.323, "rectangularity": 0.554, "cropland_frac": 0, "persistent": true}}, {"type": "Feature", "geometry": {"geodesic": false, "type": "Polygon", "coordinates": [[[28.640551932918186, 36.96780498463833], [28.641090922088665, 36.96780498463833], [28.641090922088665, 36.96888296297927], [28.641629911259145, 36.96888296297927], [28.641629911259145, 36.9683439738088], [28.642168900429596, 36.9683439738088], [28.642168900429596, 36.96888296297927], [28.641629911259145, 36.96888296297927], [28.641629911259145, 36.969421952149744], [28.641090922088665, 36.969421952149744], [28.641090922088665, 36.97049993049069], [28.640012943747735, 36.97049993049069], [28.640012943747735, 36.9683439738088], [28.640551932918186, 36.9683439738088], [28.640551932918186, 36.96780498463833]]]}, "properties": {"area_ha": 3.1568083149739063, "mean_dnbr": 0.1860153274371044, "compactness": 0.327, "rectangularity": 0.55, "cropland_frac": 0.073, "persistent": true}}, {"type": "Feature", "geometry": {"geodesic": false, "type": "Polygon", "coordinates": [[[28.67396926148743, 36.863780074737285], [28.675047239828388, 36.863780074737285], [28.675047239828388, 36.86431906390776], [28.675586228998867, 36.86431906390776], [28.675586228998867, 36.8653970422487], [28.674508250657908, 36.8653970422487], [28.674508250657908, 36.865936031419174], [28.673430272316978, 36.865936031419174], [28.673430272316978, 36.86647502058965], [28.67235229397602, 36.86647502058965], [28.67235229397602, 36.86701400976012], [28.67181330480554, 36.86701400976012], [28.67181330480554, 36.868091988101064], [28.67235229397602, 36.868091988101064], [28.67235229397602, 36.868630977271536], [28.672891283146498, 36.868630977271536], [28.672891283146498, 36.86916996644201], [28.67235229397602, 36.86916996644201], [28.67235229397602, 36.869708955612474], [28.67181330480554, 36.869708955612474], [28.67181330480554, 36.870247944782946], [28.66965734812368, 36.870247944782946], [28.66965734812368, 36.86916996644201], [28.66696240227131, 36.86916996644201], [28.66696240227131, 36.868630977271536], [28.66642341310083, 36.868630977271536], [28.66642341310083, 36.868091988101064], [28.6653454347599, 36.868091988101064], [28.6653454347599, 36.86701400976012], [28.66642341310083, 36.86701400976012], [28.66642341310083, 36.86647502058965], [28.66696240227131, 36.86647502058965], [28.66696240227131, 36.865936031419174], [28.66804038061224, 36.865936031419174], [28.66804038061224, 36.86647502058965], [28.66857936978272, 36.86647502058965], [28.66857936978272, 36.86701400976012], [28.6691183589532, 36.86701400976012], [28.6691183589532, 36.86647502058965], [28.66965734812368, 36.86647502058965], [28.66965734812368, 36.865936031419174], [28.671274315635088, 36.865936031419174], [28.671274315635088, 36.8653970422487], [28.67181330480554, 36.8653970422487], [28.67181330480554, 36.86485805307823], [28.672891283146498, 36.86485805307823], [28.672891283146498, 36.86431906390776], [28.67396926148743, 36.86431906390776], [28.67396926148743, 36.863780074737285]]]}, "properties": {"area_ha": 27.01245739870666, "mean_dnbr": 0.4127509181903006, "compactness": 0.249, "rectangularity": 0.448, "cropland_frac": 0.265, "persistent": true}}, {"type": "Feature", "geometry": {"geodesic": false, "type": "Polygon", "coordinates": [[[28.774221247195186, 36.725259857926055], [28.775299225536116, 36.725259857926055], [28.775299225536116, 36.72579884709653], [28.775838214706596, 36.72579884709653], [28.775838214706596, 36.730110760460306], [28.775299225536116, 36.730110760460306], [28.775299225536116, 36.73226671714219], [28.773682258024706, 36.73226671714219], [28.773682258024706, 36.731727727971716], [28.774221247195186, 36.731727727971716], [28.774221247195186, 36.73064974963077], [28.774760236365637, 36.73064974963077], [28.774760236365637, 36.72903278211936], [28.774221247195186, 36.72903278211936], [28.774221247195186, 36.72849379294889], [28.773682258024706, 36.72849379294889], [28.773682258024706, 36.72795480377842], [28.772604279683776, 36.72795480377842], [28.772604279683776, 36.72687682543747], [28.773143268854227, 36.72687682543747], [28.773143268854227, 36.727415814607944], [28.774221247195186, 36.727415814607944], [28.774221247195186, 36.726337836267], [28.772065290513297, 36.726337836267], [28.772065290513297, 36.725259857926055], [28.773682258024706, 36.725259857926055], [28.773682258024706, 36.72579884709653], [28.774221247195186, 36.72579884709653], [28.774221247195186, 36.725259857926055]]]}, "properties": {"area_ha": 12.667132120415495, "mean_dnbr": 0.2213472784794883, "compactness": 0.183, "rectangularity": 0.484, "cropland_frac": 0.001, "persistent": true}}, {"type": "Feature", "geometry": {"geodesic": false, "type": "Polygon", "coordinates": [[[28.783923052263674, 36.8007183417921], [28.786079008945563, 36.8007183417921], [28.786079008945563, 36.80125733096257], [28.785540019775084, 36.80125733096257], [28.785540019775084, 36.80179632013304], [28.786079008945563, 36.80179632013304], [28.786079008945563, 36.802335309303515], [28.785540019775084, 36.802335309303515], [28.785540019775084, 36.80287429847399], [28.785001030604604, 36.80287429847399], [28.785001030604604, 36.803952276814925], [28.785540019775084, 36.803952276814925], [28.785540019775084, 36.8044912659854], [28.785001030604604, 36.8044912659854], [28.785001030604604, 36.803952276814925], [28.784462041434153, 36.803952276814925], [28.784462041434153, 36.80287429847399], [28.785001030604604, 36.80287429847399], [28.785001030604604, 36.802335309303515], [28.784462041434153, 36.802335309303515], [28.784462041434153, 36.80179632013304], [28.783923052263674, 36.80179632013304], [28.783923052263674, 36.8007183417921]]]}, "properties": {"area_ha": 4.026555467032445, "mean_dnbr": 0.19021012359117623, "compactness": 0.222, "rectangularity": 0.5, "cropland_frac": 0.028, "persistent": true}}, {"type": "Feature", "geometry": {"geodesic": false, "type": "Polygon", "coordinates": [[[28.787695976456973, 36.78886058004172], [28.788773954797904, 36.78886058004172], [28.788773954797904, 36.789938558382666], [28.789312943968383, 36.789938558382666], [28.789312943968383, 36.7910165367236], [28.789851933138863, 36.7910165367236], [28.789851933138863, 36.791555525894076], [28.789312943968383, 36.791555525894076], [28.789312943968383, 36.79317249340549], [28.786079008945563, 36.79317249340549], [28.786079008945563, 36.7910165367236], [28.785540019775084, 36.7910165367236], [28.785540019775084, 36.789938558382666], [28.785001030604604, 36.789938558382666], [28.785001030604604, 36.78886058004172], [28.787156987286494, 36.78886058004172], [28.787156987286494, 36.78939956921219], [28.787695976456973, 36.78939956921219], [28.787695976456973, 36.78886058004172]]]}, "properties": {"area_ha": 14.95797521816078, "mean_dnbr": 0.40653838043250756, "compactness": 0.498, "rectangularity": 0.722, "cropland_frac": 0.118, "persistent": true}}, {"type": "Feature", "geometry": {"geodesic": false, "type": "Polygon", "coordinates": [[[28.791468900650273, 36.75436527313153], [28.795241824843572, 36.75436527313153], [28.795241824843572, 36.754904262302], [28.79578081401405, 36.754904262302], [28.79578081401405, 36.75598224064294], [28.794702835673093, 36.75598224064294], [28.794702835673093, 36.75706021898389], [28.793624857332162, 36.75706021898389], [28.793624857332162, 36.756521229813416], [28.79416384650264, 36.756521229813416], [28.79416384650264, 36.75598224064294], [28.793085868161683, 36.75598224064294], [28.793085868161683, 36.75706021898389], [28.792546878991203, 36.75706021898389], [28.792546878991203, 36.75598224064294], [28.793085868161683, 36.75598224064294], [28.793085868161683, 36.75544325147247], [28.790929911479793, 36.75544325147247], [28.790929911479793, 36.754904262302], [28.791468900650273, 36.754904262302], [28.791468900650273, 36.75436527313153]]]}, "properties": {"area_ha": 7.4824231027514525, "mean_dnbr": 0.1544215791175428, "compactness": 0.262, "rectangularity": 0.578, "cropland_frac": 0.112, "persistent": true}}]}