{"type": "FeatureCollection", "crs": {"type": "name", "properties": {"name": "urn:ogc:def:crs:OGC:1.3:CRS84"}}, "features": [{"type": "Feature", "geometry": {"geodesic": false, "type": "Polygon", "coordinates": [[[28.352731715886307, 37.742871411776655], [28.354887672568196, 37.742871411776655], [28.354887672568196, 37.74394939011759], [28.354348683397717, 37.74394939011759], [28.354348683397717, 37.744488379288065], [28.354887672568196, 37.744488379288065], [28.354887672568196, 37.746644335969954], [28.354348683397717, 37.746644335969954], [28.354348683397717, 37.747183325140426], [28.353270705056758, 37.747183325140426], [28.353270705056758, 37.74880029265184], [28.352731715886307, 37.74880029265184], [28.352731715886307, 37.74826130348137], [28.352192726715828, 37.74826130348137], [28.352192726715828, 37.74880029265184], [28.351653737545348, 37.74880029265184], [28.351653737545348, 37.7477223143109], [28.351114748374897, 37.7477223143109], [28.351114748374897, 37.74826130348137], [28.348958791693008, 37.74826130348137], [28.348958791693008, 37.74880029265184], [28.34680283501112, 37.74880029265184], [28.34680283501112, 37.749339281822316], [28.34572485667016, 37.749339281822316], [28.34572485667016, 37.74826130348137], [28.34626384584064, 37.74826130348137], [28.34626384584064, 37.7477223143109], [28.34734182418157, 37.7477223143109], [28.34734182418157, 37.746644335969954], [28.34788081335205, 37.746644335969954], [28.34788081335205, 37.74610534679948], [28.350036770033938, 37.74610534679948], [28.350036770033938, 37.74502736845854], [28.351114748374897, 37.74502736845854], [28.351114748374897, 37.74394939011759], [28.352192726715828, 37.74394939011759], [28.352192726715828, 37.74341040094713], [28.352731715886307, 37.74341040094713], [28.352731715886307, 37.742871411776655]]]}, "properties": {"area_ha": 28.11860232258375, "mean_dnbr": 0.3915377504464587, "compactness": 0.288, "rectangularity": 0.487, "cropland_frac": 0, "persistent": true}}]}