{"type": "FeatureCollection", "crs": {"type": "name", "properties": {"name": "urn:ogc:def:crs:OGC:1.3:CRS84"}}, "features": [{"type": "Feature", "geometry": {"geodesic": false, "type": "Polygon", "coordinates": [[[28.365128466807136, 37.866838920985145], [28.366206445148094, 37.866838920985145], [28.366206445148094, 37.86737791015562], [28.365667455977615, 37.86737791015562], [28.365667455977615, 37.86791689932609], [28.365128466807136, 37.86791689932609], [28.365128466807136, 37.86845588849656], [28.366206445148094, 37.86845588849656], [28.366206445148094, 37.868994877667035], [28.366745434318574, 37.868994877667035], [28.366745434318574, 37.86953386683751], [28.366206445148094, 37.86953386683751], [28.366206445148094, 37.870611845178445], [28.364589477636684, 37.870611845178445], [28.364589477636684, 37.87168982351939], [28.363511499295726, 37.87168982351939], [28.363511499295726, 37.87222881268986], [28.362972510125275, 37.87222881268986], [28.362972510125275, 37.872767801860334], [28.362433520954795, 37.872767801860334], [28.362433520954795, 37.87330679103081], [28.361894531784316, 37.87330679103081], [28.361894531784316, 37.87438476937175], [28.361355542613836, 37.87438476937175], [28.361355542613836, 37.874923758542224], [28.360816553443385, 37.874923758542224], [28.360816553443385, 37.87654072605363], [28.360277564272906, 37.87654072605363], [28.360277564272906, 37.875462747712696], [28.359199585931947, 37.875462747712696], [28.359199585931947, 37.87600173688317], [28.358121607591016, 37.87600173688317], [28.358121607591016, 37.875462747712696], [28.358660596761496, 37.875462747712696], [28.358660596761496, 37.874923758542224], [28.359199585931947, 37.874923758542224], [28.359199585931947, 37.87438476937175], [28.359738575102426, 37.87438476937175], [28.359738575102426, 37.87384578020128], [28.360277564272906, 37.87384578020128], [28.360277564272906, 37.872767801860334], [28.361894531784316, 37.872767801860334], [28.361894531784316, 37.87222881268986], [28.361355542613836, 37.87222881268986], [28.361355542613836, 37.87168982351939], [28.360277564272906, 37.87168982351939], [28.360277564272906, 37.87115083434892], [28.360816553443385, 37.87115083434892], [28.360816553443385, 37.86953386683751], [28.362972510125275, 37.86953386683751], [28.362972510125275, 37.87007285600797], [28.364050488466205, 37.87007285600797], [28.364050488466205, 37.86953386683751], [28.363511499295726, 37.86953386683751], [28.363511499295726, 37.868994877667035], [28.364050488466205, 37.868994877667035], [28.364050488466205, 37.86791689932609], [28.364589477636684, 37.86791689932609], [28.364589477636684, 37.86737791015562], [28.365128466807136, 37.86737791015562], [28.365128466807136, 37.866838920985145]], [[28.364589477636684, 37.87007285600797], [28.364589477636684, 37.870611845178445], [28.364050488466205, 37.870611845178445], [28.364050488466205, 37.87007285600797], [28.364589477636684, 37.87007285600797]]]}, "properties": {"area_ha": 21.832997693135695, "mean_dnbr": 0.4360627728885945, "compactness": 0.125, "rectangularity": 0.387, "cropland_frac": 0.331, "persistent": null}}, {"type": "Feature", "geometry": {"geodesic": false, "type": "Polygon", "coordinates": [[[28.367284423489025, 37.91750390300949], [28.368901391000463, 37.91750390300949], [28.368901391000463, 37.91804289217996], [28.367284423489025, 37.91804289217996], [28.367284423489025, 37.91858188135043], [28.367823412659504, 37.91858188135043], [28.367823412659504, 37.9191208705209], [28.368362401829984, 37.9191208705209], [28.368362401829984, 37.91965985969137], [28.367284423489025, 37.91965985969137], [28.367284423489025, 37.920198848861844], [28.367823412659504, 37.920198848861844], [28.367823412659504, 37.920737838032316], [28.368901391000463, 37.920737838032316], [28.368901391000463, 37.92127682720279], [28.367823412659504, 37.92127682720279], [28.367823412659504, 37.920737838032316], [28.364589477636684, 37.920737838032316], [28.364589477636684, 37.92127682720279], [28.366206445148094, 37.92127682720279], [28.366206445148094, 37.92181581637326], [28.365667455977615, 37.92181581637326], [28.365667455977615, 37.92343278388468], [28.364050488466205, 37.92343278388468], [28.364050488466205, 37.92397177305515], [28.362972510125275, 37.92397177305515], [28.362972510125275, 37.92343278388468], [28.364050488466205, 37.92343278388468], [28.364050488466205, 37.92235480554373], [28.364589477636684, 37.92235480554373], [28.364589477636684, 37.922893794714206], [28.365128466807136, 37.922893794714206], [28.365128466807136, 37.92181581637326], [28.364589477636684, 37.92181581637326], [28.364589477636684, 37.92127682720279], [28.363511499295726, 37.92127682720279], [28.363511499295726, 37.920737838032316], [28.361894531784316, 37.920737838032316], [28.361894531784316, 37.92181581637326], [28.361355542613836, 37.92181581637326], [28.361355542613836, 37.92235480554373], [28.360277564272906, 37.92235480554373], [28.360277564272906, 37.92181581637326], [28.361355542613836, 37.92181581637326], [28.361355542613836, 37.920737838032316], [28.360816553443385, 37.920737838032316], [28.360816553443385, 37.920198848861844], [28.361894531784316, 37.920198848861844], [28.361894531784316, 37.91965985969137], [28.360277564272906, 37.91965985969137], [28.360277564272906, 37.91858188135043], [28.362433520954795, 37.91858188135043], [28.362433520954795, 37.91965985969137], [28.362972510125275, 37.91965985969137], [28.362972510125275, 37.91750390300949], [28.364050488466205, 37.91750390300949], [28.364050488466205, 37.91804289217996], [28.364589477636684, 37.91804289217996], [28.364589477636684, 37.91858188135043], [28.366206445148094, 37.91858188135043], [28.366206445148094, 37.91804289217996], [28.367284423489025, 37.91804289217996], [28.367284423489025, 37.91750390300949]], [[28.363511499295726, 37.91965985969137], [28.363511499295726, 37.920198848861844], [28.362972510125275, 37.920198848861844], [28.362972510125275, 37.91965985969137], [28.363511499295726, 37.91965985969137]], [[28.366745434318574, 37.91858188135043], [28.366745434318574, 37.9191208705209], [28.366206445148094, 37.9191208705209], [28.366206445148094, 37.91858188135043], [28.366745434318574, 37.91858188135043]]]}, "properties": {"area_ha": 21.818609532985736, "mean_dnbr": 0.368816948422891, "compactness": 0.077, "rectangularity": 0.401, "cropland_frac": 0.271, "persistent": null}}, {"type": "Feature", "geometry": {"geodesic": false, "type": "Polygon", "coordinates": [[[28.379142185239402, 37.89648332536109], [28.379681174409882, 37.89648332536109], [28.379681174409882, 37.89702231453156], [28.379142185239402, 37.89702231453156], [28.379142185239402, 37.897561303702034], [28.38022016358036, 37.897561303702034], [28.38022016358036, 37.898100292872506], [28.379681174409882, 37.898100292872506], [28.379681174409882, 37.89863928204298], [28.38075915275084, 37.89863928204298], [28.38075915275084, 37.897561303702034], [28.38129814192129, 37.897561303702034], [28.38129814192129, 37.89917827121345], [28.38075915275084, 37.89917827121345], [28.38075915275084, 37.90025624955439], [28.379681174409882, 37.90025624955439], [28.379681174409882, 37.90133422789533], [28.379142185239402, 37.90133422789533], [28.379142185239402, 37.901873217065805], [28.378064206898472, 37.901873217065805], [28.378064206898472, 37.90241220623628], [28.37860319606895, 37.90241220623628], [28.37860319606895, 37.90295119540675], [28.379142185239402, 37.90295119540675], [28.379142185239402, 37.90349018457722], [28.37860319606895, 37.90349018457722], [28.37860319606895, 37.90295119540675], [28.377525217727992, 37.90295119540675], [28.377525217727992, 37.904029173747695], [28.376447239387062, 37.904029173747695], [28.376447239387062, 37.90295119540675], [28.372135326023283, 37.90295119540675], [28.372135326023283, 37.90349018457722], [28.372674315193763, 37.90349018457722], [28.372674315193763, 37.904029173747695], [28.374830271875652, 37.904029173747695], [28.374830271875652, 37.90456816291817], [28.373213304364214, 37.90456816291817], [28.373213304364214, 37.90564614125911], [28.372135326023283, 37.90564614125911], [28.372135326023283, 37.90672411960005], [28.373752293534693, 37.90672411960005], [28.373752293534693, 37.90726310877052], [28.375908250216582, 37.90726310877052], [28.375908250216582, 37.907802097940994], [28.377525217727992, 37.907802097940994], [28.377525217727992, 37.90834108711147], [28.376447239387062, 37.90834108711147], [28.376447239387062, 37.909958054622884], [28.375908250216582, 37.909958054622884], [28.375908250216582, 37.90941906545241], [28.374830271875652, 37.90941906545241], [28.374830271875652, 37.90834108711147], [28.373752293534693, 37.90834108711147], [28.373752293534693, 37.90726310877052], [28.372674315193763, 37.90726310877052], [28.372674315193763, 37.90834108711147], [28.373213304364214, 37.90834108711147], [28.373213304364214, 37.90888007628194], [28.374291282705173, 37.90888007628194], [28.374291282705173, 37.90941906545241], [28.372674315193763, 37.90941906545241], [28.372674315193763, 37.90834108711147], [28.371596336852804, 37.90834108711147], [28.371596336852804, 37.90888007628194], [28.371057347682324, 37.90888007628194], [28.371057347682324, 37.90941906545241], [28.369979369341394, 37.90941906545241], [28.369979369341394, 37.90888007628194], [28.370518358511873, 37.90888007628194], [28.370518358511873, 37.90834108711147], [28.371057347682324, 37.90834108711147], [28.371057347682324, 37.90726310877052], [28.371596336852804, 37.90726310877052], [28.371596336852804, 37.906185130429584], [28.369979369341394, 37.906185130429584], [28.369979369341394, 37.90726310877052], [28.368362401829984, 37.90726310877052], [28.368362401829984, 37.90564614125911], [28.368901391000463, 37.90564614125911], [28.368901391000463, 37.90510715208864], [28.369979369341394, 37.90510715208864], [28.369979369341394, 37.90456816291817], [28.369440380170914, 37.90456816291817], [28.369440380170914, 37.90241220623628], [28.369979369341394, 37.90241220623628], [28.369979369341394, 37.901873217065805], [28.368901391000463, 37.901873217065805], [28.368901391000463, 37.90133422789533], [28.369440380170914, 37.90133422789533], [28.369440380170914, 37.90079523872486], [28.368362401829984, 37.90079523872486], [28.368362401829984, 37.89863928204298], [28.369979369341394, 37.89863928204298], [28.369979369341394, 37.89971726038392], [28.370518358511873, 37.89971726038392], [28.370518358511873, 37.90133422789533], [28.369979369341394, 37.90133422789533], [28.369979369341394, 37.901873217065805], [28.370518358511873, 37.901873217065805], [28.370518358511873, 37.90241220623628], [28.372135326023283, 37.90241220623628], [28.372135326023283, 37.90079523872486], [28.373213304364214, 37.90079523872486], [28.373213304364214, 37.90133422789533], [28.373752293534693, 37.90133422789533], [28.373752293534693, 37.901873217065805], [28.374291282705173, 37.901873217065805], [28.374291282705173, 37.89971726038392], [28.373752293534693, 37.89971726038392], [28.373752293534693, 37.89917827121345], [28.372674315193763, 37.89917827121345], [28.372674315193763, 37.89863928204298], [28.371596336852804, 37.89863928204298], [28.371596336852804, 37.898100292872506], [28.372674315193763, 37.898100292872506], [28.372674315193763, 37.89863928204298], [28.373213304364214, 37.89863928204298], [28.373213304364214, 37.898100292872506], [28.374830271875652, 37.898100292872506], [28.374830271875652, 37.89702231453156], [28.375369261046103, 37.89702231453156], [28.375369261046103, 37.897561303702034], [28.377525217727992, 37.897561303702034], [28.377525217727992, 37.89702231453156], [28.379142185239402, 37.89702231453156], [28.379142185239402, 37.89648332536109]], [[28.371057347682324, 37.90349018457722], [28.371057347682324, 37.90456816291817], [28.369979369341394, 37.90456816291817], [28.369979369341394, 37.904029173747695], [28.370518358511873, 37.904029173747695], [28.370518358511873, 37.90349018457722], [28.371057347682324, 37.90349018457722]], [[28.377525217727992, 37.90133422789533], [28.377525217727992, 37.90241220623628], [28.376986228557513, 37.90241220623628], [28.376986228557513, 37.90133422789533], [28.377525217727992, 37.90133422789533]], [[28.376986228557513, 37.90079523872486], [28.376986228557513, 37.90133422789533], [28.376447239387062, 37.90133422789533], [28.376447239387062, 37.901873217065805], [28.375908250216582, 37.901873217065805], [28.375908250216582, 37.90079523872486], [28.376986228557513, 37.90079523872486]], [[28.378064206898472, 37.89863928204298], [28.378064206898472, 37.89971726038392], [28.377525217727992, 37.89971726038392], [28.377525217727992, 37.89863928204298], [28.378064206898472, 37.89863928204298]], [[28.37860319606895, 37.898100292872506], [28.37860319606895, 37.89863928204298], [28.378064206898472, 37.89863928204298], [28.378064206898472, 37.898100292872506], [28.37860319606895, 37.898100292872506]]]}, "properties": {"area_ha": 65.75491230333455, "mean_dnbr": 0.3547708119456687, "compactness": 0.047, "rectangularity": 0.387, "cropland_frac": 0.463, "persistent": null}}, {"type": "Feature", "geometry": {"geodesic": false, "type": "Polygon", "coordinates": [[[28.38776601196696, 37.87168982351939], [28.38830500113744, 37.87168982351939], [28.38830500113744, 37.87222881268986], [28.39099994698978, 37.87222881268986], [28.39099994698978, 37.87330679103081], [28.39046095781933, 37.87330679103081], [28.39046095781933, 37.87384578020128], [28.38992196864885, 37.87384578020128], [28.38992196864885, 37.874923758542224], [28.38938297947837, 37.874923758542224], [28.38938297947837, 37.87438476937175], [28.38722702279648, 37.87438476937175], [28.38722702279648, 37.87330679103081], [28.38507106611459, 37.87330679103081], [28.38507106611459, 37.87384578020128], [28.38453207694414, 37.87384578020128], [28.38453207694414, 37.874923758542224], [28.38399308777366, 37.874923758542224], [28.38399308777366, 37.875462747712696], [28.38507106611459, 37.875462747712696], [28.38507106611459, 37.87600173688317], [28.38668803362603, 37.87600173688317], [28.38668803362603, 37.875462747712696], [28.38776601196696, 37.875462747712696], [28.38776601196696, 37.87761870439458], [28.38830500113744, 37.87761870439458], [28.38830500113744, 37.87815769356505], [28.38668803362603, 37.87815769356505], [28.38668803362603, 37.88031365024694], [28.38561005528507, 37.88031365024694], [28.38561005528507, 37.87977466107647], [28.38614904445555, 37.87977466107647], [28.38614904445555, 37.87869668273552], [28.38561005528507, 37.87869668273552], [28.38561005528507, 37.87815769356505], [28.38614904445555, 37.87815769356505], [28.38614904445555, 37.87761870439458], [28.38453207694414, 37.87761870439458], [28.38453207694414, 37.877079715224106], [28.38399308777366, 37.877079715224106], [28.38399308777366, 37.87654072605363], [28.38507106611459, 37.87654072605363], [28.38507106611459, 37.87600173688317], [28.3829151094327, 37.87600173688317], [28.3829151094327, 37.87654072605363], [28.38237612026225, 37.87654072605363], [28.38237612026225, 37.87600173688317], [28.38183713109177, 37.87600173688317], [28.38183713109177, 37.874923758542224], [28.38022016358036, 37.874923758542224], [28.38022016358036, 37.87438476937175], [28.379681174409882, 37.87438476937175], [28.379681174409882, 37.872767801860334], [28.378064206898472, 37.872767801860334], [28.378064206898472, 37.87168982351939], [28.38022016358036, 37.87168982351939], [28.38022016358036, 37.87330679103081], [28.38237612026225, 37.87330679103081], [28.38237612026225, 37.87222881268986], [28.3829151094327, 37.87222881268986], [28.3829151094327, 37.87168982351939], [28.38722702279648, 37.87168982351939], [28.38722702279648, 37.87222881268986], [28.38776601196696, 37.87222881268986], [28.38776601196696, 37.87168982351939]], [[28.38614904445555, 37.87654072605363], [28.38614904445555, 37.877079715224106], [28.38507106611459, 37.877079715224106], [28.38507106611459, 37.87654072605363], [28.38614904445555, 37.87654072605363]], [[28.3829151094327, 37.875462747712696], [28.3829151094327, 37.87600173688317], [28.38237612026225, 37.87600173688317], [28.38237612026225, 37.875462747712696], [28.3829151094327, 37.875462747712696]]]}, "properties": {"area_ha": 36.00881829158457, "mean_dnbr": 0.36743275095493555, "compactness": 0.094, "rectangularity": 0.331, "cropland_frac": 0.467, "persistent": null}}, {"type": "Feature", "geometry": {"geodesic": false, "type": "Polygon", "coordinates": [[[28.39153893616026, 37.90025624955439], [28.394233882012628, 37.90025624955439], [28.394233882012628, 37.90079523872486], [28.39369489284215, 37.90079523872486], [28.39369489284215, 37.90133422789533], [28.39477287118308, 37.90133422789533], [28.39477287118308, 37.901873217065805], [28.39369489284215, 37.901873217065805], [28.39369489284215, 37.904029173747695], [28.39477287118308, 37.904029173747695], [28.39477287118308, 37.90564614125911], [28.39531186035356, 37.90564614125911], [28.39531186035356, 37.906185130429584], [28.395850849524038, 37.906185130429584], [28.395850849524038, 37.90564614125911], [28.398006806205927, 37.90564614125911], [28.398006806205927, 37.90726310877052], [28.398545795376407, 37.90726310877052], [28.398545795376407, 37.907802097940994], [28.39692882786497, 37.907802097940994], [28.39692882786497, 37.90834108711147], [28.396389838694517, 37.90834108711147], [28.396389838694517, 37.90888007628194], [28.399623773717337, 37.90888007628194], [28.399623773717337, 37.907802097940994], [28.400162762887817, 37.907802097940994], [28.400162762887817, 37.90888007628194], [28.400701752058268, 37.90888007628194], [28.400701752058268, 37.90834108711147], [28.401240741228747, 37.90834108711147], [28.401240741228747, 37.90941906545241], [28.400701752058268, 37.90941906545241], [28.400701752058268, 37.909958054622884], [28.399623773717337, 37.909958054622884], [28.399623773717337, 37.90941906545241], [28.399084784546858, 37.90941906545241], [28.399084784546858, 37.909958054622884], [28.398545795376407, 37.909958054622884], [28.398545795376407, 37.910497043793356], [28.397467817035448, 37.910497043793356], [28.397467817035448, 37.91103603296383], [28.396389838694517, 37.91103603296383], [28.396389838694517, 37.90888007628194], [28.39531186035356, 37.90888007628194], [28.39531186035356, 37.90941906545241], [28.39477287118308, 37.90941906545241], [28.39477287118308, 37.90834108711147], [28.39531186035356, 37.90834108711147], [28.39531186035356, 37.907802097940994], [28.395850849524038, 37.907802097940994], [28.395850849524038, 37.90672411960005], [28.39477287118308, 37.90672411960005], [28.39477287118308, 37.90564614125911], [28.39207792533074, 37.90564614125911], [28.39207792533074, 37.90510715208864], [28.39153893616026, 37.90510715208864], [28.39153893616026, 37.90025624955439]], [[28.400162762887817, 37.90888007628194], [28.400162762887817, 37.90941906545241], [28.399623773717337, 37.90941906545241], [28.399623773717337, 37.90888007628194], [28.400162762887817, 37.90888007628194]]]}, "properties": {"area_ha": 28.05790839511846, "mean_dnbr": 0.3479800473990122, "compactness": 0.102, "rectangularity": 0.389, "cropland_frac": 0.254, "persistent": null}}, {"type": "Feature", "geometry": {"geodesic": false, "type": "Polygon", "coordinates": [[[28.394233882012628, 37.885164552781184], [28.396389838694517, 37.885164552781184], [28.396389838694517, 37.8867815202926], [28.39477287118308, 37.8867815202926], [28.39477287118308, 37.887859498633546], [28.39692882786497, 37.887859498633546], [28.39692882786497, 37.8867815202926], [28.398006806205927, 37.8867815202926], [28.398006806205927, 37.88624253112213], [28.398545795376407, 37.88624253112213], [28.398545795376407, 37.88732050946307], [28.399623773717337, 37.88732050946307], [28.399623773717337, 37.887859498633546], [28.398545795376407, 37.887859498633546], [28.398545795376407, 37.88839848780401], [28.397467817035448, 37.88839848780401], [28.397467817035448, 37.88893747697448], [28.396389838694517, 37.88893747697448], [28.396389838694517, 37.889476466144956], [28.397467817035448, 37.889476466144956], [28.397467817035448, 37.89001545531543], [28.395850849524038, 37.89001545531543], [28.395850849524038, 37.8905544444859], [28.39477287118308, 37.8905544444859], [28.39477287118308, 37.89001545531543], [28.394233882012628, 37.89001545531543], [28.394233882012628, 37.89109343365637], [28.39531186035356, 37.89109343365637], [28.39531186035356, 37.891632422826845], [28.39477287118308, 37.891632422826845], [28.39477287118308, 37.89271040116779], [28.39369489284215, 37.89271040116779], [28.39369489284215, 37.89324939033826], [28.39207792533074, 37.89324939033826], [28.39207792533074, 37.891632422826845], [28.39315590367167, 37.891632422826845], [28.39315590367167, 37.89271040116779], [28.39369489284215, 37.89271040116779], [28.39369489284215, 37.89217141199732], [28.394233882012628, 37.89217141199732], [28.394233882012628, 37.891632422826845], [28.39369489284215, 37.891632422826845], [28.39369489284215, 37.89109343365637], [28.39207792533074, 37.89109343365637], [28.39207792533074, 37.8905544444859], [28.39153893616026, 37.8905544444859], [28.39153893616026, 37.889476466144956], [28.39207792533074, 37.889476466144956], [28.39207792533074, 37.88893747697448], [28.39315590367167, 37.88893747697448], [28.39315590367167, 37.889476466144956], [28.392616914501218, 37.889476466144956], [28.392616914501218, 37.89001545531543], [28.394233882012628, 37.89001545531543], [28.394233882012628, 37.88893747697448], [28.39369489284215, 37.88893747697448], [28.39369489284215, 37.88839848780401], [28.39315590367167, 37.88839848780401], [28.39315590367167, 37.8867815202926], [28.392616914501218, 37.8867815202926], [28.392616914501218, 37.88839848780401], [28.39207792533074, 37.88839848780401], [28.39207792533074, 37.8867815202926], [28.38884399030789, 37.8867815202926], [28.38884399030789, 37.88732050946307], [28.38776601196696, 37.88732050946307], [28.38776601196696, 37.88624253112213], [28.38884399030789, 37.88624253112213], [28.38884399030789, 37.885164552781184], [28.38992196864885, 37.885164552781184], [28.38992196864885, 37.885703541951656], [28.39099994698978, 37.885703541951656], [28.39099994698978, 37.885164552781184], [28.39315590367167, 37.885164552781184], [28.39315590367167, 37.885703541951656], [28.39369489284215, 37.885703541951656], [28.39369489284215, 37.88624253112213], [28.39315590367167, 37.88624253112213], [28.39315590367167, 37.8867815202926], [28.39369489284215, 37.8867815202926], [28.39369489284215, 37.88732050946307], [28.394233882012628, 37.88732050946307], [28.394233882012628, 37.885164552781184]]]}, "properties": {"area_ha": 31.466391142371624, "mean_dnbr": 0.30359478834175635, "compactness": 0.068, "rectangularity": 0.352, "cropland_frac": 0.359, "persistent": null}}, {"type": "Feature", "geometry": {"geodesic": false, "type": "Polygon", "coordinates": [[[28.42603424307046, 37.86953386683751], [28.42819019975235, 37.86953386683751], [28.42819019975235, 37.87007285600797], [28.4287291889228, 37.87007285600797], [28.4287291889228, 37.870611845178445], [28.42926817809328, 37.870611845178445], [28.42926817809328, 37.87115083434892], [28.4287291889228, 37.87115083434892], [28.4287291889228, 37.870611845178445], [28.42765121058187, 37.870611845178445], [28.42765121058187, 37.87168982351939], [28.4287291889228, 37.87168982351939], [28.4287291889228, 37.872767801860334], [28.42926817809328, 37.872767801860334], [28.42926817809328, 37.87330679103081], [28.43034615643424, 37.87330679103081], [28.43034615643424, 37.87384578020128], [28.42980716726376, 37.87384578020128], [28.42980716726376, 37.874923758542224], [28.42926817809328, 37.874923758542224], [28.42926817809328, 37.87815769356505], [28.42980716726376, 37.87815769356505], [28.42980716726376, 37.88031365024694], [28.4287291889228, 37.88031365024694], [28.4287291889228, 37.88085263941741], [28.42765121058187, 37.88085263941741], [28.42765121058187, 37.87977466107647], [28.426573232240912, 37.87977466107647], [28.426573232240912, 37.879235671905995], [28.42765121058187, 37.879235671905995], [28.42765121058187, 37.87869668273552], [28.4287291889228, 37.87869668273552], [28.4287291889228, 37.87815769356505], [28.426573232240912, 37.87815769356505], [28.426573232240912, 37.877079715224106], [28.42711222141139, 37.877079715224106], [28.42711222141139, 37.872767801860334], [28.42765121058187, 37.872767801860334], [28.42765121058187, 37.87222881268986], [28.426573232240912, 37.87222881268986], [28.426573232240912, 37.87168982351939], [28.42549525389998, 37.87168982351939], [28.42549525389998, 37.87222881268986], [28.42603424307046, 37.87222881268986], [28.42603424307046, 37.87330679103081], [28.424956264729502, 37.87330679103081], [28.424956264729502, 37.872767801860334], [28.423339297218092, 37.872767801860334], [28.423339297218092, 37.87222881268986], [28.424417275559023, 37.87222881268986], [28.424417275559023, 37.87168982351939], [28.42387828638857, 37.87168982351939], [28.42387828638857, 37.87115083434892], [28.424417275559023, 37.87115083434892], [28.424417275559023, 37.870611845178445], [28.42549525389998, 37.870611845178445], [28.42549525389998, 37.87115083434892], [28.42603424307046, 37.87115083434892], [28.42603424307046, 37.86953386683751]]]}, "properties": {"area_ha": 28.636838772280164, "mean_dnbr": 0.3940160251883067, "compactness": 0.12, "rectangularity": 0.397, "cropland_frac": 0.469, "persistent": null}}]}