{"type": "FeatureCollection", "crs": {"type": "name", "properties": {"name": "urn:ogc:def:crs:OGC:1.3:CRS84"}}, "features": [{"type": "Feature", "geometry": {"geodesic": false, "type": "Polygon", "coordinates": [[[28.364050488466205, 37.86791689932609], [28.365128466807136, 37.86791689932609], [28.365128466807136, 37.86845588849656], [28.365667455977615, 37.86845588849656], [28.365667455977615, 37.868994877667035], [28.366745434318574, 37.868994877667035], [28.366745434318574, 37.86953386683751], [28.366206445148094, 37.86953386683751], [28.366206445148094, 37.87007285600797], [28.365667455977615, 37.87007285600797], [28.365667455977615, 37.870611845178445], [28.364589477636684, 37.870611845178445], [28.364589477636684, 37.87115083434892], [28.364050488466205, 37.87115083434892], [28.364050488466205, 37.87168982351939], [28.363511499295726, 37.87168982351939], [28.363511499295726, 37.87222881268986], [28.362972510125275, 37.87222881268986], [28.362972510125275, 37.872767801860334], [28.362433520954795, 37.872767801860334], [28.362433520954795, 37.87330679103081], [28.361894531784316, 37.87330679103081], [28.361894531784316, 37.87438476937175], [28.364050488466205, 37.87438476937175], [28.364050488466205, 37.874923758542224], [28.364589477636684, 37.874923758542224], [28.364589477636684, 37.875462747712696], [28.365128466807136, 37.875462747712696], [28.365128466807136, 37.87761870439458], [28.363511499295726, 37.87761870439458], [28.363511499295726, 37.87654072605363], [28.362433520954795, 37.87654072605363], [28.362433520954795, 37.875462747712696], [28.360816553443385, 37.875462747712696], [28.360816553443385, 37.87654072605363], [28.361355542613836, 37.87654072605363], [28.361355542613836, 37.877079715224106], [28.361894531784316, 37.877079715224106], [28.361894531784316, 37.87761870439458], [28.360816553443385, 37.87761870439458], [28.360816553443385, 37.877079715224106], [28.360277564272906, 37.877079715224106], [28.360277564272906, 37.874923758542224], [28.359738575102426, 37.874923758542224], [28.359738575102426, 37.875462747712696], [28.359199585931947, 37.875462747712696], [28.359199585931947, 37.87600173688317], [28.358121607591016, 37.87600173688317], [28.358121607591016, 37.874923758542224], [28.357582618420537, 37.874923758542224], [28.357582618420537, 37.87438476937175], [28.357043629250086, 37.87438476937175], [28.357043629250086, 37.87384578020128], [28.356504640079606, 37.87384578020128], [28.356504640079606, 37.87330679103081], [28.357043629250086, 37.87330679103081], [28.357043629250086, 37.872767801860334], [28.357582618420537, 37.872767801860334], [28.357582618420537, 37.87330679103081], [28.358121607591016, 37.87330679103081], [28.358121607591016, 37.87384578020128], [28.360277564272906, 37.87384578020128], [28.360277564272906, 37.872767801860334], [28.359738575102426, 37.872767801860334], [28.359738575102426, 37.87222881268986], [28.360816553443385, 37.87222881268986], [28.360816553443385, 37.87168982351939], [28.360277564272906, 37.87168982351939], [28.360277564272906, 37.87115083434892], [28.360816553443385, 37.87115083434892], [28.360816553443385, 37.86953386683751], [28.361355542613836, 37.86953386683751], [28.361355542613836, 37.868994877667035], [28.361894531784316, 37.868994877667035], [28.361894531784316, 37.86953386683751], [28.362433520954795, 37.86953386683751], [28.362433520954795, 37.87007285600797], [28.363511499295726, 37.87007285600797], [28.363511499295726, 37.868994877667035], [28.364050488466205, 37.868994877667035], [28.364050488466205, 37.86791689932609]], [[28.361894531784316, 37.87222881268986], [28.361894531784316, 37.872767801860334], [28.360816553443385, 37.872767801860334], [28.360816553443385, 37.87222881268986], [28.361894531784316, 37.87222881268986]]]}, "properties": {"area_ha": 33.74115601633486, "mean_dnbr": 0.4383426031564431, "compactness": 0.103, "rectangularity": 0.365, "cropland_frac": 0.318, "persistent": null}}, {"type": "Feature", "geometry": {"geodesic": false, "type": "Polygon", "coordinates": [[[28.366206445148094, 37.916425924668545], [28.367284423489025, 37.916425924668545], [28.367284423489025, 37.91696491383902], [28.368362401829984, 37.91696491383902], [28.368362401829984, 37.91750390300949], [28.368901391000463, 37.91750390300949], [28.368901391000463, 37.91804289217996], [28.367823412659504, 37.91804289217996], [28.367823412659504, 37.9191208705209], [28.368362401829984, 37.9191208705209], [28.368362401829984, 37.91965985969137], [28.368901391000463, 37.91965985969137], [28.368901391000463, 37.9191208705209], [28.369440380170914, 37.9191208705209], [28.369440380170914, 37.91965985969137], [28.368901391000463, 37.91965985969137], [28.368901391000463, 37.920198848861844], [28.367823412659504, 37.920198848861844], [28.367823412659504, 37.920737838032316], [28.364589477636684, 37.920737838032316], [28.364589477636684, 37.92127682720279], [28.367284423489025, 37.92127682720279], [28.367284423489025, 37.92343278388468], [28.366206445148094, 37.92343278388468], [28.366206445148094, 37.92181581637326], [28.365667455977615, 37.92181581637326], [28.365667455977615, 37.92235480554373], [28.365128466807136, 37.92235480554373], [28.365128466807136, 37.92343278388468], [28.364050488466205, 37.92343278388468], [28.364050488466205, 37.922893794714206], [28.364589477636684, 37.922893794714206], [28.364589477636684, 37.92235480554373], [28.365128466807136, 37.92235480554373], [28.365128466807136, 37.92181581637326], [28.364589477636684, 37.92181581637326], [28.364589477636684, 37.92127682720279], [28.364050488466205, 37.92127682720279], [28.364050488466205, 37.92181581637326], [28.363511499295726, 37.92181581637326], [28.363511499295726, 37.92235480554373], [28.362972510125275, 37.92235480554373], [28.362972510125275, 37.92181581637326], [28.363511499295726, 37.92181581637326], [28.363511499295726, 37.92127682720279], [28.362433520954795, 37.92127682720279], [28.362433520954795, 37.920198848861844], [28.361894531784316, 37.920198848861844], [28.361894531784316, 37.92181581637326], [28.361355542613836, 37.92181581637326], [28.361355542613836, 37.92235480554373], [28.360277564272906, 37.92235480554373], [28.360277564272906, 37.92181581637326], [28.361355542613836, 37.92181581637326], [28.361355542613836, 37.920198848861844], [28.361894531784316, 37.920198848861844], [28.361894531784316, 37.91965985969137], [28.360816553443385, 37.91965985969137], [28.360816553443385, 37.9191208705209], [28.361355542613836, 37.9191208705209], [28.361355542613836, 37.91858188135043], [28.362433520954795, 37.91858188135043], [28.362433520954795, 37.920198848861844], [28.363511499295726, 37.920198848861844], [28.363511499295726, 37.91965985969137], [28.362972510125275, 37.91965985969137], [28.362972510125275, 37.91750390300949], [28.364050488466205, 37.91750390300949], [28.364050488466205, 37.91804289217996], [28.364589477636684, 37.91804289217996], [28.364589477636684, 37.9191208705209], [28.366745434318574, 37.9191208705209], [28.366745434318574, 37.91804289217996], [28.367284423489025, 37.91804289217996], [28.367284423489025, 37.91696491383902], [28.366206445148094, 37.91696491383902], [28.366206445148094, 37.916425924668545]], [[28.367823412659504, 37.91965985969137], [28.367823412659504, 37.920198848861844], [28.367284423489025, 37.920198848861844], [28.367284423489025, 37.91965985969137], [28.367823412659504, 37.91965985969137]]]}, "properties": {"area_ha": 22.952022703710682, "mean_dnbr": 0.33916421171034433, "compactness": 0.064, "rectangularity": 0.378, "cropland_frac": 0.308, "persistent": null}}, {"type": "Feature", "geometry": {"geodesic": false, "type": "Polygon", "coordinates": [[[28.374830271875652, 37.8905544444859], [28.375369261046103, 37.8905544444859], [28.375369261046103, 37.891632422826845], [28.375908250216582, 37.891632422826845], [28.375908250216582, 37.89217141199732], [28.376447239387062, 37.89217141199732], [28.376447239387062, 37.891632422826845], [28.376986228557513, 37.891632422826845], [28.376986228557513, 37.89271040116779], [28.379142185239402, 37.89271040116779], [28.379142185239402, 37.893788379508734], [28.377525217727992, 37.893788379508734], [28.377525217727992, 37.89486635784967], [28.376986228557513, 37.89486635784967], [28.376986228557513, 37.893788379508734], [28.375908250216582, 37.893788379508734], [28.375908250216582, 37.89324939033826], [28.375369261046103, 37.89324939033826], [28.375369261046103, 37.89271040116779], [28.373213304364214, 37.89271040116779], [28.373213304364214, 37.893788379508734], [28.374830271875652, 37.893788379508734], [28.374830271875652, 37.89486635784967], [28.372135326023283, 37.89486635784967], [28.372135326023283, 37.8943273686792], [28.371596336852804, 37.8943273686792], [28.371596336852804, 37.895405347020144], [28.370518358511873, 37.895405347020144], [28.370518358511873, 37.89594433619062], [28.369979369341394, 37.89594433619062], [28.369979369341394, 37.89702231453156], [28.368901391000463, 37.89702231453156], [28.368901391000463, 37.89594433619062], [28.368362401829984, 37.89594433619062], [28.368362401829984, 37.895405347020144], [28.368901391000463, 37.895405347020144], [28.368901391000463, 37.89486635784967], [28.370518358511873, 37.89486635784967], [28.370518358511873, 37.893788379508734], [28.369440380170914, 37.893788379508734], [28.369440380170914, 37.89217141199732], [28.371057347682324, 37.89217141199732], [28.371057347682324, 37.89324939033826], [28.371596336852804, 37.89324939033826], [28.371596336852804, 37.893788379508734], [28.372674315193763, 37.893788379508734], [28.372674315193763, 37.89271040116779], [28.372135326023283, 37.89271040116779], [28.372135326023283, 37.891632422826845], [28.374830271875652, 37.891632422826845], [28.374830271875652, 37.8905544444859]]]}, "properties": {"area_ha": 20.97605191339059, "mean_dnbr": 0.3486106834410815, "compactness": 0.106, "rectangularity": 0.39, "cropland_frac": 0.254, "persistent": null}}, {"type": "Feature", "geometry": {"geodesic": false, "type": "Polygon", "coordinates": [[[28.38668803362603, 37.87600173688317], [28.38776601196696, 37.87600173688317], [28.38776601196696, 37.877079715224106], [28.38722702279648, 37.877079715224106], [28.38722702279648, 37.87761870439458], [28.38830500113744, 37.87761870439458], [28.38830500113744, 37.877079715224106], [28.38938297947837, 37.877079715224106], [28.38938297947837, 37.87761870439458], [28.39046095781933, 37.87761870439458], [28.39046095781933, 37.87815769356505], [28.39153893616026, 37.87815769356505], [28.39153893616026, 37.88085263941741], [28.39099994698978, 37.88085263941741], [28.39099994698978, 37.88031365024694], [28.38992196864885, 37.88031365024694], [28.38992196864885, 37.88085263941741], [28.38938297947837, 37.88085263941741], [28.38938297947837, 37.88031365024694], [28.38884399030789, 37.88031365024694], [28.38884399030789, 37.87815769356505], [28.38776601196696, 37.87815769356505], [28.38776601196696, 37.88031365024694], [28.38614904445555, 37.88031365024694], [28.38614904445555, 37.87869668273552], [28.38561005528507, 37.87869668273552], [28.38561005528507, 37.88031365024694], [28.38507106611459, 37.88031365024694], [28.38507106611459, 37.88085263941741], [28.38399308777366, 37.88085263941741], [28.38399308777366, 37.88031365024694], [28.38345409860318, 37.88031365024694], [28.38345409860318, 37.879235671905995], [28.38237612026225, 37.879235671905995], [28.38237612026225, 37.87977466107647], [28.38183713109177, 37.87977466107647], [28.38183713109177, 37.881391628587885], [28.38075915275084, 37.881391628587885], [28.38075915275084, 37.88085263941741], [28.38022016358036, 37.88085263941741], [28.38022016358036, 37.88031365024694], [28.38075915275084, 37.88031365024694], [28.38075915275084, 37.877079715224106], [28.3829151094327, 37.877079715224106], [28.3829151094327, 37.87815769356505], [28.38399308777366, 37.87815769356505], [28.38399308777366, 37.87761870439458], [28.38453207694414, 37.87761870439458], [28.38453207694414, 37.877079715224106], [28.38614904445555, 37.877079715224106], [28.38614904445555, 37.87654072605363], [28.38668803362603, 37.87654072605363], [28.38668803362603, 37.87600173688317]], [[28.38237612026225, 37.87815769356505], [28.38237612026225, 37.87869668273552], [28.38129814192129, 37.87869668273552], [28.38129814192129, 37.87815769356505], [28.38237612026225, 37.87815769356505]], [[28.38668803362603, 37.87761870439458], [28.38668803362603, 37.87815769356505], [28.38453207694414, 37.87815769356505], [28.38453207694414, 37.87761870439458], [28.38668803362603, 37.87761870439458]]]}, "properties": {"area_ha": 28.068175193609083, "mean_dnbr": 0.3371945548954862, "compactness": 0.102, "rectangularity": 0.488, "cropland_frac": 0.447, "persistent": null}}, {"type": "Feature", "geometry": {"geodesic": false, "type": "Polygon", "coordinates": [[[28.414176481320084, 37.866838920985145], [28.416871427172424, 37.866838920985145], [28.416871427172424, 37.86737791015562], [28.419566373024793, 37.86737791015562], [28.419566373024793, 37.86791689932609], [28.420644351365723, 37.86791689932609], [28.420644351365723, 37.86845588849656], [28.420105362195272, 37.86845588849656], [28.420105362195272, 37.868994877667035], [28.420644351365723, 37.868994877667035], [28.420644351365723, 37.86953386683751], [28.421722329706682, 37.86953386683751], [28.421722329706682, 37.870611845178445], [28.420644351365723, 37.870611845178445], [28.420644351365723, 37.87115083434892], [28.420105362195272, 37.87115083434892], [28.420105362195272, 37.870611845178445], [28.417410416342904, 37.870611845178445], [28.417410416342904, 37.87007285600797], [28.416871427172424, 37.87007285600797], [28.416871427172424, 37.86953386683751], [28.415254459661014, 37.86953386683751], [28.415254459661014, 37.868994877667035], [28.414715470490535, 37.868994877667035], [28.414715470490535, 37.86845588849656], [28.413637492149604, 37.86845588849656], [28.413637492149604, 37.86953386683751], [28.413098502979125, 37.86953386683751], [28.413098502979125, 37.87007285600797], [28.410942546297235, 37.87007285600797], [28.410942546297235, 37.86845588849656], [28.413637492149604, 37.86845588849656], [28.413637492149604, 37.86791689932609], [28.413098502979125, 37.86791689932609], [28.413098502979125, 37.86737791015562], [28.414176481320084, 37.86737791015562], [28.414176481320084, 37.866838920985145]], [[28.419027383854313, 37.86953386683751], [28.419027383854313, 37.87007285600797], [28.418488394683834, 37.87007285600797], [28.418488394683834, 37.86953386683751], [28.419027383854313, 37.86953386683751]]]}, "properties": {"area_ha": 22.967981408691248, "mean_dnbr": 0.37505443951273626, "compactness": 0.221, "rectangularity": 0.547, "cropland_frac": 0.492, "persistent": null}}, {"type": "Feature", "geometry": {"geodesic": false, "type": "Polygon", "coordinates": [[[28.553774676472244, 38.307193073260535], [28.554852654813203, 38.307193073260535], [28.554852654813203, 38.30773206243101], [28.555930633154134, 38.30773206243101], [28.555930633154134, 38.30827105160148], [28.557547600665544, 38.30827105160148], [28.557547600665544, 38.30881004077195], [28.555930633154134, 38.30881004077195], [28.555930633154134, 38.30827105160148], [28.555391643983654, 38.30827105160148], [28.555391643983654, 38.30881004077195], [28.554852654813203, 38.30881004077195], [28.554852654813203, 38.30827105160148], [28.553774676472244, 38.30827105160148], [28.553774676472244, 38.309349029942425], [28.553235687301765, 38.309349029942425], [28.553235687301765, 38.3098880191129], [28.553774676472244, 38.3098880191129], [28.553774676472244, 38.31042700828336], [28.554313665642724, 38.31042700828336], [28.554313665642724, 38.310965997453835], [28.554852654813203, 38.310965997453835], [28.554852654813203, 38.31150498662431], [28.555930633154134, 38.31150498662431], [28.555930633154134, 38.31042700828336], [28.556469622324613, 38.31042700828336], [28.556469622324613, 38.309349029942425], [28.558086589836023, 38.309349029942425], [28.558086589836023, 38.3098880191129], [28.558625579006502, 38.3098880191129], [28.558625579006502, 38.309349029942425], [28.559703557347433, 38.309349029942425], [28.559703557347433, 38.3098880191129], [28.560781535688392, 38.3098880191129], [28.560781535688392, 38.309349029942425], [28.561320524858843, 38.309349029942425], [28.561320524858843, 38.30881004077195], [28.561859514029322, 38.30881004077195], [28.561859514029322, 38.309349029942425], [28.56293749237028, 38.309349029942425], [28.56293749237028, 38.3098880191129], [28.561320524858843, 38.3098880191129], [28.561320524858843, 38.31042700828336], [28.562398503199802, 38.31042700828336], [28.562398503199802, 38.310965997453835], [28.563476481540732, 38.310965997453835], [28.563476481540732, 38.3098880191129], [28.56455445988169, 38.3098880191129], [28.56455445988169, 38.30881004077195], [28.565093449052142, 38.30881004077195], [28.565093449052142, 38.309349029942425], [28.56671041656358, 38.309349029942425], [28.56671041656358, 38.3098880191129], [28.56455445988169, 38.3098880191129], [28.56455445988169, 38.310965997453835], [28.565093449052142, 38.310965997453835], [28.565093449052142, 38.31204397579478], [28.56455445988169, 38.31204397579478], [28.56455445988169, 38.31258296496525], [28.56401547071121, 38.31258296496525], [28.56401547071121, 38.313121954135724], [28.56293749237028, 38.313121954135724], [28.56293749237028, 38.313660943306196], [28.562398503199802, 38.313660943306196], [28.562398503199802, 38.31419993247667], [28.561320524858843, 38.31419993247667], [28.561320524858843, 38.31473892164714], [28.560242546517912, 38.31473892164714], [28.560242546517912, 38.31419993247667], [28.558625579006502, 38.31419993247667], [28.558625579006502, 38.31473892164714], [28.555391643983654, 38.31473892164714], [28.555391643983654, 38.313660943306196], [28.553235687301765, 38.313660943306196], [28.553235687301765, 38.313121954135724], [28.552157708960834, 38.313121954135724], [28.552157708960834, 38.31258296496525], [28.551079730619875, 38.31258296496525], [28.551079730619875, 38.313660943306196], [28.549462763108465, 38.313660943306196], [28.549462763108465, 38.31258296496525], [28.548923773938014, 38.31258296496525], [28.548923773938014, 38.31204397579478], [28.548384784767535, 38.31204397579478], [28.548384784767535, 38.310965997453835], [28.548923773938014, 38.310965997453835], [28.548923773938014, 38.31042700828336], [28.549462763108465, 38.31042700828336], [28.549462763108465, 38.3098880191129], [28.548923773938014, 38.3098880191129], [28.548923773938014, 38.309349029942425], [28.550001752278945, 38.309349029942425], [28.550001752278945, 38.30827105160148], [28.552696698131314, 38.30827105160148], [28.552696698131314, 38.30773206243101], [28.553774676472244, 38.30773206243101], [28.553774676472244, 38.307193073260535]], [[28.558625579006502, 38.313660943306196], [28.558625579006502, 38.31419993247667], [28.558086589836023, 38.31419993247667], [28.558086589836023, 38.313660943306196], [28.558625579006502, 38.313660943306196]]]}, "properties": {"area_ha": 69.61543844555491, "mean_dnbr": 0.4607490616912744, "compactness": 0.129, "rectangularity": 0.554, "cropland_frac": 0.005, "persistent": null}}, {"type": "Feature", "geometry": {"geodesic": false, "type": "Polygon", "coordinates": [[[29.334769984485746, 37.84581834333675], [29.335308973656225, 37.84581834333675], [29.335308973656225, 37.84635733250722], [29.336925941167635, 37.84635733250722], [29.336925941167635, 37.84689632167769], [29.339081897849525, 37.84689632167769], [29.339081897849525, 37.84743531084816], [29.340159876190484, 37.84743531084816], [29.340159876190484, 37.847974300018635], [29.341237854531414, 37.847974300018635], [29.341237854531414, 37.84851328918911], [29.342315832872373, 37.84851328918911], [29.342315832872373, 37.84905227835958], [29.342854822042824, 37.84905227835958], [29.342854822042824, 37.84959126753005], [29.343932800383783, 37.84959126753005], [29.343932800383783, 37.84851328918911], [29.345010778724713, 37.84851328918911], [29.345010778724713, 37.847974300018635], [29.345549767895193, 37.847974300018635], [29.345549767895193, 37.84851328918911], [29.346627746236152, 37.84851328918911], [29.346627746236152, 37.85174722421194], [29.343932800383783, 37.85174722421194], [29.343932800383783, 37.850669245870996], [29.340698865360963, 37.850669245870996], [29.340698865360963, 37.850130256700524], [29.340159876190484, 37.850130256700524], [29.340159876190484, 37.84959126753005], [29.339620887020004, 37.84959126753005], [29.339620887020004, 37.84905227835958], [29.336925941167635, 37.84905227835958], [29.336925941167635, 37.84851328918911], [29.336386951997184, 37.84851328918911], [29.336386951997184, 37.847974300018635], [29.335847962826705, 37.847974300018635], [29.335847962826705, 37.84689632167769], [29.334769984485746, 37.84689632167769], [29.334769984485746, 37.84581834333675]]]}, "properties": {"area_ha": 24.959610259256873, "mean_dnbr": 0.4699224916681374, "compactness": 0.222, "rectangularity": 0.48, "cropland_frac": 0.203, "persistent": null}}, {"type": "Feature", "geometry": {"geodesic": false, "type": "Polygon", "coordinates": [[[29.393519804067182, 38.158432062210345], [29.39405879323766, 38.158432062210345], [29.39405879323766, 38.15897105138082], [29.394597782408113, 38.15897105138082], [29.394597782408113, 38.166516899767416], [29.391902836555772, 38.166516899767416], [29.391902836555772, 38.16597791059694], [29.392441825726223, 38.16597791059694], [29.392441825726223, 38.164899932256006], [29.391902836555772, 38.164899932256006], [29.391902836555772, 38.16543892142648], [29.391363847385293, 38.16543892142648], [29.391363847385293, 38.164899932256006], [29.391902836555772, 38.164899932256006], [29.391902836555772, 38.16436094308553], [29.391363847385293, 38.16436094308553], [29.391363847385293, 38.16274397557412], [29.390824858214813, 38.16274397557412], [29.390824858214813, 38.162204986403644], [29.390285869044334, 38.162204986403644], [29.390285869044334, 38.16274397557412], [29.389746879873883, 38.16274397557412], [29.389746879873883, 38.16382195391506], [29.389207890703403, 38.16382195391506], [29.389207890703403, 38.162204986403644], [29.389746879873883, 38.162204986403644], [29.389746879873883, 38.1611270080627], [29.390824858214813, 38.1611270080627], [29.390824858214813, 38.160049029721755], [29.391363847385293, 38.160049029721755], [29.391363847385293, 38.16058801889223], [29.392441825726223, 38.16058801889223], [29.392441825726223, 38.160049029721755], [29.39405879323766, 38.160049029721755], [29.39405879323766, 38.15897105138082], [29.393519804067182, 38.15897105138082], [29.393519804067182, 38.15951004055128], [29.392980814896703, 38.15951004055128], [29.392980814896703, 38.15897105138082], [29.393519804067182, 38.15897105138082], [29.393519804067182, 38.158432062210345]], [[29.393519804067182, 38.16543892142648], [29.393519804067182, 38.16597791059694], [29.392980814896703, 38.16597791059694], [29.392980814896703, 38.16543892142648], [29.393519804067182, 38.16543892142648]], [[29.392980814896703, 38.16436094308553], [29.392980814896703, 38.164899932256006], [29.392441825726223, 38.164899932256006], [29.392441825726223, 38.16436094308553], [29.392980814896703, 38.16436094308553]], [[29.392980814896703, 38.16274397557412], [29.392980814896703, 38.16328296474459], [29.392441825726223, 38.16328296474459], [29.392441825726223, 38.16274397557412], [29.392980814896703, 38.16274397557412]]]}, "properties": {"area_ha": 22.311244292617854, "mean_dnbr": 0.6703217384837019, "compactness": 0.14, "rectangularity": 0.527, "cropland_frac": 0.421, "persistent": null}}]}