{"type": "FeatureCollection", "crs": {"type": "name", "properties": {"name": "urn:ogc:def:crs:OGC:1.3:CRS84"}}, "features": [{"type": "Feature", "geometry": {"geodesic": false, "type": "Polygon", "coordinates": [[[28.673430272316978, 36.863780074737285], [28.675047239828388, 36.863780074737285], [28.675047239828388, 36.86431906390776], [28.675586228998867, 36.86431906390776], [28.675586228998867, 36.8653970422487], [28.674508250657908, 36.8653970422487], [28.674508250657908, 36.865936031419174], [28.673430272316978, 36.865936031419174], [28.673430272316978, 36.86647502058965], [28.67235229397602, 36.86647502058965], [28.67235229397602, 36.86701400976012], [28.67181330480554, 36.86701400976012], [28.67181330480554, 36.86755299893059], [28.67235229397602, 36.86755299893059], [28.67235229397602, 36.868630977271536], [28.672891283146498, 36.868630977271536], [28.672891283146498, 36.86916996644201], [28.67235229397602, 36.86916996644201], [28.67235229397602, 36.869708955612474], [28.67181330480554, 36.869708955612474], [28.67181330480554, 36.870247944782946], [28.67073532646461, 36.870247944782946], [28.67073532646461, 36.87078693395342], [28.67019633729413, 36.87078693395342], [28.67019633729413, 36.870247944782946], [28.66965734812368, 36.870247944782946], [28.66965734812368, 36.86916996644201], [28.66857936978272, 36.86916996644201], [28.66857936978272, 36.868630977271536], [28.66804038061224, 36.868630977271536], [28.66804038061224, 36.86916996644201], [28.66750139144179, 36.86916996644201], [28.66750139144179, 36.869708955612474], [28.66804038061224, 36.869708955612474], [28.66804038061224, 36.870247944782946], [28.66750139144179, 36.870247944782946], [28.66750139144179, 36.869708955612474], [28.66696240227131, 36.869708955612474], [28.66696240227131, 36.868630977271536], [28.66750139144179, 36.868630977271536], [28.66750139144179, 36.868091988101064], [28.6691183589532, 36.868091988101064], [28.6691183589532, 36.86647502058965], [28.66965734812368, 36.86647502058965], [28.66965734812368, 36.865936031419174], [28.671274315635088, 36.865936031419174], [28.671274315635088, 36.8653970422487], [28.67181330480554, 36.8653970422487], [28.67181330480554, 36.86485805307823], [28.672891283146498, 36.86485805307823], [28.672891283146498, 36.86431906390776], [28.673430272316978, 36.86431906390776], [28.673430272316978, 36.863780074737285]]]}, "properties": {"area_ha": 21.839834310685234, "mean_dnbr": 0.4149004573077852, "compactness": 0.196, "rectangularity": 0.496, "cropland_frac": 0.352, "persistent": null}}]}