{"type": "FeatureCollection", "crs": {"type": "name", "properties": {"name": "urn:ogc:def:crs:OGC:1.3:CRS84"}}, "features": [{"type": "Feature", "geometry": {"geodesic": false, "type": "Polygon", "coordinates": [[[28.234693087552984, 39.111364915604334], [28.236310055064422, 39.111364915604334], [28.236310055064422, 39.111903904774806], [28.236849044234873, 39.111903904774806], [28.236849044234873, 39.11244289394527], [28.237388033405352, 39.11244289394527], [28.237388033405352, 39.11405986145669], [28.236310055064422, 39.11405986145669], [28.236310055064422, 39.113520872286216], [28.235232076723463, 39.113520872286216], [28.235232076723463, 39.11405986145669], [28.234693087552984, 39.11405986145669], [28.234693087552984, 39.113520872286216], [28.235232076723463, 39.113520872286216], [28.235232076723463, 39.11244289394527], [28.234693087552984, 39.11244289394527], [28.234693087552984, 39.111364915604334]]]}, "properties": {"area_ha": 5.01663800001382, "mean_dnbr": 0.3124461757161123, "compactness": 0.386, "rectangularity": 0.72, "cropland_frac": 0.202, "persistent": true}}, {"type": "Feature", "geometry": {"geodesic": false, "type": "Polygon", "coordinates": [[[28.24331691428054, 39.64334722685991], [28.24439489262147, 39.64334722685991], [28.24439489262147, 39.64388621603038], [28.24385590345102, 39.64388621603038], [28.24385590345102, 39.644425205200854], [28.24439489262147, 39.644425205200854], [28.24439489262147, 39.644964194371326], [28.24493388179195, 39.644964194371326], [28.24493388179195, 39.6455031835418], [28.24439489262147, 39.6455031835418], [28.24439489262147, 39.64604217271227], [28.24331691428054, 39.64604217271227], [28.24331691428054, 39.647120151053215], [28.24277792511006, 39.647120151053215], [28.24277792511006, 39.648737118564625], [28.24169994676913, 39.648737118564625], [28.24169994676913, 39.6492761077351], [28.24223893593961, 39.6492761077351], [28.24223893593961, 39.64981509690557], [28.24116095759865, 39.64981509690557], [28.24116095759865, 39.65035408607604], [28.240621968428172, 39.65035408607604], [28.240621968428172, 39.650893075246515], [28.24008297925772, 39.650893075246515], [28.24008297925772, 39.65197105358746], [28.240621968428172, 39.65197105358746], [28.240621968428172, 39.65412701026935], [28.237388033405352, 39.65412701026935], [28.237388033405352, 39.654665999439814], [28.236310055064422, 39.654665999439814], [28.236310055064422, 39.65412701026935], [28.235771065893942, 39.65412701026935], [28.235771065893942, 39.65358802109888], [28.234693087552984, 39.65358802109888], [28.234693087552984, 39.653049031928404], [28.232537130871094, 39.653049031928404], [28.232537130871094, 39.65358802109888], [28.230920163359684, 39.65358802109888], [28.230920163359684, 39.653049031928404], [28.231459152530164, 39.653049031928404], [28.231459152530164, 39.65251004275793], [28.230920163359684, 39.65251004275793], [28.230920163359684, 39.65197105358746], [28.227147239166385, 39.65197105358746], [28.227147239166385, 39.65251004275793], [28.226608249995905, 39.65251004275793], [28.226608249995905, 39.65197105358746], [28.226069260825454, 39.65197105358746], [28.226069260825454, 39.65143206441699], [28.225530271654975, 39.65143206441699], [28.225530271654975, 39.65197105358746], [28.224991282484496, 39.65197105358746], [28.224991282484496, 39.65143206441699], [28.223374314973086, 39.65143206441699], [28.223374314973086, 39.650893075246515], [28.222835325802606, 39.650893075246515], [28.222835325802606, 39.65035408607604], [28.222296336632155, 39.65035408607604], [28.222296336632155, 39.65143206441699], [28.221757347461676, 39.65143206441699], [28.221757347461676, 39.64981509690557], [28.221218358291196, 39.64981509690557], [28.221218358291196, 39.648737118564625], [28.222296336632155, 39.648737118564625], [28.222296336632155, 39.64819812939416], [28.223374314973086, 39.64819812939416], [28.223374314973086, 39.648737118564625], [28.223913304143565, 39.648737118564625], [28.223913304143565, 39.64819812939416], [28.224452293314044, 39.64819812939416], [28.224452293314044, 39.647120151053215], [28.223913304143565, 39.647120151053215], [28.223913304143565, 39.64604217271227], [28.224452293314044, 39.64604217271227], [28.224452293314044, 39.644964194371326], [28.227686228336864, 39.644964194371326], [28.227686228336864, 39.6455031835418], [28.229303195848274, 39.6455031835418], [28.229303195848274, 39.64604217271227], [28.229842185018754, 39.64604217271227], [28.229842185018754, 39.6455031835418], [28.231459152530164, 39.6455031835418], [28.231459152530164, 39.64658116188274], [28.230920163359684, 39.64658116188274], [28.230920163359684, 39.647120151053215], [28.230381174189233, 39.647120151053215], [28.230381174189233, 39.64819812939416], [28.230920163359684, 39.64819812939416], [28.230920163359684, 39.64765914022369], [28.231459152530164, 39.64765914022369], [28.231459152530164, 39.647120151053215], [28.231998141700643, 39.647120151053215], [28.231998141700643, 39.64765914022369], [28.232537130871094, 39.64765914022369], [28.232537130871094, 39.64819812939416], [28.233076120041574, 39.64819812939416], [28.233076120041574, 39.648737118564625], [28.234154098382533, 39.648737118564625], [28.234154098382533, 39.65035408607604], [28.233615109212053, 39.65035408607604], [28.233615109212053, 39.650893075246515], [28.234693087552984, 39.650893075246515], [28.234693087552984, 39.65143206441699], [28.235232076723463, 39.65143206441699], [28.235232076723463, 39.65197105358746], [28.237927022575832, 39.65197105358746], [28.237927022575832, 39.65143206441699], [28.237388033405352, 39.65143206441699], [28.237388033405352, 39.650893075246515], [28.235771065893942, 39.650893075246515], [28.235771065893942, 39.64981509690557], [28.235232076723463, 39.64981509690557], [28.235232076723463, 39.648737118564625], [28.234693087552984, 39.648737118564625], [28.234693087552984, 39.64819812939416], [28.235232076723463, 39.64819812939416], [28.235232076723463, 39.648737118564625], [28.236310055064422, 39.648737118564625], [28.236310055064422, 39.64765914022369], [28.236849044234873, 39.64765914022369], [28.236849044234873, 39.64819812939416], [28.238466011746283, 39.64819812939416], [28.238466011746283, 39.64765914022369], [28.239005000916762, 39.64765914022369], [28.239005000916762, 39.647120151053215], [28.24008297925772, 39.647120151053215], [28.24008297925772, 39.64604217271227], [28.239543990087242, 39.64604217271227], [28.239543990087242, 39.64658116188274], [28.239005000916762, 39.64658116188274], [28.239005000916762, 39.64604217271227], [28.238466011746283, 39.64604217271227], [28.238466011746283, 39.6455031835418], [28.240621968428172, 39.6455031835418], [28.240621968428172, 39.644425205200854], [28.24169994676913, 39.644425205200854], [28.24169994676913, 39.64388621603038], [28.24331691428054, 39.64388621603038], [28.24331691428054, 39.64334722685991]], [[28.226069260825454, 39.64981509690557], [28.226069260825454, 39.65035408607604], [28.225530271654975, 39.65035408607604], [28.225530271654975, 39.64981509690557], [28.226069260825454, 39.64981509690557]], [[28.228764206677795, 39.64981509690557], [28.228764206677795, 39.65035408607604], [28.227686228336864, 39.65035408607604], [28.227686228336864, 39.64981509690557], [28.228764206677795, 39.64981509690557]], [[28.227147239166385, 39.64819812939416], [28.227147239166385, 39.648737118564625], [28.226608249995905, 39.648737118564625], [28.226608249995905, 39.64819812939416], [28.227147239166385, 39.64819812939416]], [[28.24116095759865, 39.647120151053215], [28.24116095759865, 39.64765914022369], [28.240621968428172, 39.64765914022369], [28.240621968428172, 39.647120151053215], [28.24116095759865, 39.647120151053215]], [[28.226069260825454, 39.6455031835418], [28.226069260825454, 39.64604217271227], [28.225530271654975, 39.64604217271227], [28.225530271654975, 39.6455031835418], [28.226069260825454, 39.6455031835418]], [[28.24385590345102, 39.644425205200854], [28.24385590345102, 39.644964194371326], [28.24331691428054, 39.644964194371326], [28.24331691428054, 39.644425205200854], [28.24385590345102, 39.644425205200854]]]}, "properties": {"area_ha": 111.45689412771584, "mean_dnbr": 0.3882940240757417, "compactness": 0.09, "rectangularity": 0.449, "cropland_frac": 0.109, "persistent": true}}, {"type": "Feature", "geometry": {"geodesic": false, "type": "Polygon", "coordinates": [[[28.29829380966865, 38.9194847709164], [28.29937178800961, 38.9194847709164], [28.29937178800961, 38.92002376008687], [28.30098875552102, 38.92002376008687], [28.30098875552102, 38.923257695109704], [28.29937178800961, 38.923257695109704], [28.29937178800961, 38.92271870593923], [28.29883279883913, 38.92271870593923], [28.29883279883913, 38.92217971676876], [28.29829380966865, 38.92217971676876], [28.29829380966865, 38.921101738427815], [28.29775482049817, 38.921101738427815], [28.29775482049817, 38.92056274925734], [28.29829380966865, 38.92056274925734], [28.29829380966865, 38.9194847709164]], [[28.29991077718006, 38.921101738427815], [28.29991077718006, 38.92217971676876], [28.29937178800961, 38.92217971676876], [28.29937178800961, 38.92164072759829], [28.29883279883913, 38.92164072759829], [28.29883279883913, 38.921101738427815], [28.29991077718006, 38.921101738427815]]]}, "properties": {"area_ha": 7.545350783150376, "mean_dnbr": 0.27507727610776467, "compactness": 0.285, "rectangularity": 0.643, "cropland_frac": 0, "persistent": true}}, {"type": "Feature", "geometry": {"geodesic": false, "type": "Polygon", "coordinates": [[[28.33817900828356, 39.584597407278494], [28.33871799745404, 39.584597407278494], [28.33871799745404, 39.585136396448966], [28.33817900828356, 39.585136396448966], [28.33817900828356, 39.58621437478991], [28.33871799745404, 39.58621437478991], [28.33871799745404, 39.58675336396038], [28.33817900828356, 39.58675336396038], [28.33817900828356, 39.587292353130856], [28.33764001911308, 39.587292353130856], [28.33764001911308, 39.58783134230133], [28.33710102994263, 39.58783134230133], [28.33710102994263, 39.585136396448966], [28.33817900828356, 39.585136396448966], [28.33817900828356, 39.584597407278494]]]}, "properties": {"area_ha": 3.0450187682006233, "mean_dnbr": 0.4534180846232096, "compactness": 0.323, "rectangularity": 0.611, "cropland_frac": 0, "persistent": true}}, {"type": "Feature", "geometry": {"geodesic": false, "type": "Polygon", "coordinates": [[[28.366745434318574, 38.810069969310646], [28.367823412659504, 38.810069969310646], [28.367823412659504, 38.811147947651584], [28.366206445148094, 38.811147947651584], [28.366206445148094, 38.812764915163], [28.365667455977615, 38.812764915163], [28.365667455977615, 38.81222592599253], [28.365128466807136, 38.81222592599253], [28.365128466807136, 38.81060895848111], [28.366745434318574, 38.81060895848111], [28.366745434318574, 38.810069969310646]]]}, "properties": {"area_ha": 3.35868884481525, "mean_dnbr": 0.19364945515801613, "compactness": 0.371, "rectangularity": 0.48, "cropland_frac": 0, "persistent": true}}, {"type": "Feature", "geometry": {"geodesic": false, "type": "Polygon", "coordinates": [[[28.367823412659504, 38.812764915163], [28.369440380170914, 38.812764915163], [28.369440380170914, 38.81330390433347], [28.369979369341394, 38.81330390433347], [28.369979369341394, 38.81545986101536], [28.368901391000463, 38.81545986101536], [28.368901391000463, 38.81438188267442], [28.367284423489025, 38.81438188267442], [28.367284423489025, 38.81330390433347], [28.367823412659504, 38.81330390433347], [28.367823412659504, 38.812764915163]]]}, "properties": {"area_ha": 4.7579596524245975, "mean_dnbr": 0.207900231910224, "compactness": 0.526, "rectangularity": 0.68, "cropland_frac": 0, "persistent": true}}, {"type": "Feature", "geometry": {"geodesic": false, "type": "Polygon", "coordinates": [[[28.369440380170914, 38.78096455410517], [28.369979369341394, 38.78096455410517], [28.369979369341394, 38.78150354327564], [28.370518358511873, 38.78150354327564], [28.370518358511873, 38.782581521616585], [28.369440380170914, 38.782581521616585], [28.369440380170914, 38.78365949995753], [28.368901391000463, 38.78365949995753], [28.368901391000463, 38.782581521616585], [28.366745434318574, 38.782581521616585], [28.366745434318574, 38.78204253244611], [28.367284423489025, 38.78204253244611], [28.367284423489025, 38.78150354327564], [28.369440380170914, 38.78150354327564], [28.369440380170914, 38.78096455410517]]]}, "properties": {"area_ha": 4.480078975761256, "mean_dnbr": 0.6277548256845787, "compactness": 0.358, "rectangularity": 0.484, "cropland_frac": 0.007, "persistent": true}}, {"type": "Feature", "geometry": {"geodesic": false, "type": "Polygon", "coordinates": [[[28.376447239387062, 39.408886937704715], [28.37860319606895, 39.408886937704715], [28.37860319606895, 39.40996491604566], [28.379681174409882, 39.40996491604566], [28.379681174409882, 39.41050390521613], [28.379142185239402, 39.41050390521613], [28.379142185239402, 39.41212087272755], [28.37860319606895, 39.41212087272755], [28.37860319606895, 39.411581883557076], [28.378064206898472, 39.411581883557076], [28.378064206898472, 39.411042894386604], [28.376986228557513, 39.411042894386604], [28.376986228557513, 39.40996491604566], [28.376447239387062, 39.40996491604566], [28.376447239387062, 39.408886937704715]]]}, "properties": {"area_ha": 5.550431079918307, "mean_dnbr": 0.23411957515104775, "compactness": 0.429, "rectangularity": 0.556, "cropland_frac": 0, "persistent": true}}, {"type": "Feature", "geometry": {"geodesic": false, "type": "Polygon", "coordinates": [[[28.399623773717337, 38.98847538473678], [28.401240741228747, 38.98847538473678], [28.401240741228747, 38.9900923522482], [28.400701752058268, 38.9900923522482], [28.400701752058268, 38.99063134141867], [28.400162762887817, 38.99063134141867], [28.400162762887817, 38.99170931975961], [28.398545795376407, 38.99170931975961], [28.398545795376407, 38.99063134141867], [28.399084784546858, 38.99063134141867], [28.399084784546858, 38.989553363077725], [28.399623773717337, 38.989553363077725], [28.399623773717337, 38.98847538473678]]]}, "properties": {"area_ha": 5.304544393016294, "mean_dnbr": 0.3002608544871502, "compactness": 0.475, "rectangularity": 0.647, "cropland_frac": 0, "persistent": true}}, {"type": "Feature", "geometry": {"geodesic": false, "type": "Polygon", "coordinates": [[[28.497180813572726, 39.36199487987368], [28.499336770254615, 39.36199487987368], [28.499336770254615, 39.36307285821462], [28.499875759425066, 39.36307285821462], [28.499875759425066, 39.363611847385094], [28.499336770254615, 39.363611847385094], [28.499336770254615, 39.36415083655557], [28.498797781084136, 39.36415083655557], [28.498797781084136, 39.363611847385094], [28.498258791913656, 39.363611847385094], [28.498258791913656, 39.36307285821462], [28.497719802743177, 39.36307285821462], [28.497719802743177, 39.36253386904415], [28.497180813572726, 39.36253386904415], [28.497180813572726, 39.36199487987368]]]}, "properties": {"area_ha": 3.0548064161400634, "mean_dnbr": 0.20299049533398708, "compactness": 0.432, "rectangularity": 0.55, "cropland_frac": 0, "persistent": true}}, {"type": "Feature", "geometry": {"geodesic": false, "type": "Polygon", "coordinates": [[[28.56886637324547, 39.10381906721773], [28.56940536241592, 39.10381906721773], [28.56940536241592, 39.105436034729145], [28.56886637324547, 39.105436034729145], [28.56886637324547, 39.107053002240555], [28.56832738407499, 39.107053002240555], [28.56832738407499, 39.10759199141103], [28.56778839490451, 39.10759199141103], [28.56778839490451, 39.10597502389961], [28.56724940573403, 39.10597502389961], [28.56724940573403, 39.105436034729145], [28.56778839490451, 39.105436034729145], [28.56778839490451, 39.10489704555867], [28.56832738407499, 39.10489704555867], [28.56832738407499, 39.1043580563882], [28.56886637324547, 39.1043580563882], [28.56886637324547, 39.10381906721773]]]}, "properties": {"area_ha": 3.9022206134918758, "mean_dnbr": 0.18638282064389572, "compactness": 0.334, "rectangularity": 0.5, "cropland_frac": 0.167, "persistent": true}}, {"type": "Feature", "geometry": {"geodesic": false, "type": "Polygon", "coordinates": [[[28.583419080848188, 39.34474722641858], [28.584497059189147, 39.34474722641858], [28.584497059189147, 39.34582520475953], [28.585575037530077, 39.34582520475953], [28.585575037530077, 39.34690318310047], [28.585036048359598, 39.34690318310047], [28.585036048359598, 39.34744217227094], [28.583419080848188, 39.34744217227094], [28.583419080848188, 39.34474722641858]]]}, "properties": {"area_ha": 4.166645827095378, "mean_dnbr": 0.28073599033713875, "compactness": 0.556, "rectangularity": 0.75, "cropland_frac": 0, "persistent": true}}, {"type": "Feature", "geometry": {"geodesic": false, "type": "Polygon", "coordinates": [[[28.601744712644233, 39.0509981285115], [28.602822690985164, 39.0509981285115], [28.602822690985164, 39.051537117681974], [28.603361680155643, 39.051537117681974], [28.603361680155643, 39.05207610685244], [28.602822690985164, 39.05207610685244], [28.602822690985164, 39.05261509602291], [28.602283701814713, 39.05261509602291], [28.602283701814713, 39.053154085193384], [28.602822690985164, 39.053154085193384], [28.602822690985164, 39.05423206353433], [28.603361680155643, 39.05423206353433], [28.603361680155643, 39.0547710527048], [28.603900669326123, 39.0547710527048], [28.603900669326123, 39.05531004187527], [28.601744712644233, 39.05531004187527], [28.601744712644233, 39.0547710527048], [28.601205723473754, 39.0547710527048], [28.601205723473754, 39.053693074363856], [28.601744712644233, 39.053693074363856], [28.601744712644233, 39.053154085193384], [28.600666734303275, 39.053154085193384], [28.600666734303275, 39.05207610685244], [28.601205723473754, 39.05207610685244], [28.601205723473754, 39.05261509602291], [28.601744712644233, 39.05261509602291], [28.601744712644233, 39.05207610685244], [28.602283701814713, 39.05207610685244], [28.602283701814713, 39.051537117681974], [28.601744712644233, 39.051537117681974], [28.601744712644233, 39.0509981285115]]]}, "properties": {"area_ha": 6.415546203928988, "mean_dnbr": 0.2229076341890364, "compactness": 0.2, "rectangularity": 0.506, "cropland_frac": 0, "persistent": true}}, {"type": "Feature", "geometry": {"geodesic": false, "type": "Polygon", "coordinates": [[[28.877707167925735, 39.099507153853956], [28.878246157096214, 39.099507153853956], [28.878246157096214, 39.101124121365366], [28.877707167925735, 39.101124121365366], [28.877707167925735, 39.103280078047256], [28.878785146266694, 39.103280078047256], [28.878785146266694, 39.10381906721773], [28.877168178755284, 39.10381906721773], [28.877168178755284, 39.100585132194894], [28.877707167925735, 39.100585132194894], [28.877707167925735, 39.099507153853956]]]}, "properties": {"area_ha": 3.066194836689189, "mean_dnbr": 0.1981835812387346, "compactness": 0.217, "rectangularity": 0.458, "cropland_frac": 0, "persistent": true}}]}