{"type": "FeatureCollection", "crs": {"type": "name", "properties": {"name": "urn:ogc:def:crs:OGC:1.3:CRS84"}}, "features": [{"type": "Feature", "geometry": {"geodesic": false, "type": "Polygon", "coordinates": [[[28.61629742024698, 36.97265588717257], [28.61683640941743, 36.97265588717257], [28.61683640941743, 36.973194876343044], [28.61737539858791, 36.973194876343044], [28.61737539858791, 36.973733865513516], [28.61629742024698, 36.973733865513516], [28.61629742024698, 36.97427285468399], [28.6157584310765, 36.97427285468399], [28.6157584310765, 36.975889822195406], [28.61414146356509, 36.975889822195406], [28.61414146356509, 36.97481184385446], [28.61521944190602, 36.97481184385446], [28.61521944190602, 36.973733865513516], [28.6157584310765, 36.973733865513516], [28.6157584310765, 36.973194876343044], [28.61629742024698, 36.973194876343044], [28.61629742024698, 36.97265588717257]]]}, "properties": {"area_ha": 3.7305175699119704, "mean_dnbr": 0.26946948430952455, "compactness": 0.28, "rectangularity": 0.468, "cropland_frac": 0.015, "persistent": true}}, {"type": "Feature", "geometry": {"geodesic": false, "type": "Polygon", "coordinates": [[[28.639473954577255, 36.803952276814925], [28.640012943747735, 36.803952276814925], [28.640012943747735, 36.80503025515587], [28.641629911259145, 36.80503025515587], [28.641629911259145, 36.80556924432634], [28.641090922088665, 36.80556924432634], [28.641090922088665, 36.80664722266729], [28.640012943747735, 36.80664722266729], [28.640012943747735, 36.806108233496815], [28.638934965406776, 36.806108233496815], [28.638934965406776, 36.8044912659854], [28.639473954577255, 36.8044912659854], [28.639473954577255, 36.803952276814925]]]}, "properties": {"area_ha": 4.026380497870893, "mean_dnbr": 0.2719999502008186, "compactness": 0.434, "rectangularity": 0.56, "cropland_frac": 0.488, "persistent": true}}, {"type": "Feature", "geometry": {"geodesic": false, "type": "Polygon", "coordinates": [[[29.335847962826705, 36.64333350401436], [29.336386951997184, 36.64333350401436], [29.336386951997184, 36.6444114823553], [29.336925941167635, 36.6444114823553], [29.336925941167635, 36.64548946069625], [29.337464930338115, 36.64548946069625], [29.337464930338115, 36.64602844986672], [29.335847962826705, 36.64602844986672], [29.335847962826705, 36.64710642820766], [29.334769984485746, 36.64710642820766], [29.334769984485746, 36.646567439037184], [29.335308973656225, 36.646567439037184], [29.335308973656225, 36.64602844986672], [29.335847962826705, 36.64602844986672], [29.335847962826705, 36.64333350401436]]]}, "properties": {"area_ha": 3.458387826490771, "mean_dnbr": 0.3993213606099168, "compactness": 0.249, "rectangularity": 0.36, "cropland_frac": 0.477, "persistent": true}}]}