{"type": "FeatureCollection", "crs": {"type": "name", "properties": {"name": "urn:ogc:def:crs:OGC:1.3:CRS84"}}, "features": [{"type": "Feature", "geometry": {"geodesic": false, "type": "Polygon", "coordinates": [[[28.34356889998827, 37.85120823504147], [28.34410788915875, 37.85120823504147], [28.34410788915875, 37.85174722421194], [28.34464687832923, 37.85174722421194], [28.34464687832923, 37.852286213382406], [28.34518586749971, 37.852286213382406], [28.34518586749971, 37.85336419172335], [28.34572485667016, 37.85336419172335], [28.34572485667016, 37.85390318089382], [28.34626384584064, 37.85390318089382], [28.34626384584064, 37.854442170064296], [28.34680283501112, 37.854442170064296], [28.34680283501112, 37.85498115923477], [28.34734182418157, 37.85498115923477], [28.34734182418157, 37.85552014840524], [28.34788081335205, 37.85552014840524], [28.34788081335205, 37.85498115923477], [28.34949778086346, 37.85498115923477], [28.34949778086346, 37.85552014840524], [28.348958791693008, 37.85552014840524], [28.348958791693008, 37.85605913757571], [28.34841980252253, 37.85605913757571], [28.34841980252253, 37.85713711591666], [28.34949778086346, 37.85713711591666], [28.34949778086346, 37.85767610508713], [28.350036770033938, 37.85767610508713], [28.350036770033938, 37.858215094257595], [28.351114748374897, 37.858215094257595], [28.351114748374897, 37.85875408342807], [28.351653737545348, 37.85875408342807], [28.351653737545348, 37.858215094257595], [28.352192726715828, 37.858215094257595], [28.352192726715828, 37.85767610508713], [28.352731715886307, 37.85767610508713], [28.352731715886307, 37.856598126746185], [28.353270705056758, 37.856598126746185], [28.353270705056758, 37.85605913757571], [28.352192726715828, 37.85605913757571], [28.352192726715828, 37.85713711591666], [28.351653737545348, 37.85713711591666], [28.351653737545348, 37.85767610508713], [28.351114748374897, 37.85767610508713], [28.351114748374897, 37.856598126746185], [28.351653737545348, 37.856598126746185], [28.351653737545348, 37.85390318089382], [28.353270705056758, 37.85390318089382], [28.353270705056758, 37.85498115923477], [28.354887672568196, 37.85498115923477], [28.354887672568196, 37.85552014840524], [28.354348683397717, 37.85552014840524], [28.354348683397717, 37.85767610508713], [28.353809694227238, 37.85767610508713], [28.353809694227238, 37.858215094257595], [28.352731715886307, 37.858215094257595], [28.352731715886307, 37.85875408342807], [28.351653737545348, 37.85875408342807], [28.351653737545348, 37.85929307259854], [28.350575759204418, 37.85929307259854], [28.350575759204418, 37.85875408342807], [28.350036770033938, 37.85875408342807], [28.350036770033938, 37.858215094257595], [28.348958791693008, 37.858215094257595], [28.348958791693008, 37.85767610508713], [28.34788081335205, 37.85767610508713], [28.34788081335205, 37.85713711591666], [28.34626384584064, 37.85713711591666], [28.34626384584064, 37.858215094257595], [28.34680283501112, 37.858215094257595], [28.34680283501112, 37.85875408342807], [28.34734182418157, 37.85875408342807], [28.34734182418157, 37.85929307259854], [28.34841980252253, 37.85929307259854], [28.34841980252253, 37.85983206176901], [28.348958791693008, 37.85983206176901], [28.348958791693008, 37.85929307259854], [28.34949778086346, 37.85929307259854], [28.34949778086346, 37.85983206176901], [28.348958791693008, 37.85983206176901], [28.348958791693008, 37.860371050939484], [28.351114748374897, 37.860371050939484], [28.351114748374897, 37.85983206176901], [28.351653737545348, 37.85983206176901], [28.351653737545348, 37.860371050939484], [28.351114748374897, 37.860371050939484], [28.351114748374897, 37.86144902928043], [28.350575759204418, 37.86144902928043], [28.350575759204418, 37.8619880184509], [28.350036770033938, 37.8619880184509], [28.350036770033938, 37.862527007621374], [28.34841980252253, 37.862527007621374], [28.34841980252253, 37.86144902928043], [28.348958791693008, 37.86144902928043], [28.348958791693008, 37.86091004010996], [28.34841980252253, 37.86091004010996], [28.34841980252253, 37.85983206176901], [28.34788081335205, 37.85983206176901], [28.34788081335205, 37.860371050939484], [28.34734182418157, 37.860371050939484], [28.34734182418157, 37.85983206176901], [28.34680283501112, 37.85983206176901], [28.34680283501112, 37.85929307259854], [28.34572485667016, 37.85929307259854], [28.34572485667016, 37.85983206176901], [28.34626384584064, 37.85983206176901], [28.34626384584064, 37.860371050939484], [28.34464687832923, 37.860371050939484], [28.34464687832923, 37.85929307259854], [28.34518586749971, 37.85929307259854], [28.34518586749971, 37.85875408342807], [28.34410788915875, 37.85875408342807], [28.34410788915875, 37.85713711591666], [28.34249092164734, 37.85713711591666], [28.34249092164734, 37.858215094257595], [28.34302991081782, 37.858215094257595], [28.34302991081782, 37.85875408342807], [28.34249092164734, 37.85875408342807], [28.34249092164734, 37.85929307259854], [28.34302991081782, 37.85929307259854], [28.34302991081782, 37.86091004010996], [28.34195193247686, 37.86091004010996], [28.34195193247686, 37.85929307259854], [28.34141294330638, 37.85929307259854], [28.34141294330638, 37.858215094257595], [28.34195193247686, 37.858215094257595], [28.34195193247686, 37.85767610508713], [28.34141294330638, 37.85767610508713], [28.34141294330638, 37.85713711591666], [28.34195193247686, 37.85713711591666], [28.34195193247686, 37.85498115923477], [28.34249092164734, 37.85498115923477], [28.34249092164734, 37.854442170064296], [28.34356889998827, 37.854442170064296], [28.34356889998827, 37.85498115923477], [28.34410788915875, 37.85498115923477], [28.34410788915875, 37.85390318089382], [28.33925698662452, 37.85390318089382], [28.33925698662452, 37.85282520255288], [28.34249092164734, 37.85282520255288], [28.34249092164734, 37.85174722421194], [28.34356889998827, 37.85174722421194], [28.34356889998827, 37.85120823504147]], [[28.34841980252253, 37.85552014840524], [28.34841980252253, 37.85605913757571], [28.34788081335205, 37.85605913757571], [28.34788081335205, 37.85552014840524], [28.34841980252253, 37.85552014840524]], [[28.34680283501112, 37.85498115923477], [28.34680283501112, 37.85605913757571], [28.34626384584064, 37.85605913757571], [28.34626384584064, 37.85713711591666], [28.34410788915875, 37.85713711591666], [28.34410788915875, 37.85498115923477], [28.34680283501112, 37.85498115923477]], [[28.34464687832923, 37.85282520255288], [28.34464687832923, 37.85336419172335], [28.34302991081782, 37.85336419172335], [28.34302991081782, 37.85282520255288], [28.34464687832923, 37.85282520255288]], [[28.34410788915875, 37.85174722421194], [28.34410788915875, 37.852286213382406], [28.34356889998827, 37.852286213382406], [28.34356889998827, 37.85174722421194], [28.34410788915875, 37.85174722421194]]]}, "properties": {"area_ha": 49.063172152590475, "mean_dnbr": 0.35460908835168403, "compactness": 0.035, "rectangularity": 0.319, "cropland_frac": 0.455, "persistent": true}}]}