{"type": "FeatureCollection", "crs": {"type": "name", "properties": {"name": "urn:ogc:def:crs:OGC:1.3:CRS84"}}, "features": [{"type": "Feature", "geometry": {"geodesic": false, "type": "Polygon", "coordinates": [[[29.81285337869417, 37.85174722421194], [29.813931357035102, 37.85174722421194], [29.813931357035102, 37.852286213382406], [29.81447034620558, 37.852286213382406], [29.81447034620558, 37.85282520255288], [29.81662630288747, 37.85282520255288], [29.81662630288747, 37.85390318089382], [29.81608731371699, 37.85390318089382], [29.81608731371699, 37.85498115923477], [29.81500933537606, 37.85498115923477], [29.81500933537606, 37.854442170064296], [29.81447034620558, 37.854442170064296], [29.81447034620558, 37.85336419172335], [29.813931357035102, 37.85336419172335], [29.813931357035102, 37.854442170064296], [29.81285337869417, 37.854442170064296], [29.81285337869417, 37.85498115923477], [29.81447034620558, 37.85498115923477], [29.81447034620558, 37.85552014840524], [29.81608731371699, 37.85552014840524], [29.81608731371699, 37.85605913757571], [29.81716529205795, 37.85605913757571], [29.81716529205795, 37.856598126746185], [29.81932124873984, 37.856598126746185], [29.81932124873984, 37.85713711591666], [29.82147720542173, 37.85713711591666], [29.82147720542173, 37.85767610508713], [29.82255518376266, 37.85767610508713], [29.82255518376266, 37.858215094257595], [29.82417215127407, 37.858215094257595], [29.82417215127407, 37.86360498596232], [29.82363316210359, 37.86360498596232], [29.82363316210359, 37.864143975132784], [29.82309417293314, 37.864143975132784], [29.82309417293314, 37.86360498596232], [29.82147720542173, 37.86360498596232], [29.82147720542173, 37.863065996791846], [29.82093821625125, 37.863065996791846], [29.82093821625125, 37.862527007621374], [29.82039922708077, 37.862527007621374], [29.82039922708077, 37.8619880184509], [29.81986023791029, 37.8619880184509], [29.81986023791029, 37.86144902928043], [29.81932124873984, 37.86144902928043], [29.81932124873984, 37.86091004010996], [29.81878225956936, 37.86091004010996], [29.81878225956936, 37.860371050939484], [29.81824327039888, 37.860371050939484], [29.81824327039888, 37.85983206176901], [29.8177042812284, 37.85983206176901], [29.8177042812284, 37.85875408342807], [29.81824327039888, 37.85875408342807], [29.81824327039888, 37.85713711591666], [29.8177042812284, 37.85713711591666], [29.8177042812284, 37.858215094257595], [29.81716529205795, 37.858215094257595], [29.81716529205795, 37.85875408342807], [29.81662630288747, 37.85875408342807], [29.81662630288747, 37.85983206176901], [29.81608731371699, 37.85983206176901], [29.81608731371699, 37.85875408342807], [29.81500933537606, 37.85875408342807], [29.81500933537606, 37.858215094257595], [29.81447034620558, 37.858215094257595], [29.81447034620558, 37.85767610508713], [29.81285337869417, 37.85767610508713], [29.81285337869417, 37.85713711591666], [29.812314389523692, 37.85713711591666], [29.812314389523692, 37.856598126746185], [29.81123641118276, 37.856598126746185], [29.81123641118276, 37.85605913757571], [29.809080454500872, 37.85605913757571], [29.809080454500872, 37.85552014840524], [29.808541465330393, 37.85552014840524], [29.808541465330393, 37.85498115923477], [29.809080454500872, 37.85498115923477], [29.809080454500872, 37.85390318089382], [29.810697422012282, 37.85390318089382], [29.810697422012282, 37.854442170064296], [29.81285337869417, 37.854442170064296], [29.81285337869417, 37.85390318089382], [29.811775400353213, 37.85390318089382], [29.811775400353213, 37.85336419172335], [29.810158432841803, 37.85336419172335], [29.810158432841803, 37.85282520255288], [29.810697422012282, 37.85282520255288], [29.810697422012282, 37.85174722421194], [29.811775400353213, 37.85174722421194], [29.811775400353213, 37.85336419172335], [29.812314389523692, 37.85336419172335], [29.812314389523692, 37.852286213382406], [29.81285337869417, 37.852286213382406], [29.81285337869417, 37.85174722421194]]]}, "properties": {"area_ha": 62.67521866319323, "mean_dnbr": 0.23479799352526842, "compactness": 0.118, "rectangularity": 0.522, "cropland_frac": 0, "persistent": true}}, {"type": "Feature", "geometry": {"geodesic": false, "type": "Polygon", "coordinates": [[[29.82309417293314, 37.83396058158637], [29.82309417293314, 37.83449957075684], [29.82201619459218, 37.83449957075684], [29.82201619459218, 37.83396058158637], [29.82147720542173, 37.83396058158637], [29.82147720542173, 37.8334215924159], [29.82093821625125, 37.8334215924159], [29.82093821625125, 37.83288260324543], [29.82039922708077, 37.83288260324543], [29.82039922708077, 37.83234361407496], [29.81986023791029, 37.83234361407496], [29.81986023791029, 37.83288260324543], [29.81932124873984, 37.83288260324543], [29.81932124873984, 37.831804624904485], [29.81878225956936, 37.831804624904485], [29.81878225956936, 37.83126563573401], [29.81554832454654, 37.83126563573401], [29.81554832454654, 37.831804624904485], [29.81500933537606, 37.831804624904485], [29.81500933537606, 37.83288260324543], [29.813931357035102, 37.83288260324543], [29.813931357035102, 37.8334215924159], [29.81339236786465, 37.8334215924159], [29.81339236786465, 37.83396058158637], [29.812314389523692, 37.83396058158637], [29.812314389523692, 37.83449957075684], [29.810697422012282, 37.83449957075684], [29.810697422012282, 37.83503855992731], [29.80961944367135, 37.83503855992731], [29.80961944367135, 37.83611653826826], [29.808541465330393, 37.83611653826826], [29.808541465330393, 37.83665552743873], [29.806385508648503, 37.83665552743873], [29.806385508648503, 37.835577549097785], [29.804768541137094, 37.835577549097785], [29.804768541137094, 37.83665552743873], [29.803690562796163, 37.83665552743873], [29.803690562796163, 37.83611653826826], [29.803151573625684, 37.83611653826826], [29.803151573625684, 37.835577549097785], [29.803690562796163, 37.835577549097785], [29.803690562796163, 37.83288260324543], [29.804229551966614, 37.83288260324543], [29.804229551966614, 37.83234361407496], [29.804768541137094, 37.83234361407496], [29.804768541137094, 37.831804624904485], [29.805307530307573, 37.831804624904485], [29.805307530307573, 37.83126563573401], [29.806385508648503, 37.83126563573401], [29.806385508648503, 37.83072664656354], [29.805846519478024, 37.83072664656354], [29.805846519478024, 37.83018765739307], [29.806924497818983, 37.83018765739307], [29.806924497818983, 37.829648668222596], [29.80961944367135, 37.829648668222596], [29.80961944367135, 37.83018765739307], [29.810158432841803, 37.83018765739307], [29.810158432841803, 37.83072664656354], [29.811775400353213, 37.83072664656354], [29.811775400353213, 37.831804624904485], [29.81285337869417, 37.831804624904485], [29.81285337869417, 37.83126563573401], [29.81339236786465, 37.83126563573401], [29.81339236786465, 37.83072664656354], [29.81285337869417, 37.83072664656354], [29.81285337869417, 37.83018765739307], [29.81339236786465, 37.83018765739307], [29.81339236786465, 37.829648668222596], [29.81500933537606, 37.829648668222596], [29.81500933537606, 37.83018765739307], [29.81447034620558, 37.83018765739307], [29.81447034620558, 37.83072664656354], [29.81554832454654, 37.83072664656354], [29.81554832454654, 37.83018765739307], [29.81662630288747, 37.83018765739307], [29.81662630288747, 37.83072664656354], [29.8177042812284, 37.83072664656354], [29.8177042812284, 37.83018765739307], [29.81824327039888, 37.83018765739307], [29.81824327039888, 37.83072664656354], [29.81878225956936, 37.83072664656354], [29.81878225956936, 37.83018765739307], [29.81986023791029, 37.83018765739307], [29.81986023791029, 37.829648668222596], [29.82093821625125, 37.829648668222596], [29.82093821625125, 37.829109679052124], [29.82147720542173, 37.829109679052124], [29.82147720542173, 37.82803170071118], [29.82201619459218, 37.82803170071118], [29.82201619459218, 37.82695372237024], [29.82147720542173, 37.82695372237024], [29.82147720542173, 37.82641473319977], [29.82201619459218, 37.82641473319977], [29.82201619459218, 37.8258757440293], [29.82417215127407, 37.8258757440293], [29.82417215127407, 37.82641473319977], [29.82363316210359, 37.82641473319977], [29.82363316210359, 37.82695372237024], [29.82471114044455, 37.82695372237024], [29.82471114044455, 37.82803170071118], [29.82578911878548, 37.82803170071118], [29.82578911878548, 37.827492711540714], [29.82525012961503, 37.827492711540714], [29.82525012961503, 37.82695372237024], [29.82578911878548, 37.82695372237024], [29.82578911878548, 37.827492711540714], [29.82686709712644, 37.827492711540714], [29.82686709712644, 37.829648668222596], [29.827406086296918, 37.829648668222596], [29.827406086296918, 37.83018765739307], [29.82632810795596, 37.83018765739307], [29.82632810795596, 37.829109679052124], [29.82471114044455, 37.829109679052124], [29.82471114044455, 37.829648668222596], [29.82525012961503, 37.829648668222596], [29.82525012961503, 37.83018765739307], [29.82417215127407, 37.83018765739307], [29.82417215127407, 37.83072664656354], [29.82578911878548, 37.83072664656354], [29.82578911878548, 37.83126563573401], [29.82632810795596, 37.83126563573401], [29.82632810795596, 37.831804624904485], [29.82686709712644, 37.831804624904485], [29.82686709712644, 37.83288260324543], [29.82525012961503, 37.83288260324543], [29.82525012961503, 37.83234361407496], [29.82417215127407, 37.83234361407496], [29.82417215127407, 37.8334215924159], [29.82578911878548, 37.8334215924159], [29.82578911878548, 37.83396058158637], [29.82632810795596, 37.83396058158637], [29.82632810795596, 37.83449957075684], [29.82525012961503, 37.83449957075684], [29.82525012961503, 37.83396058158637], [29.82309417293314, 37.83396058158637]], [[29.806924497818983, 37.8334215924159], [29.806924497818983, 37.83396058158637], [29.805846519478024, 37.83396058158637], [29.805846519478024, 37.83449957075684], [29.804229551966614, 37.83449957075684], [29.804229551966614, 37.83396058158637], [29.805307530307573, 37.83396058158637], [29.805307530307573, 37.8334215924159], [29.806924497818983, 37.8334215924159]], [[29.809080454500872, 37.8334215924159], [29.809080454500872, 37.83396058158637], [29.808541465330393, 37.83396058158637], [29.808541465330393, 37.8334215924159], [29.809080454500872, 37.8334215924159]], [[29.808541465330393, 37.83288260324543], [29.808541465330393, 37.8334215924159], [29.808002476159913, 37.8334215924159], [29.808002476159913, 37.83288260324543], [29.808541465330393, 37.83288260324543]], [[29.80961944367135, 37.83234361407496], [29.80961944367135, 37.83288260324543], [29.808541465330393, 37.83288260324543], [29.808541465330393, 37.83234361407496], [29.80961944367135, 37.83234361407496]], [[29.806924497818983, 37.83126563573401], [29.806924497818983, 37.83234361407496], [29.806385508648503, 37.83234361407496], [29.806385508648503, 37.83126563573401], [29.806924497818983, 37.83126563573401]], [[29.808541465330393, 37.83018765739307], [29.808541465330393, 37.83072664656354], [29.808002476159913, 37.83072664656354], [29.808002476159913, 37.83018765739307], [29.808541465330393, 37.83018765739307]], [[29.82309417293314, 37.829109679052124], [29.82309417293314, 37.829648668222596], [29.82255518376266, 37.829648668222596], [29.82255518376266, 37.829109679052124], [29.82309417293314, 37.829109679052124]], [[29.82417215127407, 37.829648668222596], [29.82417215127407, 37.83018765739307], [29.82363316210359, 37.83018765739307], [29.82363316210359, 37.829648668222596], [29.82417215127407, 37.829648668222596]], [[29.82417215127407, 37.831804624904485], [29.82417215127407, 37.83234361407496], [29.82363316210359, 37.83234361407496], [29.82363316210359, 37.831804624904485], [29.82417215127407, 37.831804624904485]]]}, "properties": {"area_ha": 89.36484808205917, "mean_dnbr": 0.1666916122093839, "compactness": 0.061, "rectangularity": 0.401, "cropland_frac": 0, "persistent": true}}]}