{"type": "FeatureCollection", "crs": {"type": "name", "properties": {"name": "urn:ogc:def:crs:OGC:1.3:CRS84"}}, "features": [{"type": "Feature", "geometry": {"geodesic": false, "type": "Polygon", "coordinates": [[[29.35579056213416, 37.87600173688317], [29.35794651881605, 37.87600173688317], [29.35794651881605, 37.877079715224106], [29.35848550798653, 37.877079715224106], [29.35848550798653, 37.87761870439458], [29.35956348632746, 37.87761870439458], [29.35956348632746, 37.87815769356505], [29.36064146466839, 37.87815769356505], [29.36064146466839, 37.879235671905995], [29.36118045383887, 37.879235671905995], [29.36118045383887, 37.88031365024694], [29.36171944300935, 37.88031365024694], [29.36171944300935, 37.88193061775836], [29.36279742135028, 37.88193061775836], [29.36279742135028, 37.88354758526977], [29.36333641052076, 37.88354758526977], [29.36333641052076, 37.88408657444024], [29.364414388861718, 37.88408657444024], [29.364414388861718, 37.885703541951656], [29.36387539969124, 37.885703541951656], [29.36387539969124, 37.885164552781184], [29.36225843217983, 37.885164552781184], [29.36225843217983, 37.885703541951656], [29.36333641052076, 37.885703541951656], [29.36333641052076, 37.88624253112213], [29.366031356373128, 37.88624253112213], [29.366031356373128, 37.887859498633546], [29.36495337803217, 37.887859498633546], [29.36495337803217, 37.88839848780401], [29.36387539969124, 37.88839848780401], [29.36387539969124, 37.887859498633546], [29.36333641052076, 37.887859498633546], [29.36333641052076, 37.89001545531543], [29.36387539969124, 37.89001545531543], [29.36387539969124, 37.8905544444859], [29.364414388861718, 37.8905544444859], [29.364414388861718, 37.89109343365637], [29.36495337803217, 37.89109343365637], [29.36495337803217, 37.891632422826845], [29.36549236720265, 37.891632422826845], [29.36549236720265, 37.893788379508734], [29.36387539969124, 37.893788379508734], [29.36387539969124, 37.89324939033826], [29.36333641052076, 37.89324939033826], [29.36333641052076, 37.89271040116779], [29.36010247549794, 37.89271040116779], [29.36010247549794, 37.89217141199732], [29.35956348632746, 37.89217141199732], [29.35956348632746, 37.891632422826845], [29.35902449715698, 37.891632422826845], [29.35902449715698, 37.89109343365637], [29.35848550798653, 37.89109343365637], [29.35848550798653, 37.8905544444859], [29.35794651881605, 37.8905544444859], [29.35794651881605, 37.889476466144956], [29.35848550798653, 37.889476466144956], [29.35848550798653, 37.88893747697448], [29.35794651881605, 37.88893747697448], [29.35794651881605, 37.887859498633546], [29.35740752964557, 37.887859498633546], [29.35740752964557, 37.88732050946307], [29.35848550798653, 37.88732050946307], [29.35848550798653, 37.885164552781184], [29.35794651881605, 37.885164552781184], [29.35794651881605, 37.88408657444024], [29.35740752964557, 37.88408657444024], [29.35740752964557, 37.883008596099295], [29.35686854047509, 37.883008596099295], [29.35686854047509, 37.88193061775836], [29.35740752964557, 37.88193061775836], [29.35740752964557, 37.881391628587885], [29.35632955130464, 37.881391628587885], [29.35632955130464, 37.88085263941741], [29.35579056213416, 37.88085263941741], [29.35579056213416, 37.87869668273552], [29.35525157296368, 37.87869668273552], [29.35525157296368, 37.87654072605363], [29.35579056213416, 37.87654072605363], [29.35579056213416, 37.87600173688317]], [[29.36333641052076, 37.8867815202926], [29.36333641052076, 37.88732050946307], [29.36279742135028, 37.88732050946307], [29.36279742135028, 37.8867815202926], [29.36333641052076, 37.8867815202926]], [[29.36171944300935, 37.885164552781184], [29.36171944300935, 37.885703541951656], [29.36225843217983, 37.885703541951656], [29.36225843217983, 37.8867815202926], [29.36171944300935, 37.8867815202926], [29.36171944300935, 37.88624253112213], [29.36010247549794, 37.88624253112213], [29.36010247549794, 37.885703541951656], [29.36064146466839, 37.885703541951656], [29.36064146466839, 37.885164552781184], [29.36171944300935, 37.885164552781184]], [[29.36010247549794, 37.88462556361071], [29.36010247549794, 37.885164552781184], [29.35956348632746, 37.885164552781184], [29.35956348632746, 37.88462556361071], [29.36010247549794, 37.88462556361071]], [[29.35956348632746, 37.883008596099295], [29.35956348632746, 37.88408657444024], [29.35902449715698, 37.88408657444024], [29.35902449715698, 37.883008596099295], [29.35956348632746, 37.883008596099295]], [[29.36010247549794, 37.88085263941741], [29.36010247549794, 37.881391628587885], [29.36064146466839, 37.881391628587885], [29.36064146466839, 37.88246960692882], [29.36010247549794, 37.88246960692882], [29.36010247549794, 37.88193061775836], [29.35902449715698, 37.88193061775836], [29.35902449715698, 37.88085263941741], [29.36010247549794, 37.88085263941741]], [[29.35902449715698, 37.88031365024694], [29.35902449715698, 37.88085263941741], [29.35848550798653, 37.88085263941741], [29.35848550798653, 37.88031365024694], [29.35902449715698, 37.88031365024694]]]}, "properties": {"area_ha": 85.89819723225622, "mean_dnbr": 0.30401876008748785, "compactness": 0.118, "rectangularity": 0.523, "cropland_frac": 0.21, "persistent": true}}, {"type": "Feature", "geometry": {"geodesic": false, "type": "Polygon", "coordinates": [[[29.78266998514775, 37.835577549097785], [29.783747963488707, 37.835577549097785], [29.783747963488707, 37.83665552743873], [29.785364931000117, 37.83665552743873], [29.785364931000117, 37.837733505779674], [29.785903920170597, 37.837733505779674], [29.785903920170597, 37.83881148412062], [29.787520887682007, 37.83881148412062], [29.787520887682007, 37.83935047329109], [29.788059876852458, 37.83935047329109], [29.788059876852458, 37.839889462461564], [29.788598866022937, 37.839889462461564], [29.788598866022937, 37.83935047329109], [29.789137855193417, 37.83935047329109], [29.789137855193417, 37.84150642997297], [29.788598866022937, 37.84150642997297], [29.788598866022937, 37.84366238665486], [29.788059876852458, 37.84366238665486], [29.788059876852458, 37.844201375825335], [29.787520887682007, 37.844201375825335], [29.787520887682007, 37.84474036499581], [29.786981898511527, 37.84474036499581], [29.786981898511527, 37.84581834333675], [29.786442909341048, 37.84581834333675], [29.786442909341048, 37.844201375825335], [29.787520887682007, 37.844201375825335], [29.787520887682007, 37.84312339748439], [29.788059876852458, 37.84312339748439], [29.788059876852458, 37.84150642997297], [29.788598866022937, 37.84150642997297], [29.788598866022937, 37.8409674408025], [29.787520887682007, 37.8409674408025], [29.787520887682007, 37.84150642997297], [29.786981898511527, 37.84150642997297], [29.786981898511527, 37.842045419143446], [29.786442909341048, 37.842045419143446], [29.786442909341048, 37.84258440831392], [29.785903920170597, 37.84258440831392], [29.785903920170597, 37.84150642997297], [29.786442909341048, 37.84150642997297], [29.786442909341048, 37.839889462461564], [29.785903920170597, 37.839889462461564], [29.785903920170597, 37.83881148412062], [29.78428695265916, 37.83881148412062], [29.78428695265916, 37.83935047329109], [29.784825941829638, 37.83935047329109], [29.784825941829638, 37.839889462461564], [29.78428695265916, 37.839889462461564], [29.78428695265916, 37.83935047329109], [29.783747963488707, 37.83935047329109], [29.783747963488707, 37.83881148412062], [29.783208974318228, 37.83881148412062], [29.783208974318228, 37.839889462461564], [29.783747963488707, 37.839889462461564], [29.783747963488707, 37.84042845163203], [29.78428695265916, 37.84042845163203], [29.78428695265916, 37.84150642997297], [29.783747963488707, 37.84150642997297], [29.783747963488707, 37.84042845163203], [29.783208974318228, 37.84042845163203], [29.783208974318228, 37.84150642997297], [29.78266998514775, 37.84150642997297], [29.78266998514775, 37.84042845163203], [29.78213099597727, 37.84042845163203], [29.78213099597727, 37.8409674408025], [29.781592006806818, 37.8409674408025], [29.781592006806818, 37.84150642997297], [29.78213099597727, 37.84150642997297], [29.78213099597727, 37.842045419143446], [29.783208974318228, 37.842045419143446], [29.783208974318228, 37.84366238665486], [29.78213099597727, 37.84366238665486], [29.78213099597727, 37.844201375825335], [29.78105301763634, 37.844201375825335], [29.78105301763634, 37.84366238665486], [29.779975039295408, 37.84366238665486], [29.779975039295408, 37.84312339748439], [29.77943605012493, 37.84312339748439], [29.77943605012493, 37.842045419143446], [29.779975039295408, 37.842045419143446], [29.779975039295408, 37.84042845163203], [29.78051402846586, 37.84042845163203], [29.78051402846586, 37.839889462461564], [29.78105301763634, 37.839889462461564], [29.78105301763634, 37.83881148412062], [29.781592006806818, 37.83881148412062], [29.781592006806818, 37.8371945166092], [29.78213099597727, 37.8371945166092], [29.78213099597727, 37.83665552743873], [29.78266998514775, 37.83665552743873], [29.78266998514775, 37.835577549097785]], [[29.78213099597727, 37.842045419143446], [29.78213099597727, 37.84258440831392], [29.781592006806818, 37.84258440831392], [29.781592006806818, 37.842045419143446], [29.78213099597727, 37.842045419143446]], [[29.781592006806818, 37.84150642997297], [29.781592006806818, 37.842045419143446], [29.78105301763634, 37.842045419143446], [29.78105301763634, 37.84258440831392], [29.78051402846586, 37.84258440831392], [29.78051402846586, 37.84150642997297], [29.781592006806818, 37.84150642997297]], [[29.783208974318228, 37.839889462461564], [29.783208974318228, 37.84042845163203], [29.78266998514775, 37.84042845163203], [29.78266998514775, 37.839889462461564], [29.783208974318228, 37.839889462461564]]]}, "properties": {"area_ha": 32.621504156797954, "mean_dnbr": 0.1991364085022393, "compactness": 0.06, "rectangularity": 0.398, "cropland_frac": 0, "persistent": true}}, {"type": "Feature", "geometry": {"geodesic": false, "type": "Polygon", "coordinates": [[[30.045696700337942, 37.20118729545258], [30.04839164619031, 37.20118729545258], [30.04839164619031, 37.20172628462305], [30.04946962453124, 37.20172628462305], [30.04946962453124, 37.20226527379352], [30.05000861370172, 37.20226527379352], [30.05000861370172, 37.20172628462305], [30.0505476028722, 37.20172628462305], [30.0505476028722, 37.20226527379352], [30.05108659204268, 37.20226527379352], [30.05108659204268, 37.202804262963994], [30.05216457038361, 37.202804262963994], [30.05216457038361, 37.20334325213447], [30.05270355955409, 37.20334325213447], [30.05270355955409, 37.20388224130494], [30.05108659204268, 37.20388224130494], [30.05108659204268, 37.20334325213447], [30.04946962453124, 37.20334325213447], [30.04946962453124, 37.20442123047541], [30.04839164619031, 37.20442123047541], [30.04839164619031, 37.20496021964588], [30.04893063536079, 37.20496021964588], [30.04893063536079, 37.2065771871573], [30.04731366784935, 37.2065771871573], [30.04731366784935, 37.20603819798683], [30.0467746786789, 37.20603819798683], [30.0467746786789, 37.20334325213447], [30.045696700337942, 37.20334325213447], [30.045696700337942, 37.2065771871573], [30.043540743656052, 37.2065771871573], [30.043540743656052, 37.20603819798683], [30.0430017544856, 37.20603819798683], [30.0430017544856, 37.20496021964588], [30.042462765315122, 37.20496021964588], [30.042462765315122, 37.20388224130494], [30.04461872199701, 37.20388224130494], [30.04461872199701, 37.20442123047541], [30.04515771116749, 37.20442123047541], [30.04515771116749, 37.20226527379352], [30.045696700337942, 37.20226527379352], [30.045696700337942, 37.20118729545258]], [[30.0467746786789, 37.20226527379352], [30.0467746786789, 37.202804262963994], [30.04623568950842, 37.202804262963994], [30.04623568950842, 37.20226527379352], [30.0467746786789, 37.20226527379352]]]}, "properties": {"area_ha": 25.462469557463507, "mean_dnbr": 0.3305072682521831, "compactness": 0.165, "rectangularity": 0.471, "cropland_frac": 0.272, "persistent": true}}]}