{"type": "FeatureCollection", "crs": {"type": "name", "properties": {"name": "urn:ogc:def:crs:OGC:1.3:CRS84"}}, "features": [{"type": "Feature", "geometry": {"geodesic": false, "type": "Polygon", "coordinates": [[[30.431073957225237, 38.19238837995006], [30.432151935566168, 38.19238837995006], [30.432151935566168, 38.19292736912053], [30.43161294639569, 38.19292736912053], [30.43161294639569, 38.193466358291005], [30.432151935566168, 38.193466358291005], [30.432151935566168, 38.19400534746148], [30.43161294639569, 38.19400534746148], [30.43161294639569, 38.19454433663195], [30.432151935566168, 38.19454433663195], [30.432151935566168, 38.19508332580242], [30.433768903077578, 38.19508332580242], [30.433768903077578, 38.19454433663195], [30.434307892248057, 38.19454433663195], [30.434307892248057, 38.19400534746148], [30.434846881418537, 38.19400534746148], [30.434846881418537, 38.19454433663195], [30.435385870588988, 38.19454433663195], [30.435385870588988, 38.19400534746148], [30.435924859759467, 38.19400534746148], [30.435924859759467, 38.19454433663195], [30.436463848929947, 38.19454433663195], [30.436463848929947, 38.19508332580242], [30.437002838100426, 38.19508332580242], [30.437002838100426, 38.19562231497289], [30.437541827270877, 38.19562231497289], [30.437541827270877, 38.19616130414336], [30.438080816441357, 38.19616130414336], [30.438080816441357, 38.19670029331383], [30.438619805611836, 38.19670029331383], [30.438619805611836, 38.19777827165478], [30.439158794782287, 38.19777827165478], [30.439158794782287, 38.19831726082525], [30.438080816441357, 38.19831726082525], [30.438080816441357, 38.20047321750714], [30.437541827270877, 38.20047321750714], [30.437541827270877, 38.20155119584808], [30.438619805611836, 38.20155119584808], [30.438619805611836, 38.20047321750714], [30.439158794782287, 38.20047321750714], [30.439158794782287, 38.199934228336666], [30.440236773123246, 38.199934228336666], [30.440236773123246, 38.19831726082525], [30.440775762293725, 38.19831726082525], [30.440775762293725, 38.19885624999572], [30.441314751464176, 38.19885624999572], [30.441314751464176, 38.199934228336666], [30.441853740634656, 38.199934228336666], [30.441853740634656, 38.20047321750714], [30.442392729805135, 38.20047321750714], [30.442392729805135, 38.20101220667761], [30.442931718975615, 38.20101220667761], [30.442931718975615, 38.20155119584808], [30.442392729805135, 38.20155119584808], [30.442392729805135, 38.20209018501855], [30.441853740634656, 38.20209018501855], [30.441853740634656, 38.20155119584808], [30.442392729805135, 38.20155119584808], [30.442392729805135, 38.20101220667761], [30.441314751464176, 38.20101220667761], [30.441314751464176, 38.20155119584808], [30.440775762293725, 38.20155119584808], [30.440775762293725, 38.20209018501855], [30.441314751464176, 38.20209018501855], [30.441314751464176, 38.20316816335949], [30.440775762293725, 38.20316816335949], [30.440775762293725, 38.203707152529965], [30.441314751464176, 38.203707152529965], [30.441314751464176, 38.20424614170044], [30.440775762293725, 38.20424614170044], [30.440775762293725, 38.20478513087091], [30.440236773123246, 38.20478513087091], [30.440236773123246, 38.20532412004138], [30.438619805611836, 38.20532412004138], [30.438619805611836, 38.20478513087091], [30.439158794782287, 38.20478513087091], [30.439158794782287, 38.203707152529965], [30.439697783952766, 38.203707152529965], [30.439697783952766, 38.20316816335949], [30.439158794782287, 38.20316816335949], [30.439158794782287, 38.20262917418902], [30.439697783952766, 38.20262917418902], [30.439697783952766, 38.20316816335949], [30.440775762293725, 38.20316816335949], [30.440775762293725, 38.20209018501855], [30.440236773123246, 38.20209018501855], [30.440236773123246, 38.20101220667761], [30.439697783952766, 38.20101220667761], [30.439697783952766, 38.20155119584808], [30.439158794782287, 38.20155119584808], [30.439158794782287, 38.20209018501855], [30.438619805611836, 38.20209018501855], [30.438619805611836, 38.20262917418902], [30.438080816441357, 38.20262917418902], [30.438080816441357, 38.20316816335949], [30.437002838100426, 38.20316816335949], [30.437002838100426, 38.20262917418902], [30.436463848929947, 38.20262917418902], [30.436463848929947, 38.20209018501855], [30.437541827270877, 38.20209018501855], [30.437541827270877, 38.20155119584808], [30.437002838100426, 38.20155119584808], [30.437002838100426, 38.20101220667761], [30.436463848929947, 38.20101220667761], [30.436463848929947, 38.199934228336666], [30.437002838100426, 38.199934228336666], [30.437002838100426, 38.19939523916619], [30.437541827270877, 38.19939523916619], [30.437541827270877, 38.19885624999572], [30.436463848929947, 38.19885624999572], [30.436463848929947, 38.19831726082525], [30.437002838100426, 38.19831726082525], [30.437002838100426, 38.19777827165478], [30.436463848929947, 38.19777827165478], [30.436463848929947, 38.197239282484304], [30.437002838100426, 38.197239282484304], [30.437002838100426, 38.19670029331383], [30.435924859759467, 38.19670029331383], [30.435924859759467, 38.197239282484304], [30.434846881418537, 38.197239282484304], [30.434846881418537, 38.19777827165478], [30.435385870588988, 38.19777827165478], [30.435385870588988, 38.19831726082525], [30.434307892248057, 38.19831726082525], [30.434307892248057, 38.19777827165478], [30.4332299139071, 38.19777827165478], [30.4332299139071, 38.19616130414336], [30.432151935566168, 38.19616130414336], [30.432151935566168, 38.19670029331383], [30.431073957225237, 38.19670029331383], [30.431073957225237, 38.19616130414336], [30.430534968054758, 38.19616130414336], [30.430534968054758, 38.19562231497289], [30.42999597888428, 38.19562231497289], [30.42999597888428, 38.19454433663195], [30.4294569897138, 38.19454433663195], [30.4294569897138, 38.19400534746148], [30.42999597888428, 38.19400534746148], [30.42999597888428, 38.193466358291005], [30.431073957225237, 38.193466358291005], [30.431073957225237, 38.19238837995006]], [[30.438080816441357, 38.19777827165478], [30.438080816441357, 38.19831726082525], [30.437541827270877, 38.19831726082525], [30.437541827270877, 38.19777827165478], [30.438080816441357, 38.19777827165478]], [[30.431073957225237, 38.19508332580242], [30.431073957225237, 38.19562231497289], [30.430534968054758, 38.19562231497289], [30.430534968054758, 38.19508332580242], [30.431073957225237, 38.19508332580242]]]}, "properties": {"area_ha": 38.95505581121862, "mean_dnbr": 0.2243361485402469, "compactness": 0.05, "rectangularity": 0.393, "cropland_frac": 0.155, "persistent": true}}, {"type": "Feature", "geometry": {"geodesic": false, "type": "Polygon", "coordinates": [[[30.494135690170424, 38.792822315855545], [30.495752657681834, 38.792822315855545], [30.495752657681834, 38.79336130502602], [30.496291646852313, 38.79336130502602], [30.496291646852313, 38.79443928336696], [30.496830636022764, 38.79443928336696], [30.496830636022764, 38.794978272537435], [30.496291646852313, 38.794978272537435], [30.496291646852313, 38.79605625087838], [30.495752657681834, 38.79605625087838], [30.495752657681834, 38.79659524004885], [30.489284787636166, 38.79659524004885], [30.489284787636166, 38.797134229219324], [30.487128830954276, 38.797134229219324], [30.487128830954276, 38.79659524004885], [30.486589841783797, 38.79659524004885], [30.486589841783797, 38.79605625087838], [30.486050852613346, 38.79605625087838], [30.486050852613346, 38.79551726170791], [30.487128830954276, 38.79551726170791], [30.487128830954276, 38.794978272537435], [30.487667820124756, 38.794978272537435], [30.487667820124756, 38.79551726170791], [30.487128830954276, 38.79551726170791], [30.487128830954276, 38.79605625087838], [30.488206809295235, 38.79605625087838], [30.488206809295235, 38.79551726170791], [30.488745798465686, 38.79551726170791], [30.488745798465686, 38.79605625087838], [30.489823776806645, 38.79605625087838], [30.489823776806645, 38.79551726170791], [30.490901755147576, 38.79551726170791], [30.490901755147576, 38.79443928336696], [30.491440744318055, 38.79443928336696], [30.491440744318055, 38.79390029419649], [30.492518722658986, 38.79390029419649], [30.492518722658986, 38.79336130502602], [30.494135690170424, 38.79336130502602], [30.494135690170424, 38.792822315855545]]]}, "properties": {"area_ha": 21.556598323857067, "mean_dnbr": 0.43140249893745775, "compactness": 0.252, "rectangularity": 0.526, "cropland_frac": 0.488, "persistent": true}}]}