{"type": "FeatureCollection", "crs": {"type": "name", "properties": {"name": "urn:ogc:def:crs:OGC:1.3:CRS84"}}, "features": [{"type": "Feature", "geometry": {"geodesic": false, "type": "Polygon", "coordinates": [[[30.312496339721434, 38.763716900650074], [30.313035328891914, 38.763716900650074], [30.313035328891914, 38.76587285733196], [30.313574318062393, 38.76587285733196], [30.313574318062393, 38.766411846502436], [30.314652296403324, 38.766411846502436], [30.314652296403324, 38.76695083567291], [30.314113307232873, 38.76695083567291], [30.314113307232873, 38.76748982484338], [30.315191285573803, 38.76748982484338], [30.315191285573803, 38.76856780318432], [30.314652296403324, 38.76856780318432], [30.314652296403324, 38.76910679235479], [30.315191285573803, 38.76910679235479], [30.315191285573803, 38.76964578152526], [30.316808253085213, 38.76964578152526], [30.316808253085213, 38.76910679235479], [30.317347242255693, 38.76910679235479], [30.317347242255693, 38.770184770695735], [30.317886231426172, 38.770184770695735], [30.317886231426172, 38.77126274903668], [30.317347242255693, 38.77126274903668], [30.317347242255693, 38.77180173820715], [30.318425220596623, 38.77180173820715], [30.318425220596623, 38.77126274903668], [30.319503198937582, 38.77126274903668], [30.319503198937582, 38.77072375986621], [30.32004218810806, 38.77072375986621], [30.32004218810806, 38.77180173820715], [30.320581177278513, 38.77180173820715], [30.320581177278513, 38.77126274903668], [30.32381511230136, 38.77126274903668], [30.32381511230136, 38.77180173820715], [30.324354101471812, 38.77180173820715], [30.324354101471812, 38.772340727377625], [30.32489309064229, 38.772340727377625], [30.32489309064229, 38.7728797165481], [30.324354101471812, 38.7728797165481], [30.324354101471812, 38.77341870571857], [30.32381511230136, 38.77341870571857], [30.32381511230136, 38.7728797165481], [30.324354101471812, 38.7728797165481], [30.324354101471812, 38.772340727377625], [30.32219814478995, 38.772340727377625], [30.32219814478995, 38.7728797165481], [30.322737133960402, 38.7728797165481], [30.322737133960402, 38.77341870571857], [30.32165915561947, 38.77341870571857], [30.32165915561947, 38.77449668405951], [30.32219814478995, 38.77449668405951], [30.32219814478995, 38.77557466240045], [30.322737133960402, 38.77557466240045], [30.322737133960402, 38.776113651570924], [30.32219814478995, 38.776113651570924], [30.32219814478995, 38.776652640741396], [30.32327612313088, 38.776652640741396], [30.32327612313088, 38.77719162991187], [30.32381511230136, 38.77719162991187], [30.32381511230136, 38.77773061908234], [30.3265100581537, 38.77773061908234], [30.3265100581537, 38.77934758659376], [30.32704904732418, 38.77934758659376], [30.32704904732418, 38.780425564934696], [30.32758803649466, 38.780425564934696], [30.32758803649466, 38.78204253244611], [30.32812702566514, 38.78204253244611], [30.32812702566514, 38.782581521616585], [30.32866601483559, 38.782581521616585], [30.32866601483559, 38.78365949995753], [30.32920500400607, 38.78365949995753], [30.32920500400607, 38.784198489128], [30.32866601483559, 38.784198489128], [30.32866601483559, 38.784737478298474], [30.32704904732418, 38.784737478298474], [30.32704904732418, 38.78096455410517], [30.32597106898325, 38.78096455410517], [30.32597106898325, 38.780425564934696], [30.32381511230136, 38.780425564934696], [30.32381511230136, 38.77988657576423], [30.32327612313088, 38.77988657576423], [30.32327612313088, 38.78096455410517], [30.32219814478995, 38.78096455410517], [30.32219814478995, 38.78312051078706], [30.321120166448992, 38.78312051078706], [30.321120166448992, 38.780425564934696], [30.320581177278513, 38.780425564934696], [30.320581177278513, 38.78096455410517], [30.32004218810806, 38.78096455410517], [30.32004218810806, 38.78150354327564], [30.319503198937582, 38.78150354327564], [30.319503198937582, 38.78096455410517], [30.318425220596623, 38.78096455410517], [30.318425220596623, 38.780425564934696], [30.317886231426172, 38.780425564934696], [30.317886231426172, 38.78150354327564], [30.318425220596623, 38.78150354327564], [30.318425220596623, 38.78204253244611], [30.318964209767103, 38.78204253244611], [30.318964209767103, 38.782581521616585], [30.318425220596623, 38.782581521616585], [30.318425220596623, 38.78204253244611], [30.317886231426172, 38.78204253244611], [30.317886231426172, 38.782581521616585], [30.317347242255693, 38.782581521616585], [30.317347242255693, 38.78150354327564], [30.316808253085213, 38.78150354327564], [30.316808253085213, 38.77988657576423], [30.314652296403324, 38.77988657576423], [30.314652296403324, 38.77934758659376], [30.313574318062393, 38.77934758659376], [30.313574318062393, 38.780425564934696], [30.314113307232873, 38.780425564934696], [30.314113307232873, 38.78096455410517], [30.313035328891914, 38.78096455410517], [30.313035328891914, 38.77934758659376], [30.311957350550983, 38.77934758659376], [30.311957350550983, 38.778808597423286], [30.311418361380504, 38.778808597423286], [30.311418361380504, 38.776652640741396], [30.310879372210024, 38.776652640741396], [30.310879372210024, 38.776113651570924], [30.311418361380504, 38.776113651570924], [30.311418361380504, 38.77557466240045], [30.311957350550983, 38.77557466240045], [30.311957350550983, 38.776652640741396], [30.312496339721434, 38.776652640741396], [30.312496339721434, 38.77773061908234], [30.313035328891914, 38.77773061908234], [30.313035328891914, 38.77719162991187], [30.313574318062393, 38.77719162991187], [30.313574318062393, 38.77773061908234], [30.315730274744283, 38.77773061908234], [30.315730274744283, 38.77826960825281], [30.316269263914762, 38.77826960825281], [30.316269263914762, 38.778808597423286], [30.316808253085213, 38.778808597423286], [30.316808253085213, 38.77934758659376], [30.317347242255693, 38.77934758659376], [30.317347242255693, 38.77826960825281], [30.318964209767103, 38.77826960825281], [30.318964209767103, 38.776652640741396], [30.319503198937582, 38.776652640741396], [30.319503198937582, 38.776113651570924], [30.32004218810806, 38.776113651570924], [30.32004218810806, 38.77557466240045], [30.318425220596623, 38.77557466240045], [30.318425220596623, 38.77503567322998], [30.316269263914762, 38.77503567322998], [30.316269263914762, 38.77557466240045], [30.315191285573803, 38.77557466240045], [30.315191285573803, 38.776652640741396], [30.314652296403324, 38.776652640741396], [30.314652296403324, 38.77719162991187], [30.314113307232873, 38.77719162991187], [30.314113307232873, 38.77557466240045], [30.314652296403324, 38.77557466240045], [30.314652296403324, 38.77503567322998], [30.314113307232873, 38.77503567322998], [30.314113307232873, 38.77395769488904], [30.313574318062393, 38.77395769488904], [30.313574318062393, 38.77341870571857], [30.314113307232873, 38.77341870571857], [30.314113307232873, 38.77395769488904], [30.315191285573803, 38.77395769488904], [30.315191285573803, 38.77341870571857], [30.314652296403324, 38.77341870571857], [30.314652296403324, 38.7728797165481], [30.312496339721434, 38.7728797165481], [30.312496339721434, 38.77341870571857], [30.311418361380504, 38.77341870571857], [30.311418361380504, 38.77449668405951], [30.310340383039573, 38.77449668405951], [30.310340383039573, 38.77341870571857], [30.309801393869094, 38.77341870571857], [30.309801393869094, 38.772340727377625], [30.311957350550983, 38.772340727377625], [30.311957350550983, 38.7728797165481], [30.312496339721434, 38.7728797165481], [30.312496339721434, 38.772340727377625], [30.314652296403324, 38.772340727377625], [30.314652296403324, 38.77180173820715], [30.315730274744283, 38.77180173820715], [30.315730274744283, 38.77126274903668], [30.315191285573803, 38.77126274903668], [30.315191285573803, 38.77072375986621], [30.314652296403324, 38.77072375986621], [30.314652296403324, 38.76964578152526], [30.314113307232873, 38.76964578152526], [30.314113307232873, 38.770184770695735], [30.313574318062393, 38.770184770695735], [30.313574318062393, 38.76964578152526], [30.314113307232873, 38.76964578152526], [30.314113307232873, 38.76856780318432], [30.312496339721434, 38.76856780318432], [30.312496339721434, 38.76802881401385], [30.311418361380504, 38.76802881401385], [30.311418361380504, 38.76748982484338], [30.313035328891914, 38.76748982484338], [30.313035328891914, 38.76587285733196], [30.311957350550983, 38.76587285733196], [30.311957350550983, 38.76533386816149], [30.312496339721434, 38.76533386816149], [30.312496339721434, 38.763716900650074]], [[30.32004218810806, 38.780425564934696], [30.32004218810806, 38.78096455410517], [30.319503198937582, 38.78096455410517], [30.319503198937582, 38.780425564934696], [30.32004218810806, 38.780425564934696]], [[30.318425220596623, 38.77934758659376], [30.318425220596623, 38.77988657576423], [30.317886231426172, 38.77988657576423], [30.317886231426172, 38.77934758659376], [30.318425220596623, 38.77934758659376]], [[30.322737133960402, 38.778808597423286], [30.322737133960402, 38.77988657576423], [30.32219814478995, 38.77988657576423], [30.32219814478995, 38.780425564934696], [30.32165915561947, 38.780425564934696], [30.32165915561947, 38.77934758659376], [30.32219814478995, 38.77934758659376], [30.32219814478995, 38.778808597423286], [30.322737133960402, 38.778808597423286]], [[30.32597106898325, 38.778808597423286], [30.32597106898325, 38.77934758659376], [30.32543207981277, 38.77934758659376], [30.32543207981277, 38.778808597423286], [30.32597106898325, 38.778808597423286]], [[30.32327612313088, 38.77773061908234], [30.32327612313088, 38.778808597423286], [30.322737133960402, 38.778808597423286], [30.322737133960402, 38.77773061908234], [30.32327612313088, 38.77773061908234]], [[30.320581177278513, 38.77395769488904], [30.320581177278513, 38.77449668405951], [30.321120166448992, 38.77449668405951], [30.321120166448992, 38.77503567322998], [30.32165915561947, 38.77503567322998], [30.32165915561947, 38.77557466240045], [30.321120166448992, 38.77557466240045], [30.321120166448992, 38.776652640741396], [30.32165915561947, 38.776652640741396], [30.32165915561947, 38.77719162991187], [30.321120166448992, 38.77719162991187], [30.321120166448992, 38.77826960825281], [30.32004218810806, 38.77826960825281], [30.32004218810806, 38.77719162991187], [30.319503198937582, 38.77719162991187], [30.319503198937582, 38.776652640741396], [30.32004218810806, 38.776652640741396], [30.32004218810806, 38.776113651570924], [30.320581177278513, 38.776113651570924], [30.320581177278513, 38.77557466240045], [30.32004218810806, 38.77557466240045], [30.32004218810806, 38.77449668405951], [30.319503198937582, 38.77449668405951], [30.319503198937582, 38.77395769488904], [30.320581177278513, 38.77395769488904]], [[30.311418361380504, 38.7728797165481], [30.311418361380504, 38.77341870571857], [30.310879372210024, 38.77341870571857], [30.310879372210024, 38.7728797165481], [30.311418361380504, 38.7728797165481]], [[30.32004218810806, 38.77180173820715], [30.32004218810806, 38.7728797165481], [30.317886231426172, 38.7728797165481], [30.317886231426172, 38.77341870571857], [30.318964209767103, 38.77341870571857], [30.318964209767103, 38.77395769488904], [30.317347242255693, 38.77395769488904], [30.317347242255693, 38.7728797165481], [30.316808253085213, 38.7728797165481], [30.316808253085213, 38.77449668405951], [30.316269263914762, 38.77449668405951], [30.316269263914762, 38.77503567322998], [30.315191285573803, 38.77503567322998], [30.315191285573803, 38.77395769488904], [30.316269263914762, 38.77395769488904], [30.316269263914762, 38.7728797165481], [30.315191285573803, 38.7728797165481], [30.315191285573803, 38.772340727377625], [30.315730274744283, 38.772340727377625], [30.315730274744283, 38.77180173820715], [30.317347242255693, 38.77180173820715], [30.317347242255693, 38.772340727377625], [30.318425220596623, 38.772340727377625], [30.318425220596623, 38.77180173820715], [30.32004218810806, 38.77180173820715]], [[30.316808253085213, 38.770184770695735], [30.316808253085213, 38.77072375986621], [30.315730274744283, 38.77072375986621], [30.315730274744283, 38.770184770695735], [30.316808253085213, 38.770184770695735]]]}, "properties": {"area_ha": 90.44919109531453, "mean_dnbr": 0.20752157357006204, "compactness": 0.021, "rectangularity": 0.259, "cropland_frac": 0.122, "persistent": true}}, {"type": "Feature", "geometry": {"geodesic": false, "type": "Polygon", "coordinates": [[[30.437002838100426, 38.46565588937922], [30.437541827270877, 38.46565588937922], [30.437541827270877, 38.466733867720166], [30.438080816441357, 38.466733867720166], [30.438080816441357, 38.4678118460611], [30.437541827270877, 38.4678118460611], [30.437541827270877, 38.468350835231576], [30.438619805611836, 38.468350835231576], [30.438619805611836, 38.46942881357252], [30.437541827270877, 38.46942881357252], [30.437541827270877, 38.46996780274299], [30.438619805611836, 38.46996780274299], [30.438619805611836, 38.47158477025441], [30.438080816441357, 38.47158477025441], [30.438080816441357, 38.47212375942488], [30.437541827270877, 38.47212375942488], [30.437541827270877, 38.47320173776582], [30.435385870588988, 38.47320173776582], [30.435385870588988, 38.472662748595354], [30.433768903077578, 38.472662748595354], [30.433768903077578, 38.47212375942488], [30.4332299139071, 38.47212375942488], [30.4332299139071, 38.47158477025441], [30.433768903077578, 38.47158477025441], [30.433768903077578, 38.470506791913465], [30.4332299139071, 38.470506791913465], [30.4332299139071, 38.46942881357252], [30.433768903077578, 38.46942881357252], [30.433768903077578, 38.46888982440205], [30.434307892248057, 38.46888982440205], [30.434307892248057, 38.46619487854969], [30.434846881418537, 38.46619487854969], [30.434846881418537, 38.46565588937922], [30.435385870588988, 38.46565588937922], [30.435385870588988, 38.466733867720166], [30.436463848929947, 38.466733867720166], [30.436463848929947, 38.46619487854969], [30.437002838100426, 38.46619487854969], [30.437002838100426, 38.46565588937922]], [[30.437002838100426, 38.47104578108394], [30.437002838100426, 38.47212375942488], [30.436463848929947, 38.47212375942488], [30.436463848929947, 38.47104578108394], [30.437002838100426, 38.47104578108394]], [[30.436463848929947, 38.470506791913465], [30.436463848929947, 38.47104578108394], [30.435924859759467, 38.47104578108394], [30.435924859759467, 38.470506791913465], [30.436463848929947, 38.470506791913465]], [[30.437541827270877, 38.470506791913465], [30.437541827270877, 38.47104578108394], [30.437002838100426, 38.47104578108394], [30.437002838100426, 38.470506791913465], [30.437541827270877, 38.470506791913465]]]}, "properties": {"area_ha": 26.71664215187423, "mean_dnbr": 0.33675221858283283, "compactness": 0.211, "rectangularity": 0.679, "cropland_frac": 0.113, "persistent": true}}]}