{"type": "FeatureCollection", "crs": {"type": "name", "properties": {"name": "urn:ogc:def:crs:OGC:1.3:CRS84"}}, "features": [{"type": "Feature", "geometry": {"geodesic": false, "type": "Polygon", "coordinates": [[[29.418852295079347, 38.77934758659376], [29.419930273420277, 38.77934758659376], [29.419930273420277, 38.77988657576423], [29.420469262590757, 38.77988657576423], [29.420469262590757, 38.780425564934696], [29.421008251761236, 38.780425564934696], [29.421008251761236, 38.78150354327564], [29.421547240931716, 38.78150354327564], [29.421547240931716, 38.780425564934696], [29.423164208443126, 38.780425564934696], [29.423164208443126, 38.78150354327564], [29.421547240931716, 38.78150354327564], [29.421547240931716, 38.78365949995753], [29.422086230102167, 38.78365949995753], [29.422086230102167, 38.784198489128], [29.422625219272646, 38.784198489128], [29.422625219272646, 38.784737478298474], [29.423164208443126, 38.784737478298474], [29.423164208443126, 38.78581545663942], [29.422625219272646, 38.78581545663942], [29.422625219272646, 38.7879714133213], [29.422086230102167, 38.7879714133213], [29.422086230102167, 38.788510402491774], [29.421008251761236, 38.788510402491774], [29.421008251761236, 38.78958838083272], [29.420469262590757, 38.78958838083272], [29.420469262590757, 38.79174433751461], [29.421008251761236, 38.79174433751461], [29.421008251761236, 38.79228332668508], [29.420469262590757, 38.79228332668508], [29.420469262590757, 38.792822315855545], [29.421008251761236, 38.792822315855545], [29.421008251761236, 38.79336130502602], [29.421547240931716, 38.79336130502602], [29.421547240931716, 38.79443928336696], [29.419930273420277, 38.79443928336696], [29.419930273420277, 38.794978272537435], [29.418852295079347, 38.794978272537435], [29.418852295079347, 38.79443928336696], [29.418313305908868, 38.79443928336696], [29.418313305908868, 38.79174433751461], [29.417774316738416, 38.79174433751461], [29.417774316738416, 38.79066635917366], [29.418313305908868, 38.79066635917366], [29.418313305908868, 38.78958838083272], [29.417235327567937, 38.78958838083272], [29.417235327567937, 38.788510402491774], [29.416696338397458, 38.788510402491774], [29.416696338397458, 38.78689343498036], [29.417235327567937, 38.78689343498036], [29.417235327567937, 38.78581545663942], [29.416696338397458, 38.78581545663942], [29.416696338397458, 38.78527646746895], [29.416157349226978, 38.78527646746895], [29.416157349226978, 38.784737478298474], [29.416696338397458, 38.784737478298474], [29.416696338397458, 38.784198489128], [29.416157349226978, 38.784198489128], [29.416157349226978, 38.78204253244611], [29.415618360056527, 38.78204253244611], [29.415618360056527, 38.78150354327564], [29.416696338397458, 38.78150354327564], [29.416696338397458, 38.78096455410517], [29.417235327567937, 38.78096455410517], [29.417235327567937, 38.77988657576423], [29.418852295079347, 38.77988657576423], [29.418852295079347, 38.77934758659376]]]}, "properties": {"area_ha": 64.1174947611449, "mean_dnbr": 0.4621543224622668, "compactness": 0.234, "rectangularity": 0.564, "cropland_frac": 0.027, "persistent": true}}, {"type": "Feature", "geometry": {"geodesic": false, "type": "Polygon", "coordinates": [[[29.580549046220852, 38.03985444470656], [29.581088035391332, 38.03985444470656], [29.581088035391332, 38.040393433877036], [29.58162702456181, 38.040393433877036], [29.58162702456181, 38.04093242304751], [29.582705002902742, 38.04093242304751], [29.582705002902742, 38.04201040138845], [29.58324399207322, 38.04201040138845], [29.58324399207322, 38.04147141221798], [29.5837829812437, 38.04147141221798], [29.5837829812437, 38.042549390558925], [29.584321970414152, 38.042549390558925], [29.584321970414152, 38.0430883797294], [29.58486095958463, 38.0430883797294], [29.58486095958463, 38.04362736889987], [29.58647792709604, 38.04362736889987], [29.58647792709604, 38.04416635807034], [29.58701691626652, 38.04416635807034], [29.58701691626652, 38.04524433641128], [29.58647792709604, 38.04524433641128], [29.58647792709604, 38.044705347240814], [29.58539994875511, 38.044705347240814], [29.58539994875511, 38.04524433641128], [29.58486095958463, 38.04524433641128], [29.58486095958463, 38.04578332558175], [29.5837829812437, 38.04578332558175], [29.5837829812437, 38.046322314752224], [29.584321970414152, 38.046322314752224], [29.584321970414152, 38.0468613039227], [29.58486095958463, 38.0468613039227], [29.58486095958463, 38.04793928226364], [29.58539994875511, 38.04793928226364], [29.58539994875511, 38.049017260604586], [29.58593893792559, 38.049017260604586], [29.58593893792559, 38.04955624977506], [29.58539994875511, 38.04955624977506], [29.58539994875511, 38.05009523894553], [29.58593893792559, 38.05009523894553], [29.58593893792559, 38.05117321728647], [29.58486095958463, 38.05117321728647], [29.58486095958463, 38.05009523894553], [29.5837829812437, 38.05009523894553], [29.5837829812437, 38.04955624977506], [29.584321970414152, 38.04955624977506], [29.584321970414152, 38.048478271434114], [29.58324399207322, 38.048478271434114], [29.58324399207322, 38.04793928226364], [29.582705002902742, 38.04793928226364], [29.582705002902742, 38.04740029309317], [29.582166013732262, 38.04740029309317], [29.582166013732262, 38.0468613039227], [29.581088035391332, 38.0468613039227], [29.581088035391332, 38.046322314752224], [29.580549046220852, 38.046322314752224], [29.580549046220852, 38.04793928226364], [29.5800100570504, 38.04793928226364], [29.5800100570504, 38.04740029309317], [29.579471067879922, 38.04740029309317], [29.579471067879922, 38.0468613039227], [29.578393089538963, 38.0468613039227], [29.578393089538963, 38.04740029309317], [29.576776122027553, 38.04740029309317], [29.576776122027553, 38.046322314752224], [29.576237132857074, 38.046322314752224], [29.576237132857074, 38.048478271434114], [29.575698143686623, 38.048478271434114], [29.575698143686623, 38.04955624977506], [29.574620165345664, 38.04955624977506], [29.574620165345664, 38.05009523894553], [29.575159154516143, 38.05009523894553], [29.575159154516143, 38.050634228116], [29.576237132857074, 38.050634228116], [29.576237132857074, 38.05117321728647], [29.574620165345664, 38.05117321728647], [29.574620165345664, 38.05171220645694], [29.575159154516143, 38.05171220645694], [29.575159154516143, 38.05225119562741], [29.573542187004733, 38.05225119562741], [29.573542187004733, 38.050634228116], [29.573003197834254, 38.050634228116], [29.573003197834254, 38.04955624977506], [29.573542187004733, 38.04955624977506], [29.573542187004733, 38.049017260604586], [29.574081176175213, 38.049017260604586], [29.574081176175213, 38.048478271434114], [29.573003197834254, 38.048478271434114], [29.573003197834254, 38.04793928226364], [29.573542187004733, 38.04793928226364], [29.573542187004733, 38.0468613039227], [29.573003197834254, 38.0468613039227], [29.573003197834254, 38.046322314752224], [29.572464208663774, 38.046322314752224], [29.572464208663774, 38.0468613039227], [29.571925219493323, 38.0468613039227], [29.571925219493323, 38.04578332558175], [29.570308251981885, 38.04578332558175], [29.570308251981885, 38.046322314752224], [29.570847241152364, 38.046322314752224], [29.570847241152364, 38.04740029309317], [29.570308251981885, 38.04740029309317], [29.570308251981885, 38.046322314752224], [29.569769262811434, 38.046322314752224], [29.569769262811434, 38.04524433641128], [29.573542187004733, 38.04524433641128], [29.573542187004733, 38.046322314752224], [29.576237132857074, 38.046322314752224], [29.576237132857074, 38.04524433641128], [29.575698143686623, 38.04524433641128], [29.575698143686623, 38.044705347240814], [29.576237132857074, 38.044705347240814], [29.576237132857074, 38.04416635807034], [29.577315111198033, 38.04416635807034], [29.577315111198033, 38.04362736889987], [29.579471067879922, 38.04362736889987], [29.579471067879922, 38.04416635807034], [29.580549046220852, 38.04416635807034], [29.580549046220852, 38.04524433641128], [29.58162702456181, 38.04524433641128], [29.58162702456181, 38.044705347240814], [29.581088035391332, 38.044705347240814], [29.581088035391332, 38.04416635807034], [29.5837829812437, 38.04416635807034], [29.5837829812437, 38.04362736889987], [29.5800100570504, 38.04362736889987], [29.5800100570504, 38.0430883797294], [29.581088035391332, 38.0430883797294], [29.581088035391332, 38.042549390558925], [29.582166013732262, 38.042549390558925], [29.582166013732262, 38.04201040138845], [29.58162702456181, 38.04201040138845], [29.58162702456181, 38.04093242304751], [29.581088035391332, 38.04093242304751], [29.581088035391332, 38.040393433877036], [29.580549046220852, 38.040393433877036], [29.580549046220852, 38.03985444470656]], [[29.574620165345664, 38.050634228116], [29.574620165345664, 38.05117321728647], [29.574081176175213, 38.05117321728647], [29.574081176175213, 38.050634228116], [29.574620165345664, 38.050634228116]], [[29.575698143686623, 38.04793928226364], [29.575698143686623, 38.048478271434114], [29.574620165345664, 38.048478271434114], [29.574620165345664, 38.04793928226364], [29.575698143686623, 38.04793928226364]], [[29.58486095958463, 38.04362736889987], [29.58486095958463, 38.04416635807034], [29.58539994875511, 38.04416635807034], [29.58539994875511, 38.044705347240814], [29.5837829812437, 38.044705347240814], [29.5837829812437, 38.04416635807034], [29.584321970414152, 38.04416635807034], [29.584321970414152, 38.04362736889987], [29.58486095958463, 38.04362736889987]]]}, "properties": {"area_ha": 55.72562770002816, "mean_dnbr": 0.17986106148936054, "compactness": 0.047, "rectangularity": 0.287, "cropland_frac": 0.496, "persistent": true}}, {"type": "Feature", "geometry": {"geodesic": false, "type": "Polygon", "coordinates": [[[29.707211501281705, 38.18807646658629], [29.708289479622664, 38.18807646658629], [29.708289479622664, 38.18861545575676], [29.709367457963594, 38.18861545575676], [29.709367457963594, 38.18915444492723], [29.708828468793115, 38.18915444492723], [29.708828468793115, 38.19077141243864], [29.708289479622664, 38.19077141243864], [29.708289479622664, 38.19184939077959], [29.708828468793115, 38.19184939077959], [29.708828468793115, 38.19238837995006], [29.709367457963594, 38.19238837995006], [29.709367457963594, 38.191310401609115], [29.710445436304553, 38.191310401609115], [29.710445436304553, 38.19077141243864], [29.710984425475004, 38.19077141243864], [29.710984425475004, 38.19023242326817], [29.711523414645484, 38.19023242326817], [29.711523414645484, 38.191310401609115], [29.712062403815963, 38.191310401609115], [29.712062403815963, 38.19184939077959], [29.712601392986443, 38.19184939077959], [29.712601392986443, 38.19238837995006], [29.713140382156894, 38.19238837995006], [29.713140382156894, 38.19184939077959], [29.713679371327373, 38.19184939077959], [29.713679371327373, 38.19238837995006], [29.714218360497853, 38.19238837995006], [29.714218360497853, 38.19292736912053], [29.715835328009263, 38.19292736912053], [29.715835328009263, 38.191310401609115], [29.716374317179742, 38.191310401609115], [29.716374317179742, 38.1896934340977], [29.716913306350193, 38.1896934340977], [29.716913306350193, 38.191310401609115], [29.717452295520673, 38.191310401609115], [29.717452295520673, 38.193466358291005], [29.717991284691152, 38.193466358291005], [29.717991284691152, 38.19400534746148], [29.71853027386163, 38.19400534746148], [29.71853027386163, 38.19562231497289], [29.719069263032083, 38.19562231497289], [29.719069263032083, 38.19508332580242], [29.720686230543492, 38.19508332580242], [29.720686230543492, 38.19670029331383], [29.72014724137304, 38.19670029331383], [29.72014724137304, 38.197239282484304], [29.717991284691152, 38.197239282484304], [29.717991284691152, 38.19777827165478], [29.71853027386163, 38.19777827165478], [29.71853027386163, 38.20047321750714], [29.719069263032083, 38.20047321750714], [29.719069263032083, 38.20101220667761], [29.719608252202562, 38.20101220667761], [29.719608252202562, 38.20209018501855], [29.72176420888445, 38.20209018501855], [29.72176420888445, 38.20262917418902], [29.72014724137304, 38.20262917418902], [29.72014724137304, 38.20316816335949], [29.719608252202562, 38.20316816335949], [29.719608252202562, 38.20262917418902], [29.71853027386163, 38.20262917418902], [29.71853027386163, 38.20209018501855], [29.717452295520673, 38.20209018501855], [29.717452295520673, 38.20155119584808], [29.716913306350193, 38.20155119584808], [29.716913306350193, 38.20101220667761], [29.716374317179742, 38.20101220667761], [29.716374317179742, 38.199934228336666], [29.715296338838783, 38.199934228336666], [29.715296338838783, 38.19885624999572], [29.714757349668304, 38.19885624999572], [29.714757349668304, 38.19777827165478], [29.714218360497853, 38.19777827165478], [29.714218360497853, 38.19670029331383], [29.712601392986443, 38.19670029331383], [29.712601392986443, 38.19616130414336], [29.713140382156894, 38.19616130414336], [29.713140382156894, 38.19562231497289], [29.712062403815963, 38.19562231497289], [29.712062403815963, 38.19400534746148], [29.710984425475004, 38.19400534746148], [29.710984425475004, 38.193466358291005], [29.711523414645484, 38.193466358291005], [29.711523414645484, 38.19238837995006], [29.709367457963594, 38.19238837995006], [29.709367457963594, 38.193466358291005], [29.708828468793115, 38.193466358291005], [29.708828468793115, 38.19454433663195], [29.709367457963594, 38.19454433663195], [29.709367457963594, 38.19508332580242], [29.708828468793115, 38.19508332580242], [29.708828468793115, 38.19562231497289], [29.709367457963594, 38.19562231497289], [29.709367457963594, 38.19616130414336], [29.703438577088406, 38.19616130414336], [29.703438577088406, 38.19508332580242], [29.702360598747475, 38.19508332580242], [29.702360598747475, 38.19400534746148], [29.701821609576996, 38.19400534746148], [29.701821609576996, 38.19454433663195], [29.701282620406516, 38.19454433663195], [29.701282620406516, 38.19400534746148], [29.700204642065586, 38.19400534746148], [29.700204642065586, 38.193466358291005], [29.699665652895106, 38.193466358291005], [29.699665652895106, 38.19238837995006], [29.699126663724627, 38.19238837995006], [29.699126663724627, 38.191310401609115], [29.700743631236065, 38.191310401609115], [29.700743631236065, 38.19077141243864], [29.701282620406516, 38.19077141243864], [29.701282620406516, 38.18915444492723], [29.701821609576996, 38.18915444492723], [29.701821609576996, 38.18861545575676], [29.702360598747475, 38.18861545575676], [29.702360598747475, 38.1896934340977], [29.702899587917926, 38.1896934340977], [29.702899587917926, 38.18915444492723], [29.703977566258885, 38.18915444492723], [29.703977566258885, 38.18861545575676], [29.704516555429365, 38.18861545575676], [29.704516555429365, 38.18915444492723], [29.705594533770295, 38.18915444492723], [29.705594533770295, 38.18861545575676], [29.706133522940775, 38.18861545575676], [29.706133522940775, 38.18915444492723], [29.707211501281705, 38.18915444492723], [29.707211501281705, 38.1896934340977], [29.707750490452185, 38.1896934340977], [29.707750490452185, 38.18915444492723], [29.708289479622664, 38.18915444492723], [29.708289479622664, 38.18861545575676], [29.707211501281705, 38.18861545575676], [29.707211501281705, 38.18807646658629]], [[29.703977566258885, 38.193466358291005], [29.703977566258885, 38.19400534746148], [29.703438577088406, 38.19400534746148], [29.703438577088406, 38.193466358291005], [29.703977566258885, 38.193466358291005]], [[29.706672512111254, 38.19292736912053], [29.706672512111254, 38.19454433663195], [29.705594533770295, 38.19454433663195], [29.705594533770295, 38.19400534746148], [29.705055544599816, 38.19400534746148], [29.705055544599816, 38.19454433663195], [29.704516555429365, 38.19454433663195], [29.704516555429365, 38.19508332580242], [29.703438577088406, 38.19508332580242], [29.703438577088406, 38.19454433663195], [29.703977566258885, 38.19454433663195], [29.703977566258885, 38.19400534746148], [29.704516555429365, 38.19400534746148], [29.704516555429365, 38.19292736912053], [29.706672512111254, 38.19292736912053]], [[29.708828468793115, 38.19292736912053], [29.708828468793115, 38.193466358291005], [29.708289479622664, 38.193466358291005], [29.708289479622664, 38.19292736912053], [29.708828468793115, 38.19292736912053]], [[29.719069263032083, 38.20101220667761], [29.719069263032083, 38.20155119584808], [29.717991284691152, 38.20155119584808], [29.717991284691152, 38.20101220667761], [29.719069263032083, 38.20101220667761]], [[29.71853027386163, 38.19616130414336], [29.71853027386163, 38.19670029331383], [29.717991284691152, 38.19670029331383], [29.717991284691152, 38.19616130414336], [29.71853027386163, 38.19616130414336]], [[29.719608252202562, 38.19562231497289], [29.719608252202562, 38.19616130414336], [29.719069263032083, 38.19616130414336], [29.719069263032083, 38.19562231497289], [29.719608252202562, 38.19562231497289]], [[29.714757349668304, 38.19454433663195], [29.714757349668304, 38.19616130414336], [29.714218360497853, 38.19616130414336], [29.714218360497853, 38.19508332580242], [29.713679371327373, 38.19508332580242], [29.713679371327373, 38.19562231497289], [29.713140382156894, 38.19562231497289], [29.713140382156894, 38.19454433663195], [29.714757349668304, 38.19454433663195]], [[29.716913306350193, 38.19400534746148], [29.716913306350193, 38.19454433663195], [29.716374317179742, 38.19454433663195], [29.716374317179742, 38.19400534746148], [29.716913306350193, 38.19400534746148]], [[29.701821609576996, 38.19077141243864], [29.701821609576996, 38.191310401609115], [29.702360598747475, 38.191310401609115], [29.702360598747475, 38.19184939077959], [29.702899587917926, 38.19184939077959], [29.702899587917926, 38.19238837995006], [29.702360598747475, 38.19238837995006], [29.702360598747475, 38.19292736912053], [29.701821609576996, 38.19292736912053], [29.701821609576996, 38.193466358291005], [29.700743631236065, 38.193466358291005], [29.700743631236065, 38.19292736912053], [29.701282620406516, 38.19292736912053], [29.701282620406516, 38.19238837995006], [29.700743631236065, 38.19238837995006], [29.700743631236065, 38.19292736912053], [29.700204642065586, 38.19292736912053], [29.700204642065586, 38.19238837995006], [29.699665652895106, 38.19238837995006], [29.699665652895106, 38.19184939077959], [29.701282620406516, 38.19184939077959], [29.701282620406516, 38.19077141243864], [29.701821609576996, 38.19077141243864]]]}, "properties": {"area_ha": 97.95782144754828, "mean_dnbr": 0.192231596597729, "compactness": 0.047, "rectangularity": 0.349, "cropland_frac": 0.489, "persistent": true}}, {"type": "Feature", "geometry": {"geodesic": false, "type": "Polygon", "coordinates": [[[29.979940021540386, 37.90133422789533], [29.980479010710866, 37.90133422789533], [29.980479010710866, 37.901873217065805], [29.981017999881345, 37.901873217065805], [29.981017999881345, 37.90295119540675], [29.980479010710866, 37.90295119540675], [29.980479010710866, 37.904029173747695], [29.981017999881345, 37.904029173747695], [29.981017999881345, 37.90510715208864], [29.981556989051825, 37.90510715208864], [29.981556989051825, 37.90564614125911], [29.980479010710866, 37.90564614125911], [29.980479010710866, 37.90510715208864], [29.979940021540386, 37.90510715208864], [29.979940021540386, 37.90726310877052], [29.979401032369935, 37.90726310877052], [29.979401032369935, 37.907802097940994], [29.974550129835677, 37.907802097940994], [29.974550129835677, 37.90726310877052], [29.974011140665198, 37.90726310877052], [29.974011140665198, 37.90456816291817], [29.974550129835677, 37.90456816291817], [29.974550129835677, 37.904029173747695], [29.975089119006157, 37.904029173747695], [29.975089119006157, 37.90349018457722], [29.975628108176636, 37.90349018457722], [29.975628108176636, 37.90295119540675], [29.976706086517567, 37.90295119540675], [29.976706086517567, 37.90349018457722], [29.977784064858525, 37.90349018457722], [29.977784064858525, 37.90295119540675], [29.978323054028976, 37.90295119540675], [29.978323054028976, 37.901873217065805], [29.979940021540386, 37.901873217065805], [29.979940021540386, 37.90133422789533]]]}, "properties": {"area_ha": 30.608989143728827, "mean_dnbr": 0.2202558323834219, "compactness": 0.401, "rectangularity": 0.643, "cropland_frac": 0.302, "persistent": true}}, {"type": "Feature", "geometry": {"geodesic": false, "type": "Polygon", "coordinates": [[[29.983173956563235, 38.7976732183898], [29.984790924074645, 38.7976732183898], [29.984790924074645, 38.79821220756027], [29.985329913245124, 38.79821220756027], [29.985329913245124, 38.798751196730734], [29.985868902415575, 38.798751196730734], [29.985868902415575, 38.79821220756027], [29.986946880756534, 38.79821220756027], [29.986946880756534, 38.798751196730734], [29.986407891586055, 38.798751196730734], [29.986407891586055, 38.79929018590121], [29.985329913245124, 38.79929018590121], [29.985329913245124, 38.798751196730734], [29.984251934904165, 38.798751196730734], [29.984251934904165, 38.79929018590121], [29.984790924074645, 38.79929018590121], [29.984790924074645, 38.79982917507168], [29.985868902415575, 38.79982917507168], [29.985868902415575, 38.80036816424215], [29.985329913245124, 38.80036816424215], [29.985329913245124, 38.80090715341262], [29.984790924074645, 38.80090715341262], [29.984790924074645, 38.80306311009451], [29.985329913245124, 38.80306311009451], [29.985329913245124, 38.80198513175357], [29.986946880756534, 38.80198513175357], [29.986946880756534, 38.80252412092404], [29.987485869927013, 38.80252412092404], [29.987485869927013, 38.80306311009451], [29.988024859097465, 38.80306311009451], [29.988024859097465, 38.803602099264985], [29.988563848267944, 38.803602099264985], [29.988563848267944, 38.80306311009451], [29.989641826608903, 38.80306311009451], [29.989641826608903, 38.801446142583096], [29.990180815779354, 38.801446142583096], [29.990180815779354, 38.80036816424215], [29.989641826608903, 38.80036816424215], [29.989641826608903, 38.79929018590121], [29.990180815779354, 38.79929018590121], [29.990180815779354, 38.79982917507168], [29.990719804949833, 38.79982917507168], [29.990719804949833, 38.80036816424215], [29.991258794120313, 38.80036816424215], [29.991258794120313, 38.80090715341262], [29.991797783290792, 38.80090715341262], [29.991797783290792, 38.80198513175357], [29.992336772461243, 38.80198513175357], [29.992336772461243, 38.803602099264985], [29.993414750802202, 38.803602099264985], [29.993414750802202, 38.80468007760592], [29.991797783290792, 38.80468007760592], [29.991797783290792, 38.803602099264985], [29.990180815779354, 38.803602099264985], [29.990180815779354, 38.80414108843546], [29.988563848267944, 38.80414108843546], [29.988563848267944, 38.80468007760592], [29.988024859097465, 38.80468007760592], [29.988024859097465, 38.80414108843546], [29.987485869927013, 38.80414108843546], [29.987485869927013, 38.805219066776395], [29.986407891586055, 38.805219066776395], [29.986407891586055, 38.80414108843546], [29.985329913245124, 38.80414108843546], [29.985329913245124, 38.803602099264985], [29.984251934904165, 38.803602099264985], [29.984251934904165, 38.80306311009451], [29.983712945733714, 38.80306311009451], [29.983712945733714, 38.80252412092404], [29.983173956563235, 38.80252412092404], [29.983173956563235, 38.80198513175357], [29.983712945733714, 38.80198513175357], [29.983712945733714, 38.801446142583096], [29.983173956563235, 38.801446142583096], [29.983173956563235, 38.80090715341262], [29.982634967392755, 38.80090715341262], [29.982634967392755, 38.801446142583096], [29.981556989051825, 38.801446142583096], [29.981556989051825, 38.80198513175357], [29.982634967392755, 38.80198513175357], [29.982634967392755, 38.80252412092404], [29.980479010710866, 38.80252412092404], [29.980479010710866, 38.80090715341262], [29.979940021540386, 38.80090715341262], [29.979940021540386, 38.80198513175357], [29.979401032369935, 38.80198513175357], [29.979401032369935, 38.80306311009451], [29.978862043199456, 38.80306311009451], [29.978862043199456, 38.80252412092404], [29.978323054028976, 38.80252412092404], [29.978323054028976, 38.80306311009451], [29.977784064858525, 38.80306311009451], [29.977784064858525, 38.80252412092404], [29.978323054028976, 38.80252412092404], [29.978323054028976, 38.80198513175357], [29.978862043199456, 38.80198513175357], [29.978862043199456, 38.80090715341262], [29.979401032369935, 38.80090715341262], [29.979401032369935, 38.80036816424215], [29.980479010710866, 38.80036816424215], [29.980479010710866, 38.80090715341262], [29.981017999881345, 38.80090715341262], [29.981017999881345, 38.80036816424215], [29.981556989051825, 38.80036816424215], [29.981556989051825, 38.79982917507168], [29.982095978222276, 38.79982917507168], [29.982095978222276, 38.79821220756027], [29.982634967392755, 38.79821220756027], [29.982634967392755, 38.798751196730734], [29.983173956563235, 38.798751196730734], [29.983173956563235, 38.7976732183898]], [[29.985868902415575, 38.80306311009451], [29.985868902415575, 38.803602099264985], [29.985329913245124, 38.803602099264985], [29.985329913245124, 38.80306311009451], [29.985868902415575, 38.80306311009451]], [[29.984790924074645, 38.79982917507168], [29.984790924074645, 38.80036816424215], [29.984251934904165, 38.80036816424215], [29.984251934904165, 38.79982917507168], [29.984790924074645, 38.79982917507168]], [[29.983712945733714, 38.798751196730734], [29.983712945733714, 38.79929018590121], [29.983173956563235, 38.79929018590121], [29.983173956563235, 38.798751196730734], [29.983712945733714, 38.798751196730734]]]}, "properties": {"area_ha": 35.55087451055648, "mean_dnbr": 0.2165552976352849, "compactness": 0.055, "rectangularity": 0.345, "cropland_frac": 0.442, "persistent": true}}, {"type": "Feature", "geometry": {"geodesic": false, "type": "Polygon", "coordinates": [[[30.09366673650993, 37.83881148412062], [30.09420572568041, 37.83881148412062], [30.09420572568041, 37.84042845163203], [30.09474471485086, 37.84042845163203], [30.09474471485086, 37.8409674408025], [30.09420572568041, 37.8409674408025], [30.09420572568041, 37.84042845163203], [30.09366673650993, 37.84042845163203], [30.09366673650993, 37.8409674408025], [30.09312774733945, 37.8409674408025], [30.09312774733945, 37.84366238665486], [30.09366673650993, 37.84366238665486], [30.09366673650993, 37.844201375825335], [30.09582269319182, 37.844201375825335], [30.09582269319182, 37.84527935416628], [30.09420572568041, 37.84527935416628], [30.09420572568041, 37.84635733250722], [30.09204976899852, 37.84635733250722], [30.09204976899852, 37.84689632167769], [30.090971790657562, 37.84689632167769], [30.090971790657562, 37.84743531084816], [30.09043280148711, 37.84743531084816], [30.09043280148711, 37.847974300018635], [30.087198866464263, 37.847974300018635], [30.087198866464263, 37.84851328918911], [30.086120888123332, 37.84851328918911], [30.086120888123332, 37.84959126753005], [30.085581898952853, 37.84959126753005], [30.085581898952853, 37.85120823504147], [30.086120888123332, 37.85120823504147], [30.086120888123332, 37.850669245870996], [30.086659877293812, 37.850669245870996], [30.086659877293812, 37.85282520255288], [30.086120888123332, 37.85282520255288], [30.086120888123332, 37.852286213382406], [30.084503920611922, 37.852286213382406], [30.084503920611922, 37.85174722421194], [30.083964931441443, 37.85174722421194], [30.083964931441443, 37.850130256700524], [30.085042909782373, 37.850130256700524], [30.085042909782373, 37.84959126753005], [30.083425942270964, 37.84959126753005], [30.083425942270964, 37.84905227835958], [30.082347963930033, 37.84905227835958], [30.082347963930033, 37.84959126753005], [30.082886953100484, 37.84959126753005], [30.082886953100484, 37.850130256700524], [30.081808974759554, 37.850130256700524], [30.081808974759554, 37.84959126753005], [30.080192007248144, 37.84959126753005], [30.080192007248144, 37.84905227835958], [30.079653018077664, 37.84905227835958], [30.079653018077664, 37.84851328918911], [30.078575039736734, 37.84851328918911], [30.078575039736734, 37.847974300018635], [30.079114028907185, 37.847974300018635], [30.079114028907185, 37.84743531084816], [30.078036050566254, 37.84743531084816], [30.078036050566254, 37.84689632167769], [30.077497061395775, 37.84689632167769], [30.077497061395775, 37.84743531084816], [30.076958072225295, 37.84743531084816], [30.076958072225295, 37.84689632167769], [30.077497061395775, 37.84689632167769], [30.077497061395775, 37.84581834333675], [30.076958072225295, 37.84581834333675], [30.076958072225295, 37.84527935416628], [30.076419083054844, 37.84527935416628], [30.076419083054844, 37.84581834333675], [30.075880093884365, 37.84581834333675], [30.075880093884365, 37.84474036499581], [30.076419083054844, 37.84474036499581], [30.076419083054844, 37.844201375825335], [30.075341104713885, 37.844201375825335], [30.075341104713885, 37.84474036499581], [30.074263126372955, 37.84474036499581], [30.074263126372955, 37.844201375825335], [30.073185148031996, 37.844201375825335], [30.073185148031996, 37.84312339748439], [30.072646158861545, 37.84312339748439], [30.072646158861545, 37.84258440831392], [30.073185148031996, 37.84258440831392], [30.073185148031996, 37.84312339748439], [30.074263126372955, 37.84312339748439], [30.074263126372955, 37.84258440831392], [30.074802115543434, 37.84258440831392], [30.074802115543434, 37.842045419143446], [30.075880093884365, 37.842045419143446], [30.075880093884365, 37.84312339748439], [30.076958072225295, 37.84312339748439], [30.076958072225295, 37.84474036499581], [30.077497061395775, 37.84474036499581], [30.077497061395775, 37.84527935416628], [30.081269985589074, 37.84527935416628], [30.081269985589074, 37.84474036499581], [30.082347963930033, 37.84474036499581], [30.082347963930033, 37.84527935416628], [30.083425942270964, 37.84527935416628], [30.083425942270964, 37.84474036499581], [30.085042909782373, 37.84474036499581], [30.085042909782373, 37.84366238665486], [30.085581898952853, 37.84366238665486], [30.085581898952853, 37.844201375825335], [30.087737855634742, 37.844201375825335], [30.087737855634742, 37.84474036499581], [30.088815833975673, 37.84474036499581], [30.088815833975673, 37.844201375825335], [30.092588758169, 37.844201375825335], [30.092588758169, 37.839889462461564], [30.09312774733945, 37.839889462461564], [30.09312774733945, 37.83935047329109], [30.09366673650993, 37.83935047329109], [30.09366673650993, 37.83881148412062]], [[30.082347963930033, 37.84851328918911], [30.082347963930033, 37.84905227835958], [30.080192007248144, 37.84905227835958], [30.080192007248144, 37.84851328918911], [30.082347963930033, 37.84851328918911]], [[30.080192007248144, 37.847974300018635], [30.080192007248144, 37.84851328918911], [30.079653018077664, 37.84851328918911], [30.079653018077664, 37.847974300018635], [30.080192007248144, 37.847974300018635]]]}, "properties": {"area_ha": 78.00161546699734, "mean_dnbr": 0.20632670133378198, "compactness": 0.081, "rectangularity": 0.285, "cropland_frac": 0.196, "persistent": true}}, {"type": "Feature", "geometry": {"geodesic": false, "type": "Polygon", "coordinates": [[[30.356693451700124, 38.76263892230913], [30.357771430041083, 38.76263892230913], [30.357771430041083, 38.763716900650074], [30.357232440870604, 38.763716900650074], [30.357232440870604, 38.76425588982055], [30.356693451700124, 38.76425588982055], [30.356693451700124, 38.76479487899102], [30.356154462529645, 38.76479487899102], [30.356154462529645, 38.76533386816149], [30.357232440870604, 38.76533386816149], [30.357232440870604, 38.76695083567291], [30.357771430041083, 38.76695083567291], [30.357771430041083, 38.76748982484338], [30.357232440870604, 38.76748982484338], [30.357232440870604, 38.76856780318432], [30.356154462529645, 38.76856780318432], [30.356154462529645, 38.76802881401385], [30.355615473359194, 38.76802881401385], [30.355615473359194, 38.76910679235479], [30.357232440870604, 38.76910679235479], [30.357232440870604, 38.76964578152526], [30.356693451700124, 38.76964578152526], [30.356693451700124, 38.770184770695735], [30.356154462529645, 38.770184770695735], [30.356154462529645, 38.76964578152526], [30.355615473359194, 38.76964578152526], [30.355615473359194, 38.770184770695735], [30.355076484188714, 38.770184770695735], [30.355076484188714, 38.76910679235479], [30.354537495018235, 38.76910679235479], [30.354537495018235, 38.770184770695735], [30.353459516677304, 38.770184770695735], [30.353459516677304, 38.76964578152526], [30.352381538336346, 38.76964578152526], [30.352381538336346, 38.76856780318432], [30.353459516677304, 38.76856780318432], [30.353459516677304, 38.76802881401385], [30.353998505847755, 38.76802881401385], [30.353998505847755, 38.76748982484338], [30.353459516677304, 38.76748982484338], [30.353459516677304, 38.76695083567291], [30.352920527506825, 38.76695083567291], [30.352920527506825, 38.766411846502436], [30.353459516677304, 38.766411846502436], [30.353459516677304, 38.76587285733196], [30.353998505847755, 38.76587285733196], [30.353998505847755, 38.766411846502436], [30.355076484188714, 38.766411846502436], [30.355076484188714, 38.76587285733196], [30.354537495018235, 38.76587285733196], [30.354537495018235, 38.76479487899102], [30.355076484188714, 38.76479487899102], [30.355076484188714, 38.76263892230913], [30.356154462529645, 38.76263892230913], [30.356154462529645, 38.7631779114796], [30.356693451700124, 38.7631779114796], [30.356693451700124, 38.76263892230913]], [[30.356693451700124, 38.76748982484338], [30.356693451700124, 38.76802881401385], [30.356154462529645, 38.76802881401385], [30.356154462529645, 38.76748982484338], [30.356693451700124, 38.76748982484338]]]}, "properties": {"area_ha": 20.724829516102616, "mean_dnbr": 0.1889649820437122, "compactness": 0.135, "rectangularity": 0.531, "cropland_frac": 0.485, "persistent": true}}, {"type": "Feature", "geometry": {"geodesic": false, "type": "Polygon", "coordinates": [[[30.47042016666967, 38.697960221852526], [30.47257612335156, 38.697960221852526], [30.47257612335156, 38.698499211023], [30.47203713418108, 38.698499211023], [30.47203713418108, 38.69903820019347], [30.4714981450106, 38.69903820019347], [30.4714981450106, 38.69957718936394], [30.47257612335156, 38.69957718936394], [30.47257612335156, 38.700116178534415], [30.4714981450106, 38.700116178534415], [30.4714981450106, 38.70065516770489], [30.47095915584012, 38.70065516770489], [30.47095915584012, 38.70173314604583], [30.47203713418108, 38.70173314604583], [30.47203713418108, 38.70281112438677], [30.47257612335156, 38.70281112438677], [30.47257612335156, 38.70335011355724], [30.47203713418108, 38.70335011355724], [30.47203713418108, 38.703889102727715], [30.47095915584012, 38.703889102727715], [30.47095915584012, 38.70496708106866], [30.47042016666967, 38.70496708106866], [30.47042016666967, 38.703889102727715], [30.46988117749919, 38.703889102727715], [30.46988117749919, 38.70442809189819], [30.46880319915823, 38.70442809189819], [30.46880319915823, 38.70496708106866], [30.46826420998778, 38.70496708106866], [30.46826420998778, 38.70550607023913], [30.4677252208173, 38.70550607023913], [30.4677252208173, 38.703889102727715], [30.46880319915823, 38.703889102727715], [30.46880319915823, 38.70281112438677], [30.46826420998778, 38.70281112438677], [30.46826420998778, 38.70119415687536], [30.4677252208173, 38.70119415687536], [30.4677252208173, 38.7022721352163], [30.46610825330589, 38.7022721352163], [30.46610825330589, 38.70281112438677], [30.46664724247637, 38.70281112438677], [30.46664724247637, 38.70550607023913], [30.46449128579448, 38.70550607023913], [30.46449128579448, 38.706584048580076], [30.46503027496493, 38.706584048580076], [30.46503027496493, 38.70712303775055], [30.463952296624, 38.70712303775055], [30.463952296624, 38.708201016091486], [30.462874318283042, 38.708201016091486], [30.462874318283042, 38.70766202692102], [30.46233532911259, 38.70766202692102], [30.46233532911259, 38.706584048580076], [30.46179633994211, 38.706584048580076], [30.46179633994211, 38.706045059409604], [30.46233532911259, 38.706045059409604], [30.46233532911259, 38.706584048580076], [30.462874318283042, 38.706584048580076], [30.462874318283042, 38.706045059409604], [30.46341330745352, 38.706045059409604], [30.46341330745352, 38.706584048580076], [30.463952296624, 38.706584048580076], [30.463952296624, 38.70442809189819], [30.46503027496493, 38.70442809189819], [30.46503027496493, 38.70335011355724], [30.46449128579448, 38.70335011355724], [30.46449128579448, 38.7022721352163], [30.46503027496493, 38.7022721352163], [30.46503027496493, 38.70173314604583], [30.46556926413541, 38.70173314604583], [30.46556926413541, 38.70119415687536], [30.46610825330589, 38.70119415687536], [30.46610825330589, 38.700116178534415], [30.4677252208173, 38.700116178534415], [30.4677252208173, 38.69957718936394], [30.46826420998778, 38.69957718936394], [30.46826420998778, 38.700116178534415], [30.46988117749919, 38.700116178534415], [30.46988117749919, 38.69957718936394], [30.47042016666967, 38.69957718936394], [30.47042016666967, 38.697960221852526]], [[30.47095915584012, 38.70173314604583], [30.47095915584012, 38.7022721352163], [30.47042016666967, 38.7022721352163], [30.47042016666967, 38.70281112438677], [30.46988117749919, 38.70281112438677], [30.46988117749919, 38.7022721352163], [30.46934218832871, 38.7022721352163], [30.46934218832871, 38.70173314604583], [30.47095915584012, 38.70173314604583]], [[30.46880319915823, 38.70065516770489], [30.46880319915823, 38.70119415687536], [30.46826420998778, 38.70119415687536], [30.46826420998778, 38.70065516770489], [30.46880319915823, 38.70065516770489]]]}, "properties": {"area_ha": 32.51670523183065, "mean_dnbr": 0.2835245388910313, "compactness": 0.075, "rectangularity": 0.359, "cropland_frac": 0.256, "persistent": true}}]}