{"type": "FeatureCollection", "crs": {"type": "name", "properties": {"name": "urn:ogc:def:crs:OGC:1.3:CRS84"}}, "features": [{"type": "Feature", "geometry": {"geodesic": false, "type": "Polygon", "coordinates": [[[28.10856962166261, 39.7597688876818], [28.10910861083309, 39.7597688876818], [28.10910861083309, 39.760846866022746], [28.10964760000357, 39.760846866022746], [28.10964760000357, 39.76246383353416], [28.1107255783445, 39.76246383353416], [28.1107255783445, 39.7635418118751], [28.11126456751498, 39.7635418118751], [28.11126456751498, 39.76569776855699], [28.11018658917402, 39.76569776855699], [28.11018658917402, 39.76623675772746], [28.10964760000357, 39.76623675772746], [28.10964760000357, 39.766775746897935], [28.10910861083309, 39.766775746897935], [28.10910861083309, 39.768931703579824], [28.10641366498072, 39.768931703579824], [28.10641366498072, 39.76785372523888], [28.10587467581024, 39.76785372523888], [28.10587467581024, 39.76515877938652], [28.10533568663979, 39.76515877938652], [28.10533568663979, 39.764619790216045], [28.10479669746931, 39.764619790216045], [28.10479669746931, 39.7635418118751], [28.10533568663979, 39.7635418118751], [28.10533568663979, 39.76192484436369], [28.10587467581024, 39.76192484436369], [28.10587467581024, 39.760846866022746], [28.10749164332168, 39.760846866022746], [28.10749164332168, 39.76030787685227], [28.10856962166261, 39.76030787685227], [28.10856962166261, 39.7597688876818]]]}, "properties": {"area_ha": 35.34166196154655, "mean_dnbr": 0.5206026518670814, "compactness": 0.449, "rectangularity": 0.627, "cropland_frac": 0.034, "persistent": true}}]}