{"type": "FeatureCollection", "crs": {"type": "name", "properties": {"name": "urn:ogc:def:crs:OGC:1.3:CRS84"}}, "features": [{"type": "Feature", "geometry": {"geodesic": false, "type": "Polygon", "coordinates": [[[28.534910055505748, 40.29929704732399], [28.537066012187637, 40.29929704732399], [28.537066012187637, 40.299836036494455], [28.539760958039977, 40.299836036494455], [28.539760958039977, 40.3009140148354], [28.540299947210457, 40.3009140148354], [28.540299947210457, 40.30145300400587], [28.540838936380936, 40.30145300400587], [28.540838936380936, 40.301991993176344], [28.541377925551387, 40.301991993176344], [28.541377925551387, 40.30306997151729], [28.540838936380936, 40.30306997151729], [28.540838936380936, 40.30360896068776], [28.540299947210457, 40.30360896068776], [28.540299947210457, 40.301991993176344], [28.539760958039977, 40.301991993176344], [28.539760958039977, 40.30306997151729], [28.538143990528567, 40.30306997151729], [28.538143990528567, 40.302530982346816], [28.537605001358088, 40.302530982346816], [28.537605001358088, 40.3009140148354], [28.537066012187637, 40.3009140148354], [28.537066012187637, 40.30037502566493], [28.535988033846678, 40.30037502566493], [28.535988033846678, 40.3009140148354], [28.536527023017157, 40.3009140148354], [28.536527023017157, 40.30145300400587], [28.537066012187637, 40.30145300400587], [28.537066012187637, 40.301991993176344], [28.536527023017157, 40.301991993176344], [28.536527023017157, 40.302530982346816], [28.537066012187637, 40.302530982346816], [28.537066012187637, 40.30306997151729], [28.537605001358088, 40.30306997151729], [28.537605001358088, 40.30360896068776], [28.538682979699047, 40.30360896068776], [28.538682979699047, 40.30414794985823], [28.539760958039977, 40.30414794985823], [28.539760958039977, 40.30576491736964], [28.538682979699047, 40.30576491736964], [28.538682979699047, 40.30522592819918], [28.538143990528567, 40.30522592819918], [28.538143990528567, 40.30576491736964], [28.537605001358088, 40.30576491736964], [28.537605001358088, 40.30522592819918], [28.537066012187637, 40.30522592819918], [28.537066012187637, 40.304686939028706], [28.536527023017157, 40.304686939028706], [28.536527023017157, 40.30414794985823], [28.535988033846678, 40.30414794985823], [28.535988033846678, 40.30360896068776], [28.534910055505748, 40.30360896068776], [28.534910055505748, 40.29929704732399]], [[28.536527023017157, 40.302530982346816], [28.536527023017157, 40.30360896068776], [28.535988033846678, 40.30360896068776], [28.535988033846678, 40.302530982346816], [28.536527023017157, 40.302530982346816]]]}, "properties": {"area_ha": 21.64108756763707, "mean_dnbr": 0.30243233793343405, "compactness": 0.124, "rectangularity": 0.549, "cropland_frac": 0, "persistent": true}}]}