{"type": "FeatureCollection", "crs": {"type": "name", "properties": {"name": "urn:ogc:def:crs:OGC:1.3:CRS84"}}, "features": [{"type": "Feature", "geometry": {"geodesic": false, "type": "Polygon", "coordinates": [[[28.19750283479044, 39.81744072892227], [28.20127575898374, 39.81744072892227], [28.20127575898374, 39.817979718092744], [28.20181474815422, 39.817979718092744], [28.20181474815422, 39.818518707263216], [28.20289272649515, 39.818518707263216], [28.20289272649515, 39.81905769643369], [28.20343171566563, 39.81905769643369], [28.20343171566563, 39.82013567477463], [28.19965879147233, 39.82013567477463], [28.19965879147233, 39.820674663945105], [28.195346878108552, 39.820674663945105], [28.195346878108552, 39.82013567477463], [28.19642485644951, 39.82013567477463], [28.19642485644951, 39.81905769643369], [28.19588586727903, 39.81905769643369], [28.19588586727903, 39.81959668560416], [28.193190921426662, 39.81959668560416], [28.193190921426662, 39.81905769643369], [28.19265193225621, 39.81905769643369], [28.19265193225621, 39.818518707263216], [28.192112943085732, 39.818518707263216], [28.192112943085732, 39.817979718092744], [28.19426889976762, 39.817979718092744], [28.19426889976762, 39.81744072892227], [28.1948078889381, 39.81744072892227], [28.1948078889381, 39.818518707263216], [28.19588586727903, 39.818518707263216], [28.19588586727903, 39.817979718092744], [28.19750283479044, 39.817979718092744], [28.19750283479044, 39.81744072892227]]]}, "properties": {"area_ha": 22.62284669608036, "mean_dnbr": 0.3155292093391961, "compactness": 0.278, "rectangularity": 0.651, "cropland_frac": 0, "persistent": true}}, {"type": "Feature", "geometry": {"geodesic": false, "type": "Polygon", "coordinates": [[[28.34949778086346, 40.051362028907], [28.351114748374897, 40.051362028907], [28.351114748374897, 40.052440007247945], [28.352192726715828, 40.052440007247945], [28.352192726715828, 40.05297899641841], [28.351653737545348, 40.05297899641841], [28.351653737545348, 40.05351798558888], [28.351114748374897, 40.05351798558888], [28.351114748374897, 40.05459596392983], [28.351653737545348, 40.05459596392983], [28.351653737545348, 40.05567394227077], [28.352192726715828, 40.05567394227077], [28.352192726715828, 40.0551349531003], [28.352731715886307, 40.0551349531003], [28.352731715886307, 40.05567394227077], [28.353270705056758, 40.05567394227077], [28.353270705056758, 40.05675192061172], [28.353809694227238, 40.05675192061172], [28.353809694227238, 40.05729090978219], [28.354348683397717, 40.05729090978219], [28.354348683397717, 40.05782989895266], [28.354887672568196, 40.05782989895266], [28.354887672568196, 40.058368888123134], [28.355426661738647, 40.058368888123134], [28.355426661738647, 40.0589078772936], [28.354887672568196, 40.0589078772936], [28.354887672568196, 40.060524844805016], [28.355426661738647, 40.060524844805016], [28.355426661738647, 40.06106383397549], [28.356504640079606, 40.06106383397549], [28.356504640079606, 40.06214181231643], [28.355426661738647, 40.06214181231643], [28.355426661738647, 40.06160282314596], [28.354348683397717, 40.06160282314596], [28.354348683397717, 40.06106383397549], [28.353809694227238, 40.06106383397549], [28.353809694227238, 40.060524844805016], [28.352731715886307, 40.060524844805016], [28.352731715886307, 40.059985855634544], [28.351653737545348, 40.059985855634544], [28.351653737545348, 40.05944686646407], [28.351114748374897, 40.05944686646407], [28.351114748374897, 40.05782989895266], [28.350575759204418, 40.05782989895266], [28.350575759204418, 40.056212931441245], [28.350036770033938, 40.056212931441245], [28.350036770033938, 40.054056974759355], [28.348958791693008, 40.054056974759355], [28.348958791693008, 40.05459596392983], [28.34841980252253, 40.05459596392983], [28.34841980252253, 40.054056974759355], [28.348958791693008, 40.054056974759355], [28.348958791693008, 40.052440007247945], [28.350036770033938, 40.052440007247945], [28.350036770033938, 40.05190101807747], [28.34949778086346, 40.05190101807747], [28.34949778086346, 40.051362028907]]]}, "properties": {"area_ha": 26.118364901873793, "mean_dnbr": 0.37415859919762173, "compactness": 0.171, "rectangularity": 0.503, "cropland_frac": 0.272, "persistent": true}}, {"type": "Feature", "geometry": {"geodesic": false, "type": "Polygon", "coordinates": [[[28.645402835452444, 39.79857610795577], [28.645941824622923, 39.79857610795577], [28.645941824622923, 39.80019307546718], [28.646480813793374, 39.80019307546718], [28.646480813793374, 39.799654086296705], [28.647019802963854, 39.799654086296705], [28.647019802963854, 39.80019307546718], [28.647558792134333, 39.80019307546718], [28.647558792134333, 39.80073206463765], [28.647019802963854, 39.80073206463765], [28.647019802963854, 39.801810042978595], [28.646480813793374, 39.801810042978595], [28.646480813793374, 39.80288802131954], [28.648097781304784, 39.80288802131954], [28.648097781304784, 39.80234903214907], [28.648636770475264, 39.80234903214907], [28.648636770475264, 39.80342701049001], [28.648097781304784, 39.80342701049001], [28.648097781304784, 39.803965999660484], [28.649714748816223, 39.803965999660484], [28.649714748816223, 39.80342701049001], [28.650253737986674, 39.80342701049001], [28.650253737986674, 39.803965999660484], [28.650792727157153, 39.803965999660484], [28.650792727157153, 39.804504988830956], [28.651331716327633, 39.804504988830956], [28.651331716327633, 39.805582967171894], [28.650792727157153, 39.805582967171894], [28.650792727157153, 39.806121956342366], [28.652409694668563, 39.806121956342366], [28.652409694668563, 39.80719993468331], [28.652948683839043, 39.80719993468331], [28.652948683839043, 39.808277913024256], [28.653487673009522, 39.808277913024256], [28.653487673009522, 39.810433869706145], [28.652409694668563, 39.810433869706145], [28.652409694668563, 39.80989488053567], [28.650792727157153, 39.80989488053567], [28.650792727157153, 39.8093558913652], [28.649714748816223, 39.8093558913652], [28.649714748816223, 39.80773892385378], [28.648636770475264, 39.80773892385378], [28.648636770475264, 39.80719993468331], [28.647019802963854, 39.80719993468331], [28.647019802963854, 39.806121956342366], [28.645941824622923, 39.806121956342366], [28.645941824622923, 39.80504397800143], [28.644863846281964, 39.80504397800143], [28.644863846281964, 39.804504988830956], [28.644324857111485, 39.804504988830956], [28.644324857111485, 39.803965999660484], [28.643246878770555, 39.803965999660484], [28.643246878770555, 39.80288802131954], [28.642707889600075, 39.80288802131954], [28.642707889600075, 39.80234903214907], [28.642168900429596, 39.80234903214907], [28.642168900429596, 39.801810042978595], [28.641629911259145, 39.801810042978595], [28.641629911259145, 39.799654086296705], [28.642707889600075, 39.799654086296705], [28.642707889600075, 39.79857610795577], [28.643246878770555, 39.79857610795577], [28.643246878770555, 39.79911509712624], [28.643785867941034, 39.79911509712624], [28.643785867941034, 39.79857610795577], [28.644863846281964, 39.79857610795577], [28.644863846281964, 39.79911509712624], [28.645402835452444, 39.79911509712624], [28.645402835452444, 39.79857610795577]], [[28.652409694668563, 39.80773892385378], [28.652409694668563, 39.808277913024256], [28.651331716327633, 39.808277913024256], [28.651331716327633, 39.80773892385378], [28.652409694668563, 39.80773892385378]], [[28.648636770475264, 39.806121956342366], [28.648636770475264, 39.80666094551284], [28.648097781304784, 39.80666094551284], [28.648097781304784, 39.806121956342366], [28.648636770475264, 39.806121956342366]]]}, "properties": {"area_ha": 49.94647627097701, "mean_dnbr": 0.37342944531622774, "compactness": 0.166, "rectangularity": 0.575, "cropland_frac": 0, "persistent": true}}, {"type": "Feature", "geometry": {"geodesic": false, "type": "Polygon", "coordinates": [[[29.112167457080943, 40.257255892027196], [29.115940381274243, 40.257255892027196], [29.115940381274243, 40.25941184870908], [29.115401392103763, 40.25941184870908], [29.115401392103763, 40.264801740413795], [29.113784424592353, 40.264801740413795], [29.113784424592353, 40.26534072958427], [29.112706446251423, 40.26534072958427], [29.112706446251423, 40.26426275124332], [29.113245435421874, 40.26426275124332], [29.113245435421874, 40.263184772902385], [29.113784424592353, 40.263184772902385], [29.113784424592353, 40.26210679456144], [29.112167457080943, 40.26210679456144], [29.112167457080943, 40.26156780539097], [29.111089478740013, 40.26156780539097], [29.111089478740013, 40.261028816220495], [29.111628467910464, 40.261028816220495], [29.111628467910464, 40.26048982705002], [29.112706446251423, 40.26048982705002], [29.112706446251423, 40.258872859538606], [29.112167457080943, 40.258872859538606], [29.112167457080943, 40.257255892027196]], [[29.114323413762833, 40.258872859538606], [29.114323413762833, 40.25941184870908], [29.114862402933312, 40.25941184870908], [29.114862402933312, 40.25995083787955], [29.113784424592353, 40.25995083787955], [29.113784424592353, 40.258872859538606], [29.114323413762833, 40.258872859538606]], [[29.115401392103763, 40.25833387036813], [29.115401392103763, 40.25941184870908], [29.114862402933312, 40.25941184870908], [29.114862402933312, 40.25833387036813], [29.115401392103763, 40.25833387036813]]]}, "properties": {"area_ha": 20.283798701754126, "mean_dnbr": 0.42260602401907327, "compactness": 0.191, "rectangularity": 0.557, "cropland_frac": 0, "persistent": true}}, {"type": "Feature", "geometry": {"geodesic": false, "type": "Polygon", "coordinates": [[[29.39783171743096, 40.227611487651245], [29.39998767411285, 40.227611487651245], [29.39998767411285, 40.22868946599219], [29.40214363079471, 40.22868946599219], [29.40214363079471, 40.22922845516266], [29.40483857664708, 40.22922845516266], [29.40483857664708, 40.23030643350361], [29.40699453332897, 40.23030643350361], [29.40699453332897, 40.22922845516266], [29.40645554415849, 40.22922845516266], [29.40645554415849, 40.22868946599219], [29.40591655498804, 40.22868946599219], [29.40591655498804, 40.22815047682172], [29.40645554415849, 40.22815047682172], [29.40645554415849, 40.22868946599219], [29.4080725116699, 40.22868946599219], [29.4080725116699, 40.22815047682172], [29.40861150084038, 40.22815047682172], [29.40861150084038, 40.22868946599219], [29.40915049001086, 40.22868946599219], [29.40915049001086, 40.22922845516266], [29.40968947918134, 40.22922845516266], [29.40968947918134, 40.229767444333135], [29.41022846835179, 40.229767444333135], [29.41022846835179, 40.23084542267408], [29.41076745752227, 40.23084542267408], [29.41076745752227, 40.23138441184455], [29.41130644669275, 40.23138441184455], [29.41130644669275, 40.232462390185496], [29.41238442503368, 40.232462390185496], [29.41238442503368, 40.23300137935597], [29.41292341420416, 40.23300137935597], [29.41292341420416, 40.23461834686738], [29.413462403374638, 40.23461834686738], [29.413462403374638, 40.234079357696906], [29.415079370886048, 40.234079357696906], [29.415079370886048, 40.23515733603785], [29.416157349226978, 40.23515733603785], [29.416157349226978, 40.23569632520832], [29.417235327567937, 40.23569632520832], [29.417235327567937, 40.236235314378796], [29.418313305908868, 40.236235314378796], [29.418313305908868, 40.23731329271974], [29.416696338397458, 40.23731329271974], [29.416696338397458, 40.238391271060685], [29.415618360056527, 40.238391271060685], [29.415618360056527, 40.23893026023116], [29.415079370886048, 40.23893026023116], [29.415079370886048, 40.23946924940162], [29.41400139254509, 40.23946924940162], [29.41400139254509, 40.240008238572095], [29.413462403374638, 40.240008238572095], [29.413462403374638, 40.23946924940162], [29.41238442503368, 40.23946924940162], [29.41238442503368, 40.240008238572095], [29.411845435863228, 40.240008238572095], [29.411845435863228, 40.23946924940162], [29.41238442503368, 40.23946924940162], [29.41238442503368, 40.23785228189021], [29.41130644669275, 40.23785228189021], [29.41130644669275, 40.238391271060685], [29.41076745752227, 40.238391271060685], [29.41076745752227, 40.23893026023116], [29.40968947918134, 40.23893026023116], [29.40968947918134, 40.23946924940162], [29.40753352249945, 40.23946924940162], [29.40753352249945, 40.23893026023116], [29.40645554415849, 40.23893026023116], [29.40645554415849, 40.236235314378796], [29.40483857664708, 40.236235314378796], [29.40483857664708, 40.23515733603785], [29.40214363079471, 40.23515733603785], [29.40214363079471, 40.23461834686738], [29.40160464162426, 40.23461834686738], [29.40160464162426, 40.234079357696906], [29.40214363079471, 40.234079357696906], [29.40214363079471, 40.233540368526434], [29.40160464162426, 40.233540368526434], [29.40160464162426, 40.23300137935597], [29.39944868494237, 40.23300137935597], [29.39944868494237, 40.232462390185496], [29.39890969577189, 40.232462390185496], [29.39890969577189, 40.231923401015024], [29.398370706601412, 40.231923401015024], [29.398370706601412, 40.23084542267408], [29.39890969577189, 40.23084542267408], [29.39890969577189, 40.22922845516266], [29.398370706601412, 40.22922845516266], [29.398370706601412, 40.22868946599219], [29.39783171743096, 40.22868946599219], [29.39783171743096, 40.227611487651245]], [[29.41292341420416, 40.23515733603785], [29.41292341420416, 40.23569632520832], [29.41238442503368, 40.23569632520832], [29.41238442503368, 40.23515733603785], [29.41292341420416, 40.23515733603785]], [[29.40968947918134, 40.23138441184455], [29.40968947918134, 40.23300137935597], [29.40915049001086, 40.23300137935597], [29.40915049001086, 40.233540368526434], [29.4080725116699, 40.233540368526434], [29.4080725116699, 40.23138441184455], [29.40968947918134, 40.23138441184455]]]}, "properties": {"area_ha": 108.58911150819412, "mean_dnbr": 0.6347909757527024, "compactness": 0.174, "rectangularity": 0.584, "cropland_frac": 0.113, "persistent": true}}]}