{"type": "FeatureCollection", "crs": {"type": "name", "properties": {"name": "urn:ogc:def:crs:OGC:1.3:CRS84"}}, "features": [{"type": "Feature", "geometry": {"geodesic": false, "type": "Polygon", "coordinates": [[[30.437002838100426, 38.46565588937922], [30.437541827270877, 38.46565588937922], [30.437541827270877, 38.468350835231576], [30.438619805611836, 38.468350835231576], [30.438619805611836, 38.4678118460611], [30.439158794782287, 38.4678118460611], [30.439158794782287, 38.468350835231576], [30.438619805611836, 38.468350835231576], [30.438619805611836, 38.46888982440205], [30.438080816441357, 38.46888982440205], [30.438080816441357, 38.46942881357252], [30.437541827270877, 38.46942881357252], [30.437541827270877, 38.46996780274299], [30.437002838100426, 38.46996780274299], [30.437002838100426, 38.47104578108394], [30.437541827270877, 38.47104578108394], [30.437541827270877, 38.470506791913465], [30.438080816441357, 38.470506791913465], [30.438080816441357, 38.46996780274299], [30.438619805611836, 38.46996780274299], [30.438619805611836, 38.47158477025441], [30.438080816441357, 38.47158477025441], [30.438080816441357, 38.47212375942488], [30.437541827270877, 38.47212375942488], [30.437541827270877, 38.472662748595354], [30.438080816441357, 38.472662748595354], [30.438080816441357, 38.47320173776582], [30.436463848929947, 38.47320173776582], [30.436463848929947, 38.472662748595354], [30.437002838100426, 38.472662748595354], [30.437002838100426, 38.47212375942488], [30.435924859759467, 38.47212375942488], [30.435924859759467, 38.472662748595354], [30.433768903077578, 38.472662748595354], [30.433768903077578, 38.47212375942488], [30.4332299139071, 38.47212375942488], [30.4332299139071, 38.47158477025441], [30.433768903077578, 38.47158477025441], [30.433768903077578, 38.470506791913465], [30.4332299139071, 38.470506791913465], [30.4332299139071, 38.46888982440205], [30.433768903077578, 38.46888982440205], [30.433768903077578, 38.46996780274299], [30.434307892248057, 38.46996780274299], [30.434307892248057, 38.466733867720166], [30.436463848929947, 38.466733867720166], [30.436463848929947, 38.46619487854969], [30.437002838100426, 38.46619487854969], [30.437002838100426, 38.46565588937922]], [[30.434307892248057, 38.47158477025441], [30.434307892248057, 38.47212375942488], [30.433768903077578, 38.47212375942488], [30.433768903077578, 38.47158477025441], [30.434307892248057, 38.47158477025441]], [[30.437002838100426, 38.47104578108394], [30.437002838100426, 38.47158477025441], [30.436463848929947, 38.47158477025441], [30.436463848929947, 38.47104578108394], [30.437002838100426, 38.47104578108394]], [[30.436463848929947, 38.46996780274299], [30.436463848929947, 38.47104578108394], [30.435924859759467, 38.47104578108394], [30.435924859759467, 38.470506791913465], [30.435385870588988, 38.470506791913465], [30.435385870588988, 38.46996780274299], [30.436463848929947, 38.46996780274299]], [[30.436463848929947, 38.4678118460611], [30.436463848929947, 38.46942881357252], [30.435924859759467, 38.46942881357252], [30.435924859759467, 38.46888982440205], [30.435385870588988, 38.46888982440205], [30.435385870588988, 38.468350835231576], [30.435924859759467, 38.468350835231576], [30.435924859759467, 38.4678118460611], [30.436463848929947, 38.4678118460611]]]}, "properties": {"area_ha": 21.93573867135633, "mean_dnbr": 0.32202121481315277, "compactness": 0.095, "rectangularity": 0.516, "cropland_frac": 0.124, "persistent": true}}]}