{"type": "FeatureCollection", "crs": {"type": "name", "properties": {"name": "urn:ogc:def:crs:OGC:1.3:CRS84"}}, "features": [{"type": "Feature", "geometry": {"geodesic": false, "type": "Polygon", "coordinates": [[[29.668943270178232, 38.56860282093932], [29.670560237689642, 38.56860282093932], [29.670560237689642, 38.569680799280256], [29.670021248519163, 38.569680799280256], [29.670021248519163, 38.5707587776212], [29.668404281007753, 38.5707587776212], [29.668404281007753, 38.57129776679167], [29.668943270178232, 38.57129776679167], [29.668943270178232, 38.571836755962146], [29.670560237689642, 38.571836755962146], [29.670560237689642, 38.57291473430309], [29.67271619437153, 38.57291473430309], [29.67271619437153, 38.57237574513262], [29.675411140223872, 38.57237574513262], [29.675411140223872, 38.57129776679167], [29.67595012939435, 38.57129776679167], [29.67595012939435, 38.57021978845073], [29.67702810773531, 38.57021978845073], [29.67702810773531, 38.571836755962146], [29.67864507524672, 38.571836755962146], [29.67864507524672, 38.57129776679167], [29.67756709690576, 38.57129776679167], [29.67756709690576, 38.5707587776212], [29.67810608607624, 38.5707587776212], [29.67810608607624, 38.57021978845073], [29.67864507524672, 38.57021978845073], [29.67864507524672, 38.5707587776212], [29.67918406441717, 38.5707587776212], [29.67918406441717, 38.57129776679167], [29.67972305358765, 38.57129776679167], [29.67972305358765, 38.571836755962146], [29.67864507524672, 38.571836755962146], [29.67864507524672, 38.57291473430309], [29.67918406441717, 38.57291473430309], [29.67918406441717, 38.57345372347356], [29.68026204275813, 38.57345372347356], [29.68026204275813, 38.57237574513262], [29.68080103192861, 38.57237574513262], [29.68080103192861, 38.57291473430309], [29.68349597778095, 38.57291473430309], [29.68349597778095, 38.57453170181451], [29.68403496695143, 38.57453170181451], [29.68403496695143, 38.575609680155445], [29.68511294529236, 38.575609680155445], [29.68511294529236, 38.57507069098498], [29.68619092363332, 38.57507069098498], [29.68619092363332, 38.57614866932592], [29.68511294529236, 38.57614866932592], [29.68511294529236, 38.57668765849639], [29.6867299128038, 38.57668765849639], [29.6867299128038, 38.575609680155445], [29.68726890197425, 38.575609680155445], [29.68726890197425, 38.57722664766686], [29.68780789114473, 38.57722664766686], [29.68780789114473, 38.577765636837334], [29.688885869485688, 38.577765636837334], [29.688885869485688, 38.57884361517828], [29.68780789114473, 38.57884361517828], [29.68780789114473, 38.57830462600781], [29.68726890197425, 38.57830462600781], [29.68726890197425, 38.577765636837334], [29.6867299128038, 38.577765636837334], [29.6867299128038, 38.57884361517828], [29.68565193446284, 38.57884361517828], [29.68565193446284, 38.582077550201106], [29.68511294529236, 38.582077550201106], [29.68511294529236, 38.58261653937158], [29.68619092363332, 38.58261653937158], [29.68619092363332, 38.58369451771252], [29.6867299128038, 38.58369451771252], [29.6867299128038, 38.58531148522394], [29.68726890197425, 38.58531148522394], [29.68726890197425, 38.58585047439441], [29.6867299128038, 38.58585047439441], [29.6867299128038, 38.58692845273536], [29.68726890197425, 38.58692845273536], [29.68726890197425, 38.58746744190583], [29.68780789114473, 38.58746744190583], [29.68780789114473, 38.58692845273536], [29.688885869485688, 38.58692845273536], [29.688885869485688, 38.58746744190583], [29.690502836997098, 38.58746744190583], [29.690502836997098, 38.58908440941724], [29.69104182616755, 38.58908440941724], [29.69104182616755, 38.590162387758184], [29.690502836997098, 38.590162387758184], [29.690502836997098, 38.590701376928656], [29.68942485865614, 38.590701376928656], [29.68942485865614, 38.59124036609913], [29.688885869485688, 38.59124036609913], [29.688885869485688, 38.59231834444007], [29.68834688031521, 38.59231834444007], [29.68834688031521, 38.5917793552696], [29.68619092363332, 38.5917793552696], [29.68619092363332, 38.59231834444007], [29.68565193446284, 38.59231834444007], [29.68565193446284, 38.592857333610546], [29.68511294529236, 38.592857333610546], [29.68511294529236, 38.59124036609913], [29.68403496695143, 38.59124036609913], [29.68403496695143, 38.5917793552696], [29.68349597778095, 38.5917793552696], [29.68349597778095, 38.59231834444007], [29.68080103192861, 38.59231834444007], [29.68080103192861, 38.5917793552696], [29.68026204275813, 38.5917793552696], [29.68026204275813, 38.59124036609913], [29.67918406441717, 38.59124036609913], [29.67918406441717, 38.59231834444007], [29.67864507524672, 38.59231834444007], [29.67864507524672, 38.5917793552696], [29.67756709690576, 38.5917793552696], [29.67756709690576, 38.59124036609913], [29.67702810773531, 38.59124036609913], [29.67702810773531, 38.590701376928656], [29.67756709690576, 38.590701376928656], [29.67756709690576, 38.590162387758184], [29.67648911856483, 38.590162387758184], [29.67648911856483, 38.590701376928656], [29.67595012939435, 38.590701376928656], [29.67595012939435, 38.5917793552696], [29.675411140223872, 38.5917793552696], [29.675411140223872, 38.590701376928656], [29.67595012939435, 38.590701376928656], [29.67595012939435, 38.590162387758184], [29.675411140223872, 38.590162387758184], [29.675411140223872, 38.58962339858771], [29.673794172712462, 38.58962339858771], [29.673794172712462, 38.588006431076295], [29.673255183541983, 38.588006431076295], [29.673255183541983, 38.58746744190583], [29.673794172712462, 38.58746744190583], [29.673794172712462, 38.586389463564885], [29.67433316188294, 38.586389463564885], [29.67433316188294, 38.58585047439441], [29.67487215105342, 38.58585047439441], [29.67487215105342, 38.584233506882995], [29.67648911856483, 38.584233506882995], [29.67648911856483, 38.58369451771252], [29.675411140223872, 38.58369451771252], [29.675411140223872, 38.58315552854205], [29.673794172712462, 38.58315552854205], [29.673794172712462, 38.58369451771252], [29.672177205201052, 38.58369451771252], [29.672177205201052, 38.58261653937158], [29.671638216030573, 38.58261653937158], [29.671638216030573, 38.581538561030634], [29.670560237689642, 38.581538561030634], [29.670560237689642, 38.58099957186017], [29.67109922686012, 38.58099957186017], [29.67109922686012, 38.580460582689696], [29.670021248519163, 38.580460582689696], [29.670021248519163, 38.58261653937158], [29.670560237689642, 38.58261653937158], [29.670560237689642, 38.58369451771252], [29.671638216030573, 38.58369451771252], [29.671638216030573, 38.584233506882995], [29.67109922686012, 38.584233506882995], [29.67109922686012, 38.58477249605347], [29.672177205201052, 38.58477249605347], [29.672177205201052, 38.58531148522394], [29.673255183541983, 38.58531148522394], [29.673255183541983, 38.58477249605347], [29.673794172712462, 38.58477249605347], [29.673794172712462, 38.58585047439441], [29.673255183541983, 38.58585047439441], [29.673255183541983, 38.58692845273536], [29.672177205201052, 38.58692845273536], [29.672177205201052, 38.588006431076295], [29.670560237689642, 38.588006431076295], [29.670560237689642, 38.58908440941724], [29.671638216030573, 38.58908440941724], [29.671638216030573, 38.58962339858771], [29.672177205201052, 38.58962339858771], [29.672177205201052, 38.590162387758184], [29.671638216030573, 38.590162387758184], [29.671638216030573, 38.590701376928656], [29.672177205201052, 38.590701376928656], [29.672177205201052, 38.59124036609913], [29.671638216030573, 38.59124036609913], [29.671638216030573, 38.590701376928656], [29.67109922686012, 38.590701376928656], [29.67109922686012, 38.5917793552696], [29.670560237689642, 38.5917793552696], [29.670560237689642, 38.59231834444007], [29.670021248519163, 38.59231834444007], [29.670021248519163, 38.592857333610546], [29.67109922686012, 38.592857333610546], [29.67109922686012, 38.59231834444007], [29.672177205201052, 38.59231834444007], [29.672177205201052, 38.59339632278102], [29.67271619437153, 38.59339632278102], [29.67271619437153, 38.59393531195148], [29.67433316188294, 38.59393531195148], [29.67433316188294, 38.594474301121956], [29.67487215105342, 38.594474301121956], [29.67487215105342, 38.59501329029243], [29.675411140223872, 38.59501329029243], [29.675411140223872, 38.5955522794629], [29.67595012939435, 38.5955522794629], [29.67595012939435, 38.59609126863337], [29.67702810773531, 38.59609126863337], [29.67702810773531, 38.5955522794629], [29.67756709690576, 38.5955522794629], [29.67756709690576, 38.59716924697432], [29.67702810773531, 38.59716924697432], [29.67702810773531, 38.59824722531526], [29.67756709690576, 38.59824722531526], [29.67756709690576, 38.598786214485735], [29.67864507524672, 38.598786214485735], [29.67864507524672, 38.59932520365621], [29.67918406441717, 38.59932520365621], [29.67918406441717, 38.59986419282667], [29.68026204275813, 38.59986419282667], [29.68026204275813, 38.600403181997144], [29.68187901026954, 38.600403181997144], [29.68187901026954, 38.60094217116762], [29.68457395612191, 38.60094217116762], [29.68457395612191, 38.600403181997144], [29.68565193446284, 38.600403181997144], [29.68565193446284, 38.60094217116762], [29.68457395612191, 38.60094217116762], [29.68457395612191, 38.60148116033809], [29.68565193446284, 38.60148116033809], [29.68565193446284, 38.60202014950856], [29.68619092363332, 38.60202014950856], [29.68619092363332, 38.602559138679034], [29.68780789114473, 38.602559138679034], [29.68780789114473, 38.60202014950856], [29.68726890197425, 38.60202014950856], [29.68726890197425, 38.60148116033809], [29.68834688031521, 38.60148116033809], [29.68834688031521, 38.602559138679034], [29.68780789114473, 38.602559138679034], [29.68780789114473, 38.603098127849506], [29.688885869485688, 38.603098127849506], [29.688885869485688, 38.60471509536092], [29.68942485865614, 38.60471509536092], [29.68942485865614, 38.603098127849506], [29.69104182616755, 38.603098127849506], [29.69104182616755, 38.602559138679034], [29.69158081533803, 38.602559138679034], [29.69158081533803, 38.60202014950856], [29.692658793678987, 38.60202014950856], [29.692658793678987, 38.60148116033809], [29.693736772019918, 38.60148116033809], [29.693736772019918, 38.60094217116762], [29.694275761190397, 38.60094217116762], [29.694275761190397, 38.60148116033809], [29.694814750360877, 38.60148116033809], [29.694814750360877, 38.60094217116762], [29.695892728701807, 38.60094217116762], [29.695892728701807, 38.600403181997144], [29.698048685383696, 38.600403181997144], [29.698048685383696, 38.59932520365621], [29.698587674554176, 38.59932520365621], [29.698587674554176, 38.598786214485735], [29.698048685383696, 38.598786214485735], [29.698048685383696, 38.59824722531526], [29.697509696213217, 38.59824722531526], [29.697509696213217, 38.59770823614479], [29.696970707042738, 38.59770823614479], [29.696970707042738, 38.59716924697432], [29.696431717872287, 38.59716924697432], [29.696431717872287, 38.59609126863337], [29.695892728701807, 38.59609126863337], [29.695892728701807, 38.59501329029243], [29.696431717872287, 38.59501329029243], [29.696431717872287, 38.594474301121956], [29.696970707042738, 38.594474301121956], [29.696970707042738, 38.59501329029243], [29.697509696213217, 38.59501329029243], [29.697509696213217, 38.594474301121956], [29.698048685383696, 38.594474301121956], [29.698048685383696, 38.59339632278102], [29.697509696213217, 38.59339632278102], [29.697509696213217, 38.59393531195148], [29.696970707042738, 38.59393531195148], [29.696970707042738, 38.59231834444007], [29.696431717872287, 38.59231834444007], [29.696431717872287, 38.5917793552696], [29.695892728701807, 38.5917793552696], [29.695892728701807, 38.59231834444007], [29.693736772019918, 38.59231834444007], [29.693736772019918, 38.592857333610546], [29.69319778284944, 38.592857333610546], [29.69319778284944, 38.59339632278102], [29.692119804508508, 38.59339632278102], [29.692119804508508, 38.592857333610546], [29.68996384782662, 38.592857333610546], [29.68996384782662, 38.59231834444007], [29.68942485865614, 38.59231834444007], [29.68942485865614, 38.5917793552696], [29.68996384782662, 38.5917793552696], [29.68996384782662, 38.59124036609913], [29.69104182616755, 38.59124036609913], [29.69104182616755, 38.590701376928656], [29.692119804508508, 38.590701376928656], [29.692119804508508, 38.59124036609913], [29.694275761190397, 38.59124036609913], [29.694275761190397, 38.590701376928656], [29.694814750360877, 38.590701376928656], [29.694814750360877, 38.59124036609913], [29.696431717872287, 38.59124036609913], [29.696431717872287, 38.5917793552696], [29.697509696213217, 38.5917793552696], [29.697509696213217, 38.592857333610546], [29.699665652895106, 38.592857333610546], [29.699665652895106, 38.59339632278102], [29.700204642065586, 38.59339632278102], [29.700204642065586, 38.59393531195148], [29.699665652895106, 38.59393531195148], [29.699665652895106, 38.59501329029243], [29.700743631236065, 38.59501329029243], [29.700743631236065, 38.594474301121956], [29.701282620406516, 38.594474301121956], [29.701282620406516, 38.59501329029243], [29.701821609576996, 38.59501329029243], [29.701821609576996, 38.59609126863337], [29.702360598747475, 38.59609126863337], [29.702360598747475, 38.5955522794629], [29.703438577088406, 38.5955522794629], [29.703438577088406, 38.59716924697432], [29.705055544599816, 38.59716924697432], [29.705055544599816, 38.596630257803845], [29.705594533770295, 38.596630257803845], [29.705594533770295, 38.59770823614479], [29.706672512111254, 38.59770823614479], [29.706672512111254, 38.59824722531526], [29.707211501281705, 38.59824722531526], [29.707211501281705, 38.59770823614479], [29.708289479622664, 38.59770823614479], [29.708289479622664, 38.596630257803845], [29.707750490452185, 38.596630257803845], [29.707750490452185, 38.59609126863337], [29.708289479622664, 38.59609126863337], [29.708289479622664, 38.5955522794629], [29.707211501281705, 38.5955522794629], [29.707211501281705, 38.59501329029243], [29.707750490452185, 38.59501329029243], [29.707750490452185, 38.594474301121956], [29.708289479622664, 38.594474301121956], [29.708289479622664, 38.59393531195148], [29.709367457963594, 38.59393531195148], [29.709367457963594, 38.59339632278102], [29.710445436304553, 38.59339632278102], [29.710445436304553, 38.592857333610546], [29.711523414645484, 38.592857333610546], [29.711523414645484, 38.59393531195148], [29.712062403815963, 38.59393531195148], [29.712062403815963, 38.59339632278102], [29.712601392986443, 38.59339632278102], [29.712601392986443, 38.59393531195148], [29.712062403815963, 38.59393531195148], [29.712062403815963, 38.59501329029243], [29.714218360497853, 38.59501329029243], [29.714218360497853, 38.594474301121956], [29.714757349668304, 38.594474301121956], [29.714757349668304, 38.59339632278102], [29.715296338838783, 38.59339632278102], [29.715296338838783, 38.592857333610546], [29.714757349668304, 38.592857333610546], [29.714757349668304, 38.5917793552696], [29.715296338838783, 38.5917793552696], [29.715296338838783, 38.59231834444007], [29.715835328009263, 38.59231834444007], [29.715835328009263, 38.59339632278102], [29.716374317179742, 38.59339632278102], [29.716374317179742, 38.59393531195148], [29.717452295520673, 38.59393531195148], [29.717452295520673, 38.59339632278102], [29.71853027386163, 38.59339632278102], [29.71853027386163, 38.592857333610546], [29.719069263032083, 38.592857333610546], [29.719069263032083, 38.5917793552696], [29.719608252202562, 38.5917793552696], [29.719608252202562, 38.590701376928656], [29.72014724137304, 38.590701376928656], [29.72014724137304, 38.59124036609913], [29.721225219713972, 38.59124036609913], [29.721225219713972, 38.590162387758184], [29.72230319805493, 38.590162387758184], [29.72230319805493, 38.58962339858771], [29.722842187225382, 38.58962339858771], [29.722842187225382, 38.58908440941724], [29.72392016556634, 38.58908440941724], [29.72392016556634, 38.590162387758184], [29.72445915473682, 38.590162387758184], [29.72445915473682, 38.590701376928656], [29.72661511141868, 38.590701376928656], [29.72661511141868, 38.592857333610546], [29.72715410058916, 38.592857333610546], [29.72715410058916, 38.59339632278102], [29.72877106810057, 38.59339632278102], [29.72877106810057, 38.59393531195148], [29.72769308975964, 38.59393531195148], [29.72769308975964, 38.59609126863337], [29.72823207893012, 38.59609126863337], [29.72823207893012, 38.59716924697432], [29.72931005727105, 38.59716924697432], [29.72931005727105, 38.59770823614479], [29.72984904644153, 38.59770823614479], [29.72984904644153, 38.59716924697432], [29.73038803561201, 38.59716924697432], [29.73038803561201, 38.59770823614479], [29.73146601395294, 38.59770823614479], [29.73146601395294, 38.596630257803845], [29.73200500312342, 38.596630257803845], [29.73200500312342, 38.59770823614479], [29.7325439922939, 38.59770823614479], [29.7325439922939, 38.598786214485735], [29.73308298146435, 38.598786214485735], [29.73308298146435, 38.59824722531526], [29.73362197063483, 38.59824722531526], [29.73362197063483, 38.59770823614479], [29.73523893814624, 38.59770823614479], [29.73523893814624, 38.598786214485735], [29.736316916487198, 38.598786214485735], [29.736316916487198, 38.59932520365621], [29.73685590565765, 38.59932520365621], [29.73685590565765, 38.60094217116762], [29.737394894828128, 38.60094217116762], [29.737394894828128, 38.60148116033809], [29.73685590565765, 38.60148116033809], [29.73685590565765, 38.603098127849506], [29.737394894828128, 38.603098127849506], [29.737394894828128, 38.60417610619045], [29.73685590565765, 38.60417610619045], [29.73685590565765, 38.605254084531396], [29.736316916487198, 38.605254084531396], [29.736316916487198, 38.60579307370186], [29.73523893814624, 38.60579307370186], [29.73523893814624, 38.60633206287233], [29.735777927316718, 38.60633206287233], [29.735777927316718, 38.606871052042806], [29.736316916487198, 38.606871052042806], [29.736316916487198, 38.60741004121328], [29.735777927316718, 38.60741004121328], [29.735777927316718, 38.61010498706564], [29.73469994897576, 38.61010498706564], [29.73469994897576, 38.61172195457705], [29.73362197063483, 38.61172195457705], [29.73362197063483, 38.61226094374752], [29.7325439922939, 38.61226094374752], [29.7325439922939, 38.61387791125894], [29.73092702478246, 38.61387791125894], [29.73092702478246, 38.61441690042941], [29.72931005727105, 38.61441690042941], [29.72931005727105, 38.615494878770356], [29.72715410058916, 38.615494878770356], [29.72715410058916, 38.61603386794083], [29.72661511141868, 38.61603386794083], [29.72661511141868, 38.615494878770356], [29.72553713307775, 38.615494878770356], [29.72553713307775, 38.61603386794083], [29.72607612224823, 38.61603386794083], [29.72607612224823, 38.6165728571113], [29.72230319805493, 38.6165728571113], [29.72230319805493, 38.61711184628177], [29.72176420888445, 38.61711184628177], [29.72176420888445, 38.61765083545224], [29.720686230543492, 38.61765083545224], [29.720686230543492, 38.61818982462271], [29.716374317179742, 38.61818982462271], [29.716374317179742, 38.61872881379318], [29.712601392986443, 38.61872881379318], [29.712601392986443, 38.619267802963655], [29.709906447134074, 38.619267802963655], [29.709906447134074, 38.61872881379318], [29.709367457963594, 38.61872881379318], [29.709367457963594, 38.61818982462271], [29.708828468793115, 38.61818982462271], [29.708828468793115, 38.61765083545224], [29.708289479622664, 38.61765083545224], [29.708289479622664, 38.61603386794083], [29.707750490452185, 38.61603386794083], [29.707750490452185, 38.615494878770356], [29.705594533770295, 38.615494878770356], [29.705594533770295, 38.61441690042941], [29.705055544599816, 38.61441690042941], [29.705055544599816, 38.61387791125894], [29.703977566258885, 38.61387791125894], [29.703977566258885, 38.61333892208847], [29.702360598747475, 38.61333892208847], [29.702360598747475, 38.61226094374752], [29.701821609576996, 38.61226094374752], [29.701821609576996, 38.612799932917994], [29.701282620406516, 38.612799932917994], [29.701282620406516, 38.61226094374752], [29.700743631236065, 38.61226094374752], [29.700743631236065, 38.61333892208847], [29.698048685383696, 38.61333892208847], [29.698048685383696, 38.614955889599884], [29.697509696213217, 38.614955889599884], [29.697509696213217, 38.615494878770356], [29.695892728701807, 38.615494878770356], [29.695892728701807, 38.614955889599884], [29.694275761190397, 38.614955889599884], [29.694275761190397, 38.61441690042941], [29.693736772019918, 38.61441690042941], [29.693736772019918, 38.61387791125894], [29.694814750360877, 38.61387791125894], [29.694814750360877, 38.612799932917994], [29.695353739531328, 38.612799932917994], [29.695353739531328, 38.61226094374752], [29.696431717872287, 38.61226094374752], [29.696431717872287, 38.611182965406584], [29.695892728701807, 38.611182965406584], [29.695892728701807, 38.61172195457705], [29.694275761190397, 38.61172195457705], [29.694275761190397, 38.61226094374752], [29.693736772019918, 38.61226094374752], [29.693736772019918, 38.61172195457705], [29.69319778284944, 38.61172195457705], [29.69319778284944, 38.61226094374752], [29.692119804508508, 38.61226094374752], [29.692119804508508, 38.61333892208847], [29.69319778284944, 38.61333892208847], [29.69319778284944, 38.61387791125894], [29.69104182616755, 38.61387791125894], [29.69104182616755, 38.61441690042941], [29.690502836997098, 38.61441690042941], [29.690502836997098, 38.61387791125894], [29.68942485865614, 38.61387791125894], [29.68942485865614, 38.61333892208847], [29.688885869485688, 38.61333892208847], [29.688885869485688, 38.612799932917994], [29.68780789114473, 38.612799932917994], [29.68780789114473, 38.61226094374752], [29.68349597778095, 38.61226094374752], [29.68349597778095, 38.61172195457705], [29.68187901026954, 38.61172195457705], [29.68187901026954, 38.61064397623611], [29.68134002109906, 38.61064397623611], [29.68134002109906, 38.60956599789517], [29.68080103192861, 38.60956599789517], [29.68080103192861, 38.609027008724695], [29.68026204275813, 38.609027008724695], [29.68026204275813, 38.60848801955422], [29.68187901026954, 38.60848801955422], [29.68187901026954, 38.60794903038375], [29.68026204275813, 38.60794903038375], [29.68026204275813, 38.60741004121328], [29.67972305358765, 38.60741004121328], [29.67972305358765, 38.606871052042806], [29.68026204275813, 38.606871052042806], [29.68026204275813, 38.60633206287233], [29.68080103192861, 38.60633206287233], [29.68080103192861, 38.605254084531396], [29.67972305358765, 38.605254084531396], [29.67972305358765, 38.60471509536092], [29.67918406441717, 38.60471509536092], [29.67918406441717, 38.60417610619045], [29.67756709690576, 38.60417610619045], [29.67756709690576, 38.60363711701998], [29.67648911856483, 38.60363711701998], [29.67648911856483, 38.602559138679034], [29.67487215105342, 38.602559138679034], [29.67487215105342, 38.60202014950856], [29.675411140223872, 38.60202014950856], [29.675411140223872, 38.60094217116762], [29.67595012939435, 38.60094217116762], [29.67595012939435, 38.600403181997144], [29.67648911856483, 38.600403181997144], [29.67648911856483, 38.59986419282667], [29.67595012939435, 38.59986419282667], [29.67595012939435, 38.59932520365621], [29.675411140223872, 38.59932520365621], [29.675411140223872, 38.598786214485735], [29.67487215105342, 38.598786214485735], [29.67487215105342, 38.59824722531526], [29.673794172712462, 38.59824722531526], [29.673794172712462, 38.596630257803845], [29.67433316188294, 38.596630257803845], [29.67433316188294, 38.59609126863337], [29.673255183541983, 38.59609126863337], [29.673255183541983, 38.596630257803845], [29.67271619437153, 38.596630257803845], [29.67271619437153, 38.59716924697432], [29.672177205201052, 38.59716924697432], [29.672177205201052, 38.596630257803845], [29.67271619437153, 38.596630257803845], [29.67271619437153, 38.5955522794629], [29.668943270178232, 38.5955522794629], [29.668943270178232, 38.594474301121956], [29.667326302666794, 38.594474301121956], [29.667326302666794, 38.59393531195148], [29.666787313496343, 38.59393531195148], [29.666787313496343, 38.59339632278102], [29.666248324325863, 38.59339632278102], [29.666248324325863, 38.59231834444007], [29.666787313496343, 38.59231834444007], [29.666787313496343, 38.590162387758184], [29.666248324325863, 38.590162387758184], [29.666248324325863, 38.58908440941724], [29.665170345984933, 38.58908440941724], [29.665170345984933, 38.588006431076295], [29.664631356814454, 38.588006431076295], [29.664631356814454, 38.586389463564885], [29.664092367643974, 38.586389463564885], [29.664092367643974, 38.58585047439441], [29.663553378473495, 38.58585047439441], [29.663553378473495, 38.58531148522394], [29.663014389303044, 38.58531148522394], [29.663014389303044, 38.584233506882995], [29.662475400132564, 38.584233506882995], [29.662475400132564, 38.58477249605347], [29.661936410962085, 38.58477249605347], [29.661936410962085, 38.584233506882995], [29.661397421791605, 38.584233506882995], [29.661397421791605, 38.58315552854205], [29.660858432621154, 38.58315552854205], [29.660858432621154, 38.58261653937158], [29.660319443450675, 38.58261653937158], [29.660319443450675, 38.58369451771252], [29.659780454280195, 38.58369451771252], [29.659780454280195, 38.58315552854205], [29.658702475939265, 38.58315552854205], [29.658702475939265, 38.58261653937158], [29.658163486768785, 38.58261653937158], [29.658163486768785, 38.58369451771252], [29.657085508427855, 38.58369451771252], [29.657085508427855, 38.582077550201106], [29.657624497598306, 38.582077550201106], [29.657624497598306, 38.581538561030634], [29.656007530086896, 38.581538561030634], [29.656007530086896, 38.58099957186017], [29.654390562575486, 38.58099957186017], [29.654390562575486, 38.579921593519224], [29.654929551745965, 38.579921593519224], [29.654929551745965, 38.57938260434875], [29.654390562575486, 38.57938260434875], [29.654390562575486, 38.57884361517828], [29.652234605893597, 38.57884361517828], [29.652234605893597, 38.577765636837334], [29.651156627552666, 38.577765636837334], [29.651156627552666, 38.57668765849639], [29.652773595064076, 38.57668765849639], [29.652773595064076, 38.57453170181451], [29.651695616723117, 38.57453170181451], [29.651695616723117, 38.57507069098498], [29.650078649211707, 38.57507069098498], [29.650078649211707, 38.575609680155445], [29.649000670870777, 38.575609680155445], [29.649000670870777, 38.57453170181451], [29.649539660041228, 38.57453170181451], [29.649539660041228, 38.573992712644035], [29.650078649211707, 38.573992712644035], [29.650078649211707, 38.57453170181451], [29.651156627552666, 38.57453170181451], [29.651156627552666, 38.573992712644035], [29.651695616723117, 38.573992712644035], [29.651695616723117, 38.57345372347356], [29.652234605893597, 38.57345372347356], [29.652234605893597, 38.57237574513262], [29.653312584234556, 38.57237574513262], [29.653312584234556, 38.57345372347356], [29.653851573405007, 38.57345372347356], [29.653851573405007, 38.57129776679167], [29.655468540916416, 38.57129776679167], [29.655468540916416, 38.57291473430309], [29.656007530086896, 38.57291473430309], [29.656007530086896, 38.571836755962146], [29.658163486768785, 38.571836755962146], [29.658163486768785, 38.57129776679167], [29.657085508427855, 38.57129776679167], [29.657085508427855, 38.5707587776212], [29.658163486768785, 38.5707587776212], [29.658163486768785, 38.57129776679167], [29.658702475939265, 38.57129776679167], [29.658702475939265, 38.5707587776212], [29.660319443450675, 38.5707587776212], [29.660319443450675, 38.57021978845073], [29.660858432621154, 38.57021978845073], [29.660858432621154, 38.5707587776212], [29.661397421791605, 38.5707587776212], [29.661397421791605, 38.57021978845073], [29.663014389303044, 38.57021978845073], [29.663014389303044, 38.5707587776212], [29.663553378473495, 38.5707587776212], [29.663553378473495, 38.57129776679167], [29.664631356814454, 38.57129776679167], [29.664631356814454, 38.571836755962146], [29.665709335155384, 38.571836755962146], [29.665709335155384, 38.5707587776212], [29.666248324325863, 38.5707587776212], [29.666248324325863, 38.57129776679167], [29.666787313496343, 38.57129776679167], [29.666787313496343, 38.57021978845073], [29.668404281007753, 38.57021978845073], [29.668404281007753, 38.56914181010979], [29.668943270178232, 38.56914181010979], [29.668943270178232, 38.56860282093932]], [[29.68834688031521, 38.61172195457705], [29.68834688031521, 38.61226094374752], [29.68780789114473, 38.61226094374752], [29.68780789114473, 38.61172195457705], [29.68834688031521, 38.61172195457705]], [[29.692119804508508, 38.61172195457705], [29.692119804508508, 38.61226094374752], [29.69158081533803, 38.61226094374752], [29.69158081533803, 38.61172195457705], [29.692119804508508, 38.61172195457705]], [[29.68942485865614, 38.611182965406584], [29.68942485865614, 38.61226094374752], [29.688885869485688, 38.61226094374752], [29.688885869485688, 38.61172195457705], [29.68834688031521, 38.61172195457705], [29.68834688031521, 38.611182965406584], [29.68942485865614, 38.611182965406584]], [[29.696970707042738, 38.61064397623611], [29.696970707042738, 38.611182965406584], [29.696431717872287, 38.611182965406584], [29.696431717872287, 38.61064397623611], [29.696970707042738, 38.61064397623611]], [[29.707211501281705, 38.61010498706564], [29.707211501281705, 38.611182965406584], [29.707750490452185, 38.611182965406584], [29.707750490452185, 38.61064397623611], [29.708828468793115, 38.61064397623611], [29.708828468793115, 38.61172195457705], [29.707750490452185, 38.61172195457705], [29.707750490452185, 38.61226094374752], [29.707211501281705, 38.61226094374752], [29.707211501281705, 38.61172195457705], [29.706672512111254, 38.61172195457705], [29.706672512111254, 38.611182965406584], [29.706133522940775, 38.611182965406584], [29.706133522940775, 38.61064397623611], [29.705594533770295, 38.61064397623611], [29.705594533770295, 38.61010498706564], [29.707211501281705, 38.61010498706564]], [[29.68349597778095, 38.60956599789517], [29.68349597778095, 38.61064397623611], [29.6829569886105, 38.61064397623611], [29.6829569886105, 38.60956599789517], [29.68349597778095, 38.60956599789517]], [[29.68457395612191, 38.60956599789517], [29.68457395612191, 38.61064397623611], [29.68403496695143, 38.61064397623611], [29.68403496695143, 38.60956599789517], [29.68457395612191, 38.60956599789517]], [[29.695353739531328, 38.60956599789517], [29.695353739531328, 38.61064397623611], [29.692119804508508, 38.61064397623611], [29.692119804508508, 38.61010498706564], [29.694814750360877, 38.61010498706564], [29.694814750360877, 38.60956599789517], [29.695353739531328, 38.60956599789517]], [[29.694275761190397, 38.609027008724695], [29.694275761190397, 38.60956599789517], [29.693736772019918, 38.60956599789517], [29.693736772019918, 38.609027008724695], [29.694275761190397, 38.609027008724695]], [[29.702360598747475, 38.609027008724695], [29.702360598747475, 38.60956599789517], [29.701821609576996, 38.60956599789517], [29.701821609576996, 38.609027008724695], [29.702360598747475, 38.609027008724695]], [[29.707211501281705, 38.60848801955422], [29.707211501281705, 38.609027008724695], [29.706672512111254, 38.609027008724695], [29.706672512111254, 38.60848801955422], [29.707211501281705, 38.60848801955422]], [[29.710984425475004, 38.60848801955422], [29.710984425475004, 38.609027008724695], [29.708828468793115, 38.609027008724695], [29.708828468793115, 38.60848801955422], [29.710984425475004, 38.60848801955422]], [[29.714218360497853, 38.60794903038375], [29.714218360497853, 38.60848801955422], [29.71853027386163, 38.60848801955422], [29.71853027386163, 38.609027008724695], [29.717991284691152, 38.609027008724695], [29.717991284691152, 38.60956599789517], [29.71853027386163, 38.60956599789517], [29.71853027386163, 38.61064397623611], [29.719069263032083, 38.61064397623611], [29.719069263032083, 38.611182965406584], [29.719608252202562, 38.611182965406584], [29.719608252202562, 38.61064397623611], [29.72176420888445, 38.61064397623611], [29.72176420888445, 38.611182965406584], [29.72230319805493, 38.611182965406584], [29.72230319805493, 38.61226094374752], [29.72176420888445, 38.61226094374752], [29.72176420888445, 38.61172195457705], [29.721225219713972, 38.61172195457705], [29.721225219713972, 38.61226094374752], [29.72014724137304, 38.61226094374752], [29.72014724137304, 38.61172195457705], [29.717452295520673, 38.61172195457705], [29.717452295520673, 38.611182965406584], [29.716913306350193, 38.611182965406584], [29.716913306350193, 38.61172195457705], [29.715296338838783, 38.61172195457705], [29.715296338838783, 38.611182965406584], [29.714757349668304, 38.611182965406584], [29.714757349668304, 38.61064397623611], [29.714218360497853, 38.61064397623611], [29.714218360497853, 38.60956599789517], [29.713679371327373, 38.60956599789517], [29.713679371327373, 38.60794903038375], [29.714218360497853, 38.60794903038375]], [[29.703438577088406, 38.60741004121328], [29.703438577088406, 38.60794903038375], [29.702899587917926, 38.60794903038375], [29.702899587917926, 38.60741004121328], [29.703438577088406, 38.60741004121328]], [[29.698048685383696, 38.606871052042806], [29.698048685383696, 38.60794903038375], [29.698587674554176, 38.60794903038375], [29.698587674554176, 38.60848801955422], [29.699126663724627, 38.60848801955422], [29.699126663724627, 38.60794903038375], [29.699665652895106, 38.60794903038375], [29.699665652895106, 38.60848801955422], [29.700743631236065, 38.60848801955422], [29.700743631236065, 38.609027008724695], [29.699126663724627, 38.609027008724695], [29.699126663724627, 38.60956599789517], [29.699665652895106, 38.60956599789517], [29.699665652895106, 38.61010498706564], [29.701282620406516, 38.61010498706564], [29.701282620406516, 38.61064397623611], [29.700743631236065, 38.61064397623611], [29.700743631236065, 38.61172195457705], [29.699665652895106, 38.61172195457705], [29.699665652895106, 38.61226094374752], [29.698587674554176, 38.61226094374752], [29.698587674554176, 38.61172195457705], [29.697509696213217, 38.61172195457705], [29.697509696213217, 38.611182965406584], [29.698048685383696, 38.611182965406584], [29.698048685383696, 38.61064397623611], [29.696970707042738, 38.61064397623611], [29.696970707042738, 38.61010498706564], [29.698587674554176, 38.61010498706564], [29.698587674554176, 38.60956599789517], [29.698048685383696, 38.60956599789517], [29.698048685383696, 38.609027008724695], [29.696431717872287, 38.609027008724695], [29.696431717872287, 38.60956599789517], [29.695353739531328, 38.60956599789517], [29.695353739531328, 38.60848801955422], [29.696431717872287, 38.60848801955422], [29.696431717872287, 38.60741004121328], [29.697509696213217, 38.60741004121328], [29.697509696213217, 38.606871052042806], [29.698048685383696, 38.606871052042806]], [[29.710984425475004, 38.60633206287233], [29.710984425475004, 38.60741004121328], [29.710445436304553, 38.60741004121328], [29.710445436304553, 38.60794903038375], [29.709367457963594, 38.60794903038375], [29.709367457963594, 38.60741004121328], [29.709906447134074, 38.60741004121328], [29.709906447134074, 38.60633206287233], [29.710984425475004, 38.60633206287233]], [[29.688885869485688, 38.60579307370186], [29.688885869485688, 38.606871052042806], [29.68834688031521, 38.606871052042806], [29.68834688031521, 38.60579307370186], [29.688885869485688, 38.60579307370186]], [[29.696431717872287, 38.60579307370186], [29.696431717872287, 38.60633206287233], [29.695353739531328, 38.60633206287233], [29.695353739531328, 38.60579307370186], [29.696431717872287, 38.60579307370186]], [[29.709367457963594, 38.60579307370186], [29.709367457963594, 38.60633206287233], [29.708828468793115, 38.60633206287233], [29.708828468793115, 38.60741004121328], [29.708289479622664, 38.60741004121328], [29.708289479622664, 38.60794903038375], [29.707750490452185, 38.60794903038375], [29.707750490452185, 38.60741004121328], [29.706672512111254, 38.60741004121328], [29.706672512111254, 38.60633206287233], [29.707211501281705, 38.60633206287233], [29.707211501281705, 38.606871052042806], [29.708289479622664, 38.606871052042806], [29.708289479622664, 38.60633206287233], [29.707750490452185, 38.60633206287233], [29.707750490452185, 38.60579307370186], [29.709367457963594, 38.60579307370186]], [[29.711523414645484, 38.60579307370186], [29.711523414645484, 38.60633206287233], [29.710984425475004, 38.60633206287233], [29.710984425475004, 38.60579307370186], [29.711523414645484, 38.60579307370186]], [[29.68241799944002, 38.60471509536092], [29.68241799944002, 38.605254084531396], [29.68187901026954, 38.605254084531396], [29.68187901026954, 38.60471509536092], [29.68241799944002, 38.60471509536092]], [[29.68996384782662, 38.60471509536092], [29.68996384782662, 38.60633206287233], [29.68942485865614, 38.60633206287233], [29.68942485865614, 38.60471509536092], [29.68996384782662, 38.60471509536092]], [[29.712601392986443, 38.60471509536092], [29.712601392986443, 38.605254084531396], [29.711523414645484, 38.605254084531396], [29.711523414645484, 38.60471509536092], [29.712601392986443, 38.60471509536092]], [[29.702360598747475, 38.60363711701998], [29.702360598747475, 38.60417610619045], [29.701282620406516, 38.60417610619045], [29.701282620406516, 38.60363711701998], [29.702360598747475, 38.60363711701998]], [[29.712601392986443, 38.60363711701998], [29.712601392986443, 38.60417610619045], [29.711523414645484, 38.60417610619045], [29.711523414645484, 38.60363711701998], [29.712601392986443, 38.60363711701998]], [[29.705594533770295, 38.603098127849506], [29.705594533770295, 38.60363711701998], [29.706133522940775, 38.60363711701998], [29.706133522940775, 38.60417610619045], [29.704516555429365, 38.60417610619045], [29.704516555429365, 38.603098127849506], [29.705594533770295, 38.603098127849506]], [[29.72230319805493, 38.603098127849506], [29.72230319805493, 38.60417610619045], [29.72176420888445, 38.60417610619045], [29.72176420888445, 38.603098127849506], [29.72230319805493, 38.603098127849506]], [[29.68565193446284, 38.602559138679034], [29.68565193446284, 38.603098127849506], [29.68457395612191, 38.603098127849506], [29.68457395612191, 38.602559138679034], [29.68565193446284, 38.602559138679034]], [[29.696970707042738, 38.60202014950856], [29.696970707042738, 38.602559138679034], [29.697509696213217, 38.602559138679034], [29.697509696213217, 38.60363711701998], [29.695892728701807, 38.60363711701998], [29.695892728701807, 38.60417610619045], [29.694275761190397, 38.60417610619045], [29.694275761190397, 38.60471509536092], [29.69319778284944, 38.60471509536092], [29.69319778284944, 38.60417610619045], [29.692658793678987, 38.60417610619045], [29.692658793678987, 38.60363711701998], [29.69319778284944, 38.60363711701998], [29.69319778284944, 38.602559138679034], [29.694275761190397, 38.602559138679034], [29.694275761190397, 38.603098127849506], [29.693736772019918, 38.603098127849506], [29.693736772019918, 38.60363711701998], [29.695353739531328, 38.60363711701998], [29.695353739531328, 38.603098127849506], [29.695892728701807, 38.603098127849506], [29.695892728701807, 38.60202014950856], [29.696970707042738, 38.60202014950856]], [[29.705055544599816, 38.60202014950856], [29.705055544599816, 38.602559138679034], [29.704516555429365, 38.602559138679034], [29.704516555429365, 38.603098127849506], [29.703977566258885, 38.603098127849506], [29.703977566258885, 38.60471509536092], [29.705594533770295, 38.60471509536092], [29.705594533770295, 38.606871052042806], [29.705055544599816, 38.606871052042806], [29.705055544599816, 38.60741004121328], [29.703438577088406, 38.60741004121328], [29.703438577088406, 38.606871052042806], [29.701821609576996, 38.606871052042806], [29.701821609576996, 38.60633206287233], [29.701282620406516, 38.60633206287233], [29.701282620406516, 38.60579307370186], [29.702899587917926, 38.60579307370186], [29.702899587917926, 38.605254084531396], [29.703438577088406, 38.605254084531396], [29.703438577088406, 38.602559138679034], [29.703977566258885, 38.602559138679034], [29.703977566258885, 38.60202014950856], [29.705055544599816, 38.60202014950856]], [[29.68134002109906, 38.60148116033809], [29.68134002109906, 38.602559138679034], [29.68080103192861, 38.602559138679034], [29.68080103192861, 38.60148116033809], [29.68134002109906, 38.60148116033809]], [[29.698048685383696, 38.60148116033809], [29.698048685383696, 38.60202014950856], [29.697509696213217, 38.60202014950856], [29.697509696213217, 38.60148116033809], [29.698048685383696, 38.60148116033809]], [[29.700743631236065, 38.60148116033809], [29.700743631236065, 38.60202014950856], [29.700204642065586, 38.60202014950856], [29.700204642065586, 38.60148116033809], [29.700743631236065, 38.60148116033809]], [[29.697509696213217, 38.60094217116762], [29.697509696213217, 38.60148116033809], [29.695892728701807, 38.60148116033809], [29.695892728701807, 38.60094217116762], [29.697509696213217, 38.60094217116762]], [[29.699126663724627, 38.60094217116762], [29.699126663724627, 38.60148116033809], [29.698587674554176, 38.60148116033809], [29.698587674554176, 38.60094217116762], [29.699126663724627, 38.60094217116762]], [[29.719069263032083, 38.60094217116762], [29.719069263032083, 38.60148116033809], [29.71853027386163, 38.60148116033809], [29.71853027386163, 38.60094217116762], [29.719069263032083, 38.60094217116762]], [[29.722842187225382, 38.60094217116762], [29.722842187225382, 38.60148116033809], [29.72230319805493, 38.60148116033809], [29.72230319805493, 38.60094217116762], [29.722842187225382, 38.60094217116762]], [[29.707750490452185, 38.600403181997144], [29.707750490452185, 38.60094217116762], [29.707211501281705, 38.60094217116762], [29.707211501281705, 38.600403181997144], [29.707750490452185, 38.600403181997144]], [[29.72230319805493, 38.600403181997144], [29.72230319805493, 38.60094217116762], [29.721225219713972, 38.60094217116762], [29.721225219713972, 38.600403181997144], [29.72230319805493, 38.600403181997144]], [[29.67918406441717, 38.59986419282667], [29.67918406441717, 38.600403181997144], [29.67864507524672, 38.600403181997144], [29.67864507524672, 38.59986419282667], [29.67918406441717, 38.59986419282667]], [[29.704516555429365, 38.59986419282667], [29.704516555429365, 38.600403181997144], [29.703977566258885, 38.600403181997144], [29.703977566258885, 38.59986419282667], [29.704516555429365, 38.59986419282667]], [[29.701282620406516, 38.59824722531526], [29.701282620406516, 38.59932520365621], [29.700204642065586, 38.59932520365621], [29.700204642065586, 38.59824722531526], [29.701282620406516, 38.59824722531526]], [[29.72499814390727, 38.59824722531526], [29.72499814390727, 38.598786214485735], [29.72445915473682, 38.598786214485735], [29.72445915473682, 38.59824722531526], [29.72499814390727, 38.59824722531526]], [[29.72392016556634, 38.59770823614479], [29.72392016556634, 38.59824722531526], [29.72338117639586, 38.59824722531526], [29.72338117639586, 38.59770823614479], [29.72392016556634, 38.59770823614479]], [[29.67595012939435, 38.59716924697432], [29.67595012939435, 38.59770823614479], [29.675411140223872, 38.59770823614479], [29.675411140223872, 38.59716924697432], [29.67595012939435, 38.59716924697432]], [[29.710445436304553, 38.59716924697432], [29.710445436304553, 38.59770823614479], [29.709367457963594, 38.59770823614479], [29.709367457963594, 38.59716924697432], [29.710445436304553, 38.59716924697432]], [[29.72661511141868, 38.59716924697432], [29.72661511141868, 38.59770823614479], [29.72607612224823, 38.59770823614479], [29.72607612224823, 38.59716924697432], [29.72661511141868, 38.59716924697432]], [[29.72823207893012, 38.59716924697432], [29.72823207893012, 38.59770823614479], [29.72769308975964, 38.59770823614479], [29.72769308975964, 38.59716924697432], [29.72823207893012, 38.59716924697432]], [[29.698587674554176, 38.596630257803845], [29.698587674554176, 38.59716924697432], [29.699126663724627, 38.59716924697432], [29.699126663724627, 38.59824722531526], [29.698587674554176, 38.59824722531526], [29.698587674554176, 38.59770823614479], [29.697509696213217, 38.59770823614479], [29.697509696213217, 38.59716924697432], [29.698048685383696, 38.59716924697432], [29.698048685383696, 38.596630257803845], [29.698587674554176, 38.596630257803845]], [[29.701821609576996, 38.596630257803845], [29.701821609576996, 38.59716924697432], [29.701282620406516, 38.59716924697432], [29.701282620406516, 38.596630257803845], [29.701821609576996, 38.596630257803845]], [[29.715835328009263, 38.596630257803845], [29.715835328009263, 38.59716924697432], [29.710984425475004, 38.59716924697432], [29.710984425475004, 38.596630257803845], [29.715835328009263, 38.596630257803845]], [[29.699665652895106, 38.59609126863337], [29.699665652895106, 38.596630257803845], [29.700204642065586, 38.596630257803845], [29.700204642065586, 38.59716924697432], [29.699126663724627, 38.59716924697432], [29.699126663724627, 38.59609126863337], [29.699665652895106, 38.59609126863337]], [[29.721225219713972, 38.59609126863337], [29.721225219713972, 38.596630257803845], [29.720686230543492, 38.596630257803845], [29.720686230543492, 38.59609126863337], [29.721225219713972, 38.59609126863337]], [[29.709367457963594, 38.5955522794629], [29.709367457963594, 38.59609126863337], [29.708828468793115, 38.59609126863337], [29.708828468793115, 38.5955522794629], [29.709367457963594, 38.5955522794629]], [[29.71853027386163, 38.5955522794629], [29.71853027386163, 38.59609126863337], [29.717452295520673, 38.59609126863337], [29.717452295520673, 38.596630257803845], [29.715835328009263, 38.596630257803845], [29.715835328009263, 38.59609126863337], [29.716913306350193, 38.59609126863337], [29.716913306350193, 38.5955522794629], [29.71853027386163, 38.5955522794629]], [[29.719608252202562, 38.5955522794629], [29.719608252202562, 38.596630257803845], [29.71853027386163, 38.596630257803845], [29.71853027386163, 38.59609126863337], [29.719069263032083, 38.59609126863337], [29.719069263032083, 38.5955522794629], [29.719608252202562, 38.5955522794629]], [[29.708828468793115, 38.59501329029243], [29.708828468793115, 38.5955522794629], [29.708289479622664, 38.5955522794629], [29.708289479622664, 38.59501329029243], [29.708828468793115, 38.59501329029243]], [[29.72176420888445, 38.59501329029243], [29.72176420888445, 38.5955522794629], [29.72230319805493, 38.5955522794629], [29.72230319805493, 38.59609126863337], [29.721225219713972, 38.59609126863337], [29.721225219713972, 38.59501329029243], [29.72176420888445, 38.59501329029243]], [[29.67109922686012, 38.594474301121956], [29.67109922686012, 38.59501329029243], [29.670021248519163, 38.59501329029243], [29.670021248519163, 38.594474301121956], [29.67109922686012, 38.594474301121956]], [[29.698587674554176, 38.594474301121956], [29.698587674554176, 38.59501329029243], [29.699126663724627, 38.59501329029243], [29.699126663724627, 38.5955522794629], [29.698587674554176, 38.5955522794629], [29.698587674554176, 38.59609126863337], [29.698048685383696, 38.59609126863337], [29.698048685383696, 38.594474301121956], [29.698587674554176, 38.594474301121956]], [[29.709367457963594, 38.594474301121956], [29.709367457963594, 38.59501329029243], [29.708828468793115, 38.59501329029243], [29.708828468793115, 38.594474301121956], [29.709367457963594, 38.594474301121956]], [[29.710984425475004, 38.59393531195148], [29.710984425475004, 38.59501329029243], [29.710445436304553, 38.59501329029243], [29.710445436304553, 38.594474301121956], [29.709906447134074, 38.594474301121956], [29.709906447134074, 38.59393531195148], [29.710984425475004, 38.59393531195148]], [[29.72499814390727, 38.59339632278102], [29.72499814390727, 38.59393531195148], [29.72445915473682, 38.59393531195148], [29.72445915473682, 38.59339632278102], [29.72499814390727, 38.59339632278102]], [[29.671638216030573, 38.592857333610546], [29.671638216030573, 38.59339632278102], [29.67109922686012, 38.59339632278102], [29.67109922686012, 38.592857333610546], [29.671638216030573, 38.592857333610546]], [[29.72338117639586, 38.5917793552696], [29.72338117639586, 38.59231834444007], [29.722842187225382, 38.59231834444007], [29.722842187225382, 38.5917793552696], [29.72338117639586, 38.5917793552696]], [[29.72553713307775, 38.5917793552696], [29.72553713307775, 38.59231834444007], [29.72499814390727, 38.59231834444007], [29.72499814390727, 38.5917793552696], [29.72553713307775, 38.5917793552696]], [[29.667326302666794, 38.584233506882995], [29.667326302666794, 38.58477249605347], [29.666787313496343, 38.58477249605347], [29.666787313496343, 38.584233506882995], [29.667326302666794, 38.584233506882995]], [[29.67702810773531, 38.58908440941724], [29.67702810773531, 38.58962339858771], [29.67648911856483, 38.58962339858771], [29.67648911856483, 38.58908440941724], [29.67702810773531, 38.58908440941724]], [[29.68511294529236, 38.58585047439441], [29.68511294529236, 38.586389463564885], [29.68457395612191, 38.586389463564885], [29.68457395612191, 38.58585047439441], [29.68511294529236, 38.58585047439441]], [[29.68134002109906, 38.58369451771252], [29.68134002109906, 38.584233506882995], [29.68080103192861, 38.584233506882995], [29.68080103192861, 38.58369451771252], [29.68134002109906, 38.58369451771252]], [[29.67702810773531, 38.58315552854205], [29.67702810773531, 38.58369451771252], [29.67648911856483, 38.58369451771252], [29.67648911856483, 38.58315552854205], [29.67702810773531, 38.58315552854205]], [[29.68457395612191, 38.58261653937158], [29.68457395612191, 38.58315552854205], [29.68403496695143, 38.58315552854205], [29.68403496695143, 38.58261653937158], [29.68457395612191, 38.58261653937158]], [[29.67972305358765, 38.582077550201106], [29.67972305358765, 38.58261653937158], [29.68026204275813, 38.58261653937158], [29.68026204275813, 38.58315552854205], [29.67810608607624, 38.58315552854205], [29.67810608607624, 38.58261653937158], [29.67864507524672, 38.58261653937158], [29.67864507524672, 38.582077550201106], [29.67972305358765, 38.582077550201106]], [[29.666787313496343, 38.580460582689696], [29.666787313496343, 38.58099957186017], [29.666248324325863, 38.58099957186017], [29.666248324325863, 38.580460582689696], [29.666787313496343, 38.580460582689696]], [[29.664631356814454, 38.57884361517828], [29.664631356814454, 38.57938260434875], [29.665170345984933, 38.57938260434875], [29.665170345984933, 38.579921593519224], [29.664092367643974, 38.579921593519224], [29.664092367643974, 38.57884361517828], [29.664631356814454, 38.57884361517828]], [[29.665709335155384, 38.57884361517828], [29.665709335155384, 38.57938260434875], [29.665170345984933, 38.57938260434875], [29.665170345984933, 38.57884361517828], [29.665709335155384, 38.57884361517828]], [[29.667865291837273, 38.577765636837334], [29.667865291837273, 38.57938260434875], [29.668943270178232, 38.57938260434875], [29.668943270178232, 38.579921593519224], [29.669482259348683, 38.579921593519224], [29.669482259348683, 38.580460582689696], [29.668404281007753, 38.580460582689696], [29.668404281007753, 38.579921593519224], [29.667326302666794, 38.579921593519224], [29.667326302666794, 38.57884361517828], [29.666787313496343, 38.57884361517828], [29.666787313496343, 38.577765636837334], [29.667865291837273, 38.577765636837334]], [[29.658702475939265, 38.57722664766686], [29.658702475939265, 38.577765636837334], [29.658163486768785, 38.577765636837334], [29.658163486768785, 38.57830462600781], [29.657085508427855, 38.57830462600781], [29.657085508427855, 38.57722664766686], [29.658702475939265, 38.57722664766686]], [[29.6867299128038, 38.57722664766686], [29.6867299128038, 38.577765636837334], [29.68619092363332, 38.577765636837334], [29.68619092363332, 38.57722664766686], [29.6867299128038, 38.57722664766686]], [[29.663553378473495, 38.57614866932592], [29.663553378473495, 38.57722664766686], [29.663014389303044, 38.57722664766686], [29.663014389303044, 38.57668765849639], [29.662475400132564, 38.57668765849639], [29.662475400132564, 38.57614866932592], [29.663553378473495, 38.57614866932592]], [[29.659780454280195, 38.57507069098498], [29.659780454280195, 38.575609680155445], [29.658702475939265, 38.575609680155445], [29.658702475939265, 38.57507069098498], [29.659780454280195, 38.57507069098498]], [[29.68080103192861, 38.57507069098498], [29.68080103192861, 38.575609680155445], [29.68026204275813, 38.575609680155445], [29.68026204275813, 38.57507069098498], [29.68080103192861, 38.57507069098498]], [[29.662475400132564, 38.57453170181451], [29.662475400132564, 38.57507069098498], [29.661936410962085, 38.57507069098498], [29.661936410962085, 38.57453170181451], [29.662475400132564, 38.57453170181451]], [[29.658163486768785, 38.573992712644035], [29.658163486768785, 38.57453170181451], [29.658702475939265, 38.57453170181451], [29.658702475939265, 38.57507069098498], [29.657624497598306, 38.57507069098498], [29.657624497598306, 38.573992712644035], [29.658163486768785, 38.573992712644035]], [[29.67648911856483, 38.573992712644035], [29.67648911856483, 38.57453170181451], [29.67595012939435, 38.57453170181451], [29.67595012939435, 38.573992712644035], [29.67648911856483, 38.573992712644035]], [[29.654929551745965, 38.57345372347356], [29.654929551745965, 38.573992712644035], [29.654390562575486, 38.573992712644035], [29.654390562575486, 38.57345372347356], [29.654929551745965, 38.57345372347356]], [[29.663014389303044, 38.57345372347356], [29.663014389303044, 38.573992712644035], [29.661936410962085, 38.573992712644035], [29.661936410962085, 38.57345372347356], [29.663014389303044, 38.57345372347356]], [[29.67810608607624, 38.57345372347356], [29.67810608607624, 38.573992712644035], [29.67756709690576, 38.573992712644035], [29.67756709690576, 38.57345372347356], [29.67810608607624, 38.57345372347356]], [[29.68080103192861, 38.57345372347356], [29.68080103192861, 38.573992712644035], [29.68134002109906, 38.573992712644035], [29.68134002109906, 38.57453170181451], [29.68187901026954, 38.57453170181451], [29.68187901026954, 38.57507069098498], [29.68080103192861, 38.57507069098498], [29.68080103192861, 38.57453170181451], [29.67972305358765, 38.57453170181451], [29.67972305358765, 38.573992712644035], [29.68026204275813, 38.573992712644035], [29.68026204275813, 38.57345372347356], [29.68080103192861, 38.57345372347356]], [[29.659241465109744, 38.57291473430309], [29.659241465109744, 38.57345372347356], [29.657624497598306, 38.57345372347356], [29.657624497598306, 38.57291473430309], [29.659241465109744, 38.57291473430309]], [[29.663014389303044, 38.57237574513262], [29.663014389303044, 38.57291473430309], [29.662475400132564, 38.57291473430309], [29.662475400132564, 38.57237574513262], [29.663014389303044, 38.57237574513262]], [[29.663553378473495, 38.571836755962146], [29.663553378473495, 38.57237574513262], [29.663014389303044, 38.57237574513262], [29.663014389303044, 38.571836755962146], [29.663553378473495, 38.571836755962146]], [[29.667326302666794, 38.571836755962146], [29.667326302666794, 38.573992712644035], [29.667865291837273, 38.573992712644035], [29.667865291837273, 38.57453170181451], [29.667326302666794, 38.57453170181451], [29.667326302666794, 38.57507069098498], [29.667865291837273, 38.57507069098498], [29.667865291837273, 38.57668765849639], [29.667326302666794, 38.57668765849639], [29.667326302666794, 38.57722664766686], [29.666248324325863, 38.57722664766686], [29.666248324325863, 38.577765636837334], [29.665709335155384, 38.577765636837334], [29.665709335155384, 38.57722664766686], [29.665170345984933, 38.57722664766686], [29.665170345984933, 38.57614866932592], [29.664092367643974, 38.57614866932592], [29.664092367643974, 38.575609680155445], [29.663014389303044, 38.575609680155445], [29.663014389303044, 38.57453170181451], [29.664092367643974, 38.57453170181451], [29.664092367643974, 38.57237574513262], [29.666248324325863, 38.57237574513262], [29.666248324325863, 38.571836755962146], [29.667326302666794, 38.571836755962146]], [[29.659780454280195, 38.57129776679167], [29.659780454280195, 38.571836755962146], [29.660858432621154, 38.571836755962146], [29.660858432621154, 38.57291473430309], [29.660319443450675, 38.57291473430309], [29.660319443450675, 38.57237574513262], [29.659241465109744, 38.57237574513262], [29.659241465109744, 38.57129776679167], [29.659780454280195, 38.57129776679167]]]}, "properties": {"area_ha": 1462.6131762953016, "mean_dnbr": 0.4332256575479077, "compactness": 0.018, "rectangularity": 0.436, "cropland_frac": 0.145, "persistent": true}}, {"type": "Feature", "geometry": {"geodesic": false, "type": "Polygon", "coordinates": [[[29.78266998514775, 37.835577549097785], [29.783747963488707, 37.835577549097785], [29.783747963488707, 37.8371945166092], [29.784825941829638, 37.8371945166092], [29.784825941829638, 37.83665552743873], [29.785364931000117, 37.83665552743873], [29.785364931000117, 37.8371945166092], [29.785903920170597, 37.8371945166092], [29.785903920170597, 37.83881148412062], [29.787520887682007, 37.83881148412062], [29.787520887682007, 37.839889462461564], [29.789137855193417, 37.839889462461564], [29.789137855193417, 37.84150642997297], [29.788598866022937, 37.84150642997297], [29.788598866022937, 37.84258440831392], [29.788059876852458, 37.84258440831392], [29.788059876852458, 37.8409674408025], [29.787520887682007, 37.8409674408025], [29.787520887682007, 37.84150642997297], [29.786981898511527, 37.84150642997297], [29.786981898511527, 37.842045419143446], [29.786442909341048, 37.842045419143446], [29.786442909341048, 37.84258440831392], [29.785903920170597, 37.84258440831392], [29.785903920170597, 37.84150642997297], [29.786442909341048, 37.84150642997297], [29.786442909341048, 37.839889462461564], [29.785903920170597, 37.839889462461564], [29.785903920170597, 37.83881148412062], [29.78428695265916, 37.83881148412062], [29.78428695265916, 37.83935047329109], [29.784825941829638, 37.83935047329109], [29.784825941829638, 37.839889462461564], [29.78428695265916, 37.839889462461564], [29.78428695265916, 37.83935047329109], [29.783747963488707, 37.83935047329109], [29.783747963488707, 37.83881148412062], [29.783208974318228, 37.83881148412062], [29.783208974318228, 37.839889462461564], [29.783747963488707, 37.839889462461564], [29.783747963488707, 37.84042845163203], [29.783208974318228, 37.84042845163203], [29.783208974318228, 37.8409674408025], [29.78266998514775, 37.8409674408025], [29.78266998514775, 37.84042845163203], [29.78213099597727, 37.84042845163203], [29.78213099597727, 37.8409674408025], [29.781592006806818, 37.8409674408025], [29.781592006806818, 37.84150642997297], [29.78213099597727, 37.84150642997297], [29.78213099597727, 37.842045419143446], [29.783208974318228, 37.842045419143446], [29.783208974318228, 37.84312339748439], [29.781592006806818, 37.84312339748439], [29.781592006806818, 37.84366238665486], [29.77943605012493, 37.84366238665486], [29.77943605012493, 37.84312339748439], [29.78051402846586, 37.84312339748439], [29.78051402846586, 37.84258440831392], [29.78105301763634, 37.84258440831392], [29.78105301763634, 37.842045419143446], [29.781592006806818, 37.842045419143446], [29.781592006806818, 37.84150642997297], [29.78051402846586, 37.84150642997297], [29.78051402846586, 37.842045419143446], [29.779975039295408, 37.842045419143446], [29.779975039295408, 37.84258440831392], [29.77943605012493, 37.84258440831392], [29.77943605012493, 37.84150642997297], [29.779975039295408, 37.84150642997297], [29.779975039295408, 37.84042845163203], [29.78051402846586, 37.84042845163203], [29.78051402846586, 37.83935047329109], [29.78105301763634, 37.83935047329109], [29.78105301763634, 37.83881148412062], [29.781592006806818, 37.83881148412062], [29.781592006806818, 37.837733505779674], [29.78213099597727, 37.837733505779674], [29.78213099597727, 37.83665552743873], [29.78266998514775, 37.83665552743873], [29.78266998514775, 37.835577549097785]], [[29.78213099597727, 37.842045419143446], [29.78213099597727, 37.84258440831392], [29.781592006806818, 37.84258440831392], [29.781592006806818, 37.842045419143446], [29.78213099597727, 37.842045419143446]], [[29.781592006806818, 37.839889462461564], [29.781592006806818, 37.84042845163203], [29.78105301763634, 37.84042845163203], [29.78105301763634, 37.839889462461564], [29.781592006806818, 37.839889462461564]], [[29.783208974318228, 37.839889462461564], [29.783208974318228, 37.84042845163203], [29.78266998514775, 37.84042845163203], [29.78266998514775, 37.839889462461564], [29.783208974318228, 37.839889462461564]], [[29.78266998514775, 37.83827249495015], [29.78266998514775, 37.83935047329109], [29.781592006806818, 37.83935047329109], [29.781592006806818, 37.83881148412062], [29.78213099597727, 37.83881148412062], [29.78213099597727, 37.83827249495015], [29.78266998514775, 37.83827249495015]]]}, "properties": {"area_ha": 26.097359148753206, "mean_dnbr": 0.18693538795387077, "compactness": 0.059, "rectangularity": 0.341, "cropland_frac": 0, "persistent": true}}, {"type": "Feature", "geometry": {"geodesic": false, "type": "Polygon", "coordinates": [[[30.79381366895268, 38.40367213477497], [30.79650861480505, 38.40367213477497], [30.79650861480505, 38.404211123945444], [30.79704760397553, 38.404211123945444], [30.79704760397553, 38.40528910228639], [30.79866457148694, 38.40528910228639], [30.79866457148694, 38.40582809145686], [30.799203560657418, 38.40582809145686], [30.799203560657418, 38.406367080627334], [30.800281538998348, 38.406367080627334], [30.800281538998348, 38.4069060697978], [30.800820528168828, 38.4069060697978], [30.800820528168828, 38.40744505896827], [30.802437495680238, 38.40744505896827], [30.802437495680238, 38.407984048138744], [30.802976484850717, 38.407984048138744], [30.802976484850717, 38.40906202647969], [30.804593452362127, 38.40906202647969], [30.804593452362127, 38.41121798316158], [30.807827387384947, 38.41121798316158], [30.807827387384947, 38.41175697233205], [30.808366376555426, 38.41175697233205], [30.808366376555426, 38.41229596150252], [30.807288398214467, 38.41229596150252], [30.807288398214467, 38.414451918184405], [30.808366376555426, 38.414451918184405], [30.808366376555426, 38.41391292901393], [30.809444354896357, 38.41391292901393], [30.809444354896357, 38.41337393984346], [30.809983344066836, 38.41337393984346], [30.809983344066836, 38.41283495067299], [30.809444354896357, 38.41283495067299], [30.809444354896357, 38.41229596150252], [30.808905365725906, 38.41229596150252], [30.808905365725906, 38.41121798316158], [30.809444354896357, 38.41121798316158], [30.809444354896357, 38.41014000482063], [30.811061322407795, 38.41014000482063], [30.811061322407795, 38.410678993991105], [30.811600311578246, 38.410678993991105], [30.811600311578246, 38.41229596150252], [30.810522333237316, 38.41229596150252], [30.810522333237316, 38.41283495067299], [30.811061322407795, 38.41283495067299], [30.811061322407795, 38.41391292901393], [30.812678289919205, 38.41391292901393], [30.812678289919205, 38.41499090735488], [30.810522333237316, 38.41499090735488], [30.810522333237316, 38.41337393984346], [30.809983344066836, 38.41337393984346], [30.809983344066836, 38.41499090735488], [30.808366376555426, 38.41499090735488], [30.808366376555426, 38.41552989652535], [30.807827387384947, 38.41552989652535], [30.807827387384947, 38.41499090735488], [30.807288398214467, 38.41499090735488], [30.807288398214467, 38.414451918184405], [30.806749409044016, 38.414451918184405], [30.806749409044016, 38.41499090735488], [30.805671430703057, 38.41499090735488], [30.805671430703057, 38.414451918184405], [30.806749409044016, 38.414451918184405], [30.806749409044016, 38.41391292901393], [30.804054463191648, 38.41391292901393], [30.804054463191648, 38.414451918184405], [30.805132441532606, 38.414451918184405], [30.805132441532606, 38.41499090735488], [30.804054463191648, 38.41499090735488], [30.804054463191648, 38.414451918184405], [30.803515474021168, 38.414451918184405], [30.803515474021168, 38.41391292901393], [30.802976484850717, 38.41391292901393], [30.802976484850717, 38.41283495067299], [30.802437495680238, 38.41283495067299], [30.802437495680238, 38.41337393984346], [30.801898506509758, 38.41337393984346], [30.801898506509758, 38.41283495067299], [30.802437495680238, 38.41283495067299], [30.802437495680238, 38.41229596150252], [30.801898506509758, 38.41229596150252], [30.801898506509758, 38.41121798316158], [30.800820528168828, 38.41121798316158], [30.800820528168828, 38.410678993991105], [30.79866457148694, 38.410678993991105], [30.79866457148694, 38.40960101565016], [30.79812558231646, 38.40960101565016], [30.79812558231646, 38.408523037309216], [30.79596962563457, 38.408523037309216], [30.79596962563457, 38.40744505896827], [30.79543063646409, 38.40744505896827], [30.79543063646409, 38.406367080627334], [30.79596962563457, 38.406367080627334], [30.79596962563457, 38.40582809145686], [30.79650861480505, 38.40582809145686], [30.79650861480505, 38.40528910228639], [30.79596962563457, 38.40528910228639], [30.79596962563457, 38.40475011311592], [30.79489164729364, 38.40475011311592], [30.79489164729364, 38.404211123945444], [30.79381366895268, 38.404211123945444], [30.79381366895268, 38.40367213477497]], [[30.800281538998348, 38.40960101565016], [30.800281538998348, 38.41014000482063], [30.79974254982787, 38.41014000482063], [30.79974254982787, 38.40960101565016], [30.800281538998348, 38.40960101565016]]]}, "properties": {"area_ha": 58.82501308852719, "mean_dnbr": 0.4831979417616808, "compactness": 0.088, "rectangularity": 0.372, "cropland_frac": 0.006, "persistent": true}}]}