{"type": "FeatureCollection", "crs": {"type": "name", "properties": {"name": "urn:ogc:def:crs:OGC:1.3:CRS84"}}, "features": [{"type": "Feature", "geometry": {"geodesic": false, "type": "Polygon", "coordinates": [[[30.05647648374739, 36.3700659945852], [30.0580934512588, 36.3700659945852], [30.0580934512588, 36.37060498375567], [30.058632440429278, 36.37060498375567], [30.058632440429278, 36.37114397292614], [30.05917142959973, 36.37114397292614], [30.05917142959973, 36.371682962096614], [30.05971041877021, 36.371682962096614], [30.05971041877021, 36.37114397292614], [30.060249407940688, 36.37114397292614], [30.060249407940688, 36.371682962096614], [30.06132738628162, 36.371682962096614], [30.06132738628162, 36.372221951267086], [30.061866375452098, 36.372221951267086], [30.061866375452098, 36.37276094043756], [30.062944353793057, 36.37276094043756], [30.062944353793057, 36.37329992960803], [30.062405364622578, 36.37329992960803], [30.062405364622578, 36.3738389187785], [30.061866375452098, 36.3738389187785], [30.061866375452098, 36.374377907948976], [30.06132738628162, 36.374377907948976], [30.06132738628162, 36.375994875460385], [30.05971041877021, 36.375994875460385], [30.05971041877021, 36.37653386463086], [30.05917142959973, 36.37653386463086], [30.05917142959973, 36.37545588628991], [30.05539850540643, 36.37545588628991], [30.05539850540643, 36.37491689711944], [30.05593749457691, 36.37491689711944], [30.05593749457691, 36.3738389187785], [30.05701547291787, 36.3738389187785], [30.05701547291787, 36.37329992960803], [30.05755446208832, 36.37329992960803], [30.05755446208832, 36.3738389187785], [30.05971041877021, 36.3738389187785], [30.05971041877021, 36.37329992960803], [30.05917142959973, 36.37329992960803], [30.05917142959973, 36.37276094043756], [30.058632440429278, 36.37276094043756], [30.058632440429278, 36.372221951267086], [30.05755446208832, 36.372221951267086], [30.05755446208832, 36.371682962096614], [30.05701547291787, 36.371682962096614], [30.05701547291787, 36.37114397292614], [30.05647648374739, 36.37114397292614], [30.05647648374739, 36.372221951267086], [30.05593749457691, 36.372221951267086], [30.05593749457691, 36.371682962096614], [30.05539850540643, 36.371682962096614], [30.05539850540643, 36.372221951267086], [30.05378153789502, 36.372221951267086], [30.05378153789502, 36.3700659945852], [30.05485951623598, 36.3700659945852], [30.05485951623598, 36.37114397292614], [30.05593749457691, 36.37114397292614], [30.05593749457691, 36.37060498375567], [30.05647648374739, 36.37060498375567], [30.05647648374739, 36.3700659945852]], [[30.060249407940688, 36.374377907948976], [30.060249407940688, 36.37491689711944], [30.05971041877021, 36.37491689711944], [30.05971041877021, 36.374377907948976], [30.060249407940688, 36.374377907948976]]]}, "properties": {"area_ha": 25.450887318386677, "mean_dnbr": 0.27505646331530603, "compactness": 0.133, "rectangularity": 0.441, "cropland_frac": 0, "persistent": true}}, {"type": "Feature", "geometry": {"geodesic": false, "type": "Polygon", "coordinates": [[[30.84340067263608, 36.963493071274556], [30.84501764014749, 36.963493071274556], [30.84501764014749, 36.96403206044503], [30.84555662931797, 36.96403206044503], [30.84555662931797, 36.96618801712691], [30.84501764014749, 36.96618801712691], [30.84501764014749, 36.967265995467855], [30.84393966180656, 36.967265995467855], [30.84393966180656, 36.96780498463833], [30.8428616834656, 36.96780498463833], [30.8428616834656, 36.9683439738088], [30.84232269429515, 36.9683439738088], [30.84232269429515, 36.96888296297927], [30.84178370512467, 36.96888296297927], [30.84178370512467, 36.97049993049069], [30.84124471595419, 36.97049993049069], [30.84124471595419, 36.97265588717257], [30.84016673761326, 36.97265588717257], [30.84016673761326, 36.973733865513516], [30.8390887592723, 36.973733865513516], [30.8390887592723, 36.97427285468399], [30.83854977010185, 36.97427285468399], [30.83854977010185, 36.975889822195406], [30.83801078093137, 36.975889822195406], [30.83801078093137, 36.97642881136588], [30.83747179176089, 36.97642881136588], [30.83747179176089, 36.975889822195406], [30.835315835079, 36.975889822195406], [30.835315835079, 36.97481184385446], [30.83585482424948, 36.97481184385446], [30.83585482424948, 36.97427285468399], [30.835315835079, 36.97427285468399], [30.835315835079, 36.973733865513516], [30.83585482424948, 36.973733865513516], [30.83585482424948, 36.973194876343044], [30.835315835079, 36.973194876343044], [30.835315835079, 36.97265588717257], [30.83585482424948, 36.97265588717257], [30.83585482424948, 36.973194876343044], [30.83693280259041, 36.973194876343044], [30.83693280259041, 36.97265588717257], [30.83854977010185, 36.97265588717257], [30.83854977010185, 36.971577908831634], [30.8390887592723, 36.971577908831634], [30.8390887592723, 36.96996094132022], [30.83962774844278, 36.96996094132022], [30.83962774844278, 36.969421952149744], [30.84070572678374, 36.969421952149744], [30.84070572678374, 36.97049993049069], [30.84124471595419, 36.97049993049069], [30.84124471595419, 36.96888296297927], [30.84178370512467, 36.96888296297927], [30.84178370512467, 36.967265995467855], [30.84232269429515, 36.967265995467855], [30.84232269429515, 36.96618801712691], [30.84393966180656, 36.96618801712691], [30.84393966180656, 36.96511003878597], [30.84340067263608, 36.96511003878597], [30.84340067263608, 36.963493071274556]]]}, "properties": {"area_ha": 28.697717192575592, "mean_dnbr": 0.4862550478549954, "compactness": 0.126, "rectangularity": 0.403, "cropland_frac": 0.017, "persistent": true}}]}