{"type": "FeatureCollection", "crs": {"type": "name", "properties": {"name": "urn:ogc:def:crs:OGC:1.3:CRS84"}}, "features": [{"type": "Feature", "geometry": {"geodesic": false, "type": "Polygon", "coordinates": [[[30.46610825330589, 38.698499211023], [30.46718623164682, 38.698499211023], [30.46718623164682, 38.69903820019347], [30.46664724247637, 38.69903820019347], [30.46664724247637, 38.69957718936394], [30.46826420998778, 38.69957718936394], [30.46826420998778, 38.700116178534415], [30.4677252208173, 38.700116178534415], [30.4677252208173, 38.70065516770489], [30.46664724247637, 38.70065516770489], [30.46664724247637, 38.70173314604583], [30.46718623164682, 38.70173314604583], [30.46718623164682, 38.70119415687536], [30.46826420998778, 38.70119415687536], [30.46826420998778, 38.70335011355724], [30.46880319915823, 38.70335011355724], [30.46880319915823, 38.70281112438677], [30.46988117749919, 38.70281112438677], [30.46988117749919, 38.70065516770489], [30.47042016666967, 38.70065516770489], [30.47042016666967, 38.700116178534415], [30.47203713418108, 38.700116178534415], [30.47203713418108, 38.70065516770489], [30.4714981450106, 38.70065516770489], [30.4714981450106, 38.7022721352163], [30.47042016666967, 38.7022721352163], [30.47042016666967, 38.70281112438677], [30.46988117749919, 38.70281112438677], [30.46988117749919, 38.703889102727715], [30.47095915584012, 38.703889102727715], [30.47095915584012, 38.70496708106866], [30.46988117749919, 38.70496708106866], [30.46988117749919, 38.70550607023913], [30.46880319915823, 38.70550607023913], [30.46880319915823, 38.706045059409604], [30.47042016666967, 38.706045059409604], [30.47042016666967, 38.70712303775055], [30.46988117749919, 38.70712303775055], [30.46988117749919, 38.70927899443243], [30.4677252208173, 38.70927899443243], [30.4677252208173, 38.7098179836029], [30.46718623164682, 38.7098179836029], [30.46718623164682, 38.70927899443243], [30.46664724247637, 38.70927899443243], [30.46664724247637, 38.70874000526196], [30.46718623164682, 38.70874000526196], [30.46718623164682, 38.708201016091486], [30.46826420998778, 38.708201016091486], [30.46826420998778, 38.70766202692102], [30.4677252208173, 38.70766202692102], [30.4677252208173, 38.70712303775055], [30.46826420998778, 38.70712303775055], [30.46826420998778, 38.70766202692102], [30.46880319915823, 38.70766202692102], [30.46880319915823, 38.706045059409604], [30.46718623164682, 38.706045059409604], [30.46718623164682, 38.706584048580076], [30.46556926413541, 38.706584048580076], [30.46556926413541, 38.70712303775055], [30.46664724247637, 38.70712303775055], [30.46664724247637, 38.70766202692102], [30.46503027496493, 38.70766202692102], [30.46503027496493, 38.70712303775055], [30.46449128579448, 38.70712303775055], [30.46449128579448, 38.70766202692102], [30.463952296624, 38.70766202692102], [30.463952296624, 38.70496708106866], [30.46449128579448, 38.70496708106866], [30.46449128579448, 38.70442809189819], [30.463952296624, 38.70442809189819], [30.463952296624, 38.703889102727715], [30.46341330745352, 38.703889102727715], [30.46341330745352, 38.70335011355724], [30.463952296624, 38.70335011355724], [30.463952296624, 38.703889102727715], [30.46449128579448, 38.703889102727715], [30.46449128579448, 38.70281112438677], [30.46503027496493, 38.70281112438677], [30.46503027496493, 38.70173314604583], [30.463952296624, 38.70173314604583], [30.463952296624, 38.70281112438677], [30.462874318283042, 38.70281112438677], [30.462874318283042, 38.70335011355724], [30.46179633994211, 38.70335011355724], [30.46179633994211, 38.70173314604583], [30.462874318283042, 38.70173314604583], [30.462874318283042, 38.7022721352163], [30.46341330745352, 38.7022721352163], [30.46341330745352, 38.70173314604583], [30.463952296624, 38.70173314604583], [30.463952296624, 38.70119415687536], [30.46556926413541, 38.70119415687536], [30.46556926413541, 38.69903820019347], [30.46610825330589, 38.69903820019347], [30.46610825330589, 38.698499211023]], [[30.462874318283042, 38.7022721352163], [30.462874318283042, 38.70281112438677], [30.46233532911259, 38.70281112438677], [30.46233532911259, 38.7022721352163], [30.462874318283042, 38.7022721352163]], [[30.46503027496493, 38.706045059409604], [30.46503027496493, 38.706584048580076], [30.46449128579448, 38.706584048580076], [30.46449128579448, 38.706045059409604], [30.46503027496493, 38.706045059409604]], [[30.46664724247637, 38.70496708106866], [30.46664724247637, 38.70550607023913], [30.46610825330589, 38.70550607023913], [30.46610825330589, 38.70496708106866], [30.46664724247637, 38.70496708106866]], [[30.46826420998778, 38.70496708106866], [30.46826420998778, 38.70550607023913], [30.4677252208173, 38.70550607023913], [30.4677252208173, 38.70496708106866], [30.46826420998778, 38.70496708106866]], [[30.46664724247637, 38.700116178534415], [30.46664724247637, 38.70065516770489], [30.46610825330589, 38.70065516770489], [30.46610825330589, 38.700116178534415], [30.46664724247637, 38.700116178534415]]]}, "properties": {"area_ha": 42.88761879395888, "mean_dnbr": 0.19321631585921278, "compactness": 0.063, "rectangularity": 0.409, "cropland_frac": 0.288, "persistent": true}}]}