{"type": "FeatureCollection", "crs": {"type": "name", "properties": {"name": "urn:ogc:def:crs:OGC:1.3:CRS84"}}, "features": [{"type": "Feature", "geometry": {"geodesic": false, "type": "Polygon", "coordinates": [[[29.76919525588596, 37.815095960619864], [29.77458514759067, 37.815095960619864], [29.77458514759067, 37.817251917301746], [29.77081222339737, 37.817251917301746], [29.77081222339737, 37.81779090647222], [29.76973424505644, 37.81779090647222], [29.76973424505644, 37.81994686315411], [29.76919525588596, 37.81994686315411], [29.76919525588596, 37.82048585232458], [29.77027323422689, 37.82048585232458], [29.77027323422689, 37.81994686315411], [29.77081222339737, 37.81994686315411], [29.77081222339737, 37.82210281983599], [29.77135121256785, 37.82210281983599], [29.77135121256785, 37.821563830665525], [29.77189020173833, 37.821563830665525], [29.77189020173833, 37.82210281983599], [29.77350716924974, 37.82210281983599], [29.77350716924974, 37.821563830665525], [29.77404615842022, 37.821563830665525], [29.77404615842022, 37.82102484149505], [29.77458514759067, 37.82102484149505], [29.77458514759067, 37.82048585232458], [29.77674110427256, 37.82048585232458], [29.77674110427256, 37.821563830665525], [29.77835807178397, 37.821563830665525], [29.77835807178397, 37.82102484149505], [29.77889706095445, 37.82102484149505], [29.77889706095445, 37.821563830665525], [29.77835807178397, 37.821563830665525], [29.77835807178397, 37.82210281983599], [29.77781908261352, 37.82210281983599], [29.77781908261352, 37.82264180900646], [29.77889706095445, 37.82264180900646], [29.77889706095445, 37.82210281983599], [29.77943605012493, 37.82210281983599], [29.77943605012493, 37.821563830665525], [29.779975039295408, 37.821563830665525], [29.779975039295408, 37.82210281983599], [29.78051402846586, 37.82210281983599], [29.78051402846586, 37.823180798176935], [29.78105301763634, 37.823180798176935], [29.78105301763634, 37.82479776568835], [29.779975039295408, 37.82479776568835], [29.779975039295408, 37.825336754858824], [29.77943605012493, 37.825336754858824], [29.77943605012493, 37.8258757440293], [29.77889706095445, 37.8258757440293], [29.77889706095445, 37.82641473319977], [29.77835807178397, 37.82641473319977], [29.77835807178397, 37.827492711540714], [29.77728009344304, 37.827492711540714], [29.77728009344304, 37.82695372237024], [29.77350716924974, 37.82695372237024], [29.77350716924974, 37.827492711540714], [29.77296818007926, 37.827492711540714], [29.77296818007926, 37.82695372237024], [29.77189020173833, 37.82695372237024], [29.77189020173833, 37.82641473319977], [29.77135121256785, 37.82641473319977], [29.77135121256785, 37.8258757440293], [29.76973424505644, 37.8258757440293], [29.76973424505644, 37.825336754858824], [29.76865626671548, 37.825336754858824], [29.76865626671548, 37.82479776568835], [29.76757828837455, 37.82479776568835], [29.76757828837455, 37.82425877651788], [29.76865626671548, 37.82425877651788], [29.76865626671548, 37.82479776568835], [29.76973424505644, 37.82479776568835], [29.76973424505644, 37.82425877651788], [29.77027323422689, 37.82425877651788], [29.77027323422689, 37.82371978734741], [29.76919525588596, 37.82371978734741], [29.76919525588596, 37.823180798176935], [29.76811727754503, 37.823180798176935], [29.76811727754503, 37.82371978734741], [29.76757828837455, 37.82371978734741], [29.76757828837455, 37.823180798176935], [29.766500310033592, 37.823180798176935], [29.766500310033592, 37.82264180900646], [29.76703929920407, 37.82264180900646], [29.76703929920407, 37.821563830665525], [29.766500310033592, 37.821563830665525], [29.766500310033592, 37.82102484149505], [29.765422331692662, 37.82102484149505], [29.765422331692662, 37.821563830665525], [29.764883342522182, 37.821563830665525], [29.764883342522182, 37.82210281983599], [29.76596132086314, 37.82210281983599], [29.76596132086314, 37.82264180900646], [29.765422331692662, 37.82264180900646], [29.765422331692662, 37.823180798176935], [29.764883342522182, 37.823180798176935], [29.764883342522182, 37.82210281983599], [29.763805364181252, 37.82210281983599], [29.763805364181252, 37.821563830665525], [29.763266375010772, 37.821563830665525], [29.763266375010772, 37.82102484149505], [29.762727385840293, 37.82102484149505], [29.762727385840293, 37.81994686315411], [29.763266375010772, 37.81994686315411], [29.763266375010772, 37.819407873983636], [29.762727385840293, 37.819407873983636], [29.762727385840293, 37.81886888481316], [29.763805364181252, 37.81886888481316], [29.763805364181252, 37.81832989564269], [29.76757828837455, 37.81832989564269], [29.76757828837455, 37.81779090647222], [29.76865626671548, 37.81779090647222], [29.76865626671548, 37.817251917301746], [29.76919525588596, 37.817251917301746], [29.76919525588596, 37.815095960619864]], [[29.77081222339737, 37.82479776568835], [29.77081222339737, 37.825336754858824], [29.77027323422689, 37.825336754858824], [29.77027323422689, 37.82479776568835], [29.77081222339737, 37.82479776568835]], [[29.77889706095445, 37.82425877651788], [29.77889706095445, 37.82479776568835], [29.77835807178397, 37.82479776568835], [29.77835807178397, 37.82425877651788], [29.77889706095445, 37.82425877651788]], [[29.77081222339737, 37.823180798176935], [29.77081222339737, 37.82371978734741], [29.77027323422689, 37.82371978734741], [29.77027323422689, 37.823180798176935], [29.77081222339737, 37.823180798176935]], [[29.76811727754503, 37.82264180900646], [29.76811727754503, 37.823180798176935], [29.76757828837455, 37.823180798176935], [29.76757828837455, 37.82264180900646], [29.76811727754503, 37.82264180900646]], [[29.77027323422689, 37.82210281983599], [29.77027323422689, 37.82264180900646], [29.76973424505644, 37.82264180900646], [29.76973424505644, 37.82210281983599], [29.77027323422689, 37.82210281983599]], [[29.76919525588596, 37.81886888481316], [29.76919525588596, 37.81994686315411], [29.76811727754503, 37.81994686315411], [29.76811727754503, 37.819407873983636], [29.76865626671548, 37.819407873983636], [29.76865626671548, 37.81886888481316], [29.76919525588596, 37.81886888481316]]]}, "properties": {"area_ha": 94.20018941827551, "mean_dnbr": 0.19945653554107165, "compactness": 0.093, "rectangularity": 0.483, "cropland_frac": 0, "persistent": true}}, {"type": "Feature", "geometry": {"geodesic": false, "type": "Polygon", "coordinates": [[[29.81447034620558, 37.85174722421194], [29.81500933537606, 37.85174722421194], [29.81500933537606, 37.852286213382406], [29.81447034620558, 37.852286213382406], [29.81447034620558, 37.85282520255288], [29.813931357035102, 37.85282520255288], [29.813931357035102, 37.85390318089382], [29.81447034620558, 37.85390318089382], [29.81447034620558, 37.85336419172335], [29.81500933537606, 37.85336419172335], [29.81500933537606, 37.85282520255288], [29.81662630288747, 37.85282520255288], [29.81662630288747, 37.85336419172335], [29.81824327039888, 37.85336419172335], [29.81824327039888, 37.85390318089382], [29.81878225956936, 37.85390318089382], [29.81878225956936, 37.854442170064296], [29.81824327039888, 37.854442170064296], [29.81824327039888, 37.85552014840524], [29.81608731371699, 37.85552014840524], [29.81608731371699, 37.85605913757571], [29.81716529205795, 37.85605913757571], [29.81716529205795, 37.856598126746185], [29.8177042812284, 37.856598126746185], [29.8177042812284, 37.85875408342807], [29.81824327039888, 37.85875408342807], [29.81824327039888, 37.85767610508713], [29.81878225956936, 37.85767610508713], [29.81878225956936, 37.856598126746185], [29.81932124873984, 37.856598126746185], [29.81932124873984, 37.85713711591666], [29.82147720542173, 37.85713711591666], [29.82147720542173, 37.85767610508713], [29.82255518376266, 37.85767610508713], [29.82255518376266, 37.858215094257595], [29.82417215127407, 37.858215094257595], [29.82417215127407, 37.86360498596232], [29.82363316210359, 37.86360498596232], [29.82363316210359, 37.864143975132784], [29.82255518376266, 37.864143975132784], [29.82255518376266, 37.86360498596232], [29.82147720542173, 37.86360498596232], [29.82147720542173, 37.863065996791846], [29.82093821625125, 37.863065996791846], [29.82093821625125, 37.862527007621374], [29.82039922708077, 37.862527007621374], [29.82039922708077, 37.8619880184509], [29.81986023791029, 37.8619880184509], [29.81986023791029, 37.86144902928043], [29.81932124873984, 37.86144902928043], [29.81932124873984, 37.86091004010996], [29.81878225956936, 37.86091004010996], [29.81878225956936, 37.860371050939484], [29.81824327039888, 37.860371050939484], [29.81824327039888, 37.85983206176901], [29.8177042812284, 37.85983206176901], [29.8177042812284, 37.85875408342807], [29.81716529205795, 37.85875408342807], [29.81716529205795, 37.85983206176901], [29.81608731371699, 37.85983206176901], [29.81608731371699, 37.85929307259854], [29.81554832454654, 37.85929307259854], [29.81554832454654, 37.85875408342807], [29.81500933537606, 37.85875408342807], [29.81500933537606, 37.858215094257595], [29.813931357035102, 37.858215094257595], [29.813931357035102, 37.85767610508713], [29.81285337869417, 37.85767610508713], [29.81285337869417, 37.85713711591666], [29.811775400353213, 37.85713711591666], [29.811775400353213, 37.856598126746185], [29.81123641118276, 37.856598126746185], [29.81123641118276, 37.85605913757571], [29.808541465330393, 37.85605913757571], [29.808541465330393, 37.85498115923477], [29.809080454500872, 37.85498115923477], [29.809080454500872, 37.85390318089382], [29.810697422012282, 37.85390318089382], [29.810697422012282, 37.854442170064296], [29.812314389523692, 37.854442170064296], [29.812314389523692, 37.85498115923477], [29.813931357035102, 37.85498115923477], [29.813931357035102, 37.85552014840524], [29.81608731371699, 37.85552014840524], [29.81608731371699, 37.85498115923477], [29.81500933537606, 37.85498115923477], [29.81500933537606, 37.854442170064296], [29.813931357035102, 37.854442170064296], [29.813931357035102, 37.85390318089382], [29.811775400353213, 37.85390318089382], [29.811775400353213, 37.85336419172335], [29.812314389523692, 37.85336419172335], [29.812314389523692, 37.85282520255288], [29.81285337869417, 37.85282520255288], [29.81285337869417, 37.85174722421194], [29.813931357035102, 37.85174722421194], [29.813931357035102, 37.852286213382406], [29.81447034620558, 37.852286213382406], [29.81447034620558, 37.85174722421194]], [[29.81662630288747, 37.85390318089382], [29.81662630288747, 37.85498115923477], [29.81608731371699, 37.85498115923477], [29.81608731371699, 37.85390318089382], [29.81662630288747, 37.85390318089382]]]}, "properties": {"area_ha": 64.6603561169082, "mean_dnbr": 0.23015078753854795, "compactness": 0.108, "rectangularity": 0.507, "cropland_frac": 0, "persistent": true}}, {"type": "Feature", "geometry": {"geodesic": false, "type": "Polygon", "coordinates": [[[29.81608731371699, 37.82425877651788], [29.81662630288747, 37.82425877651788], [29.81662630288747, 37.82479776568835], [29.81824327039888, 37.82479776568835], [29.81824327039888, 37.825336754858824], [29.82039922708077, 37.825336754858824], [29.82039922708077, 37.8258757440293], [29.82417215127407, 37.8258757440293], [29.82417215127407, 37.82695372237024], [29.82525012961503, 37.82695372237024], [29.82525012961503, 37.82641473319977], [29.82578911878548, 37.82641473319977], [29.82578911878548, 37.82695372237024], [29.82632810795596, 37.82695372237024], [29.82632810795596, 37.827492711540714], [29.82525012961503, 37.827492711540714], [29.82525012961503, 37.82803170071118], [29.827406086296918, 37.82803170071118], [29.827406086296918, 37.829109679052124], [29.82686709712644, 37.829109679052124], [29.82686709712644, 37.829648668222596], [29.827406086296918, 37.829648668222596], [29.827406086296918, 37.83018765739307], [29.82578911878548, 37.83018765739307], [29.82578911878548, 37.83126563573401], [29.82632810795596, 37.83126563573401], [29.82632810795596, 37.831804624904485], [29.827406086296918, 37.831804624904485], [29.827406086296918, 37.83072664656354], [29.82794507546737, 37.83072664656354], [29.82794507546737, 37.83234361407496], [29.82848406463785, 37.83234361407496], [29.82848406463785, 37.83072664656354], [29.829023053808328, 37.83072664656354], [29.829023053808328, 37.831804624904485], [29.82956204297878, 37.831804624904485], [29.82956204297878, 37.83234361407496], [29.83010103214926, 37.83234361407496], [29.83010103214926, 37.83288260324543], [29.830640021319738, 37.83288260324543], [29.830640021319738, 37.831804624904485], [29.831179010490217, 37.831804624904485], [29.831179010490217, 37.8334215924159], [29.830640021319738, 37.8334215924159], [29.830640021319738, 37.83396058158637], [29.83010103214926, 37.83396058158637], [29.83010103214926, 37.83288260324543], [29.829023053808328, 37.83288260324543], [29.829023053808328, 37.8334215924159], [29.82794507546737, 37.8334215924159], [29.82794507546737, 37.83288260324543], [29.82525012961503, 37.83288260324543], [29.82525012961503, 37.83234361407496], [29.82471114044455, 37.83234361407496], [29.82471114044455, 37.83288260324543], [29.82417215127407, 37.83288260324543], [29.82417215127407, 37.8334215924159], [29.82525012961503, 37.8334215924159], [29.82525012961503, 37.83396058158637], [29.82632810795596, 37.83396058158637], [29.82632810795596, 37.83449957075684], [29.82794507546737, 37.83449957075684], [29.82794507546737, 37.83503855992731], [29.827406086296918, 37.83503855992731], [29.827406086296918, 37.835577549097785], [29.82956204297878, 37.835577549097785], [29.82956204297878, 37.83611653826826], [29.831179010490217, 37.83611653826826], [29.831179010490217, 37.8371945166092], [29.82956204297878, 37.8371945166092], [29.82956204297878, 37.83665552743873], [29.829023053808328, 37.83665552743873], [29.829023053808328, 37.83611653826826], [29.82632810795596, 37.83611653826826], [29.82632810795596, 37.835577549097785], [29.82417215127407, 37.835577549097785], [29.82417215127407, 37.83503855992731], [29.82363316210359, 37.83503855992731], [29.82363316210359, 37.83449957075684], [29.82309417293314, 37.83449957075684], [29.82309417293314, 37.83396058158637], [29.8177042812284, 37.83396058158637], [29.8177042812284, 37.8334215924159], [29.81500933537606, 37.8334215924159], [29.81500933537606, 37.83449957075684], [29.81554832454654, 37.83449957075684], [29.81554832454654, 37.83503855992731], [29.81447034620558, 37.83503855992731], [29.81447034620558, 37.83449957075684], [29.810697422012282, 37.83449957075684], [29.810697422012282, 37.8334215924159], [29.810158432841803, 37.8334215924159], [29.810158432841803, 37.83665552743873], [29.80961944367135, 37.83665552743873], [29.80961944367135, 37.83611653826826], [29.808002476159913, 37.83611653826826], [29.808002476159913, 37.83665552743873], [29.806924497818983, 37.83665552743873], [29.806924497818983, 37.8371945166092], [29.807463486989462, 37.8371945166092], [29.807463486989462, 37.837733505779674], [29.806924497818983, 37.837733505779674], [29.806924497818983, 37.8371945166092], [29.806385508648503, 37.8371945166092], [29.806385508648503, 37.83611653826826], [29.805307530307573, 37.83611653826826], [29.805307530307573, 37.8371945166092], [29.804229551966614, 37.8371945166092], [29.804229551966614, 37.83665552743873], [29.803151573625684, 37.83665552743873], [29.803151573625684, 37.83611653826826], [29.802073595284725, 37.83611653826826], [29.802073595284725, 37.835577549097785], [29.802612584455204, 37.835577549097785], [29.802612584455204, 37.83503855992731], [29.804229551966614, 37.83503855992731], [29.804229551966614, 37.83449957075684], [29.803151573625684, 37.83449957075684], [29.803151573625684, 37.83396058158637], [29.803690562796163, 37.83396058158637], [29.803690562796163, 37.8334215924159], [29.804229551966614, 37.8334215924159], [29.804229551966614, 37.83288260324543], [29.804768541137094, 37.83288260324543], [29.804768541137094, 37.831804624904485], [29.805307530307573, 37.831804624904485], [29.805307530307573, 37.83126563573401], [29.805846519478024, 37.83126563573401], [29.805846519478024, 37.831804624904485], [29.808002476159913, 37.831804624904485], [29.808002476159913, 37.83234361407496], [29.808541465330393, 37.83234361407496], [29.808541465330393, 37.83288260324543], [29.80961944367135, 37.83288260324543], [29.80961944367135, 37.8334215924159], [29.810158432841803, 37.8334215924159], [29.810158432841803, 37.83234361407496], [29.811775400353213, 37.83234361407496], [29.811775400353213, 37.83126563573401], [29.81123641118276, 37.83126563573401], [29.81123641118276, 37.831804624904485], [29.80961944367135, 37.831804624904485], [29.80961944367135, 37.83126563573401], [29.809080454500872, 37.83126563573401], [29.809080454500872, 37.83072664656354], [29.810158432841803, 37.83072664656354], [29.810158432841803, 37.83126563573401], [29.81123641118276, 37.83126563573401], [29.81123641118276, 37.83072664656354], [29.810697422012282, 37.83072664656354], [29.810697422012282, 37.83018765739307], [29.811775400353213, 37.83018765739307], [29.811775400353213, 37.83126563573401], [29.81608731371699, 37.83126563573401], [29.81608731371699, 37.831804624904485], [29.81716529205795, 37.831804624904485], [29.81716529205795, 37.83234361407496], [29.81878225956936, 37.83234361407496], [29.81878225956936, 37.83288260324543], [29.81932124873984, 37.83288260324543], [29.81932124873984, 37.83234361407496], [29.81986023791029, 37.83234361407496], [29.81986023791029, 37.83288260324543], [29.82147720542173, 37.83288260324543], [29.82147720542173, 37.83126563573401], [29.82093821625125, 37.83126563573401], [29.82093821625125, 37.83072664656354], [29.82039922708077, 37.83072664656354], [29.82039922708077, 37.83018765739307], [29.82093821625125, 37.83018765739307], [29.82093821625125, 37.829109679052124], [29.82147720542173, 37.829109679052124], [29.82147720542173, 37.82857068988165], [29.82093821625125, 37.82857068988165], [29.82093821625125, 37.82803170071118], [29.82147720542173, 37.82803170071118], [29.82147720542173, 37.827492711540714], [29.81824327039888, 37.827492711540714], [29.81824327039888, 37.82695372237024], [29.81716529205795, 37.82695372237024], [29.81716529205795, 37.82641473319977], [29.81608731371699, 37.82641473319977], [29.81608731371699, 37.8258757440293], [29.81554832454654, 37.8258757440293], [29.81554832454654, 37.825336754858824], [29.81608731371699, 37.825336754858824], [29.81608731371699, 37.82425877651788]], [[29.804768541137094, 37.83396058158637], [29.804768541137094, 37.83449957075684], [29.804229551966614, 37.83449957075684], [29.804229551966614, 37.83396058158637], [29.804768541137094, 37.83396058158637]], [[29.82417215127407, 37.83396058158637], [29.82417215127407, 37.83449957075684], [29.82363316210359, 37.83449957075684], [29.82363316210359, 37.83396058158637], [29.82417215127407, 37.83396058158637]]]}, "properties": {"area_ha": 116.8835341444613, "mean_dnbr": 0.1808479423139946, "compactness": 0.05, "rectangularity": 0.308, "cropland_frac": 0, "persistent": true}}, {"type": "Feature", "geometry": {"geodesic": false, "type": "Polygon", "coordinates": [[[30.13894182682955, 38.766411846502436], [30.14055879434096, 38.766411846502436], [30.14055879434096, 38.76695083567291], [30.14001980517051, 38.76695083567291], [30.14001980517051, 38.76748982484338], [30.14055879434096, 38.76748982484338], [30.14055879434096, 38.76802881401385], [30.14109778351144, 38.76802881401385], [30.14109778351144, 38.76856780318432], [30.14163677268192, 38.76856780318432], [30.14163677268192, 38.76910679235479], [30.14271475102285, 38.76910679235479], [30.14271475102285, 38.76856780318432], [30.14325374019333, 38.76856780318432], [30.14325374019333, 38.770184770695735], [30.14379272936381, 38.770184770695735], [30.14379272936381, 38.77180173820715], [30.14433171853426, 38.77180173820715], [30.14433171853426, 38.772340727377625], [30.14487070770474, 38.772340727377625], [30.14487070770474, 38.7728797165481], [30.14325374019333, 38.7728797165481], [30.14325374019333, 38.77180173820715], [30.1421757618524, 38.77180173820715], [30.1421757618524, 38.772340727377625], [30.14163677268192, 38.772340727377625], [30.14163677268192, 38.7728797165481], [30.14109778351144, 38.7728797165481], [30.14109778351144, 38.77126274903668], [30.14055879434096, 38.77126274903668], [30.14055879434096, 38.772340727377625], [30.14001980517051, 38.772340727377625], [30.14001980517051, 38.77126274903668], [30.13948081600003, 38.77126274903668], [30.13948081600003, 38.77180173820715], [30.138402837659072, 38.77180173820715], [30.138402837659072, 38.7728797165481], [30.13786384848862, 38.7728797165481], [30.13786384848862, 38.772340727377625], [30.13732485931814, 38.772340727377625], [30.13732485931814, 38.77126274903668], [30.13624688097721, 38.77126274903668], [30.13624688097721, 38.772340727377625], [30.13570789180673, 38.772340727377625], [30.13570789180673, 38.77180173820715], [30.135168902636252, 38.77180173820715], [30.135168902636252, 38.772340727377625], [30.134629913465773, 38.772340727377625], [30.134629913465773, 38.7728797165481], [30.135168902636252, 38.7728797165481], [30.135168902636252, 38.77341870571857], [30.13570789180673, 38.77341870571857], [30.13570789180673, 38.7728797165481], [30.13624688097721, 38.7728797165481], [30.13624688097721, 38.77395769488904], [30.13732485931814, 38.77395769488904], [30.13732485931814, 38.77341870571857], [30.14001980517051, 38.77341870571857], [30.14001980517051, 38.77395769488904], [30.14055879434096, 38.77395769488904], [30.14055879434096, 38.77449668405951], [30.14163677268192, 38.77449668405951], [30.14163677268192, 38.77503567322998], [30.1421757618524, 38.77503567322998], [30.1421757618524, 38.77557466240045], [30.14109778351144, 38.77557466240045], [30.14109778351144, 38.776113651570924], [30.14055879434096, 38.776113651570924], [30.14055879434096, 38.77557466240045], [30.13948081600003, 38.77557466240045], [30.13948081600003, 38.776113651570924], [30.13894182682955, 38.776113651570924], [30.13894182682955, 38.776652640741396], [30.13732485931814, 38.776652640741396], [30.13732485931814, 38.77719162991187], [30.136785870147662, 38.77719162991187], [30.136785870147662, 38.776652640741396], [30.13732485931814, 38.776652640741396], [30.13732485931814, 38.77449668405951], [30.13624688097721, 38.77449668405951], [30.13624688097721, 38.77395769488904], [30.135168902636252, 38.77395769488904], [30.135168902636252, 38.77503567322998], [30.13409092429532, 38.77503567322998], [30.13409092429532, 38.77449668405951], [30.134629913465773, 38.77449668405951], [30.134629913465773, 38.77395769488904], [30.135168902636252, 38.77395769488904], [30.135168902636252, 38.77341870571857], [30.13409092429532, 38.77341870571857], [30.13409092429532, 38.772340727377625], [30.134629913465773, 38.772340727377625], [30.134629913465773, 38.77126274903668], [30.133551935124842, 38.77126274903668], [30.133551935124842, 38.77072375986621], [30.133012945954363, 38.77072375986621], [30.133012945954363, 38.770184770695735], [30.133551935124842, 38.770184770695735], [30.133551935124842, 38.76964578152526], [30.134629913465773, 38.76964578152526], [30.134629913465773, 38.770184770695735], [30.135168902636252, 38.770184770695735], [30.135168902636252, 38.76856780318432], [30.13570789180673, 38.76856780318432], [30.13570789180673, 38.76910679235479], [30.13624688097721, 38.76910679235479], [30.13624688097721, 38.76964578152526], [30.136785870147662, 38.76964578152526], [30.136785870147662, 38.76856780318432], [30.13624688097721, 38.76856780318432], [30.13624688097721, 38.76802881401385], [30.13786384848862, 38.76802881401385], [30.13786384848862, 38.76695083567291], [30.13894182682955, 38.76695083567291], [30.13894182682955, 38.766411846502436]], [[30.13732485931814, 38.770184770695735], [30.13732485931814, 38.77072375986621], [30.136785870147662, 38.77072375986621], [30.136785870147662, 38.770184770695735], [30.13732485931814, 38.770184770695735]], [[30.1421757618524, 38.76964578152526], [30.1421757618524, 38.770184770695735], [30.14163677268192, 38.770184770695735], [30.14163677268192, 38.76964578152526], [30.1421757618524, 38.76964578152526]], [[30.14055879434096, 38.76802881401385], [30.14055879434096, 38.76856780318432], [30.14001980517051, 38.76856780318432], [30.14001980517051, 38.76802881401385], [30.14055879434096, 38.76802881401385]]]}, "properties": {"area_ha": 48.728207970492, "mean_dnbr": 0.3527797573398494, "compactness": 0.07, "rectangularity": 0.462, "cropland_frac": 0.425, "persistent": true}}, {"type": "Feature", "geometry": {"geodesic": false, "type": "Polygon", "coordinates": [[[30.307106448016725, 38.772340727377625], [30.308184426357684, 38.772340727377625], [30.308184426357684, 38.7728797165481], [30.307106448016725, 38.7728797165481], [30.307106448016725, 38.77341870571857], [30.307645437187205, 38.77341870571857], [30.307645437187205, 38.77395769488904], [30.308723415528135, 38.77395769488904], [30.308723415528135, 38.77341870571857], [30.309801393869094, 38.77341870571857], [30.309801393869094, 38.77395769488904], [30.310340383039573, 38.77395769488904], [30.310340383039573, 38.77341870571857], [30.310879372210024, 38.77341870571857], [30.310879372210024, 38.77395769488904], [30.311957350550983, 38.77395769488904], [30.311957350550983, 38.77503567322998], [30.314113307232873, 38.77503567322998], [30.314113307232873, 38.77449668405951], [30.314652296403324, 38.77449668405951], [30.314652296403324, 38.77395769488904], [30.315191285573803, 38.77395769488904], [30.315191285573803, 38.77341870571857], [30.314652296403324, 38.77341870571857], [30.314652296403324, 38.7728797165481], [30.315730274744283, 38.7728797165481], [30.315730274744283, 38.77395769488904], [30.315191285573803, 38.77395769488904], [30.315191285573803, 38.77449668405951], [30.314652296403324, 38.77449668405951], [30.314652296403324, 38.77503567322998], [30.315191285573803, 38.77503567322998], [30.315191285573803, 38.776113651570924], [30.314652296403324, 38.776113651570924], [30.314652296403324, 38.77719162991187], [30.315730274744283, 38.77719162991187], [30.315730274744283, 38.77773061908234], [30.316808253085213, 38.77773061908234], [30.316808253085213, 38.77719162991187], [30.317347242255693, 38.77719162991187], [30.317347242255693, 38.77773061908234], [30.316808253085213, 38.77773061908234], [30.316808253085213, 38.77826960825281], [30.317347242255693, 38.77826960825281], [30.317347242255693, 38.778808597423286], [30.318425220596623, 38.778808597423286], [30.318425220596623, 38.77826960825281], [30.32004218810806, 38.77826960825281], [30.32004218810806, 38.778808597423286], [30.319503198937582, 38.778808597423286], [30.319503198937582, 38.77934758659376], [30.318964209767103, 38.77934758659376], [30.318964209767103, 38.778808597423286], [30.318425220596623, 38.778808597423286], [30.318425220596623, 38.77934758659376], [30.317347242255693, 38.77934758659376], [30.317347242255693, 38.77988657576423], [30.316808253085213, 38.77988657576423], [30.316808253085213, 38.77934758659376], [30.313035328891914, 38.77934758659376], [30.313035328891914, 38.77988657576423], [30.312496339721434, 38.77988657576423], [30.312496339721434, 38.77934758659376], [30.311418361380504, 38.77934758659376], [30.311418361380504, 38.77988657576423], [30.310879372210024, 38.77988657576423], [30.310879372210024, 38.77934758659376], [30.310340383039573, 38.77934758659376], [30.310340383039573, 38.778808597423286], [30.309801393869094, 38.778808597423286], [30.309801393869094, 38.77826960825281], [30.308723415528135, 38.77826960825281], [30.308723415528135, 38.77773061908234], [30.307645437187205, 38.77773061908234], [30.307645437187205, 38.77826960825281], [30.306028469675795, 38.77826960825281], [30.306028469675795, 38.77773061908234], [30.305489480505315, 38.77773061908234], [30.305489480505315, 38.776113651570924], [30.304411502164385, 38.776113651570924], [30.304411502164385, 38.77503567322998], [30.304950491334836, 38.77503567322998], [30.304950491334836, 38.77395769488904], [30.305489480505315, 38.77395769488904], [30.305489480505315, 38.77449668405951], [30.306028469675795, 38.77449668405951], [30.306028469675795, 38.77395769488904], [30.306567458846246, 38.77395769488904], [30.306567458846246, 38.7728797165481], [30.307106448016725, 38.7728797165481], [30.307106448016725, 38.772340727377625]], [[30.316808253085213, 38.77826960825281], [30.316808253085213, 38.778808597423286], [30.315191285573803, 38.778808597423286], [30.315191285573803, 38.77826960825281], [30.316808253085213, 38.77826960825281]], [[30.314113307232873, 38.776652640741396], [30.314113307232873, 38.77719162991187], [30.313574318062393, 38.77719162991187], [30.313574318062393, 38.776652640741396], [30.314113307232873, 38.776652640741396]], [[30.312496339721434, 38.776113651570924], [30.312496339721434, 38.776652640741396], [30.311957350550983, 38.776652640741396], [30.311957350550983, 38.776113651570924], [30.312496339721434, 38.776113651570924]], [[30.305489480505315, 38.77503567322998], [30.305489480505315, 38.77557466240045], [30.304950491334836, 38.77557466240045], [30.304950491334836, 38.77503567322998], [30.305489480505315, 38.77503567322998]], [[30.314652296403324, 38.77503567322998], [30.314652296403324, 38.77557466240045], [30.314113307232873, 38.77557466240045], [30.314113307232873, 38.77503567322998], [30.314652296403324, 38.77503567322998]], [[30.306567458846246, 38.77449668405951], [30.306567458846246, 38.77503567322998], [30.306028469675795, 38.77503567322998], [30.306028469675795, 38.77449668405951], [30.306567458846246, 38.77449668405951]]]}, "properties": {"area_ha": 49.84480941165032, "mean_dnbr": 0.28607999339826257, "compactness": 0.096, "rectangularity": 0.441, "cropland_frac": 0.425, "persistent": true}}]}