{"type": "FeatureCollection", "crs": {"type": "name", "properties": {"name": "urn:ogc:def:crs:OGC:1.3:CRS84"}}, "features": [{"type": "Feature", "geometry": {"geodesic": false, "type": "Polygon", "coordinates": [[[30.37016818096191, 37.17747177195182], [30.37178514847332, 37.17747177195182], [30.37178514847332, 37.17962772863371], [30.37016818096191, 37.17962772863371], [30.37016818096191, 37.180166717804184], [30.37178514847332, 37.180166717804184], [30.37178514847332, 37.180705706974656], [30.37070717013239, 37.180705706974656], [30.37070717013239, 37.18124469614513], [30.37016818096191, 37.18124469614513], [30.37016818096191, 37.1817836853156], [30.368551213450502, 37.1817836853156], [30.368551213450502, 37.18232267448607], [30.368012224280022, 37.18232267448607], [30.368012224280022, 37.1817836853156], [30.368551213450502, 37.1817836853156], [30.368551213450502, 37.18124469614513], [30.36909020262098, 37.18124469614513], [30.36909020262098, 37.180705706974656], [30.37016818096191, 37.180705706974656], [30.37016818096191, 37.180166717804184], [30.368551213450502, 37.180166717804184], [30.368551213450502, 37.180705706974656], [30.366395256768612, 37.180705706974656], [30.366395256768612, 37.18232267448607], [30.366934245939092, 37.18232267448607], [30.366934245939092, 37.18340065282701], [30.36747323510957, 37.18340065282701], [30.36747323510957, 37.184478631167956], [30.36909020262098, 37.184478631167956], [30.36909020262098, 37.18501762033843], [30.368551213450502, 37.18501762033843], [30.368551213450502, 37.1855566095089], [30.365317278427682, 37.1855566095089], [30.365317278427682, 37.18501762033843], [30.364778289257202, 37.18501762033843], [30.364778289257202, 37.184478631167956], [30.365317278427682, 37.184478631167956], [30.365317278427682, 37.18393964199748], [30.366395256768612, 37.18393964199748], [30.366395256768612, 37.18340065282701], [30.365317278427682, 37.18340065282701], [30.365317278427682, 37.18286166365654], [30.364778289257202, 37.18286166365654], [30.364778289257202, 37.1817836853156], [30.365317278427682, 37.1817836853156], [30.365317278427682, 37.18232267448607], [30.365856267598133, 37.18232267448607], [30.365856267598133, 37.17962772863371], [30.366395256768612, 37.17962772863371], [30.366395256768612, 37.17908873946324], [30.368551213450502, 37.17908873946324], [30.368551213450502, 37.17854975029277], [30.366395256768612, 37.17854975029277], [30.366395256768612, 37.17747177195182], [30.366934245939092, 37.17747177195182], [30.366934245939092, 37.178010761122295], [30.36909020262098, 37.178010761122295], [30.36909020262098, 37.17747177195182], [30.36962919179146, 37.17747177195182], [30.36962919179146, 37.178010761122295], [30.37016818096191, 37.178010761122295], [30.37016818096191, 37.17747177195182]], [[30.37124615930287, 37.17854975029277], [30.37124615930287, 37.17908873946324], [30.36962919179146, 37.17908873946324], [30.36962919179146, 37.17854975029277], [30.37124615930287, 37.17854975029277]]]}, "properties": {"area_ha": 23.466904453908242, "mean_dnbr": 0.20871284709151713, "compactness": 0.079, "rectangularity": 0.421, "cropland_frac": 0.391, "persistent": true}}]}