{"type": "FeatureCollection", "crs": {"type": "name", "properties": {"name": "urn:ogc:def:crs:OGC:1.3:CRS84"}}, "features": [{"type": "Feature", "geometry": {"geodesic": false, "type": "Polygon", "coordinates": [[[30.494674679340875, 38.95883098036084], [30.495213668511354, 38.95883098036084], [30.495213668511354, 38.960447947872254], [30.495752657681834, 38.960447947872254], [30.495752657681834, 38.96152592621319], [30.496291646852313, 38.96152592621319], [30.496291646852313, 38.962064915383664], [30.495752657681834, 38.962064915383664], [30.495752657681834, 38.96314289372461], [30.495213668511354, 38.96314289372461], [30.495213668511354, 38.96368188289508], [30.494135690170424, 38.96368188289508], [30.494135690170424, 38.9652988504065], [30.494674679340875, 38.9652988504065], [30.494674679340875, 38.96583783957697], [30.493596700999944, 38.96583783957697], [30.493596700999944, 38.964759861236026], [30.493057711829465, 38.964759861236026], [30.493057711829465, 38.96583783957697], [30.491979733488535, 38.96583783957697], [30.491979733488535, 38.96637682874744], [30.490362765977125, 38.96637682874744], [30.490362765977125, 38.966915817917915], [30.487667820124756, 38.966915817917915], [30.487667820124756, 38.96745480708838], [30.486050852613346, 38.96745480708838], [30.486050852613346, 38.96637682874744], [30.486589841783797, 38.96637682874744], [30.486589841783797, 38.9652988504065], [30.486050852613346, 38.9652988504065], [30.486050852613346, 38.96422087206555], [30.486589841783797, 38.96422087206555], [30.486589841783797, 38.96314289372461], [30.487128830954276, 38.96314289372461], [30.487128830954276, 38.962603904554136], [30.487667820124756, 38.962603904554136], [30.487667820124756, 38.96314289372461], [30.488206809295235, 38.96314289372461], [30.488206809295235, 38.962603904554136], [30.489284787636166, 38.962603904554136], [30.489284787636166, 38.96314289372461], [30.489823776806645, 38.96314289372461], [30.489823776806645, 38.962603904554136], [30.490362765977125, 38.962603904554136], [30.490362765977125, 38.96314289372461], [30.489823776806645, 38.96314289372461], [30.489823776806645, 38.96368188289508], [30.490901755147576, 38.96368188289508], [30.490901755147576, 38.962603904554136], [30.491440744318055, 38.962603904554136], [30.491440744318055, 38.96314289372461], [30.491979733488535, 38.96314289372461], [30.491979733488535, 38.96152592621319], [30.492518722658986, 38.96152592621319], [30.492518722658986, 38.960447947872254], [30.491979733488535, 38.960447947872254], [30.491979733488535, 38.960986937042726], [30.491440744318055, 38.960986937042726], [30.491440744318055, 38.96152592621319], [30.490901755147576, 38.96152592621319], [30.490901755147576, 38.960986937042726], [30.491440744318055, 38.960986937042726], [30.491440744318055, 38.960447947872254], [30.491979733488535, 38.960447947872254], [30.491979733488535, 38.95990895870178], [30.492518722658986, 38.95990895870178], [30.492518722658986, 38.960447947872254], [30.493057711829465, 38.960447947872254], [30.493057711829465, 38.95990895870178], [30.493596700999944, 38.95990895870178], [30.493596700999944, 38.95936996953131], [30.494674679340875, 38.95936996953131], [30.494674679340875, 38.95883098036084]], [[30.491440744318055, 38.9652988504065], [30.491440744318055, 38.96583783957697], [30.490901755147576, 38.96583783957697], [30.490901755147576, 38.9652988504065], [30.491440744318055, 38.9652988504065]], [[30.489284787636166, 38.96422087206555], [30.489284787636166, 38.964759861236026], [30.488745798465686, 38.964759861236026], [30.488745798465686, 38.96422087206555], [30.489284787636166, 38.96422087206555]], [[30.492518722658986, 38.96422087206555], [30.492518722658986, 38.9652988504065], [30.491979733488535, 38.9652988504065], [30.491979733488535, 38.964759861236026], [30.491440744318055, 38.964759861236026], [30.491440744318055, 38.96422087206555], [30.492518722658986, 38.96422087206555]], [[30.489823776806645, 38.96368188289508], [30.489823776806645, 38.96422087206555], [30.489284787636166, 38.96422087206555], [30.489284787636166, 38.96368188289508], [30.489823776806645, 38.96368188289508]], [[30.487667820124756, 38.96314289372461], [30.487667820124756, 38.96368188289508], [30.488206809295235, 38.96368188289508], [30.488206809295235, 38.964759861236026], [30.487128830954276, 38.964759861236026], [30.487128830954276, 38.96314289372461], [30.487667820124756, 38.96314289372461]]]}, "properties": {"area_ha": 36.587083897863074, "mean_dnbr": 0.2314333865118202, "compactness": 0.092, "rectangularity": 0.471, "cropland_frac": 0.24, "persistent": true}}]}