{"type": "FeatureCollection", "crs": {"type": "name", "properties": {"name": "urn:ogc:def:crs:OGC:1.3:CRS84"}}, "features": [{"type": "Feature", "geometry": {"geodesic": false, "type": "Polygon", "coordinates": [[[30.32704904732418, 38.776113651570924], [30.32758803649466, 38.776113651570924], [30.32758803649466, 38.776652640741396], [30.32812702566514, 38.776652640741396], [30.32812702566514, 38.77719162991187], [30.32866601483559, 38.77719162991187], [30.32866601483559, 38.77773061908234], [30.32974399317655, 38.77773061908234], [30.32974399317655, 38.778808597423286], [30.33082197151748, 38.778808597423286], [30.33082197151748, 38.77988657576423], [30.33189994985844, 38.77988657576423], [30.33189994985844, 38.780425564934696], [30.33297792819937, 38.780425564934696], [30.33297792819937, 38.77988657576423], [30.33405590654033, 38.77988657576423], [30.33405590654033, 38.77934758659376], [30.33351691736985, 38.77934758659376], [30.33351691736985, 38.778808597423286], [30.33405590654033, 38.778808597423286], [30.33405590654033, 38.77934758659376], [30.33459489571078, 38.77934758659376], [30.33459489571078, 38.780425564934696], [30.33297792819937, 38.780425564934696], [30.33297792819937, 38.78096455410517], [30.33405590654033, 38.78096455410517], [30.33405590654033, 38.782581521616585], [30.33351691736985, 38.782581521616585], [30.33351691736985, 38.784198489128], [30.33297792819937, 38.784198489128], [30.33297792819937, 38.78527646746895], [30.33082197151748, 38.78527646746895], [30.33082197151748, 38.78581545663942], [30.330282982347, 38.78581545663942], [30.330282982347, 38.78527646746895], [30.33082197151748, 38.78527646746895], [30.33082197151748, 38.784198489128], [30.32974399317655, 38.784198489128], [30.32974399317655, 38.78312051078706], [30.32920500400607, 38.78312051078706], [30.32920500400607, 38.78204253244611], [30.32866601483559, 38.78204253244611], [30.32866601483559, 38.78150354327564], [30.32920500400607, 38.78150354327564], [30.32920500400607, 38.780425564934696], [30.32866601483559, 38.780425564934696], [30.32866601483559, 38.778808597423286], [30.32812702566514, 38.778808597423286], [30.32812702566514, 38.77773061908234], [30.32758803649466, 38.77773061908234], [30.32758803649466, 38.776652640741396], [30.32704904732418, 38.776652640741396], [30.32704904732418, 38.776113651570924]], [[30.33136096068796, 38.78204253244611], [30.33136096068796, 38.782581521616585], [30.33189994985844, 38.782581521616585], [30.33189994985844, 38.78365949995753], [30.33297792819937, 38.78365949995753], [30.33297792819937, 38.784198489128], [30.33243893902889, 38.784198489128], [30.33243893902889, 38.784737478298474], [30.33136096068796, 38.784737478298474], [30.33136096068796, 38.78312051078706], [30.33082197151748, 38.78312051078706], [30.33082197151748, 38.78204253244611], [30.33136096068796, 38.78204253244611]], [[30.33082197151748, 38.78096455410517], [30.33082197151748, 38.78150354327564], [30.32974399317655, 38.78150354327564], [30.32974399317655, 38.78096455410517], [30.33082197151748, 38.78096455410517]]]}, "properties": {"area_ha": 23.52069163024352, "mean_dnbr": 0.1866862865229571, "compactness": 0.095, "rectangularity": 0.368, "cropland_frac": 0.121, "persistent": true}}, {"type": "Feature", "geometry": {"geodesic": false, "type": "Polygon", "coordinates": [[[30.410053379576823, 38.84618224373225], [30.410592368747302, 38.84618224373225], [30.410592368747302, 38.84726022207319], [30.41113135791778, 38.84726022207319], [30.41113135791778, 38.846721232902716], [30.41328731459967, 38.846721232902716], [30.41328731459967, 38.84726022207319], [30.413826303770122, 38.84726022207319], [30.413826303770122, 38.84779921124366], [30.41490428211108, 38.84779921124366], [30.41490428211108, 38.84833820041413], [30.41759922796342, 38.84833820041413], [30.41759922796342, 38.84779921124366], [30.4181382171339, 38.84779921124366], [30.4181382171339, 38.84833820041413], [30.41867720630438, 38.84833820041413], [30.41867720630438, 38.848877189584606], [30.41759922796342, 38.848877189584606], [30.41759922796342, 38.84941617875508], [30.41652124962249, 38.84941617875508], [30.41652124962249, 38.851033146266495], [30.41598226045201, 38.851033146266495], [30.41598226045201, 38.85211112460744], [30.415443271281532, 38.85211112460744], [30.415443271281532, 38.85372809211885], [30.41490428211108, 38.85372809211885], [30.41490428211108, 38.85426708128932], [30.413826303770122, 38.85426708128932], [30.413826303770122, 38.85318910294838], [30.412209336258712, 38.85318910294838], [30.412209336258712, 38.85372809211885], [30.41113135791778, 38.85372809211885], [30.41113135791778, 38.85211112460744], [30.409514390406343, 38.85211112460744], [30.409514390406343, 38.85157213543697], [30.407897422894933, 38.85157213543697], [30.407897422894933, 38.851033146266495], [30.407358433724482, 38.851033146266495], [30.407358433724482, 38.85157213543697], [30.406280455383524, 38.85157213543697], [30.406280455383524, 38.851033146266495], [30.405741466213044, 38.851033146266495], [30.405741466213044, 38.85049415709602], [30.406280455383524, 38.85049415709602], [30.406280455383524, 38.84941617875508], [30.407358433724482, 38.84941617875508], [30.407358433724482, 38.848877189584606], [30.407897422894933, 38.848877189584606], [30.407897422894933, 38.84833820041413], [30.408436412065413, 38.84833820041413], [30.408436412065413, 38.848877189584606], [30.410053379576823, 38.848877189584606], [30.410053379576823, 38.84779921124366], [30.410592368747302, 38.84779921124366], [30.410592368747302, 38.84726022207319], [30.408975401235892, 38.84726022207319], [30.408975401235892, 38.846721232902716], [30.410053379576823, 38.846721232902716], [30.410053379576823, 38.84618224373225]], [[30.41490428211108, 38.84941617875508], [30.41490428211108, 38.84995516792555], [30.4143652929406, 38.84995516792555], [30.4143652929406, 38.84941617875508], [30.41490428211108, 38.84941617875508]], [[30.41598226045201, 38.84941617875508], [30.41598226045201, 38.84995516792555], [30.415443271281532, 38.84995516792555], [30.415443271281532, 38.84941617875508], [30.41598226045201, 38.84941617875508]]]}, "properties": {"area_ha": 46.995906616478564, "mean_dnbr": 0.3336699795593381, "compactness": 0.207, "rectangularity": 0.587, "cropland_frac": 0.071, "persistent": true}}, {"type": "Feature", "geometry": {"geodesic": false, "type": "Polygon", "coordinates": [[[30.46880319915823, 39.17712159440188], [30.46934218832871, 39.17712159440188], [30.46934218832871, 39.17604361606094], [30.46880319915823, 39.17604361606094], [30.46880319915823, 39.175504626890465], [30.46826420998778, 39.175504626890465], [30.46826420998778, 39.17442664854952], [30.46880319915823, 39.17442664854952], [30.46880319915823, 39.17388765937905], [30.46934218832871, 39.17388765937905], [30.46934218832871, 39.173348670208576], [30.47042016666967, 39.173348670208576], [30.47042016666967, 39.17227069186764], [30.47203713418108, 39.17227069186764], [30.47203713418108, 39.1728096810381], [30.47257612335156, 39.1728096810381], [30.47257612335156, 39.17227069186764], [30.47419309086297, 39.17227069186764], [30.47419309086297, 39.17119271352669], [30.4752710692039, 39.17119271352669], [30.4752710692039, 39.171731702697166], [30.478505004226747, 39.171731702697166], [30.478505004226747, 39.17227069186764], [30.479043993397198, 39.17227069186764], [30.479043993397198, 39.1728096810381], [30.478505004226747, 39.1728096810381], [30.478505004226747, 39.17388765937905], [30.479043993397198, 39.17388765937905], [30.479043993397198, 39.17442664854952], [30.480121971738157, 39.17442664854952], [30.480121971738157, 39.1728096810381], [30.480660960908608, 39.1728096810381], [30.480660960908608, 39.171731702697166], [30.481199950079088, 39.171731702697166], [30.481199950079088, 39.17119271352669], [30.480660960908608, 39.17119271352669], [30.480660960908608, 39.17065372435622], [30.483355906760977, 39.17065372435622], [30.483355906760977, 39.171731702697166], [30.483894895931456, 39.171731702697166], [30.483894895931456, 39.1728096810381], [30.481738939249567, 39.1728096810381], [30.481738939249567, 39.171731702697166], [30.481199950079088, 39.171731702697166], [30.481199950079088, 39.1728096810381], [30.480660960908608, 39.1728096810381], [30.480660960908608, 39.173348670208576], [30.481199950079088, 39.173348670208576], [30.481199950079088, 39.17388765937905], [30.483894895931456, 39.17388765937905], [30.483894895931456, 39.17442664854952], [30.484972874272387, 39.17442664854952], [30.484972874272387, 39.173348670208576], [30.484433885101936, 39.173348670208576], [30.484433885101936, 39.1728096810381], [30.484972874272387, 39.1728096810381], [30.484972874272387, 39.17065372435622], [30.484433885101936, 39.17065372435622], [30.484433885101936, 39.169036756844804], [30.486050852613346, 39.169036756844804], [30.486050852613346, 39.16849776767433], [30.486589841783797, 39.16849776767433], [30.486589841783797, 39.16795877850386], [30.487128830954276, 39.16795877850386], [30.487128830954276, 39.16741978933339], [30.486589841783797, 39.16741978933339], [30.486589841783797, 39.16634181099244], [30.487128830954276, 39.16634181099244], [30.487128830954276, 39.16580282182198], [30.488206809295235, 39.16580282182198], [30.488206809295235, 39.16472484348103], [30.489284787636166, 39.16472484348103], [30.489284787636166, 39.16364686514009], [30.490362765977125, 39.16364686514009], [30.490362765977125, 39.163107875969615], [30.491440744318055, 39.163107875969615], [30.491440744318055, 39.16364686514009], [30.492518722658986, 39.16364686514009], [30.492518722658986, 39.16418585431056], [30.493596700999944, 39.16418585431056], [30.493596700999944, 39.16472484348103], [30.494135690170424, 39.16472484348103], [30.494135690170424, 39.165263832651505], [30.495752657681834, 39.165263832651505], [30.495752657681834, 39.16472484348103], [30.496830636022764, 39.16472484348103], [30.496830636022764, 39.165263832651505], [30.499525581875133, 39.165263832651505], [30.499525581875133, 39.16580282182198], [30.500064571045613, 39.16580282182198], [30.500064571045613, 39.165263832651505], [30.501142549386543, 39.165263832651505], [30.501142549386543, 39.16634181099244], [30.500064571045613, 39.16634181099244], [30.500064571045613, 39.166880800162915], [30.498986592704654, 39.166880800162915], [30.498986592704654, 39.16741978933339], [30.498447603534174, 39.16741978933339], [30.498447603534174, 39.16795877850386], [30.498986592704654, 39.16795877850386], [30.498986592704654, 39.16849776767433], [30.499525581875133, 39.16849776767433], [30.499525581875133, 39.169036756844804], [30.501142549386543, 39.169036756844804], [30.501142549386543, 39.16795877850386], [30.501681538557023, 39.16795877850386], [30.501681538557023, 39.169036756844804], [30.501142549386543, 39.169036756844804], [30.501142549386543, 39.17011473518575], [30.500603560216064, 39.17011473518575], [30.500603560216064, 39.17119271352669], [30.503837495238912, 39.17119271352669], [30.503837495238912, 39.17011473518575], [30.507071430261732, 39.17011473518575], [30.507071430261732, 39.171731702697166], [30.50761041943221, 39.171731702697166], [30.50761041943221, 39.17227069186764], [30.50814940860269, 39.17227069186764], [30.50814940860269, 39.17442664854952], [30.50761041943221, 39.17442664854952], [30.50761041943221, 39.17496563771999], [30.50814940860269, 39.17496563771999], [30.50814940860269, 39.17604361606094], [30.50922738694362, 39.17604361606094], [30.50922738694362, 39.17658260523141], [30.5097663761141, 39.17658260523141], [30.5097663761141, 39.17712159440188], [30.51030536528458, 39.17712159440188], [30.51030536528458, 39.177660583572354], [30.5097663761141, 39.177660583572354], [30.5097663761141, 39.17873856191329], [30.51030536528458, 39.17873856191329], [30.51030536528458, 39.181433507765654], [30.508688397773142, 39.181433507765654], [30.508688397773142, 39.179277551083764], [30.5097663761141, 39.179277551083764], [30.5097663761141, 39.17873856191329], [30.508688397773142, 39.17873856191329], [30.508688397773142, 39.17819957274283], [30.50814940860269, 39.17819957274283], [30.50814940860269, 39.177660583572354], [30.505454462750322, 39.177660583572354], [30.505454462750322, 39.17819957274283], [30.503837495238912, 39.17819957274283], [30.503837495238912, 39.177660583572354], [30.499525581875133, 39.177660583572354], [30.499525581875133, 39.17819957274283], [30.498447603534174, 39.17819957274283], [30.498447603534174, 39.179277551083764], [30.499525581875133, 39.179277551083764], [30.499525581875133, 39.17981654025424], [30.500064571045613, 39.17981654025424], [30.500064571045613, 39.18035552942471], [30.500603560216064, 39.18035552942471], [30.500603560216064, 39.18089451859518], [30.499525581875133, 39.18089451859518], [30.499525581875133, 39.18035552942471], [30.497908614363723, 39.18035552942471], [30.497908614363723, 39.17981654025424], [30.497369625193244, 39.17981654025424], [30.497369625193244, 39.179277551083764], [30.497908614363723, 39.179277551083764], [30.497908614363723, 39.17819957274283], [30.497369625193244, 39.17819957274283], [30.497369625193244, 39.177660583572354], [30.496830636022764, 39.177660583572354], [30.496830636022764, 39.17604361606094], [30.496291646852313, 39.17604361606094], [30.496291646852313, 39.17712159440188], [30.495752657681834, 39.17712159440188], [30.495752657681834, 39.177660583572354], [30.496291646852313, 39.177660583572354], [30.496291646852313, 39.17981654025424], [30.495752657681834, 39.17981654025424], [30.495752657681834, 39.18089451859518], [30.495213668511354, 39.18089451859518], [30.495213668511354, 39.181433507765654], [30.494674679340875, 39.181433507765654], [30.494674679340875, 39.18035552942471], [30.495213668511354, 39.18035552942471], [30.495213668511354, 39.17819957274283], [30.494674679340875, 39.17819957274283], [30.494674679340875, 39.177660583572354], [30.494135690170424, 39.177660583572354], [30.494135690170424, 39.17712159440188], [30.493057711829465, 39.17712159440188], [30.493057711829465, 39.17658260523141], [30.492518722658986, 39.17658260523141], [30.492518722658986, 39.175504626890465], [30.491979733488535, 39.175504626890465], [30.491979733488535, 39.17496563771999], [30.491440744318055, 39.17496563771999], [30.491440744318055, 39.17442664854952], [30.487667820124756, 39.17442664854952], [30.487667820124756, 39.17496563771999], [30.482816917590497, 39.17496563771999], [30.482816917590497, 39.175504626890465], [30.482277928420046, 39.175504626890465], [30.482277928420046, 39.17658260523141], [30.481738939249567, 39.17658260523141], [30.481738939249567, 39.17712159440188], [30.477966015056268, 39.17712159440188], [30.477966015056268, 39.17819957274283], [30.47742702588579, 39.17819957274283], [30.47742702588579, 39.179277551083764], [30.47473208003342, 39.179277551083764], [30.47473208003342, 39.17873856191329], [30.47365410169249, 39.17873856191329], [30.47365410169249, 39.17819957274283], [30.47257612335156, 39.17819957274283], [30.47257612335156, 39.17873856191329], [30.4714981450106, 39.17873856191329], [30.4714981450106, 39.177660583572354], [30.47203713418108, 39.177660583572354], [30.47203713418108, 39.17712159440188], [30.4714981450106, 39.17712159440188], [30.4714981450106, 39.17658260523141], [30.47095915584012, 39.17658260523141], [30.47095915584012, 39.175504626890465], [30.47042016666967, 39.175504626890465], [30.47042016666967, 39.177660583572354], [30.46988117749919, 39.177660583572354], [30.46988117749919, 39.179277551083764], [30.47042016666967, 39.179277551083764], [30.47042016666967, 39.17981654025424], [30.46988117749919, 39.17981654025424], [30.46988117749919, 39.18035552942471], [30.46934218832871, 39.18035552942471], [30.46934218832871, 39.18089451859518], [30.46718623164682, 39.18089451859518], [30.46718623164682, 39.181433507765654], [30.46664724247637, 39.181433507765654], [30.46664724247637, 39.181972496936126], [30.46610825330589, 39.181972496936126], [30.46610825330589, 39.181433507765654], [30.46556926413541, 39.181433507765654], [30.46556926413541, 39.18089451859518], [30.46610825330589, 39.18089451859518], [30.46610825330589, 39.18035552942471], [30.46556926413541, 39.18035552942471], [30.46556926413541, 39.17981654025424], [30.46610825330589, 39.17981654025424], [30.46610825330589, 39.179277551083764], [30.46664724247637, 39.179277551083764], [30.46664724247637, 39.17873856191329], [30.46610825330589, 39.17873856191329], [30.46610825330589, 39.177660583572354], [30.46556926413541, 39.177660583572354], [30.46556926413541, 39.17712159440188], [30.46664724247637, 39.17712159440188], [30.46664724247637, 39.177660583572354], [30.46826420998778, 39.177660583572354], [30.46826420998778, 39.17819957274283], [30.46880319915823, 39.17819957274283], [30.46880319915823, 39.17712159440188]], [[30.46988117749919, 39.17496563771999], [30.46988117749919, 39.175504626890465], [30.46934218832871, 39.175504626890465], [30.46934218832871, 39.17496563771999], [30.46988117749919, 39.17496563771999]], [[30.480660960908608, 39.17496563771999], [30.480660960908608, 39.175504626890465], [30.480121971738157, 39.175504626890465], [30.480121971738157, 39.17496563771999], [30.480660960908608, 39.17496563771999]], [[30.495752657681834, 39.17496563771999], [30.495752657681834, 39.17604361606094], [30.495213668511354, 39.17604361606094], [30.495213668511354, 39.17496563771999], [30.495752657681834, 39.17496563771999]], [[30.496830636022764, 39.17496563771999], [30.496830636022764, 39.175504626890465], [30.496291646852313, 39.175504626890465], [30.496291646852313, 39.17496563771999], [30.496830636022764, 39.17496563771999]], [[30.47095915584012, 39.17442664854952], [30.47095915584012, 39.17496563771999], [30.47042016666967, 39.17496563771999], [30.47042016666967, 39.17442664854952], [30.47095915584012, 39.17442664854952]], [[30.47203713418108, 39.173348670208576], [30.47203713418108, 39.17388765937905], [30.4714981450106, 39.17388765937905], [30.4714981450106, 39.17442664854952], [30.47095915584012, 39.17442664854952], [30.47095915584012, 39.17388765937905], [30.47042016666967, 39.17388765937905], [30.47042016666967, 39.173348670208576], [30.47203713418108, 39.173348670208576]], [[30.482277928420046, 39.17119271352669], [30.482277928420046, 39.171731702697166], [30.481738939249567, 39.171731702697166], [30.481738939249567, 39.17119271352669], [30.482277928420046, 39.17119271352669]], [[30.500603560216064, 39.17119271352669], [30.500603560216064, 39.171731702697166], [30.500064571045613, 39.171731702697166], [30.500064571045613, 39.17119271352669], [30.500603560216064, 39.17119271352669]], [[30.491979733488535, 39.17065372435622], [30.491979733488535, 39.17119271352669], [30.492518722658986, 39.17119271352669], [30.492518722658986, 39.171731702697166], [30.493057711829465, 39.171731702697166], [30.493057711829465, 39.1728096810381], [30.491979733488535, 39.1728096810381], [30.491979733488535, 39.17227069186764], [30.491440744318055, 39.17227069186764], [30.491440744318055, 39.17119271352669], [30.490901755147576, 39.17119271352669], [30.490901755147576, 39.17065372435622], [30.491979733488535, 39.17065372435622]], [[30.493596700999944, 39.169575746015276], [30.493596700999944, 39.17011473518575], [30.494135690170424, 39.17011473518575], [30.494135690170424, 39.17065372435622], [30.495213668511354, 39.17065372435622], [30.495213668511354, 39.17011473518575], [30.495752657681834, 39.17011473518575], [30.495752657681834, 39.17065372435622], [30.497369625193244, 39.17065372435622], [30.497369625193244, 39.17011473518575], [30.497908614363723, 39.17011473518575], [30.497908614363723, 39.17065372435622], [30.498447603534174, 39.17065372435622], [30.498447603534174, 39.17119271352669], [30.498986592704654, 39.17119271352669], [30.498986592704654, 39.17442664854952], [30.497908614363723, 39.17442664854952], [30.497908614363723, 39.17388765937905], [30.498447603534174, 39.17388765937905], [30.498447603534174, 39.173348670208576], [30.497908614363723, 39.173348670208576], [30.497908614363723, 39.1728096810381], [30.498447603534174, 39.1728096810381], [30.498447603534174, 39.17227069186764], [30.497908614363723, 39.17227069186764], [30.497908614363723, 39.171731702697166], [30.497369625193244, 39.171731702697166], [30.497369625193244, 39.17227069186764], [30.496830636022764, 39.17227069186764], [30.496830636022764, 39.1728096810381], [30.495752657681834, 39.1728096810381], [30.495752657681834, 39.17227069186764], [30.495213668511354, 39.17227069186764], [30.495213668511354, 39.173348670208576], [30.495752657681834, 39.173348670208576], [30.495752657681834, 39.17442664854952], [30.495213668511354, 39.17442664854952], [30.495213668511354, 39.17496563771999], [30.494674679340875, 39.17496563771999], [30.494674679340875, 39.1728096810381], [30.494135690170424, 39.1728096810381], [30.494135690170424, 39.17119271352669], [30.492518722658986, 39.17119271352669], [30.492518722658986, 39.17065372435622], [30.493057711829465, 39.17065372435622], [30.493057711829465, 39.17011473518575], [30.492518722658986, 39.17011473518575], [30.492518722658986, 39.169575746015276], [30.493596700999944, 39.169575746015276]], [[30.495213668511354, 39.169036756844804], [30.495213668511354, 39.169575746015276], [30.494674679340875, 39.169575746015276], [30.494674679340875, 39.169036756844804], [30.495213668511354, 39.169036756844804]], [[30.495752657681834, 39.16795877850386], [30.495752657681834, 39.169036756844804], [30.495213668511354, 39.169036756844804], [30.495213668511354, 39.16795877850386], [30.495752657681834, 39.16795877850386]], [[30.476349047544858, 39.17819957274283], [30.476349047544858, 39.17873856191329], [30.4752710692039, 39.17873856191329], [30.4752710692039, 39.17819957274283], [30.476349047544858, 39.17819957274283]], [[30.5097663761141, 39.177660583572354], [30.50922738694362, 39.177660583572354], [30.50922738694362, 39.17712159440188], [30.5097663761141, 39.17712159440188], [30.5097663761141, 39.177660583572354]]]}, "properties": {"area_ha": 294.89268564820674, "mean_dnbr": 0.48125179766675413, "compactness": 0.04, "rectangularity": 0.37, "cropland_frac": 0.061, "persistent": true}}, {"type": "Feature", "geometry": {"geodesic": false, "type": "Polygon", "coordinates": [[[30.628343993617875, 39.26551581835924], [30.629421971958806, 39.26551581835924], [30.629421971958806, 39.26605480752971], [30.629960961129285, 39.26605480752971], [30.629960961129285, 39.2682107642116], [30.629421971958806, 39.2682107642116], [30.629421971958806, 39.26928874255254], [30.628882982788355, 39.26928874255254], [30.628882982788355, 39.2682107642116], [30.627805004447396, 39.2682107642116], [30.627805004447396, 39.27090571006396], [30.627266015276916, 39.27090571006396], [30.627266015276916, 39.27144469923443], [30.627805004447396, 39.27144469923443], [30.627805004447396, 39.273061666745846], [30.628343993617875, 39.273061666745846], [30.628343993617875, 39.272522677575374], [30.629421971958806, 39.272522677575374], [30.629421971958806, 39.273061666745846], [30.628343993617875, 39.273061666745846], [30.628343993617875, 39.27360065591632], [30.627805004447396, 39.27360065591632], [30.627805004447396, 39.2757566125982], [30.627266015276916, 39.2757566125982], [30.627266015276916, 39.27629560176867], [30.626188036935986, 39.27629560176867], [30.626188036935986, 39.276834590939146], [30.625649047765506, 39.276834590939146], [30.625649047765506, 39.27791256928009], [30.623493091083617, 39.27791256928009], [30.623493091083617, 39.27737358010962], [30.621876123572207, 39.27737358010962], [30.621876123572207, 39.27791256928009], [30.620798145231277, 39.27791256928009], [30.620798145231277, 39.27737358010962], [30.619720166890318, 39.27737358010962], [30.619720166890318, 39.276834590939146], [30.620259156060797, 39.276834590939146], [30.620259156060797, 39.27521762342773], [30.617025221037977, 39.27521762342773], [30.617025221037977, 39.27467863425726], [30.616486231867498, 39.27467863425726], [30.616486231867498, 39.27521762342773], [30.61594724269702, 39.27521762342773], [30.61594724269702, 39.27467863425726], [30.61540825352654, 39.27467863425726], [30.61540825352654, 39.27413964508679], [30.61433027518561, 39.27413964508679], [30.61433027518561, 39.27467863425726], [30.61379128601513, 39.27467863425726], [30.61379128601513, 39.27521762342773], [30.61325229684465, 39.27521762342773], [30.61325229684465, 39.27467863425726], [30.6127133076742, 39.27467863425726], [30.6127133076742, 39.27413964508679], [30.61433027518561, 39.27413964508679], [30.61433027518561, 39.273061666745846], [30.614869264356088, 39.273061666745846], [30.614869264356088, 39.272522677575374], [30.61540825352654, 39.272522677575374], [30.61540825352654, 39.2719836884049], [30.61594724269702, 39.2719836884049], [30.61594724269702, 39.273061666745846], [30.616486231867498, 39.273061666745846], [30.616486231867498, 39.2719836884049], [30.617564210208428, 39.2719836884049], [30.617564210208428, 39.27144469923443], [30.617025221037977, 39.27144469923443], [30.617025221037977, 39.27090571006396], [30.616486231867498, 39.27090571006396], [30.616486231867498, 39.26928874255254], [30.617025221037977, 39.26928874255254], [30.617025221037977, 39.26982773172301], [30.617564210208428, 39.26982773172301], [30.617564210208428, 39.26928874255254], [30.618103199378908, 39.26928874255254], [30.618103199378908, 39.26874975338207], [30.619720166890318, 39.26874975338207], [30.619720166890318, 39.26928874255254], [30.619181177719838, 39.26928874255254], [30.619181177719838, 39.26982773172301], [30.618103199378908, 39.26982773172301], [30.618103199378908, 39.27090571006396], [30.618642188549387, 39.27090571006396], [30.618642188549387, 39.273061666745846], [30.619181177719838, 39.273061666745846], [30.619181177719838, 39.27413964508679], [30.620259156060797, 39.27413964508679], [30.620259156060797, 39.27521762342773], [30.621337134401728, 39.27521762342773], [30.621337134401728, 39.27467863425726], [30.622954101913166, 39.27467863425726], [30.622954101913166, 39.27413964508679], [30.623493091083617, 39.27413964508679], [30.623493091083617, 39.27467863425726], [30.624571069424576, 39.27467863425726], [30.624571069424576, 39.27360065591632], [30.626727026106465, 39.27360065591632], [30.626727026106465, 39.272522677575374], [30.626188036935986, 39.272522677575374], [30.626188036935986, 39.2719836884049], [30.626727026106465, 39.2719836884049], [30.626727026106465, 39.27144469923443], [30.626188036935986, 39.27144469923443], [30.626188036935986, 39.270366720893485], [30.626727026106465, 39.270366720893485], [30.626727026106465, 39.2682107642116], [30.627805004447396, 39.2682107642116], [30.627805004447396, 39.26713278587066], [30.628882982788355, 39.26713278587066], [30.628882982788355, 39.26605480752971], [30.628343993617875, 39.26605480752971], [30.628343993617875, 39.26551581835924]], [[30.627266015276916, 39.27521762342773], [30.627266015276916, 39.2757566125982], [30.626727026106465, 39.2757566125982], [30.626727026106465, 39.27521762342773], [30.627266015276916, 39.27521762342773]], [[30.61540825352654, 39.273061666745846], [30.61540825352654, 39.27360065591632], [30.614869264356088, 39.27360065591632], [30.614869264356088, 39.273061666745846], [30.61540825352654, 39.273061666745846]], [[30.618103199378908, 39.27090571006396], [30.618103199378908, 39.27144469923443], [30.617564210208428, 39.27144469923443], [30.617564210208428, 39.27090571006396], [30.618103199378908, 39.27090571006396]]]}, "properties": {"area_ha": 51.44214089993349, "mean_dnbr": 0.21624915858474225, "compactness": 0.061, "rectangularity": 0.262, "cropland_frac": 0.365, "persistent": true}}, {"type": "Feature", "geometry": {"geodesic": false, "type": "Polygon", "coordinates": [[[30.670385148914676, 39.14262628749169], [30.670924138085127, 39.14262628749169], [30.670924138085127, 39.14586022251452], [30.672002116426086, 39.14586022251452], [30.672002116426086, 39.146399211684994], [30.672541105596565, 39.146399211684994], [30.672541105596565, 39.146938200855466], [30.672002116426086, 39.146938200855466], [30.672002116426086, 39.14747719002594], [30.673080094767016, 39.14747719002594], [30.673080094767016, 39.146938200855466], [30.673619083937496, 39.146938200855466], [30.673619083937496, 39.146399211684994], [30.675236051448906, 39.146399211684994], [30.675236051448906, 39.146938200855466], [30.675775040619385, 39.146938200855466], [30.675775040619385, 39.14747719002594], [30.675236051448906, 39.14747719002594], [30.675236051448906, 39.148555168366876], [30.675775040619385, 39.148555168366876], [30.675775040619385, 39.14801617919641], [30.676853018960315, 39.14801617919641], [30.676853018960315, 39.14747719002594], [30.678469986471754, 39.14747719002594], [30.678469986471754, 39.146938200855466], [30.679547964812684, 39.146938200855466], [30.679547964812684, 39.146399211684994], [30.680086953983164, 39.146399211684994], [30.680086953983164, 39.14532123334405], [30.682781899835504, 39.14532123334405], [30.682781899835504, 39.14586022251452], [30.683320889005984, 39.14586022251452], [30.683320889005984, 39.146938200855466], [30.682242910665053, 39.146938200855466], [30.682242910665053, 39.14747719002594], [30.680625943153615, 39.14747719002594], [30.680625943153615, 39.14801617919641], [30.682242910665053, 39.14801617919641], [30.682242910665053, 39.148555168366876], [30.681703921494574, 39.148555168366876], [30.681703921494574, 39.14909415753735], [30.680625943153615, 39.14909415753735], [30.680625943153615, 39.148555168366876], [30.680086953983164, 39.148555168366876], [30.680086953983164, 39.15125011421924], [30.680625943153615, 39.15125011421924], [30.680625943153615, 39.15178910338971], [30.681164932324094, 39.15178910338971], [30.681164932324094, 39.152867081730655], [30.681703921494574, 39.152867081730655], [30.681703921494574, 39.15340607090113], [30.681164932324094, 39.15340607090113], [30.681164932324094, 39.152867081730655], [30.679008975642205, 39.152867081730655], [30.679008975642205, 39.15340607090113], [30.678469986471754, 39.15340607090113], [30.678469986471754, 39.152867081730655], [30.677930997301274, 39.152867081730655], [30.677930997301274, 39.15178910338971], [30.679008975642205, 39.15178910338971], [30.679008975642205, 39.150711125048765], [30.678469986471754, 39.150711125048765], [30.678469986471754, 39.15017213587829], [30.675775040619385, 39.15017213587829], [30.675775040619385, 39.14963314670782], [30.675236051448906, 39.14963314670782], [30.675236051448906, 39.14909415753735], [30.674158073107975, 39.14909415753735], [30.674158073107975, 39.14963314670782], [30.673080094767016, 39.14963314670782], [30.673080094767016, 39.14909415753735], [30.672002116426086, 39.14909415753735], [30.672002116426086, 39.14963314670782], [30.671463127255606, 39.14963314670782], [30.671463127255606, 39.14909415753735], [30.670385148914676, 39.14909415753735], [30.670385148914676, 39.148555168366876], [30.669846159744196, 39.148555168366876], [30.669846159744196, 39.14909415753735], [30.668768181403237, 39.14909415753735], [30.668768181403237, 39.14586022251452], [30.668229192232786, 39.14586022251452], [30.668229192232786, 39.146399211684994], [30.667690203062307, 39.146399211684994], [30.667690203062307, 39.14478224417358], [30.668768181403237, 39.14478224417358], [30.668768181403237, 39.14586022251452], [30.669307170573717, 39.14586022251452], [30.669307170573717, 39.14316527666216], [30.670385148914676, 39.14316527666216], [30.670385148914676, 39.14262628749169]], [[30.679547964812684, 39.15178910338971], [30.679547964812684, 39.15232809256018], [30.679008975642205, 39.15232809256018], [30.679008975642205, 39.15178910338971], [30.679547964812684, 39.15178910338971]], [[30.679547964812684, 39.14963314670782], [30.679547964812684, 39.15017213587829], [30.678469986471754, 39.15017213587829], [30.678469986471754, 39.14963314670782], [30.679547964812684, 39.14963314670782]], [[30.669846159744196, 39.14747719002594], [30.669846159744196, 39.148555168366876], [30.669307170573717, 39.148555168366876], [30.669307170573717, 39.14747719002594], [30.669846159744196, 39.14747719002594]]]}, "properties": {"area_ha": 48.74849656744815, "mean_dnbr": 0.1880043053917148, "compactness": 0.079, "rectangularity": 0.353, "cropland_frac": 0.466, "persistent": true}}, {"type": "Feature", "geometry": {"geodesic": false, "type": "Polygon", "coordinates": [[[30.712965293381927, 39.08172051122839], [30.713504282552407, 39.08172051122839], [30.713504282552407, 39.08279848956933], [30.714043271722886, 39.08279848956933], [30.714043271722886, 39.08495444625122], [30.713504282552407, 39.08495444625122], [30.713504282552407, 39.088188381274044], [30.711887315040997, 39.088188381274044], [30.711887315040997, 39.088727370444516], [30.712426304211448, 39.088727370444516], [30.712426304211448, 39.08926635961499], [30.711887315040997, 39.08926635961499], [30.711887315040997, 39.08980534878546], [30.711348325870517, 39.08980534878546], [30.711348325870517, 39.08926635961499], [30.70865338001815, 39.08926635961499], [30.70865338001815, 39.08980534878546], [30.709731358359107, 39.08980534878546], [30.709731358359107, 39.09196130546735], [30.70865338001815, 39.09196130546735], [30.70865338001815, 39.09142231629688], [30.70488045582485, 39.09142231629688], [30.70488045582485, 39.09196130546735], [30.70434146665437, 39.09196130546735], [30.70434146665437, 39.09250029463782], [30.70380247748392, 39.09250029463782], [30.70380247748392, 39.093039283808295], [30.70218550997251, 39.093039283808295], [30.70218550997251, 39.09196130546735], [30.70164652080203, 39.09196130546735], [30.70164652080203, 39.093039283808295], [30.70056854246107, 39.093039283808295], [30.70056854246107, 39.09573422966065], [30.69949056412014, 39.09573422966065], [30.69949056412014, 39.09627321883112], [30.69895157494966, 39.09627321883112], [30.69895157494966, 39.093039283808295], [30.69949056412014, 39.093039283808295], [30.69949056412014, 39.09250029463782], [30.70002955329062, 39.09250029463782], [30.70002955329062, 39.09196130546735], [30.69949056412014, 39.09196130546735], [30.69949056412014, 39.090883327126406], [30.70002955329062, 39.090883327126406], [30.70002955329062, 39.09142231629688], [30.70110753163155, 39.09142231629688], [30.70110753163155, 39.090883327126406], [30.70164652080203, 39.090883327126406], [30.70164652080203, 39.09034433795593], [30.70272449914296, 39.09034433795593], [30.70272449914296, 39.09250029463782], [30.70326348831344, 39.09250029463782], [30.70326348831344, 39.09196130546735], [30.70434146665437, 39.09196130546735], [30.70434146665437, 39.09142231629688], [30.70380247748392, 39.09142231629688], [30.70380247748392, 39.090883327126406], [30.70434146665437, 39.090883327126406], [30.70434146665437, 39.08980534878546], [30.70380247748392, 39.08980534878546], [30.70380247748392, 39.08926635961499], [30.70434146665437, 39.08926635961499], [30.70434146665437, 39.08980534878546], [30.70541944499533, 39.08980534878546], [30.70541944499533, 39.088727370444516], [30.705958434165808, 39.088727370444516], [30.705958434165808, 39.088188381274044], [30.70541944499533, 39.088188381274044], [30.70541944499533, 39.08711040293311], [30.70488045582485, 39.08711040293311], [30.70488045582485, 39.086571413762634], [30.70434146665437, 39.086571413762634], [30.70434146665437, 39.08603242459216], [30.70488045582485, 39.08603242459216], [30.70488045582485, 39.08495444625122], [30.70434146665437, 39.08495444625122], [30.70434146665437, 39.084415457080745], [30.70488045582485, 39.084415457080745], [30.70488045582485, 39.08495444625122], [30.70541944499533, 39.08495444625122], [30.70541944499533, 39.084415457080745], [30.705958434165808, 39.084415457080745], [30.705958434165808, 39.08495444625122], [30.70541944499533, 39.08495444625122], [30.70541944499533, 39.08549343542169], [30.70649742333626, 39.08549343542169], [30.70649742333626, 39.08495444625122], [30.70703641250674, 39.08495444625122], [30.70703641250674, 39.08549343542169], [30.707575401677218, 39.08549343542169], [30.707575401677218, 39.08495444625122], [30.709192369188628, 39.08495444625122], [30.709192369188628, 39.08549343542169], [30.709731358359107, 39.08549343542169], [30.709731358359107, 39.086571413762634], [30.71027034752956, 39.086571413762634], [30.71027034752956, 39.08495444625122], [30.710809336700038, 39.08495444625122], [30.710809336700038, 39.084415457080745], [30.71027034752956, 39.084415457080745], [30.71027034752956, 39.08387646791027], [30.711887315040997, 39.08387646791027], [30.711887315040997, 39.08495444625122], [30.712426304211448, 39.08495444625122], [30.712426304211448, 39.084415457080745], [30.713504282552407, 39.084415457080745], [30.713504282552407, 39.08279848956933], [30.712965293381927, 39.08279848956933], [30.712965293381927, 39.08172051122839]], [[30.70703641250674, 39.08926635961499], [30.70703641250674, 39.08980534878546], [30.70649742333626, 39.08980534878546], [30.70649742333626, 39.08926635961499], [30.70703641250674, 39.08926635961499]], [[30.708114390847697, 39.088727370444516], [30.708114390847697, 39.08926635961499], [30.70703641250674, 39.08926635961499], [30.70703641250674, 39.088727370444516], [30.708114390847697, 39.088727370444516]], [[30.708114390847697, 39.08603242459216], [30.708114390847697, 39.086571413762634], [30.707575401677218, 39.086571413762634], [30.707575401677218, 39.08711040293311], [30.70865338001815, 39.08711040293311], [30.70865338001815, 39.088188381274044], [30.70703641250674, 39.088188381274044], [30.70703641250674, 39.08711040293311], [30.705958434165808, 39.08711040293311], [30.705958434165808, 39.08603242459216], [30.70649742333626, 39.08603242459216], [30.70649742333626, 39.086571413762634], [30.70703641250674, 39.086571413762634], [30.70703641250674, 39.08603242459216], [30.708114390847697, 39.08603242459216]], [[30.70703641250674, 39.08549343542169], [30.70703641250674, 39.08603242459216], [30.70649742333626, 39.08603242459216], [30.70649742333626, 39.08549343542169], [30.70703641250674, 39.08549343542169]], [[30.711887315040997, 39.08549343542169], [30.711887315040997, 39.08603242459216], [30.711348325870517, 39.08603242459216], [30.711348325870517, 39.08549343542169], [30.711887315040997, 39.08549343542169]], [[30.711348325870517, 39.08495444625122], [30.711348325870517, 39.08549343542169], [30.710809336700038, 39.08549343542169], [30.710809336700038, 39.08495444625122], [30.711348325870517, 39.08495444625122]]]}, "properties": {"area_ha": 53.52899028699032, "mean_dnbr": 0.1893851758754364, "compactness": 0.05, "rectangularity": 0.297, "cropland_frac": 0.148, "persistent": true}}, {"type": "Feature", "geometry": {"geodesic": false, "type": "Polygon", "coordinates": [[[30.713504282552407, 39.28438043932575], [30.715121250063817, 39.28438043932575], [30.715121250063817, 39.284919428496224], [30.715660239234296, 39.284919428496224], [30.715660239234296, 39.285458417666696], [30.717277206745706, 39.285458417666696], [30.717277206745706, 39.28599740683717], [30.716738217575227, 39.28599740683717], [30.716738217575227, 39.28761437434858], [30.716199228404747, 39.28761437434858], [30.716199228404747, 39.287075385178106], [30.715660239234296, 39.287075385178106], [30.715660239234296, 39.28761437434858], [30.715121250063817, 39.28761437434858], [30.715121250063817, 39.289231341859995], [30.715660239234296, 39.289231341859995], [30.715660239234296, 39.28977033103047], [30.716199228404747, 39.28977033103047], [30.716199228404747, 39.29030932020094], [30.717277206745706, 39.29030932020094], [30.717277206745706, 39.29084830937141], [30.716199228404747, 39.29084830937141], [30.716199228404747, 39.291387298541885], [30.715660239234296, 39.291387298541885], [30.715660239234296, 39.29192628771236], [30.717277206745706, 39.29192628771236], [30.717277206745706, 39.29246527688283], [30.715660239234296, 39.29246527688283], [30.715660239234296, 39.29192628771236], [30.715121250063817, 39.29192628771236], [30.715121250063817, 39.29246527688283], [30.714043271722886, 39.29246527688283], [30.714043271722886, 39.29192628771236], [30.712426304211448, 39.29192628771236], [30.712426304211448, 39.29084830937141], [30.711887315040997, 39.29084830937141], [30.711887315040997, 39.28977033103047], [30.712426304211448, 39.28977033103047], [30.712426304211448, 39.289231341859995], [30.711887315040997, 39.289231341859995], [30.711887315040997, 39.28815336351905], [30.711348325870517, 39.28815336351905], [30.711348325870517, 39.28977033103047], [30.710809336700038, 39.28977033103047], [30.710809336700038, 39.289231341859995], [30.709192369188628, 39.289231341859995], [30.709192369188628, 39.28815336351905], [30.709731358359107, 39.28815336351905], [30.709731358359107, 39.28761437434858], [30.71027034752956, 39.28761437434858], [30.71027034752956, 39.28599740683717], [30.711348325870517, 39.28599740683717], [30.711348325870517, 39.285458417666696], [30.712426304211448, 39.285458417666696], [30.712426304211448, 39.28599740683717], [30.712965293381927, 39.28599740683717], [30.712965293381927, 39.285458417666696], [30.713504282552407, 39.285458417666696], [30.713504282552407, 39.28438043932575]], [[30.711348325870517, 39.287075385178106], [30.711348325870517, 39.28761437434858], [30.710809336700038, 39.28761437434858], [30.710809336700038, 39.287075385178106], [30.711348325870517, 39.287075385178106]], [[30.712426304211448, 39.287075385178106], [30.712426304211448, 39.28761437434858], [30.711887315040997, 39.28761437434858], [30.711887315040997, 39.287075385178106], [30.712426304211448, 39.287075385178106]]]}, "properties": {"area_ha": 34.19476016976416, "mean_dnbr": 0.18425050112003089, "compactness": 0.167, "rectangularity": 0.547, "cropland_frac": 0.452, "persistent": true}}, {"type": "Feature", "geometry": {"geodesic": false, "type": "Polygon", "coordinates": [[[30.74638262195117, 39.04776419348867], [30.74692161112165, 39.04776419348867], [30.74692161112165, 39.04830318265914], [30.74746060029213, 39.04830318265914], [30.74746060029213, 39.04884217182961], [30.74799958946258, 39.04884217182961], [30.74799958946258, 39.049381161000085], [30.74907756780354, 39.049381161000085], [30.74907756780354, 39.04992015017056], [30.74853857863306, 39.04992015017056], [30.74853857863306, 39.05045913934103], [30.74961655697402, 39.05045913934103], [30.74961655697402, 39.0509981285115], [30.74907756780354, 39.0509981285115], [30.74907756780354, 39.051537117681974], [30.75177251365588, 39.051537117681974], [30.75177251365588, 39.0509981285115], [30.75123352448543, 39.0509981285115], [30.75123352448543, 39.05045913934103], [30.753389481167318, 39.05045913934103], [30.753389481167318, 39.051537117681974], [30.75392847033777, 39.051537117681974], [30.75392847033777, 39.05207610685244], [30.753389481167318, 39.05207610685244], [30.753389481167318, 39.05261509602291], [30.75123352448543, 39.05261509602291], [30.75123352448543, 39.053154085193384], [30.75069453531495, 39.053154085193384], [30.75069453531495, 39.053693074363856], [30.75015554614447, 39.053693074363856], [30.75015554614447, 39.05261509602291], [30.74746060029213, 39.05261509602291], [30.74746060029213, 39.053154085193384], [30.74584363278069, 39.053154085193384], [30.74584363278069, 39.05261509602291], [30.74638262195117, 39.05261509602291], [30.74638262195117, 39.05207610685244], [30.74584363278069, 39.05207610685244], [30.74584363278069, 39.0509981285115], [30.74476565443976, 39.0509981285115], [30.74476565443976, 39.051537117681974], [30.74422666526928, 39.051537117681974], [30.74422666526928, 39.04992015017056], [30.74476565443976, 39.04992015017056], [30.74476565443976, 39.04884217182961], [30.74530464361024, 39.04884217182961], [30.74530464361024, 39.04776419348867], [30.74584363278069, 39.04776419348867], [30.74584363278069, 39.04830318265914], [30.74638262195117, 39.04830318265914], [30.74638262195117, 39.04776419348867]], [[30.74799958946258, 39.051537117681974], [30.74799958946258, 39.05207610685244], [30.74746060029213, 39.05207610685244], [30.74746060029213, 39.051537117681974], [30.74799958946258, 39.051537117681974]], [[30.753389481167318, 39.051537117681974], [30.753389481167318, 39.05207610685244], [30.75285049199684, 39.05207610685244], [30.75285049199684, 39.051537117681974], [30.753389481167318, 39.051537117681974]], [[30.74853857863306, 39.0509981285115], [30.74853857863306, 39.051537117681974], [30.74799958946258, 39.051537117681974], [30.74799958946258, 39.0509981285115], [30.74853857863306, 39.0509981285115]], [[30.74799958946258, 39.05045913934103], [30.74799958946258, 39.0509981285115], [30.74746060029213, 39.0509981285115], [30.74746060029213, 39.05045913934103], [30.74799958946258, 39.05045913934103]]]}, "properties": {"area_ha": 22.87360284002947, "mean_dnbr": 0.16834853714881526, "compactness": 0.124, "rectangularity": 0.453, "cropland_frac": 0, "persistent": true}}, {"type": "Feature", "geometry": {"geodesic": false, "type": "Polygon", "coordinates": [[[30.75608442701966, 39.06501184694376], [30.757162405360617, 39.06501184694376], [30.757162405360617, 39.06716780362565], [30.758240383701548, 39.06716780362565], [30.758240383701548, 39.06770679279612], [30.759857351212958, 39.06770679279612], [30.759857351212958, 39.068245781966596], [30.757701394531068, 39.068245781966596], [30.757701394531068, 39.06770679279612], [30.757162405360617, 39.06770679279612], [30.757162405360617, 39.068245781966596], [30.756623416190138, 39.068245781966596], [30.756623416190138, 39.06770679279612], [30.755006448678728, 39.06770679279612], [30.755006448678728, 39.06716780362565], [30.75446745950825, 39.06716780362565], [30.75446745950825, 39.06770679279612], [30.75392847033777, 39.06770679279612], [30.75392847033777, 39.068245781966596], [30.753389481167318, 39.068245781966596], [30.753389481167318, 39.06878477113707], [30.75231150282636, 39.06878477113707], [30.75231150282636, 39.07040173864848], [30.75177251365588, 39.07040173864848], [30.75177251365588, 39.07094072781895], [30.75069453531495, 39.07094072781895], [30.75069453531495, 39.07147971698942], [30.74961655697402, 39.07147971698942], [30.74961655697402, 39.072018706159895], [30.74853857863306, 39.072018706159895], [30.74853857863306, 39.07363567367131], [30.74799958946258, 39.07363567367131], [30.74799958946258, 39.074174662841784], [30.74746060029213, 39.074174662841784], [30.74746060029213, 39.07686960869414], [30.74692161112165, 39.07686960869414], [30.74692161112165, 39.07740859786461], [30.74638262195117, 39.07740859786461], [30.74638262195117, 39.077947587035084], [30.74584363278069, 39.077947587035084], [30.74584363278069, 39.0795645545465], [30.74638262195117, 39.0795645545465], [30.74638262195117, 39.082259500398855], [30.74530464361024, 39.082259500398855], [30.74530464361024, 39.08279848956933], [30.74584363278069, 39.08279848956933], [30.74584363278069, 39.0833374787398], [30.74530464361024, 39.0833374787398], [30.74530464361024, 39.08387646791027], [30.74476565443976, 39.08387646791027], [30.74476565443976, 39.08603242459216], [30.74530464361024, 39.08603242459216], [30.74530464361024, 39.086571413762634], [30.74368767609883, 39.086571413762634], [30.74368767609883, 39.08711040293311], [30.74260969775787, 39.08711040293311], [30.74260969775787, 39.086571413762634], [30.74314868692835, 39.086571413762634], [30.74314868692835, 39.08603242459216], [30.74368767609883, 39.08603242459216], [30.74368767609883, 39.08279848956933], [30.74422666526928, 39.08279848956933], [30.74422666526928, 39.080642532887445], [30.74476565443976, 39.080642532887445], [30.74476565443976, 39.078486576205556], [30.74530464361024, 39.078486576205556], [30.74530464361024, 39.07740859786461], [30.74584363278069, 39.07740859786461], [30.74584363278069, 39.0757916303532], [30.74530464361024, 39.0757916303532], [30.74530464361024, 39.07525264118273], [30.74584363278069, 39.07525264118273], [30.74584363278069, 39.074174662841784], [30.74692161112165, 39.074174662841784], [30.74692161112165, 39.07363567367131], [30.74638262195117, 39.07363567367131], [30.74638262195117, 39.07255769533037], [30.74692161112165, 39.07255769533037], [30.74692161112165, 39.07147971698942], [30.74746060029213, 39.07147971698942], [30.74746060029213, 39.07094072781895], [30.74692161112165, 39.07094072781895], [30.74692161112165, 39.07040173864848], [30.74638262195117, 39.07040173864848], [30.74638262195117, 39.069862749478006], [30.74692161112165, 39.069862749478006], [30.74692161112165, 39.07040173864848], [30.74746060029213, 39.07040173864848], [30.74746060029213, 39.07094072781895], [30.74799958946258, 39.07094072781895], [30.74799958946258, 39.07147971698942], [30.74961655697402, 39.07147971698942], [30.74961655697402, 39.07094072781895], [30.75015554614447, 39.07094072781895], [30.75015554614447, 39.07040173864848], [30.75069453531495, 39.07040173864848], [30.75069453531495, 39.06932376030754], [30.75123352448543, 39.06932376030754], [30.75123352448543, 39.06878477113707], [30.75177251365588, 39.06878477113707], [30.75177251365588, 39.068245781966596], [30.753389481167318, 39.068245781966596], [30.753389481167318, 39.06770679279612], [30.75392847033777, 39.06770679279612], [30.75392847033777, 39.06662881445518], [30.75446745950825, 39.06662881445518], [30.75446745950825, 39.065550836114234], [30.755006448678728, 39.065550836114234], [30.755006448678728, 39.06501184694376], [30.755545437849207, 39.06501184694376], [30.755545437849207, 39.065550836114234], [30.75608442701966, 39.065550836114234], [30.75608442701966, 39.06501184694376]]]}, "properties": {"area_ha": 37.645055241068135, "mean_dnbr": 0.19292945784302679, "compactness": 0.054, "rectangularity": 0.153, "cropland_frac": 0.083, "persistent": true}}]}