{"type": "FeatureCollection", "crs": {"type": "name", "properties": {"name": "urn:ogc:def:crs:OGC:1.3:CRS84"}}, "features": [{"type": "Feature", "geometry": {"geodesic": false, "type": "Polygon", "coordinates": [[[30.318964209767103, 38.77072375986621], [30.32165915561947, 38.77072375986621], [30.32165915561947, 38.77126274903668], [30.32219814478995, 38.77126274903668], [30.32219814478995, 38.77180173820715], [30.324354101471812, 38.77180173820715], [30.324354101471812, 38.772340727377625], [30.32381511230136, 38.772340727377625], [30.32381511230136, 38.7728797165481], [30.32327612313088, 38.7728797165481], [30.32327612313088, 38.772340727377625], [30.32165915561947, 38.772340727377625], [30.32165915561947, 38.7728797165481], [30.322737133960402, 38.7728797165481], [30.322737133960402, 38.77341870571857], [30.32165915561947, 38.77341870571857], [30.32165915561947, 38.77395769488904], [30.321120166448992, 38.77395769488904], [30.321120166448992, 38.77503567322998], [30.32165915561947, 38.77503567322998], [30.32165915561947, 38.776113651570924], [30.32327612313088, 38.776113651570924], [30.32327612313088, 38.77557466240045], [30.32381511230136, 38.77557466240045], [30.32381511230136, 38.776113651570924], [30.32327612313088, 38.776113651570924], [30.32327612313088, 38.776652640741396], [30.32381511230136, 38.776652640741396], [30.32381511230136, 38.77719162991187], [30.324354101471812, 38.77719162991187], [30.324354101471812, 38.77773061908234], [30.32489309064229, 38.77773061908234], [30.32489309064229, 38.77826960825281], [30.32597106898325, 38.77826960825281], [30.32597106898325, 38.778808597423286], [30.32543207981277, 38.778808597423286], [30.32543207981277, 38.77934758659376], [30.3265100581537, 38.77934758659376], [30.3265100581537, 38.77988657576423], [30.322737133960402, 38.77988657576423], [30.322737133960402, 38.780425564934696], [30.32219814478995, 38.780425564934696], [30.32219814478995, 38.77988657576423], [30.32165915561947, 38.77988657576423], [30.32165915561947, 38.77773061908234], [30.321120166448992, 38.77773061908234], [30.321120166448992, 38.77719162991187], [30.320581177278513, 38.77719162991187], [30.320581177278513, 38.77395769488904], [30.32004218810806, 38.77395769488904], [30.32004218810806, 38.77341870571857], [30.320581177278513, 38.77341870571857], [30.320581177278513, 38.77395769488904], [30.321120166448992, 38.77395769488904], [30.321120166448992, 38.77341870571857], [30.32165915561947, 38.77341870571857], [30.32165915561947, 38.7728797165481], [30.319503198937582, 38.7728797165481], [30.319503198937582, 38.77180173820715], [30.318964209767103, 38.77180173820715], [30.318964209767103, 38.77072375986621]], [[30.322737133960402, 38.778808597423286], [30.322737133960402, 38.77988657576423], [30.32219814478995, 38.77988657576423], [30.32219814478995, 38.778808597423286], [30.322737133960402, 38.778808597423286]], [[30.32327612313088, 38.77826960825281], [30.32327612313088, 38.778808597423286], [30.322737133960402, 38.778808597423286], [30.322737133960402, 38.77826960825281], [30.32327612313088, 38.77826960825281]]]}, "properties": {"area_ha": 22.682457870736226, "mean_dnbr": 0.19647224752215753, "compactness": 0.091, "rectangularity": 0.438, "cropland_frac": 0.002, "persistent": true}}, {"type": "Feature", "geometry": {"geodesic": false, "type": "Polygon", "coordinates": [[[30.32489309064229, 38.75293711724064], [30.32543207981277, 38.75293711724064], [30.32543207981277, 38.753476106411114], [30.32489309064229, 38.753476106411114], [30.32489309064229, 38.754015095581586], [30.32543207981277, 38.754015095581586], [30.32543207981277, 38.75455408475206], [30.3265100581537, 38.75455408475206], [30.3265100581537, 38.754015095581586], [30.32758803649466, 38.754015095581586], [30.32758803649466, 38.75455408475206], [30.32704904732418, 38.75455408475206], [30.32704904732418, 38.75509307392253], [30.32812702566514, 38.75509307392253], [30.32812702566514, 38.756171052263475], [30.32920500400607, 38.756171052263475], [30.32920500400607, 38.75724903060441], [30.32812702566514, 38.75724903060441], [30.32812702566514, 38.756171052263475], [30.32704904732418, 38.756171052263475], [30.32704904732418, 38.755632063093], [30.3265100581537, 38.755632063093], [30.3265100581537, 38.75509307392253], [30.32597106898325, 38.75509307392253], [30.32597106898325, 38.755632063093], [30.32543207981277, 38.755632063093], [30.32543207981277, 38.75671004143394], [30.32704904732418, 38.75671004143394], [30.32704904732418, 38.75724903060441], [30.32597106898325, 38.75724903060441], [30.32597106898325, 38.757788019774885], [30.32543207981277, 38.757788019774885], [30.32543207981277, 38.75724903060441], [30.32381511230136, 38.75724903060441], [30.32381511230136, 38.75671004143394], [30.32165915561947, 38.75671004143394], [30.32165915561947, 38.757788019774885], [30.32219814478995, 38.757788019774885], [30.32219814478995, 38.75886599811583], [30.315730274744283, 38.75886599811583], [30.315730274744283, 38.75832700894536], [30.318425220596623, 38.75832700894536], [30.318425220596623, 38.757788019774885], [30.318964209767103, 38.757788019774885], [30.318964209767103, 38.75724903060441], [30.32004218810806, 38.75724903060441], [30.32004218810806, 38.757788019774885], [30.320581177278513, 38.757788019774885], [30.320581177278513, 38.75671004143394], [30.321120166448992, 38.75671004143394], [30.321120166448992, 38.756171052263475], [30.32165915561947, 38.756171052263475], [30.32165915561947, 38.755632063093], [30.32004218810806, 38.755632063093], [30.32004218810806, 38.754015095581586], [30.32165915561947, 38.754015095581586], [30.32165915561947, 38.75455408475206], [30.322737133960402, 38.75455408475206], [30.322737133960402, 38.754015095581586], [30.32327612313088, 38.754015095581586], [30.32327612313088, 38.753476106411114], [30.32381511230136, 38.753476106411114], [30.32381511230136, 38.75293711724064], [30.324354101471812, 38.75293711724064], [30.324354101471812, 38.753476106411114], [30.32489309064229, 38.753476106411114], [30.32489309064229, 38.75293711724064]], [[30.32543207981277, 38.75509307392253], [30.32543207981277, 38.755632063093], [30.32489309064229, 38.755632063093], [30.32489309064229, 38.756171052263475], [30.324354101471812, 38.756171052263475], [30.324354101471812, 38.755632063093], [30.32381511230136, 38.755632063093], [30.32381511230136, 38.75509307392253], [30.32543207981277, 38.75509307392253]], [[30.324354101471812, 38.754015095581586], [30.324354101471812, 38.75455408475206], [30.32381511230136, 38.75455408475206], [30.32381511230136, 38.754015095581586], [30.324354101471812, 38.754015095581586]]]}, "properties": {"area_ha": 25.20979083326458, "mean_dnbr": 0.21521979861509377, "compactness": 0.077, "rectangularity": 0.353, "cropland_frac": 0.281, "persistent": true}}, {"type": "Feature", "geometry": {"geodesic": false, "type": "Polygon", "coordinates": [[[30.493596700999944, 38.95936996953131], [30.494674679340875, 38.95936996953131], [30.494674679340875, 38.95990895870178], [30.494135690170424, 38.95990895870178], [30.494135690170424, 38.96368188289508], [30.493596700999944, 38.96368188289508], [30.493596700999944, 38.96422087206555], [30.493057711829465, 38.96422087206555], [30.493057711829465, 38.96583783957697], [30.491440744318055, 38.96583783957697], [30.491440744318055, 38.96637682874744], [30.490362765977125, 38.96637682874744], [30.490362765977125, 38.966915817917915], [30.487667820124756, 38.966915817917915], [30.487667820124756, 38.96745480708838], [30.486050852613346, 38.96745480708838], [30.486050852613346, 38.96637682874744], [30.486589841783797, 38.96637682874744], [30.486589841783797, 38.9652988504065], [30.486050852613346, 38.9652988504065], [30.486050852613346, 38.964759861236026], [30.484972874272387, 38.964759861236026], [30.484972874272387, 38.96422087206555], [30.486589841783797, 38.96422087206555], [30.486589841783797, 38.96314289372461], [30.487128830954276, 38.96314289372461], [30.487128830954276, 38.962603904554136], [30.487667820124756, 38.962603904554136], [30.487667820124756, 38.96314289372461], [30.487128830954276, 38.96314289372461], [30.487128830954276, 38.964759861236026], [30.489284787636166, 38.964759861236026], [30.489284787636166, 38.96422087206555], [30.488206809295235, 38.96422087206555], [30.488206809295235, 38.96314289372461], [30.488745798465686, 38.96314289372461], [30.488745798465686, 38.962603904554136], [30.489284787636166, 38.962603904554136], [30.489284787636166, 38.96314289372461], [30.489823776806645, 38.96314289372461], [30.489823776806645, 38.96368188289508], [30.490901755147576, 38.96368188289508], [30.490901755147576, 38.962603904554136], [30.491440744318055, 38.962603904554136], [30.491440744318055, 38.96314289372461], [30.492518722658986, 38.96314289372461], [30.492518722658986, 38.962603904554136], [30.491979733488535, 38.962603904554136], [30.491979733488535, 38.962064915383664], [30.492518722658986, 38.962064915383664], [30.492518722658986, 38.960447947872254], [30.491979733488535, 38.960447947872254], [30.491979733488535, 38.960986937042726], [30.491440744318055, 38.960986937042726], [30.491440744318055, 38.960447947872254], [30.491979733488535, 38.960447947872254], [30.491979733488535, 38.95990895870178], [30.492518722658986, 38.95990895870178], [30.492518722658986, 38.960447947872254], [30.493057711829465, 38.960447947872254], [30.493057711829465, 38.95990895870178], [30.493596700999944, 38.95990895870178], [30.493596700999944, 38.95936996953131]], [[30.491440744318055, 38.9652988504065], [30.491440744318055, 38.96583783957697], [30.490901755147576, 38.96583783957697], [30.490901755147576, 38.9652988504065], [30.491440744318055, 38.9652988504065]], [[30.492518722658986, 38.96422087206555], [30.492518722658986, 38.9652988504065], [30.491440744318055, 38.9652988504065], [30.491440744318055, 38.96422087206555], [30.492518722658986, 38.96422087206555]], [[30.489823776806645, 38.96368188289508], [30.489823776806645, 38.96422087206555], [30.489284787636166, 38.96422087206555], [30.489284787636166, 38.96368188289508], [30.489823776806645, 38.96368188289508]]]}, "properties": {"area_ha": 26.811731573243126, "mean_dnbr": 0.21628939708018374, "compactness": 0.092, "rectangularity": 0.402, "cropland_frac": 0.23, "persistent": true}}]}