{"type": "FeatureCollection", "crs": {"type": "name", "properties": {"name": "urn:ogc:def:crs:OGC:1.3:CRS84"}}, "features": [{"type": "Feature", "geometry": {"geodesic": false, "type": "Polygon", "coordinates": [[[31.429820890109312, 37.747183325140426], [31.43035987927979, 37.747183325140426], [31.43035987927979, 37.74826130348137], [31.431437857620722, 37.74826130348137], [31.431437857620722, 37.74880029265184], [31.43251583596168, 37.74880029265184], [31.43251583596168, 37.749339281822316], [31.433054825132132, 37.749339281822316], [31.433054825132132, 37.74987827099278], [31.43467179264354, 37.74987827099278], [31.43467179264354, 37.75041726016325], [31.43359381430261, 37.75041726016325], [31.43359381430261, 37.750956249333726], [31.433054825132132, 37.750956249333726], [31.433054825132132, 37.7514952385042], [31.43251583596168, 37.7514952385042], [31.43251583596168, 37.75203422767467], [31.4319768467912, 37.75203422767467], [31.4319768467912, 37.753112206015615], [31.431437857620722, 37.753112206015615], [31.431437857620722, 37.75472917352703], [31.430898868450242, 37.75472917352703], [31.430898868450242, 37.755268162697504], [31.428742911768353, 37.755268162697504], [31.428742911768353, 37.75580715186797], [31.428203922597902, 37.75580715186797], [31.428203922597902, 37.75634614103844], [31.426586955086492, 37.75634614103844], [31.426586955086492, 37.756885130208914], [31.426047965916013, 37.756885130208914], [31.426047965916013, 37.75742411937939], [31.425508976745533, 37.75742411937939], [31.425508976745533, 37.75796310854986], [31.426047965916013, 37.75796310854986], [31.426047965916013, 37.759041086890804], [31.424969987575054, 37.759041086890804], [31.424969987575054, 37.76065805440222], [31.424430998404603, 37.76065805440222], [31.424430998404603, 37.7628140110841], [31.423353020063644, 37.7628140110841], [31.423353020063644, 37.76227502191363], [31.422814030893164, 37.76227502191363], [31.422814030893164, 37.76065805440222], [31.422275041722713, 37.76065805440222], [31.422275041722713, 37.76011906523175], [31.421736052552234, 37.76011906523175], [31.421736052552234, 37.759041086890804], [31.421197063381754, 37.759041086890804], [31.421197063381754, 37.75850209772033], [31.420119085040824, 37.75850209772033], [31.420119085040824, 37.75796310854986], [31.419041106699865, 37.75796310854986], [31.419041106699865, 37.75742411937939], [31.418502117529414, 37.75742411937939], [31.418502117529414, 37.756885130208914], [31.416885150017976, 37.756885130208914], [31.416885150017976, 37.75634614103844], [31.416346160847525, 37.75634614103844], [31.416346160847525, 37.755268162697504], [31.416885150017976, 37.755268162697504], [31.416885150017976, 37.75419018435656], [31.416346160847525, 37.75419018435656], [31.416346160847525, 37.753112206015615], [31.416885150017976, 37.753112206015615], [31.416885150017976, 37.75203422767467], [31.416346160847525, 37.75203422767467], [31.416346160847525, 37.7514952385042], [31.415807171677045, 37.7514952385042], [31.415807171677045, 37.75041726016325], [31.416346160847525, 37.75041726016325], [31.416346160847525, 37.749339281822316], [31.416885150017976, 37.749339281822316], [31.416885150017976, 37.74826130348137], [31.417424139188455, 37.74826130348137], [31.417424139188455, 37.74987827099278], [31.418502117529414, 37.74987827099278], [31.418502117529414, 37.749339281822316], [31.419580095870344, 37.749339281822316], [31.419580095870344, 37.74987827099278], [31.420119085040824, 37.74987827099278], [31.420119085040824, 37.749339281822316], [31.421197063381754, 37.749339281822316], [31.421197063381754, 37.75041726016325], [31.422814030893164, 37.75041726016325], [31.422814030893164, 37.74987827099278], [31.422275041722713, 37.74987827099278], [31.422275041722713, 37.749339281822316], [31.422814030893164, 37.749339281822316], [31.422814030893164, 37.74987827099278], [31.423353020063644, 37.74987827099278], [31.423353020063644, 37.7514952385042], [31.424430998404603, 37.7514952385042], [31.424430998404603, 37.74987827099278], [31.427664933427423, 37.74987827099278], [31.427664933427423, 37.74880029265184], [31.428742911768353, 37.74880029265184], [31.428742911768353, 37.74826130348137], [31.429281900938832, 37.74826130348137], [31.429281900938832, 37.7477223143109], [31.429820890109312, 37.7477223143109], [31.429820890109312, 37.747183325140426]], [[31.419580095870344, 37.75419018435656], [31.419580095870344, 37.75472917352703], [31.419041106699865, 37.75472917352703], [31.419041106699865, 37.75419018435656], [31.419580095870344, 37.75419018435656]], [[31.419041106699865, 37.75365119518609], [31.419041106699865, 37.75419018435656], [31.418502117529414, 37.75419018435656], [31.418502117529414, 37.75365119518609], [31.419041106699865, 37.75365119518609]], [[31.430898868450242, 37.75257321684514], [31.430898868450242, 37.753112206015615], [31.43035987927979, 37.753112206015615], [31.43035987927979, 37.75257321684514], [31.430898868450242, 37.75257321684514]], [[31.43035987927979, 37.74880029265184], [31.43035987927979, 37.749339281822316], [31.429820890109312, 37.749339281822316], [31.429820890109312, 37.74987827099278], [31.429281900938832, 37.74987827099278], [31.429281900938832, 37.74880029265184], [31.43035987927979, 37.74880029265184]]]}, "properties": {"area_ha": 128.36693486950756, "mean_dnbr": 0.36490805671879184, "compactness": 0.181, "rectangularity": 0.493, "cropland_frac": 0.176, "persistent": true}}]}