{"type": "FeatureCollection", "crs": {"type": "name", "properties": {"name": "urn:ogc:def:crs:OGC:1.3:CRS84"}}, "features": [{"type": "Feature", "geometry": {"geodesic": false, "type": "Polygon", "coordinates": [[[30.918859156502123, 38.671010763328944], [30.9231710698659, 38.671010763328944], [30.9231710698659, 38.671549752499416], [30.92532702654779, 38.671549752499416], [30.92532702654779, 38.6737057091813], [30.92586601571827, 38.6737057091813], [30.92586601571827, 38.67478368752224], [30.92532702654779, 38.67478368752224], [30.92532702654779, 38.67693964420413], [30.9231710698659, 38.67693964420413], [30.9231710698659, 38.67640065503366], [30.922093091524943, 38.67640065503366], [30.922093091524943, 38.67693964420413], [30.91993713484308, 38.67693964420413], [30.91993713484308, 38.67640065503366], [30.916703199820233, 38.67640065503366], [30.916703199820233, 38.67586166586319], [30.917242188990713, 38.67586166586319], [30.917242188990713, 38.67424469835177], [30.917781178161192, 38.67424469835177], [30.917781178161192, 38.6737057091813], [30.916164210649754, 38.6737057091813], [30.916164210649754, 38.673166720010826], [30.916703199820233, 38.673166720010826], [30.916703199820233, 38.672627730840354], [30.917242188990713, 38.672627730840354], [30.917242188990713, 38.67208874166988], [30.917781178161192, 38.67208874166988], [30.917781178161192, 38.673166720010826], [30.918320167331643, 38.673166720010826], [30.918320167331643, 38.67208874166988], [30.918859156502123, 38.67208874166988], [30.918859156502123, 38.671010763328944]]]}, "properties": {"area_ha": 42.34474122595592, "mean_dnbr": 0.4898481604142554, "compactness": 0.422, "rectangularity": 0.763, "cropland_frac": 0.164, "persistent": true}}, {"type": "Feature", "geometry": {"geodesic": false, "type": "Polygon", "coordinates": [[[30.9727580735493, 38.681251557567904], [30.97329706271978, 38.681251557567904], [30.97329706271978, 38.68179054673838], [30.9727580735493, 38.68179054673838], [30.9727580735493, 38.685024481761204], [30.97329706271978, 38.685024481761204], [30.97329706271978, 38.683407514249794], [30.97383605189023, 38.683407514249794], [30.97383605189023, 38.68232953590885], [30.97545301940164, 38.68232953590885], [30.97545301940164, 38.68286852507932], [30.9765309977426, 38.68286852507932], [30.9765309977426, 38.68394650342026], [30.97760897608353, 38.68394650342026], [30.97760897608353, 38.683407514249794], [30.97706998691308, 38.683407514249794], [30.97706998691308, 38.68286852507932], [30.97814796525401, 38.68286852507932], [30.97814796525401, 38.683407514249794], [30.97976493276542, 38.683407514249794], [30.97976493276542, 38.68286852507932], [30.9803039219359, 38.68286852507932], [30.9803039219359, 38.68232953590885], [30.98084291110638, 38.68232953590885], [30.98084291110638, 38.68179054673838], [30.98569381364061, 38.68179054673838], [30.98569381364061, 38.683407514249794], [30.986232802811088, 38.683407514249794], [30.986232802811088, 38.685024481761204], [30.986771791981568, 38.685024481761204], [30.986771791981568, 38.685563470931676], [30.98731078115202, 38.685563470931676], [30.98731078115202, 38.68448549259073], [30.986771791981568, 38.68448549259073], [30.986771791981568, 38.68394650342026], [30.987849770322498, 38.68394650342026], [30.987849770322498, 38.685563470931676], [30.988388759492977, 38.685563470931676], [30.988388759492977, 38.68718043844309], [30.987849770322498, 38.68718043844309], [30.987849770322498, 38.68664144927262], [30.986232802811088, 38.68664144927262], [30.986232802811088, 38.68610246010215], [30.984615835299678, 38.68610246010215], [30.984615835299678, 38.68718043844309], [30.982998867788268, 38.68718043844309], [30.982998867788268, 38.687719427613565], [30.98245987861779, 38.687719427613565], [30.98245987861779, 38.68825841678404], [30.97706998691308, 38.68825841678404], [30.97706998691308, 38.687719427613565], [30.97599200857212, 38.687719427613565], [30.97599200857212, 38.68718043844309], [30.97491403023119, 38.68718043844309], [30.97491403023119, 38.68664144927262], [30.97437504106071, 38.68664144927262], [30.97437504106071, 38.685563470931676], [30.9727580735493, 38.685563470931676], [30.9727580735493, 38.685024481761204], [30.97168009520834, 38.685024481761204], [30.97168009520834, 38.683407514249794], [30.97221908437882, 38.683407514249794], [30.97221908437882, 38.68179054673838], [30.9727580735493, 38.68179054673838], [30.9727580735493, 38.681251557567904]], [[30.98245987861779, 38.68610246010215], [30.98245987861779, 38.68664144927262], [30.98192088944731, 38.68664144927262], [30.98192088944731, 38.68610246010215], [30.98245987861779, 38.68610246010215]], [[30.9803039219359, 38.683407514249794], [30.9803039219359, 38.68394650342026], [30.97976493276542, 38.68394650342026], [30.97976493276542, 38.683407514249794], [30.9803039219359, 38.683407514249794]]]}, "properties": {"area_ha": 67.01228777287238, "mean_dnbr": 0.4007266149978321, "compactness": 0.174, "rectangularity": 0.599, "cropland_frac": 0.194, "persistent": true}}]}