{"type": "FeatureCollection", "crs": {"type": "name", "properties": {"name": "urn:ogc:def:crs:OGC:1.3:CRS84"}}, "features": [{"type": "Feature", "geometry": {"geodesic": false, "type": "Polygon", "coordinates": [[[31.429281900938832, 37.7477223143109], [31.43035987927979, 37.7477223143109], [31.43035987927979, 37.74826130348137], [31.429281900938832, 37.74826130348137], [31.429281900938832, 37.74880029265184], [31.428742911768353, 37.74880029265184], [31.428742911768353, 37.74987827099278], [31.427664933427423, 37.74987827099278], [31.427664933427423, 37.75041726016325], [31.428742911768353, 37.75041726016325], [31.428742911768353, 37.750956249333726], [31.429820890109312, 37.750956249333726], [31.429820890109312, 37.7514952385042], [31.431437857620722, 37.7514952385042], [31.431437857620722, 37.750956249333726], [31.4319768467912, 37.750956249333726], [31.4319768467912, 37.74987827099278], [31.430898868450242, 37.74987827099278], [31.430898868450242, 37.74880029265184], [31.43251583596168, 37.74880029265184], [31.43251583596168, 37.749339281822316], [31.433054825132132, 37.749339281822316], [31.433054825132132, 37.74987827099278], [31.43467179264354, 37.74987827099278], [31.43467179264354, 37.75041726016325], [31.43359381430261, 37.75041726016325], [31.43359381430261, 37.750956249333726], [31.433054825132132, 37.750956249333726], [31.433054825132132, 37.7514952385042], [31.43251583596168, 37.7514952385042], [31.43251583596168, 37.75203422767467], [31.4319768467912, 37.75203422767467], [31.4319768467912, 37.753112206015615], [31.431437857620722, 37.753112206015615], [31.431437857620722, 37.75472917352703], [31.430898868450242, 37.75472917352703], [31.430898868450242, 37.755268162697504], [31.429281900938832, 37.755268162697504], [31.429281900938832, 37.75472917352703], [31.428203922597902, 37.75472917352703], [31.428203922597902, 37.755268162697504], [31.428742911768353, 37.755268162697504], [31.428742911768353, 37.75580715186797], [31.428203922597902, 37.75580715186797], [31.428203922597902, 37.75634614103844], [31.426586955086492, 37.75634614103844], [31.426586955086492, 37.756885130208914], [31.426047965916013, 37.756885130208914], [31.426047965916013, 37.75742411937939], [31.424969987575054, 37.75742411937939], [31.424969987575054, 37.75796310854986], [31.426047965916013, 37.75796310854986], [31.426047965916013, 37.759041086890804], [31.424969987575054, 37.759041086890804], [31.424969987575054, 37.76011906523175], [31.424430998404603, 37.76011906523175], [31.424430998404603, 37.7628140110841], [31.423892009234123, 37.7628140110841], [31.423892009234123, 37.763353000254575], [31.423353020063644, 37.763353000254575], [31.423353020063644, 37.76227502191363], [31.422275041722713, 37.76227502191363], [31.422275041722713, 37.76173603274316], [31.422814030893164, 37.76173603274316], [31.422814030893164, 37.76119704357269], [31.422275041722713, 37.76119704357269], [31.422275041722713, 37.76011906523175], [31.421197063381754, 37.76011906523175], [31.421197063381754, 37.75850209772033], [31.420119085040824, 37.75850209772033], [31.420119085040824, 37.75796310854986], [31.419041106699865, 37.75796310854986], [31.419041106699865, 37.75742411937939], [31.418502117529414, 37.75742411937939], [31.418502117529414, 37.756885130208914], [31.416885150017976, 37.756885130208914], [31.416885150017976, 37.75634614103844], [31.417963128358934, 37.75634614103844], [31.417963128358934, 37.75580715186797], [31.417424139188455, 37.75580715186797], [31.417424139188455, 37.755268162697504], [31.416885150017976, 37.755268162697504], [31.416885150017976, 37.75419018435656], [31.416346160847525, 37.75419018435656], [31.416346160847525, 37.753112206015615], [31.416885150017976, 37.753112206015615], [31.416885150017976, 37.75203422767467], [31.415807171677045, 37.75203422767467], [31.415807171677045, 37.75041726016325], [31.416346160847525, 37.75041726016325], [31.416346160847525, 37.749339281822316], [31.416885150017976, 37.749339281822316], [31.416885150017976, 37.74826130348137], [31.417424139188455, 37.74826130348137], [31.417424139188455, 37.74987827099278], [31.418502117529414, 37.74987827099278], [31.418502117529414, 37.749339281822316], [31.419580095870344, 37.749339281822316], [31.419580095870344, 37.74987827099278], [31.419041106699865, 37.74987827099278], [31.419041106699865, 37.75041726016325], [31.419580095870344, 37.75041726016325], [31.419580095870344, 37.750956249333726], [31.420119085040824, 37.750956249333726], [31.420119085040824, 37.7514952385042], [31.420658074211303, 37.7514952385042], [31.420658074211303, 37.75203422767467], [31.421197063381754, 37.75203422767467], [31.421197063381754, 37.75257321684514], [31.421736052552234, 37.75257321684514], [31.421736052552234, 37.753112206015615], [31.422814030893164, 37.753112206015615], [31.422814030893164, 37.7514952385042], [31.423353020063644, 37.7514952385042], [31.423353020063644, 37.750956249333726], [31.423892009234123, 37.750956249333726], [31.423892009234123, 37.7514952385042], [31.424430998404603, 37.7514952385042], [31.424430998404603, 37.749339281822316], [31.426047965916013, 37.749339281822316], [31.426047965916013, 37.74987827099278], [31.427664933427423, 37.74987827099278], [31.427664933427423, 37.74880029265184], [31.428742911768353, 37.74880029265184], [31.428742911768353, 37.74826130348137], [31.429281900938832, 37.74826130348137], [31.429281900938832, 37.7477223143109]], [[31.424430998404603, 37.759580076061276], [31.424430998404603, 37.76011906523175], [31.423892009234123, 37.76011906523175], [31.423892009234123, 37.759580076061276], [31.424430998404603, 37.759580076061276]], [[31.423892009234123, 37.759041086890804], [31.423892009234123, 37.759580076061276], [31.422814030893164, 37.759580076061276], [31.422814030893164, 37.759041086890804], [31.423892009234123, 37.759041086890804]], [[31.422275041722713, 37.75796310854986], [31.422275041722713, 37.759041086890804], [31.421736052552234, 37.759041086890804], [31.421736052552234, 37.75850209772033], [31.421197063381754, 37.75850209772033], [31.421197063381754, 37.75796310854986], [31.422275041722713, 37.75796310854986]], [[31.426586955086492, 37.755268162697504], [31.426586955086492, 37.75580715186797], [31.426047965916013, 37.75580715186797], [31.426047965916013, 37.755268162697504], [31.426586955086492, 37.755268162697504]], [[31.425508976745533, 37.75472917352703], [31.425508976745533, 37.755268162697504], [31.424969987575054, 37.755268162697504], [31.424969987575054, 37.75472917352703], [31.425508976745533, 37.75472917352703]], [[31.424969987575054, 37.75419018435656], [31.424969987575054, 37.75472917352703], [31.424430998404603, 37.75472917352703], [31.424430998404603, 37.75419018435656], [31.424969987575054, 37.75419018435656]], [[31.424430998404603, 37.75365119518609], [31.424430998404603, 37.75419018435656], [31.423353020063644, 37.75419018435656], [31.423353020063644, 37.75365119518609], [31.424430998404603, 37.75365119518609]], [[31.427664933427423, 37.75365119518609], [31.427664933427423, 37.75419018435656], [31.426586955086492, 37.75419018435656], [31.426586955086492, 37.75365119518609], [31.427664933427423, 37.75365119518609]], [[31.430898868450242, 37.75257321684514], [31.430898868450242, 37.753112206015615], [31.43035987927979, 37.753112206015615], [31.43035987927979, 37.75257321684514], [31.430898868450242, 37.75257321684514]], [[31.428742911768353, 37.7514952385042], [31.428742911768353, 37.75203422767467], [31.428203922597902, 37.75203422767467], [31.428203922597902, 37.7514952385042], [31.428742911768353, 37.7514952385042]], [[31.428203922597902, 37.750956249333726], [31.428203922597902, 37.7514952385042], [31.427664933427423, 37.7514952385042], [31.427664933427423, 37.750956249333726], [31.428203922597902, 37.750956249333726]], [[31.425508976745533, 37.75041726016325], [31.425508976745533, 37.750956249333726], [31.424969987575054, 37.750956249333726], [31.424969987575054, 37.75041726016325], [31.425508976745533, 37.75041726016325]]]}, "properties": {"area_ha": 108.48651250910272, "mean_dnbr": 0.3550207142053181, "compactness": 0.075, "rectangularity": 0.413, "cropland_frac": 0.165, "persistent": true}}, {"type": "Feature", "geometry": {"geodesic": false, "type": "Polygon", "coordinates": [[[31.474018002088002, 37.52188585188325], [31.474556991258453, 37.52188585188325], [31.474556991258453, 37.52242484105372], [31.475095980428932, 37.52242484105372], [31.475095980428932, 37.52296383022419], [31.47563496959941, 37.52296383022419], [31.47563496959941, 37.523502819394665], [31.474556991258453, 37.523502819394665], [31.474556991258453, 37.52458079773561], [31.475095980428932, 37.52458079773561], [31.475095980428932, 37.52404180856514], [31.47725193711082, 37.52404180856514], [31.47725193711082, 37.52458079773561], [31.478329915451752, 37.52458079773561], [31.478329915451752, 37.52511978690608], [31.4777909262813, 37.52511978690608], [31.4777909262813, 37.525658776076554], [31.478329915451752, 37.525658776076554], [31.478329915451752, 37.526197765247026], [31.47886890462223, 37.526197765247026], [31.47886890462223, 37.52673675441749], [31.478329915451752, 37.52673675441749], [31.478329915451752, 37.527275743587964], [31.4777909262813, 37.527275743587964], [31.4777909262813, 37.527814732758436], [31.478329915451752, 37.527814732758436], [31.478329915451752, 37.52835372192891], [31.47725193711082, 37.52835372192891], [31.47725193711082, 37.52889271109938], [31.478329915451752, 37.52889271109938], [31.478329915451752, 37.52943170026985], [31.47725193711082, 37.52943170026985], [31.47725193711082, 37.529970689440326], [31.476712947940342, 37.529970689440326], [31.476712947940342, 37.52943170026985], [31.47563496959941, 37.52943170026985], [31.47563496959941, 37.529970689440326], [31.476173958769863, 37.529970689440326], [31.476173958769863, 37.53104866778127], [31.47563496959941, 37.53104866778127], [31.47563496959941, 37.5305096786108], [31.475095980428932, 37.5305096786108], [31.475095980428932, 37.52943170026985], [31.473479012917522, 37.52943170026985], [31.473479012917522, 37.529970689440326], [31.474018002088002, 37.529970689440326], [31.474018002088002, 37.53104866778127], [31.474556991258453, 37.53104866778127], [31.474556991258453, 37.53158765695174], [31.474018002088002, 37.53158765695174], [31.474018002088002, 37.532126646122215], [31.473479012917522, 37.532126646122215], [31.473479012917522, 37.5305096786108], [31.472940023747043, 37.5305096786108], [31.472940023747043, 37.52835372192891], [31.472401034576563, 37.52835372192891], [31.472401034576563, 37.52943170026985], [31.471862045406112, 37.52943170026985], [31.471862045406112, 37.529970689440326], [31.472401034576563, 37.529970689440326], [31.472401034576563, 37.5305096786108], [31.471862045406112, 37.5305096786108], [31.471862045406112, 37.529970689440326], [31.471323056235633, 37.529970689440326], [31.471323056235633, 37.53158765695174], [31.471862045406112, 37.53158765695174], [31.471862045406112, 37.53320462446315], [31.471323056235633, 37.53320462446315], [31.471323056235633, 37.533743613633625], [31.470784067065154, 37.533743613633625], [31.470784067065154, 37.53320462446315], [31.470245077894674, 37.53320462446315], [31.470245077894674, 37.53266563529268], [31.471323056235633, 37.53266563529268], [31.471323056235633, 37.53158765695174], [31.470784067065154, 37.53158765695174], [31.470784067065154, 37.5305096786108], [31.470245077894674, 37.5305096786108], [31.470245077894674, 37.53104866778127], [31.469706088724223, 37.53104866778127], [31.469706088724223, 37.5305096786108], [31.469167099553744, 37.5305096786108], [31.469167099553744, 37.52943170026985], [31.470245077894674, 37.52943170026985], [31.470245077894674, 37.52889271109938], [31.470784067065154, 37.52889271109938], [31.470784067065154, 37.52835372192891], [31.472401034576563, 37.52835372192891], [31.472401034576563, 37.527814732758436], [31.472940023747043, 37.527814732758436], [31.472940023747043, 37.52835372192891], [31.474018002088002, 37.52835372192891], [31.474018002088002, 37.527814732758436], [31.474556991258453, 37.527814732758436], [31.474556991258453, 37.52673675441749], [31.475095980428932, 37.52673675441749], [31.475095980428932, 37.526197765247026], [31.472940023747043, 37.526197765247026], [31.472940023747043, 37.52511978690608], [31.472401034576563, 37.52511978690608], [31.472401034576563, 37.525658776076554], [31.471862045406112, 37.525658776076554], [31.471862045406112, 37.52404180856514], [31.472401034576563, 37.52404180856514], [31.472401034576563, 37.52296383022419], [31.474018002088002, 37.52296383022419], [31.474018002088002, 37.52188585188325]], [[31.47563496959941, 37.52889271109938], [31.47563496959941, 37.52943170026985], [31.475095980428932, 37.52943170026985], [31.475095980428932, 37.52889271109938], [31.47563496959941, 37.52889271109938]], [[31.475095980428932, 37.52835372192891], [31.475095980428932, 37.52889271109938], [31.474556991258453, 37.52889271109938], [31.474556991258453, 37.52835372192891], [31.475095980428932, 37.52835372192891]], [[31.476712947940342, 37.527275743587964], [31.476712947940342, 37.52835372192891], [31.47563496959941, 37.52835372192891], [31.47563496959941, 37.527814732758436], [31.475095980428932, 37.527814732758436], [31.475095980428932, 37.527275743587964], [31.476712947940342, 37.527275743587964]], [[31.47725193711082, 37.525658776076554], [31.47725193711082, 37.526197765247026], [31.476712947940342, 37.526197765247026], [31.476712947940342, 37.525658776076554], [31.47725193711082, 37.525658776076554]]]}, "properties": {"area_ha": 37.31727263094365, "mean_dnbr": 0.22170687860884566, "compactness": 0.055, "rectangularity": 0.368, "cropland_frac": 0.396, "persistent": true}}]}