{"type": "FeatureCollection", "crs": {"type": "name", "properties": {"name": "urn:ogc:def:crs:OGC:1.3:CRS84"}}, "features": [{"type": "Feature", "geometry": {"geodesic": false, "type": "Polygon", "coordinates": [[[30.84178370512467, 36.96780498463833], [30.84232269429515, 36.96780498463833], [30.84232269429515, 36.9683439738088], [30.8428616834656, 36.9683439738088], [30.8428616834656, 36.969421952149744], [30.84232269429515, 36.969421952149744], [30.84232269429515, 36.97103891966116], [30.84178370512467, 36.97103891966116], [30.84178370512467, 36.97265588717257], [30.84070572678374, 36.97265588717257], [30.84070572678374, 36.973194876343044], [30.84016673761326, 36.973194876343044], [30.84016673761326, 36.973733865513516], [30.83962774844278, 36.973733865513516], [30.83962774844278, 36.97804577887729], [30.8390887592723, 36.97804577887729], [30.8390887592723, 36.97858476804776], [30.83962774844278, 36.97858476804776], [30.83962774844278, 36.97912375721823], [30.8390887592723, 36.97912375721823], [30.8390887592723, 36.979662746388705], [30.83854977010185, 36.979662746388705], [30.83854977010185, 36.98020173555918], [30.83585482424948, 36.98020173555918], [30.83585482424948, 36.98235769224107], [30.835315835079, 36.98235769224107], [30.835315835079, 36.981818703070594], [30.83477684590855, 36.981818703070594], [30.83477684590855, 36.98074072472965], [30.83423785673807, 36.98074072472965], [30.83423785673807, 36.98020173555918], [30.83369886756759, 36.98020173555918], [30.83369886756759, 36.979662746388705], [30.83315987839711, 36.979662746388705], [30.83315987839711, 36.97858476804776], [30.83477684590855, 36.97858476804776], [30.83477684590855, 36.97750678970682], [30.835315835079, 36.97750678970682], [30.835315835079, 36.97804577887729], [30.83585482424948, 36.97804577887729], [30.83585482424948, 36.97750678970682], [30.83693280259041, 36.97750678970682], [30.83693280259041, 36.97696780053635], [30.83747179176089, 36.97696780053635], [30.83747179176089, 36.97642881136588], [30.83639381341996, 36.97642881136588], [30.83639381341996, 36.97696780053635], [30.83477684590855, 36.97696780053635], [30.83477684590855, 36.97642881136588], [30.83423785673807, 36.97642881136588], [30.83423785673807, 36.975889822195406], [30.83369886756759, 36.975889822195406], [30.83369886756759, 36.97535083302493], [30.83477684590855, 36.97535083302493], [30.83477684590855, 36.97481184385446], [30.835315835079, 36.97481184385446], [30.835315835079, 36.973733865513516], [30.83585482424948, 36.973733865513516], [30.83585482424948, 36.973194876343044], [30.835315835079, 36.973194876343044], [30.835315835079, 36.97265588717257], [30.83585482424948, 36.97265588717257], [30.83585482424948, 36.973194876343044], [30.83693280259041, 36.973194876343044], [30.83693280259041, 36.97265588717257], [30.83854977010185, 36.97265588717257], [30.83854977010185, 36.9721168980021], [30.8390887592723, 36.9721168980021], [30.8390887592723, 36.97103891966116], [30.83962774844278, 36.97103891966116], [30.83962774844278, 36.97049993049069], [30.8390887592723, 36.97049993049069], [30.8390887592723, 36.96996094132022], [30.84016673761326, 36.96996094132022], [30.84016673761326, 36.97049993049069], [30.84070572678374, 36.97049993049069], [30.84070572678374, 36.969421952149744], [30.84124471595419, 36.969421952149744], [30.84124471595419, 36.96888296297927], [30.84178370512467, 36.96888296297927], [30.84178370512467, 36.96780498463833]]]}, "properties": {"area_ha": 47.34817740446642, "mean_dnbr": 0.5227622110560926, "compactness": 0.145, "rectangularity": 0.445, "cropland_frac": 0.009, "persistent": true}}]}