{"type": "FeatureCollection", "crs": {"type": "name", "properties": {"name": "urn:ogc:def:crs:OGC:1.3:CRS84"}}, "features": [{"type": "Feature", "geometry": {"geodesic": false, "type": "Polygon", "coordinates": [[[31.987135692377052, 36.57757682521681], [31.98767468154753, 36.57757682521681], [31.98767468154753, 36.57811581438728], [31.988752659888462, 36.57811581438728], [31.988752659888462, 36.579193792728226], [31.98821367071801, 36.579193792728226], [31.98821367071801, 36.580810760239636], [31.988752659888462, 36.580810760239636], [31.988752659888462, 36.58134974941011], [31.99144760574083, 36.58134974941011], [31.99144760574083, 36.58188873858058], [31.9903696273999, 36.58188873858058], [31.9903696273999, 36.58242772775105], [31.99144760574083, 36.58242772775105], [31.99144760574083, 36.59374650033096], [31.98983063822942, 36.59374650033096], [31.98983063822942, 36.593207511160486], [31.98821367071801, 36.593207511160486], [31.98821367071801, 36.59428548950143], [31.985518724865642, 36.59428548950143], [31.985518724865642, 36.5948244786719], [31.98444074652471, 36.5948244786719], [31.98444074652471, 36.59428548950143], [31.983362768183753, 36.59428548950143], [31.983362768183753, 36.59374650033096], [31.980128833160933, 36.59374650033096], [31.980128833160933, 36.59212953281954], [31.980667822331412, 36.59212953281954], [31.980667822331412, 36.591051554478604], [31.981745800672343, 36.591051554478604], [31.981745800672343, 36.591590543649076], [31.982823779013273, 36.591590543649076], [31.982823779013273, 36.591051554478604], [31.982284789842822, 36.591051554478604], [31.982284789842822, 36.59051256530813], [31.980667822331412, 36.59051256530813], [31.980667822331412, 36.588895597796714], [31.980128833160933, 36.588895597796714], [31.980128833160933, 36.58835660862624], [31.979050854819974, 36.58835660862624], [31.979050854819974, 36.58781761945577], [31.978511865649523, 36.58781761945577], [31.978511865649523, 36.58835660862624], [31.977433887308564, 36.58835660862624], [31.977433887308564, 36.5872786302853], [31.976355908967633, 36.5872786302853], [31.976355908967633, 36.58835660862624], [31.975816919797154, 36.58835660862624], [31.975816919797154, 36.5872786302853], [31.976355908967633, 36.5872786302853], [31.976355908967633, 36.586739641114825], [31.976894898138084, 36.586739641114825], [31.976894898138084, 36.58620065194435], [31.977433887308564, 36.58620065194435], [31.977433887308564, 36.58566166277389], [31.977972876479043, 36.58566166277389], [31.977972876479043, 36.58458368443294], [31.978511865649523, 36.58458368443294], [31.978511865649523, 36.58242772775105], [31.979050854819974, 36.58242772775105], [31.979050854819974, 36.58188873858058], [31.981206811501863, 36.58188873858058], [31.981206811501863, 36.582966716921526], [31.982823779013273, 36.582966716921526], [31.982823779013273, 36.583505706092], [31.983362768183753, 36.583505706092], [31.983362768183753, 36.58404469526247], [31.98444074652471, 36.58404469526247], [31.98444074652471, 36.583505706092], [31.983901757354232, 36.583505706092], [31.983901757354232, 36.582966716921526], [31.983362768183753, 36.582966716921526], [31.983362768183753, 36.58242772775105], [31.983901757354232, 36.58242772775105], [31.983901757354232, 36.58188873858058], [31.984979735695163, 36.58188873858058], [31.984979735695163, 36.58242772775105], [31.985518724865642, 36.58242772775105], [31.985518724865642, 36.582966716921526], [31.98605771403612, 36.582966716921526], [31.98605771403612, 36.58242772775105], [31.9865967032066, 36.58242772775105], [31.9865967032066, 36.58188873858058], [31.98605771403612, 36.58188873858058], [31.98605771403612, 36.580271771069164], [31.985518724865642, 36.580271771069164], [31.985518724865642, 36.580810760239636], [31.984979735695163, 36.580810760239636], [31.984979735695163, 36.580271771069164], [31.985518724865642, 36.580271771069164], [31.985518724865642, 36.5797327818987], [31.98605771403612, 36.5797327818987], [31.98605771403612, 36.578654803557754], [31.987135692377052, 36.578654803557754], [31.987135692377052, 36.57757682521681]], [[31.982284789842822, 36.5872786302853], [31.982284789842822, 36.58835660862624], [31.981745800672343, 36.58835660862624], [31.981745800672343, 36.5872786302853], [31.982284789842822, 36.5872786302853]], [[31.98929164905894, 36.58620065194435], [31.98929164905894, 36.586739641114825], [31.988752659888462, 36.586739641114825], [31.988752659888462, 36.58620065194435], [31.98929164905894, 36.58620065194435]], [[31.98605771403612, 36.58458368443294], [31.98605771403612, 36.58566166277389], [31.985518724865642, 36.58566166277389], [31.985518724865642, 36.585122673603415], [31.984979735695163, 36.585122673603415], [31.984979735695163, 36.58458368443294], [31.98605771403612, 36.58458368443294]], [[31.98983063822942, 36.58458368443294], [31.98983063822942, 36.585122673603415], [31.98929164905894, 36.585122673603415], [31.98929164905894, 36.58458368443294], [31.98983063822942, 36.58458368443294]], [[31.9865967032066, 36.583505706092], [31.9865967032066, 36.58404469526247], [31.98605771403612, 36.58404469526247], [31.98605771403612, 36.583505706092], [31.9865967032066, 36.583505706092]], [[31.98929164905894, 36.582966716921526], [31.98929164905894, 36.58458368443294], [31.988752659888462, 36.58458368443294], [31.988752659888462, 36.58404469526247], [31.98821367071801, 36.58404469526247], [31.98821367071801, 36.582966716921526], [31.98929164905894, 36.582966716921526]], [[31.98929164905894, 36.58188873858058], [31.98929164905894, 36.58242772775105], [31.988752659888462, 36.58242772775105], [31.988752659888462, 36.58188873858058], [31.98929164905894, 36.58188873858058]]]}, "properties": {"area_ha": 148.53411642377603, "mean_dnbr": 0.3723550783074893, "compactness": 0.141, "rectangularity": 0.555, "cropland_frac": 0, "persistent": null}}]}