{"type": "FeatureCollection", "crs": {"type": "name", "properties": {"name": "urn:ogc:def:crs:OGC:1.3:CRS84"}}, "features": [{"type": "Feature", "geometry": {"geodesic": false, "type": "Polygon", "coordinates": [[[30.709731358359107, 38.97985155800923], [30.71027034752956, 38.97985155800923], [30.71027034752956, 38.9803905471797], [30.710809336700038, 38.9803905471797], [30.710809336700038, 38.98146852552065], [30.711887315040997, 38.98146852552065], [30.711887315040997, 38.98200751469112], [30.711348325870517, 38.98200751469112], [30.711348325870517, 38.98254650386159], [30.712965293381927, 38.98254650386159], [30.712965293381927, 38.98200751469112], [30.714582260893337, 38.98200751469112], [30.714582260893337, 38.980929536350175], [30.715121250063817, 38.980929536350175], [30.715121250063817, 38.98200751469112], [30.715660239234296, 38.98200751469112], [30.715660239234296, 38.98254650386159], [30.715121250063817, 38.98254650386159], [30.715121250063817, 38.98200751469112], [30.714582260893337, 38.98200751469112], [30.714582260893337, 38.983085493032064], [30.714043271722886, 38.983085493032064], [30.714043271722886, 38.98416347137301], [30.714582260893337, 38.98416347137301], [30.714582260893337, 38.98524144971395], [30.715121250063817, 38.98524144971395], [30.715121250063817, 38.98578043888442], [30.715660239234296, 38.98578043888442], [30.715660239234296, 38.98524144971395], [30.716199228404747, 38.98524144971395], [30.716199228404747, 38.98578043888442], [30.715660239234296, 38.98578043888442], [30.715660239234296, 38.98631942805489], [30.716199228404747, 38.98631942805489], [30.716199228404747, 38.98685841722536], [30.717277206745706, 38.98685841722536], [30.717277206745706, 38.987397406395836], [30.718355185086637, 38.987397406395836], [30.718355185086637, 38.98793639556631], [30.717816195916186, 38.98793639556631], [30.717816195916186, 38.98847538473678], [30.718894174257116, 38.98847538473678], [30.718894174257116, 38.98901437390725], [30.717277206745706, 38.98901437390725], [30.717277206745706, 38.99063134141867], [30.716199228404747, 38.99063134141867], [30.716199228404747, 38.989553363077725], [30.716738217575227, 38.989553363077725], [30.716738217575227, 38.98901437390725], [30.717277206745706, 38.98901437390725], [30.717277206745706, 38.98847538473678], [30.716738217575227, 38.98847538473678], [30.716738217575227, 38.98793639556631], [30.716199228404747, 38.98793639556631], [30.716199228404747, 38.98685841722536], [30.715121250063817, 38.98685841722536], [30.715121250063817, 38.98631942805489], [30.714582260893337, 38.98631942805489], [30.714582260893337, 38.98578043888442], [30.713504282552407, 38.98578043888442], [30.713504282552407, 38.98470246054348], [30.712965293381927, 38.98470246054348], [30.712965293381927, 38.98416347137301], [30.712426304211448, 38.98416347137301], [30.712426304211448, 38.98524144971395], [30.711348325870517, 38.98524144971395], [30.711348325870517, 38.98578043888442], [30.709731358359107, 38.98578043888442], [30.709731358359107, 38.98470246054348], [30.709192369188628, 38.98470246054348], [30.709192369188628, 38.98416347137301], [30.708114390847697, 38.98416347137301], [30.708114390847697, 38.983624482202536], [30.710809336700038, 38.983624482202536], [30.710809336700038, 38.98146852552065], [30.71027034752956, 38.98146852552065], [30.71027034752956, 38.9803905471797], [30.709731358359107, 38.9803905471797], [30.709731358359107, 38.97985155800923]]]}, "properties": {"area_ha": 22.057373461816102, "mean_dnbr": 0.3390177111043147, "compactness": 0.073, "rectangularity": 0.238, "cropland_frac": 0.321, "persistent": true}}]}