{"type": "FeatureCollection", "crs": {"type": "name", "properties": {"name": "urn:ogc:def:crs:OGC:1.3:CRS84"}}, "features": [{"type": "Feature", "geometry": {"geodesic": false, "type": "Polygon", "coordinates": [[[31.423353020063644, 37.750956249333726], [31.423892009234123, 37.750956249333726], [31.423892009234123, 37.7514952385042], [31.424969987575054, 37.7514952385042], [31.424969987575054, 37.75203422767467], [31.424430998404603, 37.75203422767467], [31.424430998404603, 37.75257321684514], [31.425508976745533, 37.75257321684514], [31.425508976745533, 37.75365119518609], [31.426586955086492, 37.75365119518609], [31.426586955086492, 37.75419018435656], [31.427664933427423, 37.75419018435656], [31.427664933427423, 37.75472917352703], [31.428203922597902, 37.75472917352703], [31.428203922597902, 37.755268162697504], [31.426586955086492, 37.755268162697504], [31.426586955086492, 37.75472917352703], [31.426047965916013, 37.75472917352703], [31.426047965916013, 37.75419018435656], [31.424969987575054, 37.75419018435656], [31.424969987575054, 37.75365119518609], [31.423892009234123, 37.75365119518609], [31.423892009234123, 37.753112206015615], [31.422814030893164, 37.753112206015615], [31.422814030893164, 37.75365119518609], [31.423353020063644, 37.75365119518609], [31.423353020063644, 37.75419018435656], [31.423892009234123, 37.75419018435656], [31.423892009234123, 37.75472917352703], [31.424430998404603, 37.75472917352703], [31.424430998404603, 37.755268162697504], [31.424969987575054, 37.755268162697504], [31.424969987575054, 37.75580715186797], [31.425508976745533, 37.75580715186797], [31.425508976745533, 37.75634614103844], [31.424969987575054, 37.75634614103844], [31.424969987575054, 37.75580715186797], [31.423892009234123, 37.75580715186797], [31.423892009234123, 37.755268162697504], [31.423353020063644, 37.755268162697504], [31.423353020063644, 37.75419018435656], [31.422814030893164, 37.75419018435656], [31.422814030893164, 37.75472917352703], [31.421736052552234, 37.75472917352703], [31.421736052552234, 37.75580715186797], [31.422275041722713, 37.75580715186797], [31.422275041722713, 37.75634614103844], [31.422814030893164, 37.75634614103844], [31.422814030893164, 37.756885130208914], [31.424430998404603, 37.756885130208914], [31.424430998404603, 37.75742411937939], [31.424969987575054, 37.75742411937939], [31.424969987575054, 37.75850209772033], [31.426047965916013, 37.75850209772033], [31.426047965916013, 37.759041086890804], [31.423892009234123, 37.759041086890804], [31.423892009234123, 37.75850209772033], [31.422814030893164, 37.75850209772033], [31.422814030893164, 37.75796310854986], [31.422275041722713, 37.75796310854986], [31.422275041722713, 37.759041086890804], [31.421736052552234, 37.759041086890804], [31.421736052552234, 37.76011906523175], [31.420658074211303, 37.76011906523175], [31.420658074211303, 37.759580076061276], [31.421197063381754, 37.759580076061276], [31.421197063381754, 37.759041086890804], [31.420658074211303, 37.759041086890804], [31.420658074211303, 37.75796310854986], [31.420119085040824, 37.75796310854986], [31.420119085040824, 37.756885130208914], [31.419580095870344, 37.756885130208914], [31.419580095870344, 37.75580715186797], [31.417424139188455, 37.75580715186797], [31.417424139188455, 37.755268162697504], [31.416885150017976, 37.755268162697504], [31.416885150017976, 37.7514952385042], [31.417963128358934, 37.7514952385042], [31.417963128358934, 37.75203422767467], [31.418502117529414, 37.75203422767467], [31.418502117529414, 37.75257321684514], [31.419041106699865, 37.75257321684514], [31.419041106699865, 37.753112206015615], [31.419580095870344, 37.753112206015615], [31.419580095870344, 37.75365119518609], [31.420119085040824, 37.75365119518609], [31.420119085040824, 37.75419018435656], [31.420658074211303, 37.75419018435656], [31.420658074211303, 37.75365119518609], [31.421736052552234, 37.75365119518609], [31.421736052552234, 37.753112206015615], [31.422275041722713, 37.753112206015615], [31.422275041722713, 37.75257321684514], [31.423353020063644, 37.75257321684514], [31.423353020063644, 37.75203422767467], [31.423892009234123, 37.75203422767467], [31.423892009234123, 37.7514952385042], [31.423353020063644, 37.7514952385042], [31.423353020063644, 37.750956249333726]], [[31.419041106699865, 37.75419018435656], [31.419041106699865, 37.75472917352703], [31.418502117529414, 37.75472917352703], [31.418502117529414, 37.75419018435656], [31.419041106699865, 37.75419018435656]]]}, "properties": {"area_ha": 36.35098305801067, "mean_dnbr": 0.2579171848903781, "compactness": 0.08, "rectangularity": 0.366, "cropland_frac": 0.098, "persistent": true}}, {"type": "Feature", "geometry": {"geodesic": false, "type": "Polygon", "coordinates": [[[31.512825222361954, 37.1074031797905], [31.513903200702885, 37.1074031797905], [31.513903200702885, 37.107942168960975], [31.512825222361954, 37.107942168960975], [31.512825222361954, 37.110098125642864], [31.512286233191475, 37.110098125642864], [31.512286233191475, 37.1111761039838], [31.511747244020995, 37.1111761039838], [31.511747244020995, 37.112254082324746], [31.512286233191475, 37.112254082324746], [31.512286233191475, 37.11279307149522], [31.513364211532434, 37.11279307149522], [31.513364211532434, 37.112254082324746], [31.513903200702885, 37.112254082324746], [31.513903200702885, 37.11279307149522], [31.513364211532434, 37.11279307149522], [31.513364211532434, 37.11387104983616], [31.512825222361954, 37.11387104983616], [31.512825222361954, 37.11494902817711], [31.511747244020995, 37.11494902817711], [31.511747244020995, 37.11602700651805], [31.510130276509585, 37.11602700651805], [31.510130276509585, 37.11710498485899], [31.509052298168655, 37.11710498485899], [31.509052298168655, 37.11872195237041], [31.508513308998175, 37.11872195237041], [31.508513308998175, 37.11926094154088], [31.507974319827696, 37.11926094154088], [31.507974319827696, 37.11872195237041], [31.507435330657245, 37.11872195237041], [31.507435330657245, 37.118182963199935], [31.507974319827696, 37.118182963199935], [31.507974319827696, 37.11872195237041], [31.508513308998175, 37.11872195237041], [31.508513308998175, 37.11710498485899], [31.509052298168655, 37.11710498485899], [31.509052298168655, 37.11548801734758], [31.509591287339134, 37.11548801734758], [31.509591287339134, 37.11387104983616], [31.508513308998175, 37.11387104983616], [31.508513308998175, 37.11494902817711], [31.507435330657245, 37.11494902817711], [31.507435330657245, 37.11656599568852], [31.506357352316286, 37.11656599568852], [31.506357352316286, 37.118182963199935], [31.504201395634396, 37.118182963199935], [31.504201395634396, 37.11872195237041], [31.504740384804876, 37.11872195237041], [31.504740384804876, 37.11979993071135], [31.504201395634396, 37.11979993071135], [31.504201395634396, 37.11872195237041], [31.503662406463945, 37.11872195237041], [31.503662406463945, 37.118182963199935], [31.503123417293466, 37.118182963199935], [31.503123417293466, 37.11764397402946], [31.503662406463945, 37.11764397402946], [31.503662406463945, 37.11656599568852], [31.504201395634396, 37.11656599568852], [31.504201395634396, 37.11602700651805], [31.505818363145806, 37.11602700651805], [31.505818363145806, 37.11548801734758], [31.506357352316286, 37.11548801734758], [31.506357352316286, 37.11387104983616], [31.507435330657245, 37.11387104983616], [31.507435330657245, 37.11333206066569], [31.507974319827696, 37.11333206066569], [31.507974319827696, 37.11279307149522], [31.509052298168655, 37.11279307149522], [31.509052298168655, 37.111715093154274], [31.509591287339134, 37.111715093154274], [31.509591287339134, 37.1111761039838], [31.510130276509585, 37.1111761039838], [31.510130276509585, 37.11063711481333], [31.511208254850544, 37.11063711481333], [31.511208254850544, 37.10955913647239], [31.511747244020995, 37.10955913647239], [31.511747244020995, 37.10848115813145], [31.512286233191475, 37.10848115813145], [31.512286233191475, 37.107942168960975], [31.512825222361954, 37.107942168960975], [31.512825222361954, 37.1074031797905]], [[31.504740384804876, 37.11710498485899], [31.504740384804876, 37.11764397402946], [31.504201395634396, 37.11764397402946], [31.504201395634396, 37.11710498485899], [31.504740384804876, 37.11710498485899]], [[31.511208254850544, 37.111715093154274], [31.511208254850544, 37.11279307149522], [31.510669265680065, 37.11279307149522], [31.510669265680065, 37.111715093154274], [31.511208254850544, 37.111715093154274]]]}, "properties": {"area_ha": 33.799306083072246, "mean_dnbr": 0.28275466923974435, "compactness": 0.075, "rectangularity": 0.4, "cropland_frac": 0.33, "persistent": true}}]}