{"type": "FeatureCollection", "crs": {"type": "name", "properties": {"name": "urn:ogc:def:crs:OGC:1.3:CRS84"}}, "features": [{"type": "Feature", "geometry": {"geodesic": false, "type": "Polygon", "coordinates": [[[30.79650861480505, 38.40475011311592], [30.79704760397553, 38.40475011311592], [30.79704760397553, 38.40528910228639], [30.79812558231646, 38.40528910228639], [30.79812558231646, 38.406367080627334], [30.799203560657418, 38.406367080627334], [30.799203560657418, 38.4069060697978], [30.79866457148694, 38.4069060697978], [30.79866457148694, 38.40744505896827], [30.799203560657418, 38.40744505896827], [30.799203560657418, 38.408523037309216], [30.800281538998348, 38.408523037309216], [30.800281538998348, 38.40744505896827], [30.802976484850717, 38.40744505896827], [30.802976484850717, 38.40906202647969], [30.803515474021168, 38.40906202647969], [30.803515474021168, 38.41014000482063], [30.804054463191648, 38.41014000482063], [30.804054463191648, 38.410678993991105], [30.804593452362127, 38.410678993991105], [30.804593452362127, 38.41121798316158], [30.807827387384947, 38.41121798316158], [30.807827387384947, 38.41175697233205], [30.808366376555426, 38.41175697233205], [30.808366376555426, 38.41229596150252], [30.807827387384947, 38.41229596150252], [30.807827387384947, 38.41283495067299], [30.807288398214467, 38.41283495067299], [30.807288398214467, 38.414451918184405], [30.805671430703057, 38.414451918184405], [30.805671430703057, 38.41499090735488], [30.804593452362127, 38.41499090735488], [30.804593452362127, 38.41552989652535], [30.803515474021168, 38.41552989652535], [30.803515474021168, 38.41499090735488], [30.802976484850717, 38.41499090735488], [30.802976484850717, 38.41229596150252], [30.801898506509758, 38.41229596150252], [30.801898506509758, 38.41121798316158], [30.800820528168828, 38.41121798316158], [30.800820528168828, 38.410678993991105], [30.79974254982787, 38.410678993991105], [30.79974254982787, 38.41121798316158], [30.799203560657418, 38.41121798316158], [30.799203560657418, 38.410678993991105], [30.79866457148694, 38.410678993991105], [30.79866457148694, 38.41121798316158], [30.79812558231646, 38.41121798316158], [30.79812558231646, 38.408523037309216], [30.79596962563457, 38.408523037309216], [30.79596962563457, 38.407984048138744], [30.79543063646409, 38.407984048138744], [30.79543063646409, 38.40744505896827], [30.79489164729364, 38.40744505896827], [30.79489164729364, 38.406367080627334], [30.79543063646409, 38.406367080627334], [30.79543063646409, 38.40582809145686], [30.79596962563457, 38.40582809145686], [30.79596962563457, 38.406367080627334], [30.79650861480505, 38.406367080627334], [30.79650861480505, 38.40475011311592]], [[30.805671430703057, 38.41337393984346], [30.805671430703057, 38.414451918184405], [30.803515474021168, 38.414451918184405], [30.803515474021168, 38.41391292901393], [30.805132441532606, 38.41391292901393], [30.805132441532606, 38.41337393984346], [30.805671430703057, 38.41337393984346]], [[30.800281538998348, 38.40960101565016], [30.800281538998348, 38.41014000482063], [30.79974254982787, 38.41014000482063], [30.79974254982787, 38.40960101565016], [30.800281538998348, 38.40960101565016]], [[30.79596962563457, 38.406367080627334], [30.79596962563457, 38.4069060697978], [30.79543063646409, 38.4069060697978], [30.79543063646409, 38.406367080627334], [30.79596962563457, 38.406367080627334]]]}, "properties": {"area_ha": 42.50033727811461, "mean_dnbr": 0.4729190555265312, "compactness": 0.127, "rectangularity": 0.493, "cropland_frac": 0.001, "persistent": true}}, {"type": "Feature", "geometry": {"geodesic": false, "type": "Polygon", "coordinates": [[[31.546781540101676, 38.07327177327581], [31.547320529272127, 38.07327177327581], [31.547320529272127, 38.073810762446286], [31.548398507613086, 38.073810762446286], [31.548398507613086, 38.07434975161676], [31.549476485954017, 38.07434975161676], [31.549476485954017, 38.073810762446286], [31.550015475124496, 38.073810762446286], [31.550015475124496, 38.07488874078723], [31.551093453465455, 38.07488874078723], [31.551093453465455, 38.07596671912817], [31.552710420976865, 38.07596671912817], [31.552710420976865, 38.07650570829864], [31.553249410147345, 38.07650570829864], [31.553249410147345, 38.07704469746911], [31.554327388488275, 38.07704469746911], [31.554327388488275, 38.077583686639585], [31.554866377658755, 38.077583686639585], [31.554866377658755, 38.07812267581006], [31.555405366829206, 38.07812267581006], [31.555405366829206, 38.08081762166242], [31.554866377658755, 38.08081762166242], [31.554866377658755, 38.0829735783443], [31.553788399317796, 38.0829735783443], [31.553788399317796, 38.08243458917383], [31.553249410147345, 38.08243458917383], [31.553249410147345, 38.08189560000336], [31.552710420976865, 38.08189560000336], [31.552710420976865, 38.081356610832884], [31.552171431806386, 38.081356610832884], [31.552171431806386, 38.08243458917383], [31.551632442635906, 38.08243458917383], [31.551632442635906, 38.0829735783443], [31.550015475124496, 38.0829735783443], [31.550015475124496, 38.08243458917383], [31.550554464294976, 38.08243458917383], [31.550554464294976, 38.081356610832884], [31.549476485954017, 38.081356610832884], [31.549476485954017, 38.08081762166242], [31.548937496783566, 38.08081762166242], [31.548937496783566, 38.08027863249195], [31.549476485954017, 38.08027863249195], [31.549476485954017, 38.079200654151], [31.550015475124496, 38.079200654151], [31.550015475124496, 38.07866166498053], [31.549476485954017, 38.07866166498053], [31.549476485954017, 38.07812267581006], [31.550015475124496, 38.07812267581006], [31.550015475124496, 38.077583686639585], [31.549476485954017, 38.077583686639585], [31.549476485954017, 38.07650570829864], [31.547859518442607, 38.07650570829864], [31.547859518442607, 38.07488874078723], [31.547320529272127, 38.07488874078723], [31.547320529272127, 38.07434975161676], [31.546781540101676, 38.07434975161676], [31.546781540101676, 38.07327177327581]], [[31.552171431806386, 38.08027863249195], [31.552171431806386, 38.081356610832884], [31.551093453465455, 38.081356610832884], [31.551093453465455, 38.08027863249195], [31.552171431806386, 38.08027863249195]], [[31.550554464294976, 38.079200654151], [31.550554464294976, 38.079739643321474], [31.550015475124496, 38.079739643321474], [31.550015475124496, 38.079200654151], [31.550554464294976, 38.079200654151]]]}, "properties": {"area_ha": 37.88803515349842, "mean_dnbr": 0.49376231258347175, "compactness": 0.178, "rectangularity": 0.497, "cropland_frac": 0, "persistent": true}}, {"type": "Feature", "geometry": {"geodesic": false, "type": "Polygon", "coordinates": [[[31.558639301852054, 38.075427729957696], [31.562951215215833, 38.075427729957696], [31.562951215215833, 38.07596671912817], [31.562412226045353, 38.07596671912817], [31.562412226045353, 38.07650570829864], [31.562951215215833, 38.07650570829864], [31.562951215215833, 38.07704469746911], [31.562412226045353, 38.07704469746911], [31.562412226045353, 38.077583686639585], [31.562951215215833, 38.077583686639585], [31.562951215215833, 38.079200654151], [31.563490204386284, 38.079200654151], [31.563490204386284, 38.079739643321474], [31.564029193556763, 38.079739643321474], [31.564029193556763, 38.08027863249195], [31.564568182727243, 38.08027863249195], [31.564568182727243, 38.079739643321474], [31.565107171897722, 38.079739643321474], [31.565107171897722, 38.079200654151], [31.566185150238653, 38.079200654151], [31.566185150238653, 38.07866166498053], [31.567263128579583, 38.07866166498053], [31.567263128579583, 38.08027863249195], [31.567802117750063, 38.08027863249195], [31.567802117750063, 38.08081762166242], [31.56888009609102, 38.08081762166242], [31.56888009609102, 38.08027863249195], [31.569419085261472, 38.08027863249195], [31.569419085261472, 38.079739643321474], [31.57103605277291, 38.079739643321474], [31.57103605277291, 38.08027863249195], [31.57265302028432, 38.08027863249195], [31.57265302028432, 38.081356610832884], [31.573192009454772, 38.081356610832884], [31.573192009454772, 38.08189560000336], [31.57211403111384, 38.08189560000336], [31.57211403111384, 38.08243458917383], [31.57103605277291, 38.08243458917383], [31.57103605277291, 38.0829735783443], [31.569958074431952, 38.0829735783443], [31.569958074431952, 38.08512953502619], [31.569419085261472, 38.08512953502619], [31.569419085261472, 38.08566852419666], [31.57049706360243, 38.08566852419666], [31.57049706360243, 38.08459054585572], [31.57211403111384, 38.08459054585572], [31.57211403111384, 38.08512953502619], [31.57103605277291, 38.08512953502619], [31.57103605277291, 38.08566852419666], [31.573192009454772, 38.08566852419666], [31.573192009454772, 38.086207513367135], [31.57373099862525, 38.086207513367135], [31.57373099862525, 38.08674650253761], [31.57426998779573, 38.08674650253761], [31.57426998779573, 38.087824480878545], [31.57480897696621, 38.087824480878545], [31.57480897696621, 38.08728549170807], [31.57534796613666, 38.08728549170807], [31.57534796613666, 38.087824480878545], [31.57642594447762, 38.087824480878545], [31.57642594447762, 38.08728549170807], [31.57804291198903, 38.08728549170807], [31.57804291198903, 38.086207513367135], [31.57750392281855, 38.086207513367135], [31.57750392281855, 38.08566852419666], [31.57804291198903, 38.08566852419666], [31.57804291198903, 38.086207513367135], [31.57858190115951, 38.086207513367135], [31.57858190115951, 38.08459054585572], [31.58019886867092, 38.08459054585572], [31.58019886867092, 38.084051556685246], [31.5807378578414, 38.084051556685246], [31.5807378578414, 38.08459054585572], [31.58127684701185, 38.08459054585572], [31.58127684701185, 38.084051556685246], [31.58397179286422, 38.084051556685246], [31.58397179286422, 38.083512567514774], [31.584510782034698, 38.083512567514774], [31.584510782034698, 38.0829735783443], [31.58558876037563, 38.0829735783443], [31.58558876037563, 38.084051556685246], [31.58720572788704, 38.084051556685246], [31.58720572788704, 38.083512567514774], [31.588283706227998, 38.083512567514774], [31.588283706227998, 38.084051556685246], [31.592056630421297, 38.084051556685246], [31.592056630421297, 38.087824480878545], [31.591517641250817, 38.087824480878545], [31.591517641250817, 38.08836347004902], [31.593134608762227, 38.08836347004902], [31.593134608762227, 38.087824480878545], [31.593673597932707, 38.087824480878545], [31.593673597932707, 38.08728549170807], [31.594751576273666, 38.08728549170807], [31.594751576273666, 38.087824480878545], [31.596907532955527, 38.087824480878545], [31.596907532955527, 38.08836347004902], [31.597446522126006, 38.08836347004902], [31.597446522126006, 38.08890245921949], [31.597985511296486, 38.08890245921949], [31.597985511296486, 38.08836347004902], [31.599063489637416, 38.08836347004902], [31.599063489637416, 38.08944144838996], [31.598524500466965, 38.08944144838996], [31.598524500466965, 38.089980437560435], [31.597985511296486, 38.089980437560435], [31.597985511296486, 38.08944144838996], [31.597446522126006, 38.08944144838996], [31.597446522126006, 38.08890245921949], [31.594751576273666, 38.08890245921949], [31.594751576273666, 38.08944144838996], [31.592595619591776, 38.08944144838996], [31.592595619591776, 38.09051942673091], [31.590978652080338, 38.09051942673091], [31.590978652080338, 38.09105841590138], [31.589900673739407, 38.09105841590138], [31.589900673739407, 38.09159740507185], [31.588822695398477, 38.09159740507185], [31.588822695398477, 38.092136394242324], [31.587744717057518, 38.092136394242324], [31.587744717057518, 38.0926753834128], [31.58343280369374, 38.0926753834128], [31.58343280369374, 38.092136394242324], [31.58235482535281, 38.092136394242324], [31.58235482535281, 38.09159740507185], [31.5807378578414, 38.09159740507185], [31.5807378578414, 38.092136394242324], [31.58019886867092, 38.092136394242324], [31.58019886867092, 38.0926753834128], [31.57965987950044, 38.0926753834128], [31.57965987950044, 38.09321437258326], [31.57912089032996, 38.09321437258326], [31.57912089032996, 38.094292350924206], [31.5769649336481, 38.094292350924206], [31.5769649336481, 38.09537032926515], [31.57965987950044, 38.09537032926515], [31.57965987950044, 38.09590931843562], [31.57858190115951, 38.09590931843562], [31.57858190115951, 38.096448307606096], [31.57750392281855, 38.096448307606096], [31.57750392281855, 38.09698729677657], [31.5769649336481, 38.09698729677657], [31.5769649336481, 38.09752628594704], [31.57642594447762, 38.09752628594704], [31.57642594447762, 38.098604264287985], [31.57588695530714, 38.098604264287985], [31.57588695530714, 38.10076022096987], [31.57642594447762, 38.10076022096987], [31.57642594447762, 38.10129921014034], [31.57588695530714, 38.10129921014034], [31.57588695530714, 38.10183819931081], [31.57534796613666, 38.10183819931081], [31.57534796613666, 38.09914325345845], [31.57373099862525, 38.09914325345845], [31.57373099862525, 38.09968224262892], [31.573192009454772, 38.09968224262892], [31.573192009454772, 38.09914325345845], [31.571575041943362, 38.09914325345845], [31.571575041943362, 38.09968224262892], [31.567802117750063, 38.09968224262892], [31.567802117750063, 38.09752628594704], [31.567263128579583, 38.09752628594704], [31.567263128579583, 38.09698729677657], [31.569419085261472, 38.09698729677657], [31.569419085261472, 38.096448307606096], [31.57049706360243, 38.096448307606096], [31.57049706360243, 38.09590931843562], [31.569958074431952, 38.09590931843562], [31.569958074431952, 38.09537032926515], [31.56888009609102, 38.09537032926515], [31.56888009609102, 38.09483134009468], [31.565107171897722, 38.09483134009468], [31.565107171897722, 38.0926753834128], [31.564568182727243, 38.0926753834128], [31.564568182727243, 38.09159740507185], [31.562951215215833, 38.09159740507185], [31.562951215215833, 38.09105841590138], [31.560795258533943, 38.09105841590138], [31.560795258533943, 38.09051942673091], [31.559178291022533, 38.09051942673091], [31.559178291022533, 38.08836347004902], [31.558639301852054, 38.08836347004902], [31.558639301852054, 38.08890245921949], [31.558100312681574, 38.08890245921949], [31.558100312681574, 38.08944144838996], [31.557561323511095, 38.08944144838996], [31.557561323511095, 38.09051942673091], [31.557022334340644, 38.09051942673091], [31.557022334340644, 38.08890245921949], [31.556483345170165, 38.08890245921949], [31.556483345170165, 38.08944144838996], [31.555944355999685, 38.08944144838996], [31.555944355999685, 38.089980437560435], [31.554866377658755, 38.089980437560435], [31.554866377658755, 38.08944144838996], [31.554327388488275, 38.08944144838996], [31.554327388488275, 38.09051942673091], [31.553788399317796, 38.09051942673091], [31.553788399317796, 38.08944144838996], [31.553249410147345, 38.08944144838996], [31.553249410147345, 38.089980437560435], [31.552710420976865, 38.089980437560435], [31.552710420976865, 38.08944144838996], [31.553249410147345, 38.08944144838996], [31.553249410147345, 38.08890245921949], [31.553788399317796, 38.08890245921949], [31.553788399317796, 38.08836347004902], [31.553249410147345, 38.08836347004902], [31.553249410147345, 38.08728549170807], [31.553788399317796, 38.08728549170807], [31.553788399317796, 38.08674650253761], [31.554327388488275, 38.08674650253761], [31.554327388488275, 38.086207513367135], [31.554866377658755, 38.086207513367135], [31.554866377658755, 38.08566852419666], [31.555405366829206, 38.08566852419666], [31.555405366829206, 38.08459054585572], [31.555944355999685, 38.08459054585572], [31.555944355999685, 38.083512567514774], [31.556483345170165, 38.083512567514774], [31.556483345170165, 38.08189560000336], [31.557022334340644, 38.08189560000336], [31.557022334340644, 38.081356610832884], [31.557561323511095, 38.081356610832884], [31.557561323511095, 38.08081762166242], [31.557022334340644, 38.08081762166242], [31.557022334340644, 38.08027863249195], [31.556483345170165, 38.08027863249195], [31.556483345170165, 38.07812267581006], [31.557022334340644, 38.07812267581006], [31.557022334340644, 38.077583686639585], [31.557561323511095, 38.077583686639585], [31.557561323511095, 38.07650570829864], [31.558639301852054, 38.07650570829864], [31.558639301852054, 38.075427729957696]], [[31.57642594447762, 38.09321437258326], [31.57642594447762, 38.093753361753734], [31.57588695530714, 38.093753361753734], [31.57588695530714, 38.09321437258326], [31.57642594447762, 38.09321437258326]], [[31.57858190115951, 38.09051942673091], [31.57858190115951, 38.09105841590138], [31.57804291198903, 38.09105841590138], [31.57804291198903, 38.09051942673091], [31.57858190115951, 38.09051942673091]], [[31.561873236874874, 38.089980437560435], [31.561873236874874, 38.09051942673091], [31.560795258533943, 38.09051942673091], [31.560795258533943, 38.089980437560435], [31.561873236874874, 38.089980437560435]], [[31.57426998779573, 38.089980437560435], [31.57426998779573, 38.09051942673091], [31.57373099862525, 38.09051942673091], [31.57373099862525, 38.089980437560435], [31.57426998779573, 38.089980437560435]], [[31.57750392281855, 38.089980437560435], [31.57750392281855, 38.09051942673091], [31.5769649336481, 38.09051942673091], [31.5769649336481, 38.089980437560435], [31.57750392281855, 38.089980437560435]], [[31.560256269363464, 38.08944144838996], [31.560256269363464, 38.089980437560435], [31.559717280192984, 38.089980437560435], [31.559717280192984, 38.08944144838996], [31.560256269363464, 38.08944144838996]], [[31.564029193556763, 38.08944144838996], [31.564029193556763, 38.089980437560435], [31.563490204386284, 38.089980437560435], [31.563490204386284, 38.09051942673091], [31.562951215215833, 38.09051942673091], [31.562951215215833, 38.08944144838996], [31.564029193556763, 38.08944144838996]], [[31.57480897696621, 38.08944144838996], [31.57480897696621, 38.089980437560435], [31.57426998779573, 38.089980437560435], [31.57426998779573, 38.08944144838996], [31.57480897696621, 38.08944144838996]], [[31.589900673739407, 38.08944144838996], [31.589900673739407, 38.089980437560435], [31.589361684568928, 38.089980437560435], [31.589361684568928, 38.08944144838996], [31.589900673739407, 38.08944144838996]], [[31.591517641250817, 38.08944144838996], [31.591517641250817, 38.089980437560435], [31.590978652080338, 38.089980437560435], [31.590978652080338, 38.08944144838996], [31.591517641250817, 38.08944144838996]], [[31.567802117750063, 38.08890245921949], [31.567802117750063, 38.08944144838996], [31.567263128579583, 38.08944144838996], [31.567263128579583, 38.08890245921949], [31.567802117750063, 38.08890245921949]], [[31.57750392281855, 38.08890245921949], [31.57750392281855, 38.08944144838996], [31.5769649336481, 38.08944144838996], [31.5769649336481, 38.08890245921949], [31.57750392281855, 38.08890245921949]], [[31.557561323511095, 38.087824480878545], [31.557561323511095, 38.08836347004902], [31.557022334340644, 38.08836347004902], [31.557022334340644, 38.087824480878545], [31.557561323511095, 38.087824480878545]], [[31.56888009609102, 38.087824480878545], [31.56888009609102, 38.08890245921949], [31.567802117750063, 38.08890245921949], [31.567802117750063, 38.08836347004902], [31.568341106920542, 38.08836347004902], [31.568341106920542, 38.087824480878545], [31.56888009609102, 38.087824480878545]], [[31.58558876037563, 38.086207513367135], [31.58558876037563, 38.08674650253761], [31.58504977120515, 38.08674650253761], [31.58504977120515, 38.086207513367135], [31.58558876037563, 38.086207513367135]], [[31.58720572788704, 38.086207513367135], [31.58720572788704, 38.08674650253761], [31.586127749546108, 38.08674650253761], [31.586127749546108, 38.086207513367135], [31.58720572788704, 38.086207513367135]], [[31.569419085261472, 38.08566852419666], [31.569419085261472, 38.08674650253761], [31.56888009609102, 38.08674650253761], [31.56888009609102, 38.08566852419666], [31.569419085261472, 38.08566852419666]], [[31.586127749546108, 38.08459054585572], [31.586127749546108, 38.08512953502619], [31.58720572788704, 38.08512953502619], [31.58720572788704, 38.08566852419666], [31.58558876037563, 38.08566852419666], [31.58558876037563, 38.08459054585572], [31.586127749546108, 38.08459054585572]], [[31.557561323511095, 38.0829735783443], [31.557561323511095, 38.083512567514774], [31.557022334340644, 38.083512567514774], [31.557022334340644, 38.0829735783443], [31.557561323511095, 38.0829735783443]], [[31.562412226045353, 38.08189560000336], [31.562412226045353, 38.08243458917383], [31.561873236874874, 38.08243458917383], [31.561873236874874, 38.08189560000336], [31.562412226045353, 38.08189560000336]], [[31.567802117750063, 38.08189560000336], [31.567802117750063, 38.0829735783443], [31.569419085261472, 38.0829735783443], [31.569419085261472, 38.08459054585572], [31.568341106920542, 38.08459054585572], [31.568341106920542, 38.084051556685246], [31.567802117750063, 38.084051556685246], [31.567802117750063, 38.083512567514774], [31.567263128579583, 38.083512567514774], [31.567263128579583, 38.0829735783443], [31.566724139409132, 38.0829735783443], [31.566724139409132, 38.08243458917383], [31.565646161068173, 38.08243458917383], [31.565646161068173, 38.08189560000336], [31.567802117750063, 38.08189560000336]], [[31.565646161068173, 38.081356610832884], [31.565646161068173, 38.08189560000336], [31.563490204386284, 38.08189560000336], [31.563490204386284, 38.081356610832884], [31.565646161068173, 38.081356610832884]], [[31.563490204386284, 38.079739643321474], [31.563490204386284, 38.08081762166242], [31.562951215215833, 38.08081762166242], [31.562951215215833, 38.079739643321474], [31.563490204386284, 38.079739643321474]]]}, "properties": {"area_ha": 414.4527177356594, "mean_dnbr": 0.586340754578106, "compactness": 0.064, "rectangularity": 0.444, "cropland_frac": 0.002, "persistent": true}}]}