{"type": "FeatureCollection", "crs": {"type": "name", "properties": {"name": "urn:ogc:def:crs:OGC:1.3:CRS84"}}, "features": [{"type": "Feature", "geometry": {"geodesic": false, "type": "Polygon", "coordinates": [[[30.71027034752956, 38.9803905471797], [30.710809336700038, 38.9803905471797], [30.710809336700038, 38.980929536350175], [30.711348325870517, 38.980929536350175], [30.711348325870517, 38.98146852552065], [30.711887315040997, 38.98146852552065], [30.711887315040997, 38.983085493032064], [30.712426304211448, 38.983085493032064], [30.712426304211448, 38.983624482202536], [30.714582260893337, 38.983624482202536], [30.714582260893337, 38.983085493032064], [30.715660239234296, 38.983085493032064], [30.715660239234296, 38.983624482202536], [30.716199228404747, 38.983624482202536], [30.716199228404747, 38.98524144971395], [30.715660239234296, 38.98524144971395], [30.715660239234296, 38.983624482202536], [30.714582260893337, 38.983624482202536], [30.714582260893337, 38.98524144971395], [30.713504282552407, 38.98524144971395], [30.713504282552407, 38.98631942805489], [30.715121250063817, 38.98631942805489], [30.715121250063817, 38.98578043888442], [30.715660239234296, 38.98578043888442], [30.715660239234296, 38.98685841722536], [30.717277206745706, 38.98685841722536], [30.717277206745706, 38.98631942805489], [30.717816195916186, 38.98631942805489], [30.717816195916186, 38.987397406395836], [30.718355185086637, 38.987397406395836], [30.718355185086637, 38.98793639556631], [30.718894174257116, 38.98793639556631], [30.718894174257116, 38.98847538473678], [30.718355185086637, 38.98847538473678], [30.718355185086637, 38.98901437390725], [30.717816195916186, 38.98901437390725], [30.717816195916186, 38.989553363077725], [30.718355185086637, 38.989553363077725], [30.718355185086637, 38.9900923522482], [30.718894174257116, 38.9900923522482], [30.718894174257116, 38.99063134141867], [30.718355185086637, 38.99063134141867], [30.718355185086637, 38.9900923522482], [30.717277206745706, 38.9900923522482], [30.717277206745706, 38.98847538473678], [30.716199228404747, 38.98847538473678], [30.716199228404747, 38.98793639556631], [30.715660239234296, 38.98793639556631], [30.715660239234296, 38.98685841722536], [30.715121250063817, 38.98685841722536], [30.715121250063817, 38.987397406395836], [30.713504282552407, 38.987397406395836], [30.713504282552407, 38.98793639556631], [30.712965293381927, 38.98793639556631], [30.712965293381927, 38.989553363077725], [30.714582260893337, 38.989553363077725], [30.714582260893337, 38.98901437390725], [30.715121250063817, 38.98901437390725], [30.715121250063817, 38.989553363077725], [30.714582260893337, 38.989553363077725], [30.714582260893337, 38.9900923522482], [30.715121250063817, 38.9900923522482], [30.715121250063817, 38.99117033058914], [30.715660239234296, 38.99117033058914], [30.715660239234296, 38.99063134141867], [30.716738217575227, 38.99063134141867], [30.716738217575227, 38.99170931975961], [30.716199228404747, 38.99170931975961], [30.716199228404747, 38.99224830893008], [30.715660239234296, 38.99224830893008], [30.715660239234296, 38.99278729810055], [30.714582260893337, 38.99278729810055], [30.714582260893337, 38.99117033058914], [30.714043271722886, 38.99117033058914], [30.714043271722886, 38.9900923522482], [30.712965293381927, 38.9900923522482], [30.712965293381927, 38.989553363077725], [30.711348325870517, 38.989553363077725], [30.711348325870517, 38.98793639556631], [30.711887315040997, 38.98793639556631], [30.711887315040997, 38.987397406395836], [30.712426304211448, 38.987397406395836], [30.712426304211448, 38.98578043888442], [30.712965293381927, 38.98578043888442], [30.712965293381927, 38.98524144971395], [30.711887315040997, 38.98524144971395], [30.711887315040997, 38.98631942805489], [30.711348325870517, 38.98631942805489], [30.711348325870517, 38.98578043888442], [30.709731358359107, 38.98578043888442], [30.709731358359107, 38.98470246054348], [30.71027034752956, 38.98470246054348], [30.71027034752956, 38.98416347137301], [30.710809336700038, 38.98416347137301], [30.710809336700038, 38.983624482202536], [30.711348325870517, 38.983624482202536], [30.711348325870517, 38.98254650386159], [30.710809336700038, 38.98254650386159], [30.710809336700038, 38.98146852552065], [30.71027034752956, 38.98146852552065], [30.71027034752956, 38.9803905471797]]]}, "properties": {"area_ha": 30.991126961230574, "mean_dnbr": 0.18796253176054556, "compactness": 0.057, "rectangularity": 0.323, "cropland_frac": 0.491, "persistent": true}}, {"type": "Feature", "geometry": {"geodesic": false, "type": "Polygon", "coordinates": [[[30.711887315040997, 39.0833374787398], [30.712426304211448, 39.0833374787398], [30.712426304211448, 39.084415457080745], [30.712965293381927, 39.084415457080745], [30.712965293381927, 39.08387646791027], [30.714043271722886, 39.08387646791027], [30.714043271722886, 39.084415457080745], [30.713504282552407, 39.084415457080745], [30.713504282552407, 39.08495444625122], [30.712965293381927, 39.08495444625122], [30.712965293381927, 39.08603242459216], [30.713504282552407, 39.08603242459216], [30.713504282552407, 39.088188381274044], [30.712965293381927, 39.088188381274044], [30.712965293381927, 39.08926635961499], [30.712426304211448, 39.08926635961499], [30.712426304211448, 39.088727370444516], [30.711887315040997, 39.088727370444516], [30.711887315040997, 39.08980534878546], [30.711348325870517, 39.08980534878546], [30.711348325870517, 39.08926635961499], [30.70865338001815, 39.08926635961499], [30.70865338001815, 39.08980534878546], [30.709192369188628, 39.08980534878546], [30.709192369188628, 39.09034433795593], [30.71027034752956, 39.09034433795593], [30.71027034752956, 39.090883327126406], [30.709731358359107, 39.090883327126406], [30.709731358359107, 39.09196130546735], [30.709192369188628, 39.09196130546735], [30.709192369188628, 39.09250029463782], [30.707575401677218, 39.09250029463782], [30.707575401677218, 39.093039283808295], [30.70703641250674, 39.093039283808295], [30.70703641250674, 39.09519524049018], [30.707575401677218, 39.09519524049018], [30.707575401677218, 39.09573422966065], [30.70488045582485, 39.09573422966065], [30.70488045582485, 39.09627321883112], [30.70434146665437, 39.09627321883112], [30.70434146665437, 39.096812208001595], [30.70380247748392, 39.096812208001595], [30.70380247748392, 39.09627321883112], [30.70326348831344, 39.09627321883112], [30.70326348831344, 39.09789018634254], [30.70272449914296, 39.09789018634254], [30.70272449914296, 39.09735119717207], [30.70164652080203, 39.09735119717207], [30.70164652080203, 39.09789018634254], [30.70110753163155, 39.09789018634254], [30.70110753163155, 39.09842917551301], [30.70056854246107, 39.09842917551301], [30.70056854246107, 39.09789018634254], [30.70002955329062, 39.09789018634254], [30.70002955329062, 39.096812208001595], [30.69949056412014, 39.096812208001595], [30.69949056412014, 39.09573422966065], [30.69895157494966, 39.09573422966065], [30.69895157494966, 39.09519524049018], [30.69949056412014, 39.09519524049018], [30.69949056412014, 39.094656251319705], [30.69895157494966, 39.094656251319705], [30.69895157494966, 39.093039283808295], [30.69949056412014, 39.093039283808295], [30.69949056412014, 39.09250029463782], [30.70002955329062, 39.09250029463782], [30.70002955329062, 39.09196130546735], [30.69895157494966, 39.09196130546735], [30.69895157494966, 39.09142231629688], [30.69949056412014, 39.09142231629688], [30.69949056412014, 39.090883327126406], [30.70056854246107, 39.090883327126406], [30.70056854246107, 39.09142231629688], [30.70110753163155, 39.09142231629688], [30.70110753163155, 39.090883327126406], [30.70164652080203, 39.090883327126406], [30.70164652080203, 39.09034433795593], [30.70326348831344, 39.09034433795593], [30.70326348831344, 39.090883327126406], [30.70434146665437, 39.090883327126406], [30.70434146665437, 39.08926635961499], [30.70541944499533, 39.08926635961499], [30.70541944499533, 39.088727370444516], [30.705958434165808, 39.088727370444516], [30.705958434165808, 39.088188381274044], [30.70541944499533, 39.088188381274044], [30.70541944499533, 39.08711040293311], [30.705958434165808, 39.08711040293311], [30.705958434165808, 39.08764939210358], [30.70649742333626, 39.08764939210358], [30.70649742333626, 39.08711040293311], [30.70703641250674, 39.08711040293311], [30.70703641250674, 39.088188381274044], [30.70865338001815, 39.088188381274044], [30.70865338001815, 39.08711040293311], [30.708114390847697, 39.08711040293311], [30.708114390847697, 39.08603242459216], [30.70703641250674, 39.08603242459216], [30.70703641250674, 39.08549343542169], [30.707575401677218, 39.08549343542169], [30.707575401677218, 39.08495444625122], [30.709192369188628, 39.08495444625122], [30.709192369188628, 39.086571413762634], [30.709731358359107, 39.086571413762634], [30.709731358359107, 39.08711040293311], [30.71027034752956, 39.08711040293311], [30.71027034752956, 39.086571413762634], [30.710809336700038, 39.086571413762634], [30.710809336700038, 39.08603242459216], [30.71027034752956, 39.08603242459216], [30.71027034752956, 39.08387646791027], [30.711887315040997, 39.08387646791027], [30.711887315040997, 39.0833374787398]], [[30.70703641250674, 39.09250029463782], [30.70703641250674, 39.093039283808295], [30.70649742333626, 39.093039283808295], [30.70649742333626, 39.09250029463782], [30.70703641250674, 39.09250029463782]], [[30.70326348831344, 39.09196130546735], [30.70326348831344, 39.09250029463782], [30.70272449914296, 39.09250029463782], [30.70272449914296, 39.093039283808295], [30.70218550997251, 39.093039283808295], [30.70218550997251, 39.094656251319705], [30.70272449914296, 39.094656251319705], [30.70272449914296, 39.09519524049018], [30.70164652080203, 39.09519524049018], [30.70164652080203, 39.094656251319705], [30.70110753163155, 39.094656251319705], [30.70110753163155, 39.09519524049018], [30.70002955329062, 39.09519524049018], [30.70002955329062, 39.094656251319705], [30.70056854246107, 39.094656251319705], [30.70056854246107, 39.09411726214923], [30.70110753163155, 39.09411726214923], [30.70110753163155, 39.09357827297877], [30.70056854246107, 39.09357827297877], [30.70056854246107, 39.093039283808295], [30.70110753163155, 39.093039283808295], [30.70110753163155, 39.09250029463782], [30.70164652080203, 39.09250029463782], [30.70164652080203, 39.09196130546735], [30.70326348831344, 39.09196130546735]], [[30.70865338001815, 39.088727370444516], [30.70865338001815, 39.08926635961499], [30.70703641250674, 39.08926635961499], [30.70703641250674, 39.088727370444516], [30.70865338001815, 39.088727370444516]], [[30.709192369188628, 39.088188381274044], [30.709192369188628, 39.088727370444516], [30.70865338001815, 39.088727370444516], [30.70865338001815, 39.088188381274044], [30.709192369188628, 39.088188381274044]], [[30.71027034752956, 39.088188381274044], [30.71027034752956, 39.088727370444516], [30.709731358359107, 39.088727370444516], [30.709731358359107, 39.088188381274044], [30.71027034752956, 39.088188381274044]], [[30.712426304211448, 39.08549343542169], [30.712426304211448, 39.08603242459216], [30.711887315040997, 39.08603242459216], [30.711887315040997, 39.08549343542169], [30.712426304211448, 39.08549343542169]], [[30.711348325870517, 39.08495444625122], [30.711348325870517, 39.08549343542169], [30.710809336700038, 39.08549343542169], [30.710809336700038, 39.08495444625122], [30.711348325870517, 39.08495444625122]], [[30.712426304211448, 39.084415457080745], [30.712426304211448, 39.08495444625122], [30.711887315040997, 39.08495444625122], [30.711887315040997, 39.084415457080745], [30.712426304211448, 39.084415457080745]]]}, "properties": {"area_ha": 76.38774330553166, "mean_dnbr": 0.19796775147228843, "compactness": 0.065, "rectangularity": 0.448, "cropland_frac": 0.153, "persistent": true}}, {"type": "Feature", "geometry": {"geodesic": false, "type": "Polygon", "coordinates": [[[30.713504282552407, 39.28438043932575], [30.715660239234296, 39.28438043932575], [30.715660239234296, 39.285458417666696], [30.717277206745706, 39.285458417666696], [30.717277206745706, 39.28599740683717], [30.717816195916186, 39.28599740683717], [30.717816195916186, 39.28653639600764], [30.716199228404747, 39.28653639600764], [30.716199228404747, 39.287075385178106], [30.717277206745706, 39.287075385178106], [30.717277206745706, 39.28761437434858], [30.716738217575227, 39.28761437434858], [30.716738217575227, 39.28869235268952], [30.715660239234296, 39.28869235268952], [30.715660239234296, 39.289231341859995], [30.716199228404747, 39.289231341859995], [30.716199228404747, 39.28977033103047], [30.716738217575227, 39.28977033103047], [30.716738217575227, 39.29030932020094], [30.717277206745706, 39.29030932020094], [30.717277206745706, 39.28815336351905], [30.718894174257116, 39.28815336351905], [30.718894174257116, 39.28761437434858], [30.719433163427595, 39.28761437434858], [30.719433163427595, 39.28815336351905], [30.719972152598075, 39.28815336351905], [30.719972152598075, 39.28761437434858], [30.721050130939005, 39.28761437434858], [30.721050130939005, 39.287075385178106], [30.722667098450415, 39.287075385178106], [30.722667098450415, 39.28869235268952], [30.721050130939005, 39.28869235268952], [30.721050130939005, 39.28977033103047], [30.718894174257116, 39.28977033103047], [30.718894174257116, 39.29030932020094], [30.717816195916186, 39.29030932020094], [30.717816195916186, 39.29084830937141], [30.716738217575227, 39.29084830937141], [30.716738217575227, 39.291387298541885], [30.715660239234296, 39.291387298541885], [30.715660239234296, 39.29192628771236], [30.717277206745706, 39.29192628771236], [30.717277206745706, 39.29246527688283], [30.714043271722886, 39.29246527688283], [30.714043271722886, 39.29192628771236], [30.711887315040997, 39.29192628771236], [30.711887315040997, 39.291387298541885], [30.711348325870517, 39.291387298541885], [30.711348325870517, 39.29030932020094], [30.710809336700038, 39.29030932020094], [30.710809336700038, 39.289231341859995], [30.70865338001815, 39.289231341859995], [30.70865338001815, 39.28815336351905], [30.709192369188628, 39.28815336351905], [30.709192369188628, 39.28761437434858], [30.709731358359107, 39.28761437434858], [30.709731358359107, 39.287075385178106], [30.71027034752956, 39.287075385178106], [30.71027034752956, 39.28599740683717], [30.711348325870517, 39.28599740683717], [30.711348325870517, 39.285458417666696], [30.712965293381927, 39.285458417666696], [30.712965293381927, 39.284919428496224], [30.713504282552407, 39.284919428496224], [30.713504282552407, 39.28438043932575]], [[30.711887315040997, 39.289231341859995], [30.711887315040997, 39.29030932020094], [30.711348325870517, 39.29030932020094], [30.711348325870517, 39.289231341859995], [30.711887315040997, 39.289231341859995]], [[30.719433163427595, 39.28815336351905], [30.719433163427595, 39.28869235268952], [30.718894174257116, 39.28869235268952], [30.718894174257116, 39.28815336351905], [30.719433163427595, 39.28815336351905]]]}, "properties": {"area_ha": 52.82112409765564, "mean_dnbr": 0.19923770417161682, "compactness": 0.161, "rectangularity": 0.534, "cropland_frac": 0.41, "persistent": true}}, {"type": "Feature", "geometry": {"geodesic": false, "type": "Polygon", "coordinates": [[[30.755545437849207, 39.06501184694376], [30.757701394531068, 39.06501184694376], [30.757701394531068, 39.066089825284706], [30.757162405360617, 39.066089825284706], [30.757162405360617, 39.06716780362565], [30.757701394531068, 39.06716780362565], [30.757701394531068, 39.06770679279612], [30.757162405360617, 39.06770679279612], [30.757162405360617, 39.068245781966596], [30.756623416190138, 39.068245781966596], [30.756623416190138, 39.06770679279612], [30.755006448678728, 39.06770679279612], [30.755006448678728, 39.06716780362565], [30.75446745950825, 39.06716780362565], [30.75446745950825, 39.068245781966596], [30.753389481167318, 39.068245781966596], [30.753389481167318, 39.06878477113707], [30.75231150282636, 39.06878477113707], [30.75231150282636, 39.06932376030754], [30.75177251365588, 39.06932376030754], [30.75177251365588, 39.07040173864848], [30.75123352448543, 39.07040173864848], [30.75123352448543, 39.07094072781895], [30.75069453531495, 39.07094072781895], [30.75069453531495, 39.07147971698942], [30.75015554614447, 39.07147971698942], [30.75015554614447, 39.072018706159895], [30.74853857863306, 39.072018706159895], [30.74853857863306, 39.07309668450084], [30.74799958946258, 39.07309668450084], [30.74799958946258, 39.074174662841784], [30.74746060029213, 39.074174662841784], [30.74746060029213, 39.0757916303532], [30.74692161112165, 39.0757916303532], [30.74692161112165, 39.07686960869414], [30.74638262195117, 39.07686960869414], [30.74638262195117, 39.0795645545465], [30.74584363278069, 39.0795645545465], [30.74584363278069, 39.080642532887445], [30.74638262195117, 39.080642532887445], [30.74638262195117, 39.08118152205792], [30.74584363278069, 39.08118152205792], [30.74584363278069, 39.082259500398855], [30.74530464361024, 39.082259500398855], [30.74530464361024, 39.084415457080745], [30.74476565443976, 39.084415457080745], [30.74476565443976, 39.08603242459216], [30.74530464361024, 39.08603242459216], [30.74530464361024, 39.086571413762634], [30.74584363278069, 39.086571413762634], [30.74584363278069, 39.08711040293311], [30.74530464361024, 39.08711040293311], [30.74530464361024, 39.086571413762634], [30.74422666526928, 39.086571413762634], [30.74422666526928, 39.08711040293311], [30.74368767609883, 39.08711040293311], [30.74368767609883, 39.08764939210358], [30.74314868692835, 39.08764939210358], [30.74314868692835, 39.088188381274044], [30.74260969775787, 39.088188381274044], [30.74260969775787, 39.088727370444516], [30.74207070858739, 39.088727370444516], [30.74207070858739, 39.08926635961499], [30.74153171941694, 39.08926635961499], [30.74153171941694, 39.08980534878546], [30.74099273024646, 39.08980534878546], [30.74099273024646, 39.09034433795593], [30.74045374107598, 39.09034433795593], [30.74045374107598, 39.09142231629688], [30.73937576273505, 39.09142231629688], [30.73937576273505, 39.09196130546735], [30.73883677356457, 39.09196130546735], [30.73883677356457, 39.09250029463782], [30.738297784394092, 39.09250029463782], [30.738297784394092, 39.093039283808295], [30.73721980605316, 39.093039283808295], [30.73721980605316, 39.09357827297877], [30.736680816882682, 39.09357827297877], [30.736680816882682, 39.09250029463782], [30.736141827712203, 39.09250029463782], [30.736141827712203, 39.09142231629688], [30.736680816882682, 39.09142231629688], [30.736680816882682, 39.090883327126406], [30.73560283854175, 39.090883327126406], [30.73560283854175, 39.09034433795593], [30.736680816882682, 39.09034433795593], [30.736680816882682, 39.08980534878546], [30.73721980605316, 39.08980534878546], [30.73721980605316, 39.090883327126406], [30.73937576273505, 39.090883327126406], [30.73937576273505, 39.09034433795593], [30.739914751905502, 39.09034433795593], [30.739914751905502, 39.08926635961499], [30.74045374107598, 39.08926635961499], [30.74045374107598, 39.088727370444516], [30.74099273024646, 39.088727370444516], [30.74099273024646, 39.08764939210358], [30.74153171941694, 39.08764939210358], [30.74153171941694, 39.08711040293311], [30.74260969775787, 39.08711040293311], [30.74260969775787, 39.086571413762634], [30.74314868692835, 39.086571413762634], [30.74314868692835, 39.08603242459216], [30.74368767609883, 39.08603242459216], [30.74368767609883, 39.08387646791027], [30.74422666526928, 39.08387646791027], [30.74422666526928, 39.082259500398855], [30.74476565443976, 39.082259500398855], [30.74476565443976, 39.08172051122839], [30.74422666526928, 39.08172051122839], [30.74422666526928, 39.08118152205792], [30.74476565443976, 39.08118152205792], [30.74476565443976, 39.08010354371697], [30.74530464361024, 39.08010354371697], [30.74530464361024, 39.07740859786461], [30.74584363278069, 39.07740859786461], [30.74584363278069, 39.07686960869414], [30.74638262195117, 39.07686960869414], [30.74638262195117, 39.0757916303532], [30.74584363278069, 39.0757916303532], [30.74584363278069, 39.07471365201226], [30.74638262195117, 39.07471365201226], [30.74638262195117, 39.074174662841784], [30.74746060029213, 39.074174662841784], [30.74746060029213, 39.07309668450084], [30.74692161112165, 39.07309668450084], [30.74692161112165, 39.07255769533037], [30.74746060029213, 39.07255769533037], [30.74746060029213, 39.072018706159895], [30.74799958946258, 39.072018706159895], [30.74799958946258, 39.07147971698942], [30.75015554614447, 39.07147971698942], [30.75015554614447, 39.07094072781895], [30.75069453531495, 39.07094072781895], [30.75069453531495, 39.069862749478006], [30.75123352448543, 39.069862749478006], [30.75123352448543, 39.06932376030754], [30.75177251365588, 39.06932376030754], [30.75177251365588, 39.068245781966596], [30.753389481167318, 39.068245781966596], [30.753389481167318, 39.06770679279612], [30.75392847033777, 39.06770679279612], [30.75392847033777, 39.06662881445518], [30.75446745950825, 39.06662881445518], [30.75446745950825, 39.065550836114234], [30.755545437849207, 39.065550836114234], [30.755545437849207, 39.06501184694376]], [[30.755545437849207, 39.06662881445518], [30.755545437849207, 39.06716780362565], [30.755006448678728, 39.06716780362565], [30.755006448678728, 39.06662881445518], [30.755545437849207, 39.06662881445518]]]}, "properties": {"area_ha": 41.54593636238874, "mean_dnbr": 0.2015224050296286, "compactness": 0.038, "rectangularity": 0.18, "cropland_frac": 0.094, "persistent": true}}, {"type": "Feature", "geometry": {"geodesic": false, "type": "Polygon", "coordinates": [[[31.214764211091108, 39.276834590939146], [31.214764211091108, 39.27737358010962], [31.21530320026156, 39.27737358010962], [31.21530320026156, 39.27791256928009], [31.21584218943204, 39.27791256928009], [31.21584218943204, 39.278990547621035], [31.214764211091108, 39.278990547621035], [31.214764211091108, 39.27952953679151], [31.21422522192063, 39.27952953679151], [31.21422522192063, 39.28006852596198], [31.21260825440922, 39.28006852596198], [31.21260825440922, 39.27952953679151], [31.21368623275015, 39.27952953679151], [31.21368623275015, 39.278990547621035], [31.214764211091108, 39.278990547621035], [31.214764211091108, 39.27845155845056], [31.21530320026156, 39.27845155845056], [31.21530320026156, 39.27791256928009], [31.214764211091108, 39.27791256928009], [31.214764211091108, 39.27737358010962], [31.21422522192063, 39.27737358010962], [31.21422522192063, 39.276834590939146], [31.21368623275015, 39.276834590939146], [31.21368623275015, 39.27737358010962], [31.21260825440922, 39.27737358010962], [31.21260825440922, 39.278990547621035], [31.21206926523874, 39.278990547621035], [31.21206926523874, 39.28006852596198], [31.21153027606826, 39.28006852596198], [31.21153027606826, 39.27845155845056], [31.21206926523874, 39.27845155845056], [31.21206926523874, 39.27791256928009], [31.21099128689778, 39.27791256928009], [31.21099128689778, 39.27845155845056], [31.21045229772733, 39.27845155845056], [31.21045229772733, 39.27791256928009], [31.20991330855685, 39.27791256928009], [31.20991330855685, 39.278990547621035], [31.20937431938637, 39.278990547621035], [31.20937431938637, 39.27791256928009], [31.20883533021592, 39.27791256928009], [31.20883533021592, 39.27845155845056], [31.20829634104544, 39.27845155845056], [31.20829634104544, 39.278990547621035], [31.20667937353403, 39.278990547621035], [31.20667937353403, 39.27845155845056], [31.20560139519307, 39.27845155845056], [31.20560139519307, 39.278990547621035], [31.20452341685214, 39.278990547621035], [31.20452341685214, 39.27845155845056], [31.20506240602259, 39.27845155845056], [31.20506240602259, 39.27791256928009], [31.20614038436355, 39.27791256928009], [31.20614038436355, 39.27737358010962], [31.20667937353403, 39.27737358010962], [31.20667937353403, 39.276834590939146], [31.20721836270448, 39.276834590939146], [31.20721836270448, 39.27629560176867], [31.20560139519307, 39.27629560176867], [31.20560139519307, 39.27737358010962], [31.20506240602259, 39.27737358010962], [31.20506240602259, 39.27629560176867], [31.20344543851118, 39.27629560176867], [31.20344543851118, 39.2757566125982], [31.20290644934073, 39.2757566125982], [31.20290644934073, 39.27629560176867], [31.20236746017025, 39.27629560176867], [31.20236746017025, 39.27521762342773], [31.20344543851118, 39.27521762342773], [31.20344543851118, 39.27467863425726], [31.20290644934073, 39.27467863425726], [31.20290644934073, 39.27413964508679], [31.20398442768166, 39.27413964508679], [31.20398442768166, 39.27360065591632], [31.20452341685214, 39.27360065591632], [31.20452341685214, 39.272522677575374], [31.20506240602259, 39.272522677575374], [31.20506240602259, 39.2719836884049], [31.20560139519307, 39.2719836884049], [31.20560139519307, 39.272522677575374], [31.20506240602259, 39.272522677575374], [31.20506240602259, 39.273061666745846], [31.20614038436355, 39.273061666745846], [31.20614038436355, 39.27413964508679], [31.20667937353403, 39.27413964508679], [31.20667937353403, 39.27467863425726], [31.20614038436355, 39.27467863425726], [31.20614038436355, 39.27521762342773], [31.20721836270448, 39.27521762342773], [31.20721836270448, 39.2757566125982], [31.20829634104544, 39.2757566125982], [31.20829634104544, 39.27521762342773], [31.20883533021592, 39.27521762342773], [31.20883533021592, 39.27467863425726], [31.20829634104544, 39.27467863425726], [31.20829634104544, 39.27413964508679], [31.20775735187496, 39.27413964508679], [31.20775735187496, 39.273061666745846], [31.20883533021592, 39.273061666745846], [31.20883533021592, 39.272522677575374], [31.20991330855685, 39.272522677575374], [31.20991330855685, 39.273061666745846], [31.21045229772733, 39.273061666745846], [31.21045229772733, 39.27360065591632], [31.21153027606826, 39.27360065591632], [31.21153027606826, 39.273061666745846], [31.21099128689778, 39.273061666745846], [31.21099128689778, 39.2719836884049], [31.21206926523874, 39.2719836884049], [31.21206926523874, 39.273061666745846], [31.21314724357967, 39.273061666745846], [31.21314724357967, 39.272522677575374], [31.21368623275015, 39.272522677575374], [31.21368623275015, 39.27360065591632], [31.21422522192063, 39.27360065591632], [31.21422522192063, 39.273061666745846], [31.214764211091108, 39.273061666745846], [31.214764211091108, 39.2719836884049], [31.21584218943204, 39.2719836884049], [31.21584218943204, 39.27144469923443], [31.216381178602518, 39.27144469923443], [31.216381178602518, 39.2719836884049], [31.21584218943204, 39.2719836884049], [31.21584218943204, 39.272522677575374], [31.21530320026156, 39.272522677575374], [31.21530320026156, 39.273061666745846], [31.214764211091108, 39.273061666745846], [31.214764211091108, 39.27413964508679], [31.21584218943204, 39.27413964508679], [31.21584218943204, 39.273061666745846], [31.21692016777297, 39.273061666745846], [31.21692016777297, 39.272522677575374], [31.217998146113928, 39.272522677575374], [31.217998146113928, 39.27360065591632], [31.216381178602518, 39.27360065591632], [31.216381178602518, 39.27467863425726], [31.21692016777297, 39.27467863425726], [31.21692016777297, 39.27413964508679], [31.218537135284407, 39.27413964508679], [31.218537135284407, 39.27467863425726], [31.217998146113928, 39.27467863425726], [31.217998146113928, 39.27521762342773], [31.21907612445486, 39.27521762342773], [31.21907612445486, 39.2757566125982], [31.218537135284407, 39.2757566125982], [31.218537135284407, 39.276834590939146], [31.214764211091108, 39.276834590939146]], [[31.20937431938637, 39.27629560176867], [31.20937431938637, 39.276834590939146], [31.20883533021592, 39.276834590939146], [31.20883533021592, 39.27629560176867], [31.20937431938637, 39.27629560176867]], [[31.20506240602259, 39.27521762342773], [31.20506240602259, 39.2757566125982], [31.20398442768166, 39.2757566125982], [31.20398442768166, 39.27521762342773], [31.20506240602259, 39.27521762342773]], [[31.21045229772733, 39.27521762342773], [31.21045229772733, 39.2757566125982], [31.20991330855685, 39.2757566125982], [31.20991330855685, 39.27521762342773], [31.21045229772733, 39.27521762342773]], [[31.21530320026156, 39.27467863425726], [31.21530320026156, 39.27521762342773], [31.21422522192063, 39.27521762342773], [31.21422522192063, 39.27467863425726], [31.21530320026156, 39.27467863425726]], [[31.21045229772733, 39.27360065591632], [31.21045229772733, 39.27467863425726], [31.20991330855685, 39.27467863425726], [31.20991330855685, 39.27360065591632], [31.21045229772733, 39.27360065591632]]]}, "properties": {"area_ha": 62.56278795572081, "mean_dnbr": 0.18245179978181275, "compactness": 0.051, "rectangularity": 0.457, "cropland_frac": 0.205, "persistent": true}}]}