{"type": "FeatureCollection", "crs": {"type": "name", "properties": {"name": "urn:ogc:def:crs:OGC:1.3:CRS84"}}, "features": [{"type": "Feature", "geometry": {"geodesic": false, "type": "Polygon", "coordinates": [[[30.97868695442449, 38.679095600886015], [30.98192088944731, 38.679095600886015], [30.98192088944731, 38.67963459005649], [30.98353785695872, 38.67963459005649], [30.98353785695872, 38.68017357922696], [30.9840768461292, 38.68017357922696], [30.9840768461292, 38.68071256839743], [30.985154824470158, 38.68071256839743], [30.985154824470158, 38.68179054673838], [30.98569381364061, 38.68179054673838], [30.98569381364061, 38.68394650342026], [30.984615835299678, 38.68394650342026], [30.984615835299678, 38.683407514249794], [30.985154824470158, 38.683407514249794], [30.985154824470158, 38.68232953590885], [30.982998867788268, 38.68232953590885], [30.982998867788268, 38.68286852507932], [30.98245987861779, 38.68286852507932], [30.98245987861779, 38.683407514249794], [30.98084291110638, 38.683407514249794], [30.98084291110638, 38.68394650342026], [30.9803039219359, 38.68394650342026], [30.9803039219359, 38.683407514249794], [30.97976493276542, 38.683407514249794], [30.97976493276542, 38.68394650342026], [30.97814796525401, 38.68394650342026], [30.97814796525401, 38.68448549259073], [30.97760897608353, 38.68448549259073], [30.97760897608353, 38.68394650342026], [30.97706998691308, 38.68394650342026], [30.97706998691308, 38.683407514249794], [30.9765309977426, 38.683407514249794], [30.9765309977426, 38.68286852507932], [30.97545301940164, 38.68286852507932], [30.97545301940164, 38.68232953590885], [30.97599200857212, 38.68232953590885], [30.97599200857212, 38.68179054673838], [30.97491403023119, 38.68179054673838], [30.97491403023119, 38.681251557567904], [30.97599200857212, 38.681251557567904], [30.97599200857212, 38.68179054673838], [30.97706998691308, 38.68179054673838], [30.97706998691308, 38.68286852507932], [30.97814796525401, 38.68286852507932], [30.97814796525401, 38.683407514249794], [30.97868695442449, 38.683407514249794], [30.97868695442449, 38.68286852507932], [30.97922594359497, 38.68286852507932], [30.97922594359497, 38.68232953590885], [30.97868695442449, 38.68232953590885], [30.97868695442449, 38.68179054673838], [30.97760897608353, 38.68179054673838], [30.97760897608353, 38.68071256839743], [30.97545301940164, 38.68071256839743], [30.97545301940164, 38.68017357922696], [30.97599200857212, 38.68017357922696], [30.97599200857212, 38.67963459005649], [30.97868695442449, 38.67963459005649], [30.97868695442449, 38.679095600886015]], [[30.982998867788268, 38.68071256839743], [30.982998867788268, 38.68179054673838], [30.98245987861779, 38.68179054673838], [30.98245987861779, 38.68071256839743], [30.982998867788268, 38.68071256839743]]]}, "properties": {"area_ha": 30.84394263787753, "mean_dnbr": 0.2276400618383051, "compactness": 0.143, "rectangularity": 0.559, "cropland_frac": 0.161, "persistent": true}}]}