{"type": "FeatureCollection", "crs": {"type": "name", "properties": {"name": "urn:ogc:def:crs:OGC:1.3:CRS84"}}, "features": [{"type": "Feature", "geometry": {"geodesic": false, "type": "Polygon", "coordinates": [[[30.88059092539862, 38.45757105182214], [30.88436384959192, 38.45757105182214], [30.88436384959192, 38.45864903016309], [30.88328587125099, 38.45864903016309], [30.88328587125099, 38.45918801933356], [30.88220789291006, 38.45918801933356], [30.88220789291006, 38.45972700850403], [30.88274688208051, 38.45972700850403], [30.88274688208051, 38.460265997674504], [30.88328587125099, 38.460265997674504], [30.88328587125099, 38.46080498684498], [30.8849028387624, 38.46080498684498], [30.8849028387624, 38.46134397601544], [30.88651980627381, 38.46134397601544], [30.88651980627381, 38.461882965185914], [30.88705879544429, 38.461882965185914], [30.88705879544429, 38.46349993269733], [30.88544182793288, 38.46349993269733], [30.88544182793288, 38.46296094352686], [30.88328587125099, 38.46296094352686], [30.88328587125099, 38.46242195435639], [30.88166890373958, 38.46242195435639], [30.88166890373958, 38.46296094352686], [30.88005193622817, 38.46296094352686], [30.88005193622817, 38.46080498684498], [30.88059092539862, 38.46080498684498], [30.88059092539862, 38.45972700850403], [30.87789597954628, 38.45972700850403], [30.87789597954628, 38.45864903016309], [30.87897395788721, 38.45864903016309], [30.87897395788721, 38.45918801933356], [30.8811299145691, 38.45918801933356], [30.8811299145691, 38.45864903016309], [30.88059092539862, 38.45864903016309], [30.88059092539862, 38.45757105182214]]]}, "properties": {"area_ha": 23.626046941847466, "mean_dnbr": 0.4456409416366432, "compactness": 0.215, "rectangularity": 0.46, "cropland_frac": 0.277, "persistent": true}}, {"type": "Feature", "geometry": {"geodesic": false, "type": "Polygon", "coordinates": [[[30.907540383922225, 38.127170690322984], [30.910235329774565, 38.127170690322984], [30.910235329774565, 38.12770967949346], [30.910774318945045, 38.12770967949346], [30.910774318945045, 38.1287876578344], [30.910235329774565, 38.1287876578344], [30.910235329774565, 38.12986563617534], [30.909696340604114, 38.12986563617534], [30.909696340604114, 38.13040462534581], [30.910235329774565, 38.13040462534581], [30.910235329774565, 38.13094361451628], [30.910774318945045, 38.13094361451628], [30.910774318945045, 38.13202159285723], [30.910235329774565, 38.13202159285723], [30.910235329774565, 38.1325605820277], [30.909696340604114, 38.1325605820277], [30.909696340604114, 38.13309957119817], [30.908079373092704, 38.13309957119817], [30.908079373092704, 38.133638560368645], [30.902150492217515, 38.133638560368645], [30.902150492217515, 38.1325605820277], [30.902689481387966, 38.1325605820277], [30.902689481387966, 38.131482603686756], [30.901611503047036, 38.131482603686756], [30.901611503047036, 38.13040462534581], [30.900533524706077, 38.13040462534581], [30.900533524706077, 38.129326647004866], [30.903228470558446, 38.129326647004866], [30.903228470558446, 38.1287876578344], [30.904845438069856, 38.1287876578344], [30.904845438069856, 38.12824866866393], [30.906462405581266, 38.12824866866393], [30.906462405581266, 38.12770967949346], [30.907001394751745, 38.12770967949346], [30.907001394751745, 38.12824866866393], [30.907540383922225, 38.12824866866393], [30.907540383922225, 38.127170690322984]], [[30.910235329774565, 38.131482603686756], [30.910235329774565, 38.13202159285723], [30.908618362263155, 38.13202159285723], [30.908618362263155, 38.131482603686756], [30.910235329774565, 38.131482603686756]], [[30.905923416410815, 38.13040462534581], [30.905923416410815, 38.131482603686756], [30.904845438069856, 38.131482603686756], [30.904845438069856, 38.13040462534581], [30.905923416410815, 38.13040462534581]], [[30.908618362263155, 38.13040462534581], [30.908618362263155, 38.131482603686756], [30.907001394751745, 38.131482603686756], [30.907001394751745, 38.13040462534581], [30.908618362263155, 38.13040462534581]], [[30.907001394751745, 38.12986563617534], [30.907001394751745, 38.13040462534581], [30.906462405581266, 38.13040462534581], [30.906462405581266, 38.12986563617534], [30.907001394751745, 38.12986563617534]], [[30.909157351433635, 38.12770967949346], [30.909157351433635, 38.129326647004866], [30.908618362263155, 38.129326647004866], [30.908618362263155, 38.1287876578344], [30.908079373092704, 38.1287876578344], [30.908079373092704, 38.129326647004866], [30.907540383922225, 38.129326647004866], [30.907540383922225, 38.12824866866393], [30.908618362263155, 38.12824866866393], [30.908618362263155, 38.12770967949346], [30.909157351433635, 38.12770967949346]]]}, "properties": {"area_ha": 38.991286297522045, "mean_dnbr": 0.3969142211950544, "compactness": 0.138, "rectangularity": 0.605, "cropland_frac": 0.479, "persistent": true}}]}