{"type": "FeatureCollection", "crs": {"type": "name", "properties": {"name": "urn:ogc:def:crs:OGC:1.3:CRS84"}}, "features": [{"type": "Feature", "geometry": {"geodesic": false, "type": "Polygon", "coordinates": [[[32.44743244395991, 36.290834586525854], [32.4495884006418, 36.290834586525854], [32.4495884006418, 36.291373575696326], [32.45012738981225, 36.291373575696326], [32.45012738981225, 36.29299054320774], [32.4495884006418, 36.29299054320774], [32.4495884006418, 36.2919125648668], [32.44743244395991, 36.2919125648668], [32.44743244395991, 36.290834586525854]]]}, "properties": {"area_ha": 3.184687926752616, "mean_dnbr": 0.22531987999718803, "compactness": 0.432, "rectangularity": 0.55, "cropland_frac": 0, "persistent": true}}]}