{"type": "FeatureCollection", "crs": {"type": "name", "properties": {"name": "urn:ogc:def:crs:OGC:1.3:CRS84"}}, "features": [{"type": "Feature", "geometry": {"geodesic": false, "type": "Polygon", "coordinates": [[[32.76705302204962, 37.96062303664722], [32.7675920112201, 37.96062303664722], [32.7675920112201, 37.96116202581769], [32.76920897873151, 37.96116202581769], [32.76920897873151, 37.961701014988165], [32.77028695707247, 37.961701014988165], [32.77028695707247, 37.963856971670054], [32.76974796790199, 37.963856971670054], [32.76974796790199, 37.964934950011], [32.76920897873151, 37.964934950011], [32.76920897873151, 37.96655191752241], [32.76866998956103, 37.96655191752241], [32.76866998956103, 37.96709090669288], [32.7675920112201, 37.96709090669288], [32.7675920112201, 37.96655191752241], [32.76543605453821, 37.96655191752241], [32.76543605453821, 37.963856971670054], [32.76597504370869, 37.963856971670054], [32.76597504370869, 37.96331798249958], [32.766514032879144, 37.96331798249958], [32.766514032879144, 37.96277899332911], [32.76705302204962, 37.96277899332911], [32.76705302204962, 37.96062303664722]]]}, "properties": {"area_ha": 20.106398739930214, "mean_dnbr": 0.5462399241208095, "compactness": 0.482, "rectangularity": 0.723, "cropland_frac": 0.286, "persistent": true}}]}