{"type": "FeatureCollection", "crs": {"type": "name", "properties": {"name": "urn:ogc:def:crs:OGC:1.3:CRS84"}}, "features": [{"type": "Feature", "geometry": {"geodesic": false, "type": "Polygon", "coordinates": [[[32.63877359947736, 37.721850834128254], [32.63985157781829, 37.721850834128254], [32.63985157781829, 37.7229288124692], [32.64146854532973, 37.7229288124692], [32.64146854532973, 37.72346780163967], [32.64200753450018, 37.72346780163967], [32.64200753450018, 37.724006790810144], [32.64254652367066, 37.724006790810144], [32.64254652367066, 37.724545779980616], [32.64308551284114, 37.724545779980616], [32.64308551284114, 37.72508476915109], [32.64254652367066, 37.72508476915109], [32.64254652367066, 37.7267017366625], [32.64200753450018, 37.7267017366625], [32.64200753450018, 37.72724072583297], [32.64254652367066, 37.72724072583297], [32.64254652367066, 37.72777971500344], [32.64308551284114, 37.72777971500344], [32.64308551284114, 37.728318704173915], [32.64254652367066, 37.728318704173915], [32.64254652367066, 37.72885769334439], [32.64200753450018, 37.72885769334439], [32.64200753450018, 37.728318704173915], [32.63985157781829, 37.728318704173915], [32.63985157781829, 37.726162747492026], [32.63823461030688, 37.726162747492026], [32.63823461030688, 37.725623758321554], [32.63769562113643, 37.725623758321554], [32.63769562113643, 37.724545779980616], [32.63715663196595, 37.724545779980616], [32.63715663196595, 37.724006790810144], [32.63769562113643, 37.724006790810144], [32.63769562113643, 37.724545779980616], [32.63877359947736, 37.724545779980616], [32.63877359947736, 37.724006790810144], [32.63823461030688, 37.724006790810144], [32.63823461030688, 37.7229288124692], [32.63769562113643, 37.7229288124692], [32.63769562113643, 37.721850834128254], [32.63823461030688, 37.721850834128254], [32.63823461030688, 37.72238982329873], [32.63877359947736, 37.72238982329873], [32.63877359947736, 37.721850834128254]], [[32.64146854532973, 37.72508476915109], [32.64146854532973, 37.725623758321554], [32.64039056698877, 37.725623758321554], [32.64039056698877, 37.72508476915109], [32.64146854532973, 37.72508476915109]]]}, "properties": {"area_ha": 21.02395432725198, "mean_dnbr": 0.24310982903378275, "compactness": 0.212, "rectangularity": 0.517, "cropland_frac": 0.357, "persistent": true}}, {"type": "Feature", "geometry": {"geodesic": false, "type": "Polygon", "coordinates": [[[32.69914038657018, 37.941219426510244], [32.70075735408162, 37.941219426510244], [32.70075735408162, 37.94175841568072], [32.70345229993396, 37.94175841568072], [32.70345229993396, 37.942836394021654], [32.702913310763506, 37.942836394021654], [32.702913310763506, 37.9439143723626], [32.69752341905877, 37.9439143723626], [32.69752341905877, 37.94445336153307], [32.70129634325207, 37.94445336153307], [32.70129634325207, 37.944992350703544], [32.70183533242255, 37.944992350703544], [32.70183533242255, 37.94607032904449], [32.70129634325207, 37.94607032904449], [32.70129634325207, 37.94660931821496], [32.70075735408162, 37.94660931821496], [32.70075735408162, 37.94714830738543], [32.69752341905877, 37.94714830738543], [32.69752341905877, 37.94660931821496], [32.69698442988832, 37.94660931821496], [32.69698442988832, 37.94714830738543], [32.69375049486547, 37.94714830738543], [32.69375049486547, 37.94660931821496], [32.69644544071784, 37.94660931821496], [32.69644544071784, 37.94607032904449], [32.69536746237688, 37.94607032904449], [32.69536746237688, 37.945531339874016], [32.69428948403595, 37.945531339874016], [32.69428948403595, 37.944992350703544], [32.69375049486547, 37.944992350703544], [32.69375049486547, 37.94445336153307], [32.69428948403595, 37.94445336153307], [32.69428948403595, 37.9439143723626], [32.69752341905877, 37.9439143723626], [32.69752341905877, 37.941219426510244], [32.69806240822925, 37.941219426510244], [32.69806240822925, 37.94175841568072], [32.69914038657018, 37.94175841568072], [32.69914038657018, 37.941219426510244]], [[32.69644544071784, 37.944992350703544], [32.69644544071784, 37.945531339874016], [32.69536746237688, 37.945531339874016], [32.69536746237688, 37.944992350703544], [32.69644544071784, 37.944992350703544]]]}, "properties": {"area_ha": 31.442423054006824, "mean_dnbr": 0.18512501042081245, "compactness": 0.172, "rectangularity": 0.561, "cropland_frac": 0.241, "persistent": true}}]}