{"type": "FeatureCollection", "crs": {"type": "name", "properties": {"name": "urn:ogc:def:crs:OGC:1.3:CRS84"}}, "features": [{"type": "Feature", "geometry": {"geodesic": false, "type": "Polygon", "coordinates": [[[32.88024074784869, 36.07793386418953], [32.88239670453058, 36.07793386418953], [32.88239670453058, 36.078472853360005], [32.88293569370106, 36.078472853360005], [32.88293569370106, 36.07955083170094], [32.88239670453058, 36.07955083170094], [32.88239670453058, 36.08062881004189], [32.88293569370106, 36.08062881004189], [32.88293569370106, 36.08116779921236], [32.8818577153601, 36.08116779921236], [32.8818577153601, 36.08170678838283], [32.88131872618962, 36.08170678838283], [32.88131872618962, 36.08116779921236], [32.8818577153601, 36.08116779921236], [32.8818577153601, 36.08062881004189], [32.88131872618962, 36.08062881004189], [32.88131872618962, 36.080089820871414], [32.88077973701917, 36.080089820871414], [32.88077973701917, 36.07901184253048], [32.88024074784869, 36.07901184253048], [32.88024074784869, 36.07793386418953]]]}, "properties": {"area_ha": 6.096347477981066, "mean_dnbr": 0.23878595842207131, "compactness": 0.333, "rectangularity": 0.6, "cropland_frac": 0.386, "persistent": true}}, {"type": "Feature", "geometry": {"geodesic": false, "type": "Polygon", "coordinates": [[[32.946536415816695, 35.29855552368743], [32.948692372498584, 35.29855552368743], [32.948692372498584, 35.299094512857906], [32.949231361669064, 35.299094512857906], [32.949231361669064, 35.29963350202838], [32.94815338332813, 35.29963350202838], [32.94815338332813, 35.30017249119885], [32.947075404987174, 35.30017249119885], [32.947075404987174, 35.29963350202838], [32.946536415816695, 35.29963350202838], [32.946536415816695, 35.29855552368743]]]}, "properties": {"area_ha": 3.2247073531624864, "mean_dnbr": 0.3454334000512395, "compactness": 0.563, "rectangularity": 0.733, "cropland_frac": 0.096, "persistent": true}}]}