{"type": "FeatureCollection", "crs": {"type": "name", "properties": {"name": "urn:ogc:def:crs:OGC:1.3:CRS84"}}, "features": [{"type": "Feature", "geometry": {"geodesic": false, "type": "Polygon", "coordinates": [[[32.59188154164633, 37.852286213382406], [32.59457648749867, 37.852286213382406], [32.59457648749867, 37.85282520255288], [32.59511547666915, 37.85282520255288], [32.59511547666915, 37.854442170064296], [32.59565446583963, 37.854442170064296], [32.59565446583963, 37.85498115923477], [32.59511547666915, 37.85498115923477], [32.59511547666915, 37.85605913757571], [32.59457648749867, 37.85605913757571], [32.59457648749867, 37.856598126746185], [32.59134255247585, 37.856598126746185], [32.59134255247585, 37.85605913757571], [32.59080356330537, 37.85605913757571], [32.59080356330537, 37.85552014840524], [32.59026457413492, 37.85552014840524], [32.59026457413492, 37.85498115923477], [32.58972558496444, 37.85498115923477], [32.58972558496444, 37.85552014840524], [32.58918659579396, 37.85552014840524], [32.58918659579396, 37.856598126746185], [32.58595266077114, 37.856598126746185], [32.58595266077114, 37.85390318089382], [32.58649164994159, 37.85390318089382], [32.58649164994159, 37.85336419172335], [32.58918659579396, 37.85336419172335], [32.58918659579396, 37.85390318089382], [32.58972558496444, 37.85390318089382], [32.58972558496444, 37.854442170064296], [32.59026457413492, 37.854442170064296], [32.59026457413492, 37.85336419172335], [32.59080356330537, 37.85336419172335], [32.59080356330537, 37.85282520255288], [32.59188154164633, 37.85282520255288], [32.59188154164633, 37.852286213382406]]]}, "properties": {"area_ha": 29.211849540767876, "mean_dnbr": 0.5187532667246032, "compactness": 0.345, "rectangularity": 0.715, "cropland_frac": 0.011, "persistent": true}}, {"type": "Feature", "geometry": {"geodesic": false, "type": "Polygon", "coordinates": [[[32.69321150569499, 37.939063469828355], [32.702913310763506, 37.939063469828355], [32.702913310763506, 37.93960245899883], [32.704530278274916, 37.93960245899883], [32.704530278274916, 37.9401414481693], [32.70399128910444, 37.9401414481693], [32.70399128910444, 37.941219426510244], [32.70183533242255, 37.941219426510244], [32.70183533242255, 37.94175841568072], [32.70345229993396, 37.94175841568072], [32.70345229993396, 37.942836394021654], [32.702913310763506, 37.942836394021654], [32.702913310763506, 37.9439143723626], [32.69752341905877, 37.9439143723626], [32.69752341905877, 37.9401414481693], [32.69321150569499, 37.9401414481693], [32.69321150569499, 37.939063469828355]]]}, "properties": {"area_ha": 32.009828985660874, "mean_dnbr": 0.18595582302383448, "compactness": 0.359, "rectangularity": 0.598, "cropland_frac": 0.122, "persistent": true}}]}