{"type": "FeatureCollection", "crs": {"type": "name", "properties": {"name": "urn:ogc:def:crs:OGC:1.3:CRS84"}}, "features": [{"type": "Feature", "geometry": {"geodesic": false, "type": "Polygon", "coordinates": [[[32.65602125293245, 37.616747945886274], [32.65656024210293, 37.616747945886274], [32.65656024210293, 37.61728693505674], [32.657099231273406, 37.61728693505674], [32.657099231273406, 37.61782592422721], [32.65763822044386, 37.61782592422721], [32.65763822044386, 37.618364913397684], [32.65817720961434, 37.618364913397684], [32.65817720961434, 37.61890390256816], [32.658716198784816, 37.61890390256816], [32.658716198784816, 37.61944289173863], [32.65817720961434, 37.61944289173863], [32.65817720961434, 37.6199818809091], [32.657099231273406, 37.6199818809091], [32.657099231273406, 37.621059859250046], [32.65817720961434, 37.621059859250046], [32.65817720961434, 37.62159884842052], [32.658716198784816, 37.62159884842052], [32.658716198784816, 37.62213783759099], [32.659255187955296, 37.62213783759099], [32.659255187955296, 37.62267682676146], [32.65979417712575, 37.62267682676146], [32.65979417712575, 37.6237548051024], [32.659255187955296, 37.6237548051024], [32.659255187955296, 37.62429379427287], [32.65763822044386, 37.62429379427287], [32.65763822044386, 37.624832783443345], [32.657099231273406, 37.624832783443345], [32.657099231273406, 37.62429379427287], [32.65656024210293, 37.62429379427287], [32.65656024210293, 37.6237548051024], [32.65602125293245, 37.6237548051024], [32.65602125293245, 37.62321581593193], [32.65494327459152, 37.62321581593193], [32.65494327459152, 37.62267682676146], [32.65440428542104, 37.62267682676146], [32.65440428542104, 37.621059859250046], [32.655482263761996, 37.621059859250046], [32.655482263761996, 37.620520870079574], [32.65602125293245, 37.620520870079574], [32.65602125293245, 37.6199818809091], [32.657099231273406, 37.6199818809091], [32.657099231273406, 37.61944289173863], [32.65656024210293, 37.61944289173863], [32.65656024210293, 37.61890390256816], [32.655482263761996, 37.61890390256816], [32.655482263761996, 37.61782592422721], [32.65494327459152, 37.61782592422721], [32.65494327459152, 37.61728693505674], [32.65602125293245, 37.61728693505674], [32.65602125293245, 37.616747945886274]]]}, "properties": {"area_ha": 20.19988559721039, "mean_dnbr": 0.4657318931366998, "compactness": 0.218, "rectangularity": 0.48, "cropland_frac": 0.423, "persistent": true}}]}