{"type": "FeatureCollection", "crs": {"type": "name", "properties": {"name": "urn:ogc:def:crs:OGC:1.3:CRS84"}}, "features": [{"type": "Feature", "geometry": {"geodesic": false, "type": "Polygon", "coordinates": [[[32.801009339789346, 36.04828945981359], [32.802087318130276, 36.04828945981359], [32.802087318130276, 36.049906427325], [32.802626307300756, 36.049906427325], [32.802626307300756, 36.05098440566594], [32.802087318130276, 36.05098440566594], [32.802087318130276, 36.051523394836416], [32.801548328959825, 36.051523394836416], [32.801548328959825, 36.05044541649547], [32.802087318130276, 36.05044541649547], [32.802087318130276, 36.049906427325], [32.801548328959825, 36.049906427325], [32.801548328959825, 36.049367438154526], [32.800470350618866, 36.049367438154526], [32.800470350618866, 36.049906427325], [32.799931361448415, 36.049906427325], [32.799931361448415, 36.049367438154526], [32.800470350618866, 36.049367438154526], [32.800470350618866, 36.04882844898406], [32.801009339789346, 36.04882844898406], [32.801009339789346, 36.04828945981359]]]}, "properties": {"area_ha": 3.194533581012255, "mean_dnbr": 0.19190466116591176, "compactness": 0.199, "rectangularity": 0.367, "cropland_frac": 0, "persistent": true}}]}