{"type": "FeatureCollection", "crs": {"type": "name", "properties": {"name": "urn:ogc:def:crs:OGC:1.3:CRS84"}}, "features": [{"type": "Feature", "geometry": {"geodesic": false, "type": "Polygon", "coordinates": [[[32.50240933934802, 36.11889704114538], [32.5029483285185, 36.11889704114538], [32.5029483285185, 36.119975019486326], [32.50348731768895, 36.119975019486326], [32.50348731768895, 36.12159198699774], [32.5029483285185, 36.12159198699774], [32.5029483285185, 36.12213097616821], [32.50240933934802, 36.12213097616821], [32.50240933934802, 36.12105299782727], [32.50187035017754, 36.12105299782727], [32.50187035017754, 36.1205140086568], [32.50133136100706, 36.1205140086568], [32.50133136100706, 36.119975019486326], [32.50079237183661, 36.119975019486326], [32.50079237183661, 36.11943603031585], [32.50240933934802, 36.11943603031585], [32.50240933934802, 36.11889704114538]]]}, "properties": {"area_ha": 4.352263601641134, "mean_dnbr": 0.3639043784531089, "compactness": 0.378, "rectangularity": 0.552, "cropland_frac": 0, "persistent": null}}, {"type": "Feature", "geometry": {"geodesic": false, "type": "Polygon", "coordinates": [[[32.529897787042074, 36.10596130105406], [32.531514754553484, 36.10596130105406], [32.531514754553484, 36.10650029022453], [32.532053743723964, 36.10650029022453], [32.532053743723964, 36.107039279395], [32.530975765383005, 36.107039279395], [32.530975765383005, 36.107578268565476], [32.530436776212554, 36.107578268565476], [32.530436776212554, 36.10919523607689], [32.529897787042074, 36.10919523607689], [32.529897787042074, 36.10973422524736], [32.529358797871595, 36.10973422524736], [32.529358797871595, 36.1108122035883], [32.528819808701144, 36.1108122035883], [32.528819808701144, 36.11189018192925], [32.528280819530664, 36.11189018192925], [32.528280819530664, 36.111351192758775], [32.527202841189705, 36.111351192758775], [32.527202841189705, 36.11242917109972], [32.528819808701144, 36.11242917109972], [32.528819808701144, 36.11404613861114], [32.528280819530664, 36.11404613861114], [32.528280819530664, 36.11512411695208], [32.526663852019254, 36.11512411695208], [32.526663852019254, 36.11674108446349], [32.526124862848775, 36.11674108446349], [32.526124862848775, 36.117819062804436], [32.525046884507816, 36.117819062804436], [32.525046884507816, 36.12105299782727], [32.524507895337365, 36.12105299782727], [32.524507895337365, 36.12159198699774], [32.523968906166886, 36.12159198699774], [32.523968906166886, 36.12213097616821], [32.523429916996406, 36.12213097616821], [32.523429916996406, 36.12105299782727], [32.522890927825955, 36.12105299782727], [32.522890927825955, 36.1205140086568], [32.521812949484996, 36.1205140086568], [32.521812949484996, 36.12159198699774], [32.522351938655476, 36.12159198699774], [32.522351938655476, 36.12213097616821], [32.520734971144066, 36.12213097616821], [32.520734971144066, 36.12105299782727], [32.520195981973586, 36.12105299782727], [32.520195981973586, 36.1205140086568], [32.51965699280311, 36.1205140086568], [32.51965699280311, 36.119975019486326], [32.51911800363263, 36.119975019486326], [32.51911800363263, 36.1205140086568], [32.518579014462176, 36.1205140086568], [32.518579014462176, 36.117819062804436], [32.51911800363263, 36.117819062804436], [32.51911800363263, 36.117280073633964], [32.51965699280311, 36.117280073633964], [32.51965699280311, 36.11674108446349], [32.520195981973586, 36.11674108446349], [32.520195981973586, 36.11620209529302], [32.520734971144066, 36.11620209529302], [32.520734971144066, 36.11674108446349], [32.52127396031452, 36.11674108446349], [32.52127396031452, 36.117280073633964], [32.522351938655476, 36.117280073633964], [32.522351938655476, 36.11674108446349], [32.521812949484996, 36.11674108446349], [32.521812949484996, 36.11620209529302], [32.52127396031452, 36.11620209529302], [32.52127396031452, 36.11566310612255], [32.521812949484996, 36.11566310612255], [32.521812949484996, 36.11512411695208], [32.522351938655476, 36.11512411695208], [32.522351938655476, 36.11458512778161], [32.525585873678295, 36.11458512778161], [32.525585873678295, 36.11512411695208], [32.526124862848775, 36.11512411695208], [32.526124862848775, 36.11458512778161], [32.526663852019254, 36.11458512778161], [32.526663852019254, 36.113507149440665], [32.525585873678295, 36.113507149440665], [32.525585873678295, 36.11404613861114], [32.525046884507816, 36.11404613861114], [32.525046884507816, 36.113507149440665], [32.525585873678295, 36.113507149440665], [32.525585873678295, 36.11296816027019], [32.526124862848775, 36.11296816027019], [32.526124862848775, 36.111351192758775], [32.527202841189705, 36.111351192758775], [32.527202841189705, 36.1108122035883], [32.527741830360185, 36.1108122035883], [32.527741830360185, 36.10919523607689], [32.528280819530664, 36.10919523607689], [32.528280819530664, 36.10811725773595], [32.528819808701144, 36.10811725773595], [32.528819808701144, 36.107039279395], [32.529358797871595, 36.107039279395], [32.529358797871595, 36.10650029022453], [32.529897787042074, 36.10650029022453], [32.529897787042074, 36.10596130105406]], [[32.522351938655476, 36.11889704114538], [32.522351938655476, 36.119975019486326], [32.520195981973586, 36.119975019486326], [32.520195981973586, 36.11943603031585], [32.52127396031452, 36.11943603031585], [32.52127396031452, 36.11889704114538], [32.522351938655476, 36.11889704114538]], [[32.52127396031452, 36.117819062804436], [32.52127396031452, 36.11889704114538], [32.520195981973586, 36.11889704114538], [32.520195981973586, 36.11943603031585], [32.51911800363263, 36.11943603031585], [32.51911800363263, 36.11889704114538], [32.51965699280311, 36.11889704114538], [32.51965699280311, 36.117819062804436], [32.52127396031452, 36.117819062804436]], [[32.523429916996406, 36.117819062804436], [32.523429916996406, 36.11889704114538], [32.522351938655476, 36.11889704114538], [32.522351938655476, 36.11835805197491], [32.522890927825955, 36.11835805197491], [32.522890927825955, 36.117819062804436], [32.523429916996406, 36.117819062804436]], [[32.524507895337365, 36.11674108446349], [32.524507895337365, 36.117819062804436], [32.523968906166886, 36.117819062804436], [32.523968906166886, 36.11674108446349], [32.524507895337365, 36.11674108446349]], [[32.525585873678295, 36.11620209529302], [32.525585873678295, 36.11674108446349], [32.525046884507816, 36.11674108446349], [32.525046884507816, 36.11620209529302], [32.525585873678295, 36.11620209529302]]]}, "properties": {"area_ha": 51.06982297764829, "mean_dnbr": 0.2814632867335563, "compactness": 0.06, "rectangularity": 0.373, "cropland_frac": 0, "persistent": null}}, {"type": "Feature", "geometry": {"geodesic": false, "type": "Polygon", "coordinates": [[[32.60320031422623, 36.13344974874812], [32.60373930339671, 36.13344974874812], [32.60373930339671, 36.133988737918585], [32.60320031422623, 36.133988737918585], [32.60320031422623, 36.13452772708906], [32.60266132505575, 36.13452772708906], [32.60266132505575, 36.13506671625953], [32.6021223358853, 36.13506671625953], [32.6021223358853, 36.136144694600475], [32.60104435754434, 36.136144694600475], [32.60104435754434, 36.13560570543], [32.60050536837386, 36.13560570543], [32.60050536837386, 36.13506671625953], [32.60158334671482, 36.13506671625953], [32.60158334671482, 36.13452772708906], [32.60104435754434, 36.13452772708906], [32.60104435754434, 36.133988737918585], [32.60320031422623, 36.133988737918585], [32.60320031422623, 36.13344974874812]]]}, "properties": {"area_ha": 3.481165368948249, "mean_dnbr": 0.16630562229533877, "compactness": 0.268, "rectangularity": 0.441, "cropland_frac": 0, "persistent": null}}, {"type": "Feature", "geometry": {"geodesic": false, "type": "Polygon", "coordinates": [[[32.60373930339671, 36.10218837686076], [32.60427829256716, 36.10218837686076], [32.60427829256716, 36.10272736603123], [32.60373930339671, 36.10272736603123], [32.60373930339671, 36.103266355201704], [32.60427829256716, 36.103266355201704], [32.60427829256716, 36.10380534437217], [32.60373930339671, 36.10380534437217], [32.60373930339671, 36.104883322713114], [32.60266132505575, 36.104883322713114], [32.60266132505575, 36.105422311883586], [32.6021223358853, 36.105422311883586], [32.6021223358853, 36.10218837686076], [32.60320031422623, 36.10218837686076], [32.60320031422623, 36.10272736603123], [32.60373930339671, 36.10272736603123], [32.60373930339671, 36.10218837686076]]]}, "properties": {"area_ha": 4.933620918092589, "mean_dnbr": 0.18624280727571443, "compactness": 0.354, "rectangularity": 0.708, "cropland_frac": 0, "persistent": null}}, {"type": "Feature", "geometry": {"geodesic": false, "type": "Polygon", "coordinates": [[[32.60481728173764, 36.11027321441783], [32.6058952600786, 36.11027321441783], [32.6058952600786, 36.1108122035883], [32.60697323841953, 36.1108122035883], [32.60697323841953, 36.11242917109972], [32.60643424924905, 36.11242917109972], [32.60643424924905, 36.11189018192925], [32.60535627090812, 36.11189018192925], [32.60535627090812, 36.11242917109972], [32.6058952600786, 36.11242917109972], [32.6058952600786, 36.11296816027019], [32.60643424924905, 36.11296816027019], [32.60643424924905, 36.11404613861114], [32.60427829256716, 36.11404613861114], [32.60427829256716, 36.11512411695208], [32.60373930339671, 36.11512411695208], [32.60373930339671, 36.11404613861114], [32.60427829256716, 36.11404613861114], [32.60427829256716, 36.113507149440665], [32.60373930339671, 36.113507149440665], [32.60373930339671, 36.11296816027019], [32.60427829256716, 36.11296816027019], [32.60427829256716, 36.1108122035883], [32.60481728173764, 36.1108122035883], [32.60481728173764, 36.11027321441783]]]}, "properties": {"area_ha": 8.41524305958927, "mean_dnbr": 0.2546971739970247, "compactness": 0.247, "rectangularity": 0.544, "cropland_frac": 0, "persistent": null}}, {"type": "Feature", "geometry": {"geodesic": false, "type": "Polygon", "coordinates": [[[32.60859020593094, 36.12536491119104], [32.61020717344235, 36.12536491119104], [32.61020717344235, 36.125903900361514], [32.611285151783306, 36.125903900361514], [32.611285151783306, 36.12644288953199], [32.613441108465196, 36.12644288953199], [32.613441108465196, 36.125903900361514], [32.613980097635675, 36.125903900361514], [32.613980097635675, 36.12644288953199], [32.614519086806126, 36.12644288953199], [32.614519086806126, 36.1280598570434], [32.613980097635675, 36.1280598570434], [32.613980097635675, 36.12752086787293], [32.611285151783306, 36.12752086787293], [32.611285151783306, 36.12644288953199], [32.6096681842719, 36.12644288953199], [32.6096681842719, 36.12752086787293], [32.61020717344235, 36.12752086787293], [32.61020717344235, 36.1280598570434], [32.6096681842719, 36.1280598570434], [32.6096681842719, 36.12859884621387], [32.60912919510142, 36.12859884621387], [32.60912919510142, 36.12752086787293], [32.60859020593094, 36.12752086787293], [32.60859020593094, 36.12536491119104]]]}, "properties": {"area_ha": 8.413699392705668, "mean_dnbr": 0.24310686987073934, "compactness": 0.19, "rectangularity": 0.439, "cropland_frac": 0, "persistent": null}}, {"type": "Feature", "geometry": {"geodesic": false, "type": "Polygon", "coordinates": [[[32.61074616261283, 36.10218837686076], [32.611285151783306, 36.10218837686076], [32.611285151783306, 36.103266355201704], [32.611824140953786, 36.103266355201704], [32.611824140953786, 36.10380534437217], [32.61074616261283, 36.10380534437217], [32.61074616261283, 36.10434433354264], [32.60912919510142, 36.10434433354264], [32.60912919510142, 36.103266355201704], [32.60751222759001, 36.103266355201704], [32.60751222759001, 36.10380534437217], [32.6058952600786, 36.10380534437217], [32.6058952600786, 36.103266355201704], [32.60697323841953, 36.103266355201704], [32.60697323841953, 36.10218837686076], [32.60859020593094, 36.10218837686076], [32.60859020593094, 36.10272736603123], [32.60912919510142, 36.10272736603123], [32.60912919510142, 36.10218837686076], [32.61020717344235, 36.10218837686076], [32.61020717344235, 36.10272736603123], [32.61074616261283, 36.10272736603123], [32.61074616261283, 36.10218837686076]]]}, "properties": {"area_ha": 7.255372061152947, "mean_dnbr": 0.20231972525101166, "compactness": 0.251, "rectangularity": 0.568, "cropland_frac": 0, "persistent": null}}, {"type": "Feature", "geometry": {"geodesic": false, "type": "Polygon", "coordinates": [[[32.6096681842719, 36.11027321441783], [32.611824140953786, 36.11027321441783], [32.611824140953786, 36.111351192758775], [32.611285151783306, 36.111351192758775], [32.611285151783306, 36.11189018192925], [32.61236313012424, 36.11189018192925], [32.61236313012424, 36.11242917109972], [32.612902119294716, 36.11242917109972], [32.612902119294716, 36.111351192758775], [32.613441108465196, 36.111351192758775], [32.613441108465196, 36.11296816027019], [32.613980097635675, 36.11296816027019], [32.613980097635675, 36.113507149440665], [32.611824140953786, 36.113507149440665], [32.611824140953786, 36.11296816027019], [32.611285151783306, 36.11296816027019], [32.611285151783306, 36.11458512778161], [32.61074616261283, 36.11458512778161], [32.61074616261283, 36.11404613861114], [32.6096681842719, 36.11404613861114], [32.6096681842719, 36.11458512778161], [32.60859020593094, 36.11458512778161], [32.60859020593094, 36.11512411695208], [32.60805121676049, 36.11512411695208], [32.60805121676049, 36.11458512778161], [32.60697323841953, 36.11458512778161], [32.60697323841953, 36.113507149440665], [32.60859020593094, 36.113507149440665], [32.60859020593094, 36.11404613861114], [32.60912919510142, 36.11404613861114], [32.60912919510142, 36.11296816027019], [32.611285151783306, 36.11296816027019], [32.611285151783306, 36.11242917109972], [32.6096681842719, 36.11242917109972], [32.6096681842719, 36.111351192758775], [32.60912919510142, 36.111351192758775], [32.60912919510142, 36.1108122035883], [32.6096681842719, 36.1108122035883], [32.6096681842719, 36.11027321441783]]]}, "properties": {"area_ha": 13.058074016171954, "mean_dnbr": 0.18915406179517025, "compactness": 0.14, "rectangularity": 0.399, "cropland_frac": 0, "persistent": null}}, {"type": "Feature", "geometry": {"geodesic": false, "type": "Polygon", "coordinates": [[[32.616136054317536, 36.0994934310084], [32.616675043488016, 36.0994934310084], [32.616675043488016, 36.10003242017887], [32.616136054317536, 36.10003242017887], [32.616136054317536, 36.101110398519815], [32.615597065147085, 36.101110398519815], [32.615597065147085, 36.10218837686076], [32.616136054317536, 36.10218837686076], [32.616136054317536, 36.10164938769029], [32.617214032658495, 36.10164938769029], [32.617214032658495, 36.101110398519815], [32.617753021828975, 36.101110398519815], [32.617753021828975, 36.10057140934934], [32.617214032658495, 36.10057140934934], [32.617214032658495, 36.10003242017887], [32.618292010999426, 36.10003242017887], [32.618292010999426, 36.10057140934934], [32.618831000169905, 36.10057140934934], [32.618831000169905, 36.10272736603123], [32.619369989340385, 36.10272736603123], [32.619369989340385, 36.10380534437217], [32.619908978510864, 36.10380534437217], [32.619908978510864, 36.10434433354264], [32.620986956851795, 36.10434433354264], [32.620986956851795, 36.104883322713114], [32.620447967681315, 36.104883322713114], [32.620447967681315, 36.105422311883586], [32.621525946022274, 36.105422311883586], [32.621525946022274, 36.104883322713114], [32.622064935192725, 36.104883322713114], [32.622064935192725, 36.10596130105406], [32.622603924363204, 36.10596130105406], [32.622603924363204, 36.105422311883586], [32.623142913533684, 36.105422311883586], [32.623142913533684, 36.10596130105406], [32.62583785938605, 36.10596130105406], [32.62583785938605, 36.107578268565476], [32.624220891874614, 36.107578268565476], [32.624220891874614, 36.10811725773595], [32.62368190270416, 36.10811725773595], [32.62368190270416, 36.107578268565476], [32.621525946022274, 36.107578268565476], [32.621525946022274, 36.10650029022453], [32.622064935192725, 36.10650029022453], [32.622064935192725, 36.10596130105406], [32.620447967681315, 36.10596130105406], [32.620447967681315, 36.105422311883586], [32.619908978510864, 36.105422311883586], [32.619908978510864, 36.104883322713114], [32.618292010999426, 36.104883322713114], [32.618292010999426, 36.10434433354264], [32.617753021828975, 36.10434433354264], [32.617753021828975, 36.103266355201704], [32.616675043488016, 36.103266355201704], [32.616675043488016, 36.10272736603123], [32.616136054317536, 36.10272736603123], [32.616136054317536, 36.103266355201704], [32.615597065147085, 36.103266355201704], [32.615597065147085, 36.10218837686076], [32.614519086806126, 36.10218837686076], [32.614519086806126, 36.101110398519815], [32.615058075976606, 36.101110398519815], [32.615058075976606, 36.10057140934934], [32.613980097635675, 36.10057140934934], [32.613980097635675, 36.101110398519815], [32.611285151783306, 36.101110398519815], [32.611285151783306, 36.10057140934934], [32.611824140953786, 36.10057140934934], [32.611824140953786, 36.0994934310084], [32.613441108465196, 36.0994934310084], [32.613441108465196, 36.10003242017887], [32.616136054317536, 36.10003242017887], [32.616136054317536, 36.0994934310084]]]}, "properties": {"area_ha": 25.829003790070622, "mean_dnbr": 0.23053262779977862, "compactness": 0.085, "rectangularity": 0.347, "cropland_frac": 0, "persistent": null}}, {"type": "Feature", "geometry": {"geodesic": false, "type": "Polygon", "coordinates": [[[32.615597065147085, 36.117280073633964], [32.617214032658495, 36.117280073633964], [32.617214032658495, 36.117819062804436], [32.619908978510864, 36.117819062804436], [32.619908978510864, 36.11835805197491], [32.620447967681315, 36.11835805197491], [32.620447967681315, 36.11889704114538], [32.619369989340385, 36.11889704114538], [32.619369989340385, 36.11943603031585], [32.618831000169905, 36.11943603031585], [32.618831000169905, 36.119975019486326], [32.617214032658495, 36.119975019486326], [32.617214032658495, 36.1205140086568], [32.616136054317536, 36.1205140086568], [32.616136054317536, 36.12266996533868], [32.615058075976606, 36.12266996533868], [32.615058075976606, 36.12320895450915], [32.614519086806126, 36.12320895450915], [32.614519086806126, 36.1242869328501], [32.613980097635675, 36.1242869328501], [32.613980097635675, 36.12320895450915], [32.612902119294716, 36.12320895450915], [32.612902119294716, 36.12266996533868], [32.61236313012424, 36.12266996533868], [32.61236313012424, 36.12213097616821], [32.611285151783306, 36.12213097616821], [32.611285151783306, 36.12266996533868], [32.611824140953786, 36.12266996533868], [32.611824140953786, 36.12320895450915], [32.611285151783306, 36.12320895450915], [32.611285151783306, 36.12266996533868], [32.61020717344235, 36.12266996533868], [32.61020717344235, 36.12320895450915], [32.6096681842719, 36.12320895450915], [32.6096681842719, 36.1242869328501], [32.60912919510142, 36.1242869328501], [32.60912919510142, 36.123747943679625], [32.60859020593094, 36.123747943679625], [32.60859020593094, 36.12482592202057], [32.60751222759001, 36.12482592202057], [32.60751222759001, 36.123747943679625], [32.60697323841953, 36.123747943679625], [32.60697323841953, 36.12320895450915], [32.60805121676049, 36.12320895450915], [32.60805121676049, 36.12159198699774], [32.60859020593094, 36.12159198699774], [32.60859020593094, 36.12213097616821], [32.60912919510142, 36.12213097616821], [32.60912919510142, 36.12159198699774], [32.6096681842719, 36.12159198699774], [32.6096681842719, 36.12105299782727], [32.611285151783306, 36.12105299782727], [32.611285151783306, 36.1205140086568], [32.611824140953786, 36.1205140086568], [32.611824140953786, 36.119975019486326], [32.61236313012424, 36.119975019486326], [32.61236313012424, 36.12213097616821], [32.613980097635675, 36.12213097616821], [32.613980097635675, 36.11889704114538], [32.614519086806126, 36.11889704114538], [32.614519086806126, 36.11835805197491], [32.615058075976606, 36.11835805197491], [32.615058075976606, 36.117819062804436], [32.615597065147085, 36.117819062804436], [32.615597065147085, 36.117280073633964]], [[32.61020717344235, 36.12213097616821], [32.61020717344235, 36.12266996533868], [32.6096681842719, 36.12266996533868], [32.6096681842719, 36.12213097616821], [32.61020717344235, 36.12213097616821]], [[32.616136054317536, 36.11835805197491], [32.616136054317536, 36.11889704114538], [32.615597065147085, 36.11889704114538], [32.615597065147085, 36.11835805197491], [32.616136054317536, 36.11835805197491]]]}, "properties": {"area_ha": 31.045969065737857, "mean_dnbr": 0.2914800949103763, "compactness": 0.11, "rectangularity": 0.392, "cropland_frac": 0, "persistent": null}}, {"type": "Feature", "geometry": {"geodesic": false, "type": "Polygon", "coordinates": [[[32.617214032658495, 36.13344974874812], [32.618831000169905, 36.13344974874812], [32.618831000169905, 36.133988737918585], [32.619908978510864, 36.133988737918585], [32.619908978510864, 36.13452772708906], [32.620986956851795, 36.13452772708906], [32.620986956851795, 36.13560570543], [32.621525946022274, 36.13560570543], [32.621525946022274, 36.13722267294142], [32.620986956851795, 36.13722267294142], [32.620986956851795, 36.13668368377095], [32.620447967681315, 36.13668368377095], [32.620447967681315, 36.13722267294142], [32.619908978510864, 36.13722267294142], [32.619908978510864, 36.13776166211189], [32.619369989340385, 36.13776166211189], [32.619369989340385, 36.13722267294142], [32.619908978510864, 36.13722267294142], [32.619908978510864, 36.13560570543], [32.619369989340385, 36.13560570543], [32.619369989340385, 36.13506671625953], [32.618831000169905, 36.13506671625953], [32.618831000169905, 36.133988737918585], [32.617214032658495, 36.133988737918585], [32.617214032658495, 36.13344974874812]]]}, "properties": {"area_ha": 6.092007125378291, "mean_dnbr": 0.23467367914576162, "compactness": 0.201, "rectangularity": 0.397, "cropland_frac": 0, "persistent": null}}, {"type": "Feature", "geometry": {"geodesic": false, "type": "Polygon", "coordinates": [[[32.65386529625056, 36.08709668008755], [32.65494327459152, 36.08709668008755], [32.65494327459152, 36.08763566925802], [32.655482263761996, 36.08763566925802], [32.655482263761996, 36.088713647598965], [32.65602125293245, 36.088713647598965], [32.65602125293245, 36.08979162593991], [32.65656024210293, 36.08979162593991], [32.65656024210293, 36.090869604280854], [32.657099231273406, 36.090869604280854], [32.657099231273406, 36.09194758262179], [32.65763822044386, 36.09194758262179], [32.65763822044386, 36.092486571792264], [32.657099231273406, 36.092486571792264], [32.657099231273406, 36.09302556096274], [32.65602125293245, 36.09302556096274], [32.65602125293245, 36.09356455013321], [32.655482263761996, 36.09356455013321], [32.655482263761996, 36.09410353930368], [32.65386529625056, 36.09410353930368], [32.65386529625056, 36.095181517644626], [32.65440428542104, 36.095181517644626], [32.65440428542104, 36.094642528474154], [32.655482263761996, 36.094642528474154], [32.655482263761996, 36.09625949598557], [32.65224832873915, 36.09625949598557], [32.65224832873915, 36.097337474326515], [32.65117035039822, 36.097337474326515], [32.65117035039822, 36.09787646349698], [32.65063136122774, 36.09787646349698], [32.65063136122774, 36.097337474326515], [32.64739742620492, 36.097337474326515], [32.64739742620492, 36.098954441837925], [32.64685843703444, 36.098954441837925], [32.64685843703444, 36.0994934310084], [32.64631944786396, 36.0994934310084], [32.64631944786396, 36.10003242017887], [32.64578045869348, 36.10003242017887], [32.64578045869348, 36.10057140934934], [32.64524146952303, 36.10057140934934], [32.64524146952303, 36.0994934310084], [32.64470248035255, 36.0994934310084], [32.64470248035255, 36.10003242017887], [32.64416349118207, 36.10003242017887], [32.64416349118207, 36.10057140934934], [32.64362450201162, 36.10057140934934], [32.64362450201162, 36.101110398519815], [32.64308551284114, 36.101110398519815], [32.64308551284114, 36.10164938769029], [32.64200753450018, 36.10164938769029], [32.64200753450018, 36.10218837686076], [32.64254652367066, 36.10218837686076], [32.64254652367066, 36.10272736603123], [32.64200753450018, 36.10272736603123], [32.64200753450018, 36.103266355201704], [32.64039056698877, 36.103266355201704], [32.64039056698877, 36.10434433354264], [32.63985157781829, 36.10434433354264], [32.63985157781829, 36.104883322713114], [32.63661764279547, 36.104883322713114], [32.63661764279547, 36.105422311883586], [32.63607865362499, 36.105422311883586], [32.63607865362499, 36.104883322713114], [32.63122775109076, 36.104883322713114], [32.63122775109076, 36.10596130105406], [32.63176674026124, 36.10596130105406], [32.63176674026124, 36.10650029022453], [32.63122775109076, 36.10650029022453], [32.63122775109076, 36.107039279395], [32.63068876192028, 36.107039279395], [32.63068876192028, 36.10811725773595], [32.62961078357935, 36.10811725773595], [32.62961078357935, 36.107578268565476], [32.62853280523839, 36.107578268565476], [32.62853280523839, 36.10811725773595], [32.627993816067914, 36.10811725773595], [32.627993816067914, 36.107578268565476], [32.62745482689746, 36.107578268565476], [32.62745482689746, 36.107039279395], [32.627993816067914, 36.107039279395], [32.627993816067914, 36.10650029022453], [32.62691583772698, 36.10650029022453], [32.62691583772698, 36.10596130105406], [32.62745482689746, 36.10596130105406], [32.62745482689746, 36.105422311883586], [32.627993816067914, 36.105422311883586], [32.627993816067914, 36.104883322713114], [32.62745482689746, 36.104883322713114], [32.62745482689746, 36.10434433354264], [32.62691583772698, 36.10434433354264], [32.62691583772698, 36.103266355201704], [32.62745482689746, 36.103266355201704], [32.62745482689746, 36.10272736603123], [32.627993816067914, 36.10272736603123], [32.627993816067914, 36.10218837686076], [32.62853280523839, 36.10218837686076], [32.62853280523839, 36.10164938769029], [32.6301497727498, 36.10164938769029], [32.6301497727498, 36.10218837686076], [32.63068876192028, 36.10218837686076], [32.63068876192028, 36.10164938769029], [32.63122775109076, 36.10164938769029], [32.63122775109076, 36.10057140934934], [32.63230572943169, 36.10057140934934], [32.63230572943169, 36.10218837686076], [32.63284471860217, 36.10218837686076], [32.63284471860217, 36.10164938769029], [32.63500067528406, 36.10164938769029], [32.63500067528406, 36.10057140934934], [32.63553966445454, 36.10057140934934], [32.63553966445454, 36.10003242017887], [32.63607865362499, 36.10003242017887], [32.63607865362499, 36.0994934310084], [32.63553966445454, 36.0994934310084], [32.63553966445454, 36.09841545266745], [32.63715663196595, 36.09841545266745], [32.63715663196595, 36.0994934310084], [32.63769562113643, 36.0994934310084], [32.63769562113643, 36.10003242017887], [32.63823461030688, 36.10003242017887], [32.63823461030688, 36.0994934310084], [32.63985157781829, 36.0994934310084], [32.63985157781829, 36.098954441837925], [32.63769562113643, 36.098954441837925], [32.63769562113643, 36.09841545266745], [32.63823461030688, 36.09841545266745], [32.63823461030688, 36.09787646349698], [32.63877359947736, 36.09787646349698], [32.63877359947736, 36.097337474326515], [32.63931258864784, 36.097337474326515], [32.63931258864784, 36.09679848515604], [32.63985157781829, 36.09679848515604], [32.63985157781829, 36.09302556096274], [32.64039056698877, 36.09302556096274], [32.64039056698877, 36.092486571792264], [32.64200753450018, 36.092486571792264], [32.64200753450018, 36.09140859345133], [32.64308551284114, 36.09140859345133], [32.64308551284114, 36.09194758262179], [32.64524146952303, 36.09194758262179], [32.64524146952303, 36.09302556096274], [32.64416349118207, 36.09302556096274], [32.64416349118207, 36.09356455013321], [32.64254652367066, 36.09356455013321], [32.64254652367066, 36.09625949598557], [32.64362450201162, 36.09625949598557], [32.64362450201162, 36.0957205068151], [32.64308551284114, 36.0957205068151], [32.64308551284114, 36.09410353930368], [32.64470248035255, 36.09410353930368], [32.64470248035255, 36.09356455013321], [32.64524146952303, 36.09356455013321], [32.64524146952303, 36.09410353930368], [32.64578045869348, 36.09410353930368], [32.64578045869348, 36.094642528474154], [32.64631944786396, 36.094642528474154], [32.64631944786396, 36.0957205068151], [32.64685843703444, 36.0957205068151], [32.64685843703444, 36.095181517644626], [32.64793641537537, 36.095181517644626], [32.64793641537537, 36.094642528474154], [32.64955338288681, 36.094642528474154], [32.64955338288681, 36.09410353930368], [32.64847540454585, 36.09410353930368], [32.64847540454585, 36.09356455013321], [32.64901439371633, 36.09356455013321], [32.64901439371633, 36.09302556096274], [32.64793641537537, 36.09302556096274], [32.64793641537537, 36.09356455013321], [32.64739742620492, 36.09356455013321], [32.64739742620492, 36.09302556096274], [32.64578045869348, 36.09302556096274], [32.64578045869348, 36.09194758262179], [32.65063136122774, 36.09194758262179], [32.65063136122774, 36.090869604280854], [32.65117035039822, 36.090869604280854], [32.65117035039822, 36.092486571792264], [32.65009237205726, 36.092486571792264], [32.65009237205726, 36.09302556096274], [32.65278731790963, 36.09302556096274], [32.65278731790963, 36.09356455013321], [32.65332630708011, 36.09356455013321], [32.65332630708011, 36.09302556096274], [32.65440428542104, 36.09302556096274], [32.65440428542104, 36.09356455013321], [32.65494327459152, 36.09356455013321], [32.65494327459152, 36.09194758262179], [32.655482263761996, 36.09194758262179], [32.655482263761996, 36.090869604280854], [32.65602125293245, 36.090869604280854], [32.65602125293245, 36.08979162593991], [32.655482263761996, 36.08979162593991], [32.655482263761996, 36.09033061511038], [32.65494327459152, 36.09033061511038], [32.65494327459152, 36.088713647598965], [32.65386529625056, 36.088713647598965], [32.65386529625056, 36.08979162593991], [32.65440428542104, 36.08979162593991], [32.65440428542104, 36.090869604280854], [32.65494327459152, 36.090869604280854], [32.65494327459152, 36.09140859345133], [32.65224832873915, 36.09140859345133], [32.65224832873915, 36.09194758262179], [32.65170933956867, 36.09194758262179], [32.65170933956867, 36.09140859345133], [32.65224832873915, 36.09140859345133], [32.65224832873915, 36.090869604280854], [32.65278731790963, 36.090869604280854], [32.65278731790963, 36.09033061511038], [32.65224832873915, 36.09033061511038], [32.65224832873915, 36.08979162593991], [32.65117035039822, 36.08979162593991], [32.65117035039822, 36.088713647598965], [32.65224832873915, 36.088713647598965], [32.65224832873915, 36.08979162593991], [32.65278731790963, 36.08979162593991], [32.65278731790963, 36.088713647598965], [32.65386529625056, 36.088713647598965], [32.65386529625056, 36.08709668008755]], [[32.6301497727498, 36.107039279395], [32.6301497727498, 36.107578268565476], [32.62961078357935, 36.107578268565476], [32.62961078357935, 36.107039279395], [32.6301497727498, 36.107039279395]], [[32.62853280523839, 36.10596130105406], [32.62853280523839, 36.10650029022453], [32.627993816067914, 36.10650029022453], [32.627993816067914, 36.10596130105406], [32.62853280523839, 36.10596130105406]], [[32.62961078357935, 36.104883322713114], [32.62961078357935, 36.105422311883586], [32.62907179440887, 36.105422311883586], [32.62907179440887, 36.104883322713114], [32.62961078357935, 36.104883322713114]], [[32.63715663196595, 36.10380534437217], [32.63715663196595, 36.10434433354264], [32.63661764279547, 36.10434433354264], [32.63661764279547, 36.104883322713114], [32.63607865362499, 36.104883322713114], [32.63607865362499, 36.10380534437217], [32.63715663196595, 36.10380534437217]], [[32.62961078357935, 36.103266355201704], [32.62961078357935, 36.10434433354264], [32.62907179440887, 36.10434433354264], [32.62907179440887, 36.103266355201704], [32.62961078357935, 36.103266355201704]], [[32.63553966445454, 36.103266355201704], [32.63553966445454, 36.10380534437217], [32.63500067528406, 36.10380534437217], [32.63500067528406, 36.10434433354264], [32.63446168611358, 36.10434433354264], [32.63446168611358, 36.10380534437217], [32.6339226969431, 36.10380534437217], [32.6339226969431, 36.103266355201704], [32.63553966445454, 36.103266355201704]], [[32.63122775109076, 36.10272736603123], [32.63122775109076, 36.103266355201704], [32.63068876192028, 36.103266355201704], [32.63068876192028, 36.10272736603123], [32.63122775109076, 36.10272736603123]], [[32.6339226969431, 36.10272736603123], [32.6339226969431, 36.103266355201704], [32.63284471860217, 36.103266355201704], [32.63284471860217, 36.10272736603123], [32.6339226969431, 36.10272736603123]], [[32.63607865362499, 36.10272736603123], [32.63607865362499, 36.103266355201704], [32.63553966445454, 36.103266355201704], [32.63553966445454, 36.10272736603123], [32.63607865362499, 36.10272736603123]], [[32.63661764279547, 36.10218837686076], [32.63661764279547, 36.10272736603123], [32.63607865362499, 36.10272736603123], [32.63607865362499, 36.10218837686076], [32.63661764279547, 36.10218837686076]], [[32.63877359947736, 36.101110398519815], [32.63877359947736, 36.10164938769029], [32.63823461030688, 36.10164938769029], [32.63823461030688, 36.101110398519815], [32.63877359947736, 36.101110398519815]], [[32.63985157781829, 36.10057140934934], [32.63985157781829, 36.101110398519815], [32.63931258864784, 36.101110398519815], [32.63931258864784, 36.10057140934934], [32.63985157781829, 36.10057140934934]], [[32.63769562113643, 36.10003242017887], [32.63769562113643, 36.10057140934934], [32.63715663196595, 36.10057140934934], [32.63715663196595, 36.101110398519815], [32.63661764279547, 36.101110398519815], [32.63661764279547, 36.10164938769029], [32.63607865362499, 36.10164938769029], [32.63607865362499, 36.101110398519815], [32.63553966445454, 36.101110398519815], [32.63553966445454, 36.10057140934934], [32.63661764279547, 36.10057140934934], [32.63661764279547, 36.10003242017887], [32.63769562113643, 36.10003242017887]], [[32.64200753450018, 36.0994934310084], [32.64200753450018, 36.10003242017887], [32.64146854532973, 36.10003242017887], [32.64146854532973, 36.0994934310084], [32.64200753450018, 36.0994934310084]], [[32.64254652367066, 36.098954441837925], [32.64254652367066, 36.0994934310084], [32.64200753450018, 36.0994934310084], [32.64200753450018, 36.098954441837925], [32.64254652367066, 36.098954441837925]], [[32.64308551284114, 36.097337474326515], [32.64308551284114, 36.09841545266745], [32.64254652367066, 36.09841545266745], [32.64254652367066, 36.097337474326515], [32.64308551284114, 36.097337474326515]], [[32.64578045869348, 36.095181517644626], [32.64578045869348, 36.0957205068151], [32.64631944786396, 36.0957205068151], [32.64631944786396, 36.09625949598557], [32.64524146952303, 36.09625949598557], [32.64524146952303, 36.095181517644626], [32.64578045869348, 36.095181517644626]], [[32.64955338288681, 36.092486571792264], [32.64955338288681, 36.09302556096274], [32.64901439371633, 36.09302556096274], [32.64901439371633, 36.092486571792264], [32.64955338288681, 36.092486571792264]], [[32.65602125293245, 36.092486571792264], [32.65602125293245, 36.09302556096274], [32.655482263761996, 36.09302556096274], [32.655482263761996, 36.092486571792264], [32.65602125293245, 36.092486571792264]], [[32.657099231273406, 36.09194758262179], [32.657099231273406, 36.092486571792264], [32.65602125293245, 36.092486571792264], [32.65602125293245, 36.09194758262179], [32.657099231273406, 36.09194758262179]]]}, "properties": {"area_ha": 163.11101031426077, "mean_dnbr": 0.2604014802448309, "compactness": 0.032, "rectangularity": 0.434, "cropland_frac": 0, "persistent": null}}, {"type": "Feature", "geometry": {"geodesic": false, "type": "Polygon", "coordinates": [[[32.665184068830484, 36.08332375589425], [32.666262047171415, 36.08332375589425], [32.666262047171415, 36.08386274506472], [32.665184068830484, 36.08386274506472], [32.665184068830484, 36.084940723405666], [32.667340025512374, 36.084940723405666], [32.667340025512374, 36.08440173423519], [32.669495982194235, 36.08440173423519], [32.669495982194235, 36.084940723405666], [32.670034971364714, 36.084940723405666], [32.670034971364714, 36.08547971257614], [32.669495982194235, 36.08547971257614], [32.669495982194235, 36.0860187017466], [32.670034971364714, 36.0860187017466], [32.670034971364714, 36.08709668008755], [32.669495982194235, 36.08709668008755], [32.669495982194235, 36.08817465842849], [32.668956993023784, 36.08817465842849], [32.668956993023784, 36.08979162593991], [32.669495982194235, 36.08979162593991], [32.669495982194235, 36.09033061511038], [32.670034971364714, 36.09033061511038], [32.670034971364714, 36.09140859345133], [32.668956993023784, 36.09140859345133], [32.668956993023784, 36.09194758262179], [32.667879014682825, 36.09194758262179], [32.667879014682825, 36.090869604280854], [32.667340025512374, 36.090869604280854], [32.667340025512374, 36.09140859345133], [32.666801036341894, 36.09140859345133], [32.666801036341894, 36.090869604280854], [32.667340025512374, 36.090869604280854], [32.667340025512374, 36.09033061511038], [32.666801036341894, 36.09033061511038], [32.666801036341894, 36.08979162593991], [32.665723058000935, 36.08979162593991], [32.665723058000935, 36.08925263676944], [32.665184068830484, 36.08925263676944], [32.665184068830484, 36.08979162593991], [32.664645079660005, 36.08979162593991], [32.664645079660005, 36.088713647598965], [32.664106090489526, 36.088713647598965], [32.664106090489526, 36.08979162593991], [32.663028112148595, 36.08979162593991], [32.663028112148595, 36.09033061511038], [32.661950133807636, 36.09033061511038], [32.661950133807636, 36.090869604280854], [32.660333166296226, 36.090869604280854], [32.660333166296226, 36.09194758262179], [32.65979417712575, 36.09194758262179], [32.65979417712575, 36.09302556096274], [32.659255187955296, 36.09302556096274], [32.659255187955296, 36.09410353930368], [32.65763822044386, 36.09410353930368], [32.65763822044386, 36.0957205068151], [32.65656024210293, 36.0957205068151], [32.65656024210293, 36.09625949598557], [32.65602125293245, 36.09625949598557], [32.65602125293245, 36.0957205068151], [32.65656024210293, 36.0957205068151], [32.65656024210293, 36.095181517644626], [32.65602125293245, 36.095181517644626], [32.65602125293245, 36.094642528474154], [32.65656024210293, 36.094642528474154], [32.65656024210293, 36.09410353930368], [32.657099231273406, 36.09410353930368], [32.657099231273406, 36.09356455013321], [32.65763822044386, 36.09356455013321], [32.65763822044386, 36.09302556096274], [32.65817720961434, 36.09302556096274], [32.65817720961434, 36.090869604280854], [32.65763822044386, 36.090869604280854], [32.65763822044386, 36.09033061511038], [32.65817720961434, 36.09033061511038], [32.65817720961434, 36.08979162593991], [32.65763822044386, 36.08979162593991], [32.65763822044386, 36.08925263676944], [32.658716198784816, 36.08925263676944], [32.658716198784816, 36.088713647598965], [32.659255187955296, 36.088713647598965], [32.659255187955296, 36.08925263676944], [32.658716198784816, 36.08925263676944], [32.658716198784816, 36.08979162593991], [32.659255187955296, 36.08979162593991], [32.659255187955296, 36.09033061511038], [32.65979417712575, 36.09033061511038], [32.65979417712575, 36.08979162593991], [32.660333166296226, 36.08979162593991], [32.660333166296226, 36.088713647598965], [32.65979417712575, 36.088713647598965], [32.65979417712575, 36.08817465842849], [32.660333166296226, 36.08817465842849], [32.660333166296226, 36.08763566925802], [32.659255187955296, 36.08763566925802], [32.659255187955296, 36.086557690917076], [32.658716198784816, 36.086557690917076], [32.658716198784816, 36.08547971257614], [32.65979417712575, 36.08547971257614], [32.65979417712575, 36.084940723405666], [32.660333166296226, 36.084940723405666], [32.660333166296226, 36.08440173423519], [32.661411144637185, 36.08440173423519], [32.661411144637185, 36.08386274506472], [32.662489122978116, 36.08386274506472], [32.662489122978116, 36.08440173423519], [32.661411144637185, 36.08440173423519], [32.661411144637185, 36.084940723405666], [32.661950133807636, 36.084940723405666], [32.661950133807636, 36.08547971257614], [32.662489122978116, 36.08547971257614], [32.662489122978116, 36.0860187017466], [32.661950133807636, 36.0860187017466], [32.661950133807636, 36.08547971257614], [32.661411144637185, 36.08547971257614], [32.661411144637185, 36.0860187017466], [32.660872155466706, 36.0860187017466], [32.660872155466706, 36.08547971257614], [32.65979417712575, 36.08547971257614], [32.65979417712575, 36.0860187017466], [32.659255187955296, 36.0860187017466], [32.659255187955296, 36.086557690917076], [32.661411144637185, 36.086557690917076], [32.661411144637185, 36.08709668008755], [32.660333166296226, 36.08709668008755], [32.660333166296226, 36.08763566925802], [32.661950133807636, 36.08763566925802], [32.661950133807636, 36.08817465842849], [32.662489122978116, 36.08817465842849], [32.662489122978116, 36.08709668008755], [32.663028112148595, 36.08709668008755], [32.663028112148595, 36.086557690917076], [32.663567101319046, 36.086557690917076], [32.663567101319046, 36.08709668008755], [32.664106090489526, 36.08709668008755], [32.664106090489526, 36.08763566925802], [32.665184068830484, 36.08763566925802], [32.665184068830484, 36.08709668008755], [32.664645079660005, 36.08709668008755], [32.664645079660005, 36.086557690917076], [32.665184068830484, 36.086557690917076], [32.665184068830484, 36.08709668008755], [32.665723058000935, 36.08709668008755], [32.665723058000935, 36.08763566925802], [32.665184068830484, 36.08763566925802], [32.665184068830484, 36.088713647598965], [32.665723058000935, 36.088713647598965], [32.665723058000935, 36.08817465842849], [32.666262047171415, 36.08817465842849], [32.666262047171415, 36.088713647598965], [32.667340025512374, 36.088713647598965], [32.667340025512374, 36.08925263676944], [32.668418003853304, 36.08925263676944], [32.668418003853304, 36.088713647598965], [32.667879014682825, 36.088713647598965], [32.667879014682825, 36.08817465842849], [32.666801036341894, 36.08817465842849], [32.666801036341894, 36.08763566925802], [32.667340025512374, 36.08763566925802], [32.667340025512374, 36.08709668008755], [32.666801036341894, 36.08709668008755], [32.666801036341894, 36.08547971257614], [32.664645079660005, 36.08547971257614], [32.664645079660005, 36.08440173423519], [32.664106090489526, 36.08440173423519], [32.664106090489526, 36.08386274506472], [32.665184068830484, 36.08386274506472], [32.665184068830484, 36.08332375589425]], [[32.663567101319046, 36.08763566925802], [32.663567101319046, 36.088713647598965], [32.663028112148595, 36.088713647598965], [32.663028112148595, 36.08763566925802], [32.663567101319046, 36.08763566925802]], [[32.668956993023784, 36.08763566925802], [32.668956993023784, 36.08817465842849], [32.668418003853304, 36.08817465842849], [32.668418003853304, 36.08763566925802], [32.668956993023784, 36.08763566925802]]]}, "properties": {"area_ha": 52.24821803822966, "mean_dnbr": 0.25128937345365565, "compactness": 0.039, "rectangularity": 0.289, "cropland_frac": 0, "persistent": null}}, {"type": "Feature", "geometry": {"geodesic": false, "type": "Polygon", "coordinates": [[[32.70722522412726, 36.05098440566594], [32.707764213297736, 36.05098440566594], [32.707764213297736, 36.051523394836416], [32.708842191638695, 36.051523394836416], [32.708842191638695, 36.05206238400689], [32.709920169979625, 36.05206238400689], [32.709920169979625, 36.053679351518305], [32.709381180809146, 36.053679351518305], [32.709381180809146, 36.05314036234783], [32.707764213297736, 36.05314036234783], [32.707764213297736, 36.051523394836416], [32.70722522412726, 36.051523394836416], [32.70722522412726, 36.05098440566594]]]}, "properties": {"area_ha": 3.4848259033316165, "mean_dnbr": 0.17081834663876677, "compactness": 0.373, "rectangularity": 0.48, "cropland_frac": 0, "persistent": null}}, {"type": "Feature", "geometry": {"geodesic": false, "type": "Polygon", "coordinates": [[[32.72662883426426, 36.05098440566594], [32.72716782343471, 36.05098440566594], [32.72716782343471, 36.051523394836416], [32.72770681260519, 36.051523394836416], [32.72770681260519, 36.05206238400689], [32.72824580177567, 36.05206238400689], [32.72824580177567, 36.05314036234783], [32.7293237801166, 36.05314036234783], [32.7293237801166, 36.053679351518305], [32.73040175845756, 36.053679351518305], [32.73040175845756, 36.05421834068878], [32.73094074762801, 36.05421834068878], [32.73094074762801, 36.053679351518305], [32.73201872596897, 36.053679351518305], [32.73201872596897, 36.05475732985925], [32.73255771513945, 36.05475732985925], [32.73255771513945, 36.053679351518305], [32.7330967043099, 36.053679351518305], [32.7330967043099, 36.05421834068878], [32.73363569348038, 36.05421834068878], [32.73363569348038, 36.053679351518305], [32.73417468265086, 36.053679351518305], [32.73417468265086, 36.05314036234783], [32.73471367182134, 36.05314036234783], [32.73471367182134, 36.05206238400689], [32.73740861767368, 36.05206238400689], [32.73740861767368, 36.05260137317736], [32.7368696285032, 36.05260137317736], [32.7368696285032, 36.05421834068878], [32.73525266099179, 36.05421834068878], [32.73525266099179, 36.05475732985925], [32.73471367182134, 36.05475732985925], [32.73471367182134, 36.05421834068878], [32.73363569348038, 36.05421834068878], [32.73363569348038, 36.05475732985925], [32.73255771513945, 36.05475732985925], [32.73255771513945, 36.05637429737066], [32.73147973679849, 36.05637429737066], [32.73147973679849, 36.05691328654113], [32.72986276928708, 36.05691328654113], [32.72986276928708, 36.05637429737066], [32.72824580177567, 36.05637429737066], [32.72824580177567, 36.057452275711604], [32.72770681260519, 36.057452275711604], [32.72770681260519, 36.05799126488208], [32.72662883426426, 36.05799126488208], [32.72662883426426, 36.05853025405255], [32.72608984509378, 36.05853025405255], [32.72608984509378, 36.05906924322302], [32.72501186675282, 36.05906924322302], [32.72501186675282, 36.059608232393494], [32.7255508559233, 36.059608232393494], [32.7255508559233, 36.060147221563966], [32.72393388841189, 36.060147221563966], [32.72393388841189, 36.06284216741632], [32.72339489924141, 36.06284216741632], [32.72339489924141, 36.06338115658679], [32.72285591007096, 36.06338115658679], [32.72285591007096, 36.063920145757265], [32.72177793173, 36.063920145757265], [32.72177793173, 36.06445913492774], [32.72123894255952, 36.06445913492774], [32.72123894255952, 36.06499812409821], [32.72069995338907, 36.06499812409821], [32.72069995338907, 36.06553711326868], [32.71962197504811, 36.06553711326868], [32.71962197504811, 36.066076102439155], [32.719082985877634, 36.066076102439155], [32.719082985877634, 36.06823205912104], [32.71854399670718, 36.06823205912104], [32.71854399670718, 36.06877104829151], [32.7180050075367, 36.06877104829151], [32.7180050075367, 36.06931003746198], [32.71638804002529, 36.06931003746198], [32.71638804002529, 36.070388015802926], [32.714771072513884, 36.070388015802926], [32.714771072513884, 36.069849026632454], [32.714232083343404, 36.069849026632454], [32.714232083343404, 36.0709270049734], [32.713693094172925, 36.0709270049734], [32.713693094172925, 36.07146599414387], [32.713154105002445, 36.07146599414387], [32.713154105002445, 36.072543972484816], [32.713693094172925, 36.072543972484816], [32.713693094172925, 36.07362195082575], [32.71638804002529, 36.07362195082575], [32.71638804002529, 36.076316896678115], [32.715849050854814, 36.076316896678115], [32.715849050854814, 36.07685588584859], [32.71638804002529, 36.07685588584859], [32.71638804002529, 36.07739487501906], [32.715849050854814, 36.07739487501906], [32.715849050854814, 36.08062881004189], [32.715310061684335, 36.08062881004189], [32.715310061684335, 36.080089820871414], [32.714771072513884, 36.080089820871414], [32.714771072513884, 36.08062881004189], [32.713693094172925, 36.08062881004189], [32.713693094172925, 36.08170678838283], [32.713154105002445, 36.08170678838283], [32.713154105002445, 36.082784766723776], [32.712615115831994, 36.082784766723776], [32.712615115831994, 36.08332375589425], [32.712076126661515, 36.08332375589425], [32.712076126661515, 36.08386274506472], [32.711537137491035, 36.08386274506472], [32.711537137491035, 36.08332375589425], [32.708842191638695, 36.08332375589425], [32.708842191638695, 36.082784766723776], [32.708303202468215, 36.082784766723776], [32.708303202468215, 36.08440173423519], [32.70722522412726, 36.08440173423519], [32.70722522412726, 36.084940723405666], [32.706147245786326, 36.084940723405666], [32.706147245786326, 36.08547971257614], [32.70345229993396, 36.08547971257614], [32.70345229993396, 36.084940723405666], [32.69914038657018, 36.084940723405666], [32.69914038657018, 36.08440173423519], [32.69860139739973, 36.08440173423519], [32.69860139739973, 36.08547971257614], [32.69806240822925, 36.08547971257614], [32.69806240822925, 36.084940723405666], [32.69752341905877, 36.084940723405666], [32.69752341905877, 36.08547971257614], [32.69428948403595, 36.08547971257614], [32.69428948403595, 36.0860187017466], [32.69267251652454, 36.0860187017466], [32.69267251652454, 36.086557690917076], [32.69051655984265, 36.086557690917076], [32.69051655984265, 36.0860187017466], [32.68997757067217, 36.0860187017466], [32.68997757067217, 36.08547971257614], [32.6872826248198, 36.08547971257614], [32.6872826248198, 36.086557690917076], [32.68782161399028, 36.086557690917076], [32.68782161399028, 36.08763566925802], [32.6872826248198, 36.08763566925802], [32.6872826248198, 36.088713647598965], [32.68674363564935, 36.088713647598965], [32.68674363564935, 36.08925263676944], [32.68620464647887, 36.08925263676944], [32.68620464647887, 36.09033061511038], [32.68566565730839, 36.09033061511038], [32.68566565730839, 36.08979162593991], [32.68512666813794, 36.08979162593991], [32.68512666813794, 36.088713647598965], [32.68566565730839, 36.088713647598965], [32.68566565730839, 36.086557690917076], [32.68620464647887, 36.086557690917076], [32.68620464647887, 36.08332375589425], [32.68674363564935, 36.08332375589425], [32.68674363564935, 36.08386274506472], [32.6872826248198, 36.08386274506472], [32.6872826248198, 36.08440173423519], [32.68836060316076, 36.08440173423519], [32.68836060316076, 36.08332375589425], [32.68943858150169, 36.08332375589425], [32.68943858150169, 36.082784766723776], [32.68889959233124, 36.082784766723776], [32.68889959233124, 36.082245777553304], [32.69159453818358, 36.082245777553304], [32.69159453818358, 36.082784766723776], [32.69321150569499, 36.082784766723776], [32.69321150569499, 36.082245777553304], [32.69590645154736, 36.082245777553304], [32.69590645154736, 36.08170678838283], [32.69752341905877, 36.08170678838283], [32.69752341905877, 36.082245777553304], [32.69860139739973, 36.082245777553304], [32.69860139739973, 36.082784766723776], [32.69914038657018, 36.082784766723776], [32.69914038657018, 36.082245777553304], [32.70237432159303, 36.082245777553304], [32.70237432159303, 36.08170678838283], [32.70345229993396, 36.08170678838283], [32.70345229993396, 36.08116779921236], [32.706147245786326, 36.08116779921236], [32.706147245786326, 36.082245777553304], [32.70722522412726, 36.082245777553304], [32.70722522412726, 36.08170678838283], [32.707764213297736, 36.08170678838283], [32.707764213297736, 36.08116779921236], [32.708303202468215, 36.08116779921236], [32.708303202468215, 36.08062881004189], [32.709381180809146, 36.08062881004189], [32.709381180809146, 36.07955083170094], [32.709920169979625, 36.07955083170094], [32.709920169979625, 36.080089820871414], [32.710998148320556, 36.080089820871414], [32.710998148320556, 36.07901184253048], [32.711537137491035, 36.07901184253048], [32.711537137491035, 36.07793386418953], [32.710998148320556, 36.07793386418953], [32.710998148320556, 36.078472853360005], [32.709920169979625, 36.078472853360005], [32.709920169979625, 36.07901184253048], [32.708842191638695, 36.07901184253048], [32.708842191638695, 36.07739487501906], [32.709381180809146, 36.07739487501906], [32.709381180809146, 36.07577790750764], [32.708842191638695, 36.07577790750764], [32.708842191638695, 36.0746999291667], [32.708303202468215, 36.0746999291667], [32.708303202468215, 36.074160939996226], [32.707764213297736, 36.074160939996226], [32.707764213297736, 36.07362195082575], [32.706686234956805, 36.07362195082575], [32.706686234956805, 36.07308296165529], [32.706147245786326, 36.07308296165529], [32.706147245786326, 36.072543972484816], [32.70560825661585, 36.072543972484816], [32.70560825661585, 36.07200498331434], [32.706147245786326, 36.07200498331434], [32.706147245786326, 36.0709270049734], [32.70560825661585, 36.0709270049734], [32.70560825661585, 36.070388015802926], [32.706147245786326, 36.070388015802926], [32.706147245786326, 36.069849026632454], [32.706686234956805, 36.069849026632454], [32.706686234956805, 36.06931003746198], [32.70722522412726, 36.06931003746198], [32.70722522412726, 36.06877104829151], [32.707764213297736, 36.06877104829151], [32.707764213297736, 36.06823205912104], [32.708842191638695, 36.06823205912104], [32.708842191638695, 36.069849026632454], [32.708303202468215, 36.069849026632454], [32.708303202468215, 36.070388015802926], [32.709381180809146, 36.070388015802926], [32.709381180809146, 36.069849026632454], [32.709920169979625, 36.069849026632454], [32.709920169979625, 36.06931003746198], [32.711537137491035, 36.06931003746198], [32.711537137491035, 36.069849026632454], [32.712076126661515, 36.069849026632454], [32.712076126661515, 36.06877104829151], [32.711537137491035, 36.06877104829151], [32.711537137491035, 36.0671540807801], [32.708842191638695, 36.0671540807801], [32.708842191638695, 36.06661509160963], [32.709920169979625, 36.06661509160963], [32.709920169979625, 36.066076102439155], [32.708842191638695, 36.066076102439155], [32.708842191638695, 36.06553711326868], [32.708303202468215, 36.06553711326868], [32.708303202468215, 36.06499812409821], [32.707764213297736, 36.06499812409821], [32.707764213297736, 36.063920145757265], [32.70722522412726, 36.063920145757265], [32.70722522412726, 36.06230317824585], [32.708842191638695, 36.06230317824585], [32.708842191638695, 36.06284216741632], [32.709920169979625, 36.06284216741632], [32.709920169979625, 36.06338115658679], [32.711537137491035, 36.06338115658679], [32.711537137491035, 36.06284216741632], [32.712076126661515, 36.06284216741632], [32.712076126661515, 36.063920145757265], [32.714232083343404, 36.063920145757265], [32.714232083343404, 36.06445913492774], [32.714771072513884, 36.06445913492774], [32.714771072513884, 36.063920145757265], [32.715849050854814, 36.063920145757265], [32.715849050854814, 36.06284216741632], [32.71638804002529, 36.06284216741632], [32.71638804002529, 36.06230317824585], [32.715849050854814, 36.06230317824585], [32.715849050854814, 36.061764189075376], [32.716927029195745, 36.061764189075376], [32.716927029195745, 36.06122519990491], [32.717466018366224, 36.06122519990491], [32.717466018366224, 36.060147221563966], [32.7180050075367, 36.060147221563966], [32.7180050075367, 36.059608232393494], [32.71854399670718, 36.059608232393494], [32.71854399670718, 36.05906924322302], [32.717466018366224, 36.05906924322302], [32.717466018366224, 36.059608232393494], [32.71638804002529, 36.059608232393494], [32.71638804002529, 36.06122519990491], [32.715310061684335, 36.06122519990491], [32.715310061684335, 36.061764189075376], [32.713693094172925, 36.061764189075376], [32.713693094172925, 36.060147221563966], [32.714771072513884, 36.060147221563966], [32.714771072513884, 36.05906924322302], [32.714232083343404, 36.05906924322302], [32.714232083343404, 36.05853025405255], [32.712615115831994, 36.05853025405255], [32.712615115831994, 36.05906924322302], [32.711537137491035, 36.05906924322302], [32.711537137491035, 36.05853025405255], [32.712615115831994, 36.05853025405255], [32.712615115831994, 36.05799126488208], [32.711537137491035, 36.05799126488208], [32.711537137491035, 36.057452275711604], [32.710998148320556, 36.057452275711604], [32.710998148320556, 36.05691328654113], [32.710459159150105, 36.05691328654113], [32.710459159150105, 36.05583530820019], [32.710998148320556, 36.05583530820019], [32.710998148320556, 36.05637429737066], [32.711537137491035, 36.05637429737066], [32.711537137491035, 36.05691328654113], [32.712076126661515, 36.05691328654113], [32.712076126661515, 36.05637429737066], [32.712615115831994, 36.05637429737066], [32.712615115831994, 36.05583530820019], [32.713693094172925, 36.05583530820019], [32.713693094172925, 36.05637429737066], [32.714232083343404, 36.05637429737066], [32.714232083343404, 36.05799126488208], [32.714771072513884, 36.05799126488208], [32.714771072513884, 36.05853025405255], [32.71638804002529, 36.05853025405255], [32.71638804002529, 36.05799126488208], [32.715310061684335, 36.05799126488208], [32.715310061684335, 36.057452275711604], [32.714771072513884, 36.057452275711604], [32.714771072513884, 36.05583530820019], [32.714232083343404, 36.05583530820019], [32.714232083343404, 36.05529631902972], [32.713154105002445, 36.05529631902972], [32.713154105002445, 36.05475732985925], [32.712076126661515, 36.05475732985925], [32.712076126661515, 36.05421834068878], [32.711537137491035, 36.05421834068878], [32.711537137491035, 36.05475732985925], [32.710459159150105, 36.05475732985925], [32.710459159150105, 36.053679351518305], [32.710998148320556, 36.053679351518305], [32.710998148320556, 36.05314036234783], [32.712615115831994, 36.05314036234783], [32.712615115831994, 36.053679351518305], [32.715849050854814, 36.053679351518305], [32.715849050854814, 36.05421834068878], [32.71638804002529, 36.05421834068878], [32.71638804002529, 36.05475732985925], [32.716927029195745, 36.05475732985925], [32.716927029195745, 36.05529631902972], [32.717466018366224, 36.05529631902972], [32.717466018366224, 36.05583530820019], [32.7180050075367, 36.05583530820019], [32.7180050075367, 36.05637429737066], [32.71962197504811, 36.05637429737066], [32.71962197504811, 36.05691328654113], [32.72016096421859, 36.05691328654113], [32.72016096421859, 36.057452275711604], [32.72069995338907, 36.057452275711604], [32.72069995338907, 36.05691328654113], [32.72123894255952, 36.05691328654113], [32.72123894255952, 36.057452275711604], [32.72177793173, 36.057452275711604], [32.72177793173, 36.05799126488208], [32.72285591007096, 36.05799126488208], [32.72285591007096, 36.05853025405255], [32.72393388841189, 36.05853025405255], [32.72393388841189, 36.05906924322302], [32.72501186675282, 36.05906924322302], [32.72501186675282, 36.05853025405255], [32.72447287758237, 36.05853025405255], [32.72447287758237, 36.05799126488208], [32.72339489924141, 36.05799126488208], [32.72339489924141, 36.057452275711604], [32.72285591007096, 36.057452275711604], [32.72285591007096, 36.05637429737066], [32.72123894255952, 36.05637429737066], [32.72123894255952, 36.05529631902972], [32.72177793173, 36.05529631902972], [32.72177793173, 36.05475732985925], [32.72231692090048, 36.05475732985925], [32.72231692090048, 36.05583530820019], [32.72285591007096, 36.05583530820019], [32.72285591007096, 36.05529631902972], [32.72339489924141, 36.05529631902972], [32.72339489924141, 36.05475732985925], [32.72393388841189, 36.05475732985925], [32.72393388841189, 36.05421834068878], [32.72447287758237, 36.05421834068878], [32.72447287758237, 36.053679351518305], [32.72501186675282, 36.053679351518305], [32.72501186675282, 36.05421834068878], [32.7255508559233, 36.05421834068878], [32.7255508559233, 36.05260137317736], [32.72608984509378, 36.05260137317736], [32.72608984509378, 36.05206238400689], [32.72662883426426, 36.05206238400689], [32.72662883426426, 36.05098440566594]], [[32.69321150569499, 36.08332375589425], [32.69321150569499, 36.08386274506472], [32.69267251652454, 36.08386274506472], [32.69267251652454, 36.08332375589425], [32.69321150569499, 36.08332375589425]], [[32.69159453818358, 36.082784766723776], [32.69159453818358, 36.08332375589425], [32.69105554901313, 36.08332375589425], [32.69105554901313, 36.082784766723776], [32.69159453818358, 36.082784766723776]], [[32.70129634325207, 36.082784766723776], [32.70129634325207, 36.08332375589425], [32.70075735408162, 36.08332375589425], [32.70075735408162, 36.082784766723776], [32.70129634325207, 36.082784766723776]], [[32.709381180809146, 36.08116779921236], [32.709381180809146, 36.08170678838283], [32.708842191638695, 36.08170678838283], [32.708842191638695, 36.08116779921236], [32.709381180809146, 36.08116779921236]], [[32.712615115831994, 36.08062881004189], [32.712615115831994, 36.08116779921236], [32.712076126661515, 36.08116779921236], [32.712076126661515, 36.08062881004189], [32.712615115831994, 36.08062881004189]], [[32.713693094172925, 36.07793386418953], [32.713693094172925, 36.078472853360005], [32.713154105002445, 36.078472853360005], [32.713154105002445, 36.07901184253048], [32.712615115831994, 36.07901184253048], [32.712615115831994, 36.07793386418953], [32.713693094172925, 36.07793386418953]], [[32.710998148320556, 36.07739487501906], [32.710998148320556, 36.07793386418953], [32.710459159150105, 36.07793386418953], [32.710459159150105, 36.07739487501906], [32.710998148320556, 36.07739487501906]], [[32.715310061684335, 36.07739487501906], [32.715310061684335, 36.078472853360005], [32.714771072513884, 36.078472853360005], [32.714771072513884, 36.07739487501906], [32.715310061684335, 36.07739487501906]], [[32.711537137491035, 36.07523891833717], [32.711537137491035, 36.076316896678115], [32.710998148320556, 36.076316896678115], [32.710998148320556, 36.07523891833717], [32.711537137491035, 36.07523891833717]], [[32.708842191638695, 36.07146599414387], [32.708842191638695, 36.07200498331434], [32.708303202468215, 36.07200498331434], [32.708303202468215, 36.07146599414387], [32.708842191638695, 36.07146599414387]], [[32.708303202468215, 36.070388015802926], [32.708303202468215, 36.0709270049734], [32.707764213297736, 36.0709270049734], [32.707764213297736, 36.07146599414387], [32.70722522412726, 36.07146599414387], [32.70722522412726, 36.070388015802926], [32.708303202468215, 36.070388015802926]], [[32.713693094172925, 36.06931003746198], [32.713693094172925, 36.069849026632454], [32.713154105002445, 36.069849026632454], [32.713154105002445, 36.06931003746198], [32.713693094172925, 36.06931003746198]], [[32.715310061684335, 36.067693069950565], [32.715310061684335, 36.06823205912104], [32.714771072513884, 36.06823205912104], [32.714771072513884, 36.067693069950565], [32.715310061684335, 36.067693069950565]], [[32.71638804002529, 36.06661509160963], [32.71638804002529, 36.0671540807801], [32.715849050854814, 36.0671540807801], [32.715849050854814, 36.06661509160963], [32.71638804002529, 36.06661509160963]], [[32.715310061684335, 36.066076102439155], [32.715310061684335, 36.06661509160963], [32.714232083343404, 36.06661509160963], [32.714232083343404, 36.066076102439155], [32.715310061684335, 36.066076102439155]], [[32.710459159150105, 36.06553711326868], [32.710459159150105, 36.066076102439155], [32.709920169979625, 36.066076102439155], [32.709920169979625, 36.06553711326868], [32.710459159150105, 36.06553711326868]], [[32.713693094172925, 36.06499812409821], [32.713693094172925, 36.06661509160963], [32.714232083343404, 36.06661509160963], [32.714232083343404, 36.0671540807801], [32.712615115831994, 36.0671540807801], [32.712615115831994, 36.067693069950565], [32.712076126661515, 36.067693069950565], [32.712076126661515, 36.0671540807801], [32.711537137491035, 36.0671540807801], [32.711537137491035, 36.066076102439155], [32.713154105002445, 36.066076102439155], [32.713154105002445, 36.06553711326868], [32.712615115831994, 36.06553711326868], [32.712615115831994, 36.06499812409821], [32.713693094172925, 36.06499812409821]], [[32.711537137491035, 36.063920145757265], [32.711537137491035, 36.06445913492774], [32.710998148320556, 36.06445913492774], [32.710998148320556, 36.063920145757265], [32.711537137491035, 36.063920145757265]], [[32.719082985877634, 36.06284216741632], [32.719082985877634, 36.06338115658679], [32.716927029195745, 36.06338115658679], [32.716927029195745, 36.06284216741632], [32.719082985877634, 36.06284216741632]], [[32.719082985877634, 36.059608232393494], [32.719082985877634, 36.060147221563966], [32.71854399670718, 36.060147221563966], [32.71854399670718, 36.059608232393494], [32.719082985877634, 36.059608232393494]], [[32.717466018366224, 36.05853025405255], [32.717466018366224, 36.05906924322302], [32.716927029195745, 36.05906924322302], [32.716927029195745, 36.05853025405255], [32.717466018366224, 36.05853025405255]], [[32.73094074762801, 36.05583530820019], [32.73094074762801, 36.05637429737066], [32.73040175845756, 36.05637429737066], [32.73040175845756, 36.05583530820019], [32.73094074762801, 36.05583530820019]], [[32.73094074762801, 36.05475732985925], [32.73094074762801, 36.05529631902972], [32.73040175845756, 36.05529631902972], [32.73040175845756, 36.05475732985925], [32.73094074762801, 36.05475732985925]], [[32.711537137491035, 36.053679351518305], [32.711537137491035, 36.05421834068878], [32.710998148320556, 36.05421834068878], [32.710998148320556, 36.053679351518305], [32.711537137491035, 36.053679351518305]], [[32.72716782343471, 36.053679351518305], [32.72716782343471, 36.05475732985925], [32.72662883426426, 36.05475732985925], [32.72662883426426, 36.053679351518305], [32.72716782343471, 36.053679351518305]], [[32.72770681260519, 36.05206238400689], [32.72770681260519, 36.05314036234783], [32.72716782343471, 36.05314036234783], [32.72716782343471, 36.05206238400689], [32.72770681260519, 36.05206238400689]]]}, "properties": {"area_ha": 341.4386532458093, "mean_dnbr": 0.25337992556339406, "compactness": 0.025, "rectangularity": 0.271, "cropland_frac": 0, "persistent": null}}, {"type": "Feature", "geometry": {"geodesic": false, "type": "Polygon", "coordinates": [[[32.73902558518509, 36.049367438154526], [32.73956457435557, 36.049367438154526], [32.73956457435557, 36.05098440566594], [32.74118154186698, 36.05098440566594], [32.74118154186698, 36.051523394836416], [32.74333749854887, 36.051523394836416], [32.74333749854887, 36.05206238400689], [32.74118154186698, 36.05206238400689], [32.74118154186698, 36.051523394836416], [32.74064255269653, 36.051523394836416], [32.74064255269653, 36.05260137317736], [32.74118154186698, 36.05260137317736], [32.74118154186698, 36.05314036234783], [32.73794760684416, 36.05314036234783], [32.73794760684416, 36.05260137317736], [32.73848659601464, 36.05260137317736], [32.73848659601464, 36.05206238400689], [32.73902558518509, 36.05206238400689], [32.73902558518509, 36.051523394836416], [32.73956457435557, 36.051523394836416], [32.73956457435557, 36.05098440566594], [32.73848659601464, 36.05098440566594], [32.73848659601464, 36.049906427325], [32.73902558518509, 36.049906427325], [32.73902558518509, 36.049367438154526]]]}, "properties": {"area_ha": 7.260132043902431, "mean_dnbr": 0.20808838876177768, "compactness": 0.185, "rectangularity": 0.357, "cropland_frac": 0, "persistent": null}}]}