{"type": "FeatureCollection", "crs": {"type": "name", "properties": {"name": "urn:ogc:def:crs:OGC:1.3:CRS84"}}, "features": [{"type": "Feature", "geometry": {"geodesic": false, "type": "Polygon", "coordinates": [[[32.69482847320643, 37.93960245899883], [32.704530278274916, 37.93960245899883], [32.704530278274916, 37.94068043733977], [32.70399128910444, 37.94068043733977], [32.70399128910444, 37.941219426510244], [32.70345229993396, 37.941219426510244], [32.70345229993396, 37.942836394021654], [32.702913310763506, 37.942836394021654], [32.702913310763506, 37.9439143723626], [32.70183533242255, 37.9439143723626], [32.70183533242255, 37.944992350703544], [32.69752341905877, 37.944992350703544], [32.69752341905877, 37.94175841568072], [32.702913310763506, 37.94175841568072], [32.702913310763506, 37.941219426510244], [32.69752341905877, 37.941219426510244], [32.69752341905877, 37.94068043733977], [32.69482847320643, 37.94068043733977], [32.69482847320643, 37.93960245899883]]]}, "properties": {"area_ha": 30.309754405446995, "mean_dnbr": 0.19717305308208466, "compactness": 0.258, "rectangularity": 0.594, "cropland_frac": 0.171, "persistent": true}}, {"type": "Feature", "geometry": {"geodesic": false, "type": "Polygon", "coordinates": [[[32.7368696285032, 37.95954505830628], [32.73956457435557, 37.95954505830628], [32.73956457435557, 37.96224000415864], [32.73902558518509, 37.96224000415864], [32.73902558518509, 37.963856971670054], [32.73633063933275, 37.963856971670054], [32.73633063933275, 37.96224000415864], [32.73363569348038, 37.96224000415864], [32.73363569348038, 37.961701014988165], [32.7330967043099, 37.961701014988165], [32.7330967043099, 37.960084047476755], [32.73363569348038, 37.960084047476755], [32.73363569348038, 37.95954505830628], [32.73579165016227, 37.95954505830628], [32.73579165016227, 37.960084047476755], [32.7368696285032, 37.960084047476755], [32.7368696285032, 37.95954505830628]]]}, "properties": {"area_ha": 20.10713442289451, "mean_dnbr": 0.22737895961699262, "compactness": 0.516, "rectangularity": 0.74, "cropland_frac": 0.212, "persistent": true}}]}