{"type": "FeatureCollection", "crs": {"type": "name", "properties": {"name": "urn:ogc:def:crs:OGC:1.3:CRS84"}}, "features": [{"type": "Feature", "geometry": {"geodesic": false, "type": "Polygon", "coordinates": [[[34.01966385422588, 36.35227935195963], [34.02074183256684, 36.35227935195963], [34.02074183256684, 36.3528183411301], [34.02020284339636, 36.3528183411301], [34.02020284339636, 36.353357330300575], [34.02128082173729, 36.353357330300575], [34.02128082173729, 36.35443530864152], [34.02074183256684, 36.35443530864152], [34.02074183256684, 36.35497429781199], [34.01966385422588, 36.35497429781199], [34.01966385422588, 36.35443530864152], [34.01912486505543, 36.35443530864152], [34.01912486505543, 36.3528183411301], [34.01966385422588, 36.3528183411301], [34.01966385422588, 36.35227935195963]]]}, "properties": {"area_ha": 4.05000958094074, "mean_dnbr": 0.3239288214471746, "compactness": 0.435, "rectangularity": 0.7, "cropland_frac": 0.125, "persistent": true}}]}