{"type": "FeatureCollection", "crs": {"type": "name", "properties": {"name": "urn:ogc:def:crs:OGC:1.3:CRS84"}}, "features": [{"type": "Feature", "geometry": {"geodesic": false, "type": "Polygon", "coordinates": [[[33.06403605497954, 36.13291075957765], [33.06565302249095, 36.13291075957765], [33.06565302249095, 36.13344974874812], [33.06619201166143, 36.13344974874812], [33.06619201166143, 36.133988737918585], [33.06673100083191, 36.133988737918585], [33.06673100083191, 36.13506671625953], [33.06619201166143, 36.13506671625953], [33.06619201166143, 36.13560570543], [33.06565302249095, 36.13560570543], [33.06565302249095, 36.136144694600475], [33.06457504415002, 36.136144694600475], [33.06457504415002, 36.13560570543], [33.06403605497954, 36.13560570543], [33.06403605497954, 36.13291075957765]]]}, "properties": {"area_ha": 6.672275844023611, "mean_dnbr": 0.2672774611043951, "compactness": 0.579, "rectangularity": 0.767, "cropland_frac": 0, "persistent": null}}, {"type": "Feature", "geometry": {"geodesic": false, "type": "Polygon", "coordinates": [[[33.06726999000236, 36.1280598570434], [33.0688869575138, 36.1280598570434], [33.0688869575138, 36.129676824554814], [33.06996493585473, 36.129676824554814], [33.06996493585473, 36.13075480289576], [33.06942594668425, 36.13075480289576], [33.06942594668425, 36.130215813725286], [33.0688869575138, 36.130215813725286], [33.0688869575138, 36.13129379206623], [33.06726999000236, 36.13129379206623], [33.06726999000236, 36.13075480289576], [33.06673100083191, 36.13075480289576], [33.06673100083191, 36.130215813725286], [33.06619201166143, 36.130215813725286], [33.06619201166143, 36.129676824554814], [33.06780897917284, 36.129676824554814], [33.06780897917284, 36.12913783538434], [33.06726999000236, 36.12913783538434], [33.06726999000236, 36.1280598570434]], [[33.0688869575138, 36.129676824554814], [33.0688869575138, 36.130215813725286], [33.06834796834332, 36.130215813725286], [33.06834796834332, 36.129676824554814], [33.0688869575138, 36.129676824554814]]]}, "properties": {"area_ha": 6.382555283599659, "mean_dnbr": 0.18518522316306105, "compactness": 0.239, "rectangularity": 0.524, "cropland_frac": 0, "persistent": null}}, {"type": "Feature", "geometry": {"geodesic": false, "type": "Polygon", "coordinates": [[[33.402521254035776, 36.13668368377095], [33.403060243206255, 36.13668368377095], [33.403060243206255, 36.13722267294142], [33.403599232376735, 36.13722267294142], [33.403599232376735, 36.13776166211189], [33.403060243206255, 36.13776166211189], [33.403060243206255, 36.13883964045284], [33.401443275694845, 36.13883964045284], [33.401443275694845, 36.13937862962331], [33.400904286524366, 36.13937862962331], [33.400904286524366, 36.13776166211189], [33.401982264865296, 36.13776166211189], [33.401982264865296, 36.13722267294142], [33.402521254035776, 36.13722267294142], [33.402521254035776, 36.13668368377095]]]}, "properties": {"area_ha": 3.7711162132897895, "mean_dnbr": 0.20077009660932396, "compactness": 0.404, "rectangularity": 0.52, "cropland_frac": 0, "persistent": null}}, {"type": "Feature", "geometry": {"geodesic": false, "type": "Polygon", "coordinates": [[[33.46019309527625, 36.34796743859586], [33.46073208444673, 36.34796743859586], [33.46073208444673, 36.34850642776633], [33.46019309527625, 36.34850642776633], [33.46019309527625, 36.349045416936804], [33.46181006278766, 36.349045416936804], [33.46181006278766, 36.349584406107276], [33.46234905195814, 36.349584406107276], [33.46234905195814, 36.35012339527775], [33.46019309527625, 36.35012339527775], [33.46019309527625, 36.349584406107276], [33.459115116935294, 36.349584406107276], [33.459115116935294, 36.34850642776633], [33.46019309527625, 36.34850642776633], [33.46019309527625, 36.34796743859586]]]}, "properties": {"area_ha": 3.471636946286598, "mean_dnbr": 0.2215825426955492, "compactness": 0.327, "rectangularity": 0.5, "cropland_frac": 0, "persistent": null}}, {"type": "Feature", "geometry": {"geodesic": false, "type": "Polygon", "coordinates": [[[33.95390717542833, 36.308082239980955], [33.95444616459881, 36.308082239980955], [33.95444616459881, 36.30862122915142], [33.954985153769286, 36.30862122915142], [33.954985153769286, 36.31077718583331], [33.955524142939765, 36.31077718583331], [33.955524142939765, 36.31131617500378], [33.956063132110216, 36.31131617500378], [33.956063132110216, 36.311855164174254], [33.956602121280696, 36.311855164174254], [33.956602121280696, 36.3129331425152], [33.957141110451175, 36.3129331425152], [33.957141110451175, 36.314011120856144], [33.954985153769286, 36.314011120856144], [33.954985153769286, 36.314550110026616], [33.95390717542833, 36.314550110026616], [33.95390717542833, 36.31562808836755], [33.95121222957599, 36.31562808836755], [33.95121222957599, 36.316167077538026], [33.95067324040551, 36.316167077538026], [33.95067324040551, 36.31562808836755], [33.94959526206458, 36.31562808836755], [33.94959526206458, 36.316167077538026], [33.94743930538269, 36.316167077538026], [33.94743930538269, 36.3167060667085], [33.9452833487008, 36.3167060667085], [33.9452833487008, 36.31724505587897], [33.94474435953032, 36.31724505587897], [33.94474435953032, 36.31778404504944], [33.94420537035984, 36.31778404504944], [33.94420537035984, 36.318323034219915], [33.94204941367795, 36.318323034219915], [33.94204941367795, 36.31724505587897], [33.94097143533702, 36.31724505587897], [33.94097143533702, 36.316167077538026], [33.94043244616654, 36.316167077538026], [33.94043244616654, 36.31508909919708], [33.9415104245075, 36.31508909919708], [33.9415104245075, 36.314550110026616], [33.94258840284843, 36.314550110026616], [33.94258840284843, 36.31508909919708], [33.94312739201891, 36.31508909919708], [33.94312739201891, 36.314550110026616], [33.94582233787128, 36.314550110026616], [33.94582233787128, 36.314011120856144], [33.94690031621221, 36.314011120856144], [33.94690031621221, 36.31347213168567], [33.94959526206458, 36.31347213168567], [33.94959526206458, 36.314550110026616], [33.951751218746466, 36.314550110026616], [33.951751218746466, 36.31077718583331], [33.953368186257876, 36.31077718583331], [33.953368186257876, 36.31023819666284], [33.95390717542833, 36.31023819666284], [33.95390717542833, 36.30916021832189], [33.95229020791692, 36.30916021832189], [33.95229020791692, 36.31023819666284], [33.95121222957599, 36.31023819666284], [33.95121222957599, 36.30862122915142], [33.951751218746466, 36.30862122915142], [33.951751218746466, 36.308082239980955], [33.95229020791692, 36.308082239980955], [33.95229020791692, 36.30862122915142], [33.9528291970874, 36.30862122915142], [33.9528291970874, 36.308082239980955], [33.953368186257876, 36.308082239980955], [33.953368186257876, 36.30862122915142], [33.95390717542833, 36.30862122915142], [33.95390717542833, 36.308082239980955]], [[33.953368186257876, 36.3129331425152], [33.953368186257876, 36.31347213168567], [33.9528291970874, 36.31347213168567], [33.9528291970874, 36.3129331425152], [33.953368186257876, 36.3129331425152]], [[33.95444616459881, 36.30862122915142], [33.95444616459881, 36.30916021832189], [33.95390717542833, 36.30916021832189], [33.95390717542833, 36.30862122915142], [33.95444616459881, 36.30862122915142]]]}, "properties": {"area_ha": 53.255832963651116, "mean_dnbr": 0.2805490688459781, "compactness": 0.131, "rectangularity": 0.416, "cropland_frac": 0, "persistent": null}}, {"type": "Feature", "geometry": {"geodesic": false, "type": "Polygon", "coordinates": [[[34.003494179111726, 36.36898801624425], [34.004033168282206, 36.36898801624425], [34.004033168282206, 36.3700659945852], [34.004572157452685, 36.3700659945852], [34.004572157452685, 36.37060498375567], [34.005111146623165, 36.37060498375567], [34.005111146623165, 36.37114397292614], [34.002416200770796, 36.37114397292614], [34.002416200770796, 36.3700659945852], [34.003494179111726, 36.3700659945852], [34.003494179111726, 36.36898801624425]]]}, "properties": {"area_ha": 3.1814792321049596, "mean_dnbr": 0.3647670942622186, "compactness": 0.432, "rectangularity": 0.55, "cropland_frac": 0.086, "persistent": null}}, {"type": "Feature", "geometry": {"geodesic": false, "type": "Polygon", "coordinates": [[[34.007267103305026, 36.36683205956237], [34.007806092475505, 36.36683205956237], [34.007806092475505, 36.367910037903314], [34.008345081645984, 36.367910037903314], [34.008345081645984, 36.36898801624425], [34.007806092475505, 36.36898801624425], [34.007806092475505, 36.369527005414724], [34.007267103305026, 36.369527005414724], [34.007267103305026, 36.3700659945852], [34.006728114134575, 36.3700659945852], [34.006728114134575, 36.369527005414724], [34.006189124964095, 36.369527005414724], [34.006189124964095, 36.36898801624425], [34.006728114134575, 36.36898801624425], [34.006728114134575, 36.36844902707379], [34.007267103305026, 36.36844902707379], [34.007267103305026, 36.367910037903314], [34.006189124964095, 36.367910037903314], [34.006189124964095, 36.36737104873284], [34.007267103305026, 36.36737104873284], [34.007267103305026, 36.36683205956237]]]}, "properties": {"area_ha": 3.760010318788621, "mean_dnbr": 0.29979246380340463, "compactness": 0.28, "rectangularity": 0.542, "cropland_frac": 0.406, "persistent": null}}, {"type": "Feature", "geometry": {"geodesic": false, "type": "Polygon", "coordinates": [[[34.059010063670314, 36.359825200346236], [34.06008804201127, 36.359825200346236], [34.06008804201127, 36.361981157028126], [34.059549052840794, 36.361981157028126], [34.059549052840794, 36.36305913536906], [34.059010063670314, 36.36305913536906], [34.059010063670314, 36.3625201461986], [34.05847107449986, 36.3625201461986], [34.05847107449986, 36.36090317868718], [34.059010063670314, 36.36090317868718], [34.059010063670314, 36.359825200346236]]]}, "properties": {"area_ha": 3.760354270715139, "mean_dnbr": 0.3797142158128938, "compactness": 0.464, "rectangularity": 0.722, "cropland_frac": 0.047, "persistent": null}}]}