{"type": "FeatureCollection", "crs": {"type": "name", "properties": {"name": "urn:ogc:def:crs:OGC:1.3:CRS84"}}, "features": [{"type": "Feature", "geometry": {"geodesic": false, "type": "Polygon", "coordinates": [[[33.53080067660804, 36.808264190178704], [33.53133966577852, 36.808264190178704], [33.53133966577852, 36.80934216851964], [33.53241764411945, 36.80934216851964], [33.53241764411945, 36.809881157690114], [33.531878654949, 36.809881157690114], [33.531878654949, 36.81042014686059], [33.5281057307557, 36.81042014686059], [33.5281057307557, 36.809881157690114], [33.52756674158522, 36.809881157690114], [33.52756674158522, 36.80934216851964], [33.5281057307557, 36.80934216851964], [33.5281057307557, 36.80880317934918], [33.52918370909663, 36.80880317934918], [33.52918370909663, 36.80934216851964], [33.53080067660804, 36.80934216851964], [33.53080067660804, 36.808264190178704]]]}, "properties": {"area_ha": 5.751690043831066, "mean_dnbr": 0.34915773618167806, "compactness": 0.338, "rectangularity": 0.556, "cropland_frac": 0.051, "persistent": true}}]}