{"type": "FeatureCollection", "crs": {"type": "name", "properties": {"name": "urn:ogc:def:crs:OGC:1.3:CRS84"}}, "features": [{"type": "Feature", "geometry": {"geodesic": false, "type": "Polygon", "coordinates": [[[33.45695916025343, 35.195608592127336], [33.45857612776484, 35.195608592127336], [33.45857612776484, 35.197764548809225], [33.45695916025343, 35.197764548809225], [33.45695916025343, 35.19668657046828], [33.455881181912474, 35.19668657046828], [33.455881181912474, 35.19614758129781], [33.45695916025343, 35.19614758129781], [33.45695916025343, 35.195608592127336]]]}, "properties": {"area_ha": 4.109377454669504, "mean_dnbr": 0.37989684660527745, "compactness": 0.55, "rectangularity": 0.7, "cropland_frac": 0.44, "persistent": true}}, {"type": "Feature", "geometry": {"geodesic": false, "type": "Polygon", "coordinates": [[[33.4860645754589, 35.18752375457026], [33.48714255379983, 35.18752375457026], [33.48714255379983, 35.18806274374073], [33.48768154297031, 35.18806274374073], [33.48768154297031, 35.19021870042262], [33.48822053214079, 35.19021870042262], [33.48822053214079, 35.19075768959309], [33.48660356462938, 35.19075768959309], [33.48660356462938, 35.19021870042262], [33.4860645754589, 35.19021870042262], [33.4860645754589, 35.18752375457026]]]}, "properties": {"area_ha": 4.990416542219394, "mean_dnbr": 0.3013991910881316, "compactness": 0.508, "rectangularity": 0.708, "cropland_frac": 0.232, "persistent": true}}]}