{"type": "FeatureCollection", "crs": {"type": "name", "properties": {"name": "urn:ogc:def:crs:OGC:1.3:CRS84"}}, "features": [{"type": "Feature", "geometry": {"geodesic": false, "type": "Polygon", "coordinates": [[[33.458037138594364, 38.51685986057403], [33.459115116935294, 38.51685986057403], [33.459115116935294, 38.51847682808545], [33.45965410610577, 38.51847682808545], [33.45965410610577, 38.51901581725592], [33.45857612776484, 38.51901581725592], [33.45857612776484, 38.520093795596864], [33.458037138594364, 38.520093795596864], [33.458037138594364, 38.520632784767336], [33.45857612776484, 38.520632784767336], [33.45857612776484, 38.5211717739378], [33.459115116935294, 38.5211717739378], [33.459115116935294, 38.520632784767336], [33.46019309527625, 38.520632784767336], [33.46019309527625, 38.5211717739378], [33.45965410610577, 38.5211717739378], [33.45965410610577, 38.521710763108274], [33.459115116935294, 38.521710763108274], [33.459115116935294, 38.522249752278746], [33.45857612776484, 38.522249752278746], [33.45857612776484, 38.52278874144922], [33.457498149423884, 38.52278874144922], [33.457498149423884, 38.521710763108274], [33.458037138594364, 38.521710763108274], [33.458037138594364, 38.520632784767336], [33.457498149423884, 38.520632784767336], [33.457498149423884, 38.5211717739378], [33.456420171082954, 38.5211717739378], [33.456420171082954, 38.521710763108274], [33.454803203571544, 38.521710763108274], [33.454803203571544, 38.522249752278746], [33.454264214401064, 38.522249752278746], [33.454264214401064, 38.52386671979016], [33.452108257719175, 38.52386671979016], [33.452108257719175, 38.52494469813111], [33.451569268548695, 38.52494469813111], [33.451569268548695, 38.52602267647205], [33.451030279378244, 38.52602267647205], [33.451030279378244, 38.52494469813111], [33.450491290207765, 38.52494469813111], [33.450491290207765, 38.526561665642525], [33.449952301037285, 38.526561665642525], [33.449952301037285, 38.52602267647205], [33.449413311866806, 38.52602267647205], [33.449413311866806, 38.526561665642525], [33.448335333525876, 38.526561665642525], [33.448335333525876, 38.527100654813], [33.447796344355396, 38.527100654813], [33.447796344355396, 38.526561665642525], [33.44725735518492, 38.526561665642525], [33.44725735518492, 38.528178633153935], [33.448335333525876, 38.528178633153935], [33.448335333525876, 38.52979560066535], [33.449413311866806, 38.52979560066535], [33.449413311866806, 38.530334589835824], [33.455342192741995, 38.530334589835824], [33.455342192741995, 38.5308735790063], [33.454803203571544, 38.5308735790063], [33.454803203571544, 38.532490546517714], [33.455881181912474, 38.532490546517714], [33.455881181912474, 38.533029535688186], [33.45695916025343, 38.533029535688186], [33.45695916025343, 38.53356852485865], [33.457498149423884, 38.53356852485865], [33.457498149423884, 38.534646503199596], [33.456420171082954, 38.534646503199596], [33.456420171082954, 38.534107514029124], [33.455881181912474, 38.534107514029124], [33.455881181912474, 38.534646503199596], [33.454803203571544, 38.534646503199596], [33.454803203571544, 38.534107514029124], [33.454264214401064, 38.534107514029124], [33.454264214401064, 38.534646503199596], [33.449413311866806, 38.534646503199596], [33.449413311866806, 38.53518549237007], [33.449952301037285, 38.53518549237007], [33.449952301037285, 38.53626347071101], [33.449413311866806, 38.53626347071101], [33.449413311866806, 38.536802459881486], [33.448874322696355, 38.536802459881486], [33.448874322696355, 38.53734144905196], [33.449413311866806, 38.53734144905196], [33.449413311866806, 38.53788043822243], [33.449952301037285, 38.53788043822243], [33.449952301037285, 38.53734144905196], [33.450491290207765, 38.53734144905196], [33.450491290207765, 38.53626347071101], [33.451030279378244, 38.53626347071101], [33.451030279378244, 38.536802459881486], [33.452108257719175, 38.536802459881486], [33.452108257719175, 38.53734144905196], [33.451569268548695, 38.53734144905196], [33.451569268548695, 38.5384194273929], [33.451030279378244, 38.5384194273929], [33.451030279378244, 38.538958416563375], [33.449952301037285, 38.538958416563375], [33.449952301037285, 38.53949740573384], [33.449413311866806, 38.53949740573384], [33.449413311866806, 38.538958416563375], [33.448874322696355, 38.538958416563375], [33.448874322696355, 38.54003639490431], [33.447796344355396, 38.54003639490431], [33.447796344355396, 38.53949740573384], [33.44725735518492, 38.53949740573384], [33.44725735518492, 38.5384194273929], [33.44564038767351, 38.5384194273929], [33.44564038767351, 38.53788043822243], [33.4440234201621, 38.53788043822243], [33.4440234201621, 38.5384194273929], [33.442945441821166, 38.5384194273929], [33.442945441821166, 38.538958416563375], [33.44132847430973, 38.538958416563375], [33.44132847430973, 38.53949740573384], [33.44078948513928, 38.53949740573384], [33.44078948513928, 38.5384194273929], [33.442945441821166, 38.5384194273929], [33.442945441821166, 38.53788043822243], [33.4402504959688, 38.53788043822243], [33.4402504959688, 38.5384194273929], [33.43971150679832, 38.5384194273929], [33.43971150679832, 38.53788043822243], [33.43917251762787, 38.53788043822243], [33.43917251762787, 38.53734144905196], [33.43863352845739, 38.53734144905196], [33.43863352845739, 38.536802459881486], [33.43917251762787, 38.536802459881486], [33.43917251762787, 38.53626347071101], [33.43971150679832, 38.53626347071101], [33.43971150679832, 38.53518549237007], [33.43863352845739, 38.53518549237007], [33.43863352845739, 38.53572448154054], [33.43809453928691, 38.53572448154054], [33.43809453928691, 38.53626347071101], [33.43755555011643, 38.53626347071101], [33.43755555011643, 38.53518549237007], [33.43809453928691, 38.53518549237007], [33.43809453928691, 38.533029535688186], [33.43863352845739, 38.533029535688186], [33.43863352845739, 38.532490546517714], [33.43809453928691, 38.532490546517714], [33.43809453928691, 38.53195155734724], [33.43755555011643, 38.53195155734724], [33.43755555011643, 38.532490546517714], [33.43701656094598, 38.532490546517714], [33.43701656094598, 38.533029535688186], [33.4364775717755, 38.533029535688186], [33.4364775717755, 38.53626347071101], [33.43593858260502, 38.53626347071101], [33.43593858260502, 38.53572448154054], [33.43539959343454, 38.53572448154054], [33.43539959343454, 38.53518549237007], [33.43593858260502, 38.53518549237007], [33.43593858260502, 38.534107514029124], [33.43378262592313, 38.534107514029124], [33.43378262592313, 38.53572448154054], [33.43324363675268, 38.53572448154054], [33.43324363675268, 38.53626347071101], [33.43486060426409, 38.53626347071101], [33.43486060426409, 38.53788043822243], [33.43432161509361, 38.53788043822243], [33.43432161509361, 38.538958416563375], [33.4327046475822, 38.538958416563375], [33.4327046475822, 38.53949740573384], [33.43216565841172, 38.53949740573384], [33.43216565841172, 38.538958416563375], [33.43162666924124, 38.538958416563375], [33.43162666924124, 38.5384194273929], [33.4327046475822, 38.5384194273929], [33.4327046475822, 38.53788043822243], [33.43216565841172, 38.53788043822243], [33.43216565841172, 38.534646503199596], [33.43108768007079, 38.534646503199596], [33.43108768007079, 38.53626347071101], [33.43000970172983, 38.53626347071101], [33.43000970172983, 38.53572448154054], [33.4289317233889, 38.53572448154054], [33.4289317233889, 38.53626347071101], [33.42839273421842, 38.53626347071101], [33.42839273421842, 38.5384194273929], [33.42731475587749, 38.5384194273929], [33.42731475587749, 38.53788043822243], [33.42677576670701, 38.53788043822243], [33.42677576670701, 38.53734144905196], [33.42623677753653, 38.53734144905196], [33.42623677753653, 38.53788043822243], [33.42569778836605, 38.53788043822243], [33.42569778836605, 38.5384194273929], [33.4251587991956, 38.5384194273929], [33.4251587991956, 38.53788043822243], [33.42408082085464, 38.53788043822243], [33.42408082085464, 38.5384194273929], [33.42300284251371, 38.5384194273929], [33.42300284251371, 38.53949740573384], [33.42192486417275, 38.53949740573384], [33.42192486417275, 38.54003639490431], [33.4213858750023, 38.54003639490431], [33.4213858750023, 38.538958416563375], [33.42084688583182, 38.538958416563375], [33.42084688583182, 38.540575384074785], [33.42030789666134, 38.540575384074785], [33.42030789666134, 38.54111437324526], [33.41922991832041, 38.54111437324526], [33.41922991832041, 38.54165336241573], [33.41869092914993, 38.54165336241573], [33.41869092914993, 38.5421923515862], [33.41815193997945, 38.5421923515862], [33.41815193997945, 38.542731340756674], [33.41761295080897, 38.542731340756674], [33.41761295080897, 38.5421923515862], [33.41815193997945, 38.5421923515862], [33.41815193997945, 38.54165336241573], [33.41869092914993, 38.54165336241573], [33.41869092914993, 38.54003639490431], [33.41815193997945, 38.54003639490431], [33.41815193997945, 38.53949740573384], [33.42030789666134, 38.53949740573384], [33.42030789666134, 38.538958416563375], [33.42084688583182, 38.538958416563375], [33.42084688583182, 38.536802459881486], [33.4213858750023, 38.536802459881486], [33.4213858750023, 38.53626347071101], [33.42246385334323, 38.53626347071101], [33.42246385334323, 38.53572448154054], [33.42084688583182, 38.53572448154054], [33.42084688583182, 38.53626347071101], [33.42030789666134, 38.53626347071101], [33.42030789666134, 38.53572448154054], [33.42084688583182, 38.53572448154054], [33.42084688583182, 38.53518549237007], [33.42354183168416, 38.53518549237007], [33.42354183168416, 38.53572448154054], [33.42408082085464, 38.53572448154054], [33.42408082085464, 38.534646503199596], [33.42461981002512, 38.534646503199596], [33.42461981002512, 38.53572448154054], [33.42408082085464, 38.53572448154054], [33.42408082085464, 38.53626347071101], [33.4251587991956, 38.53626347071101], [33.4251587991956, 38.536802459881486], [33.42623677753653, 38.536802459881486], [33.42623677753653, 38.53572448154054], [33.4251587991956, 38.53572448154054], [33.4251587991956, 38.534646503199596], [33.42569778836605, 38.534646503199596], [33.42569778836605, 38.53518549237007], [33.42623677753653, 38.53518549237007], [33.42623677753653, 38.534646503199596], [33.42677576670701, 38.534646503199596], [33.42677576670701, 38.534107514029124], [33.43108768007079, 38.534107514029124], [33.43108768007079, 38.53356852485865], [33.43054869090031, 38.53356852485865], [33.43054869090031, 38.533029535688186], [33.43108768007079, 38.533029535688186], [33.43108768007079, 38.532490546517714], [33.4327046475822, 38.532490546517714], [33.4327046475822, 38.533029535688186], [33.43324363675268, 38.533029535688186], [33.43324363675268, 38.53356852485865], [33.43378262592313, 38.53356852485865], [33.43378262592313, 38.533029535688186], [33.43486060426409, 38.533029535688186], [33.43486060426409, 38.53141256817677], [33.4364775717755, 38.53141256817677], [33.4364775717755, 38.53195155734724], [33.43755555011643, 38.53195155734724], [33.43755555011643, 38.53141256817677], [33.43809453928691, 38.53141256817677], [33.43809453928691, 38.5308735790063], [33.43863352845739, 38.5308735790063], [33.43863352845739, 38.53195155734724], [33.43917251762787, 38.53195155734724], [33.43917251762787, 38.53141256817677], [33.4402504959688, 38.53141256817677], [33.4402504959688, 38.53195155734724], [33.44078948513928, 38.53195155734724], [33.44078948513928, 38.530334589835824], [33.4402504959688, 38.530334589835824], [33.4402504959688, 38.52763964398346], [33.44078948513928, 38.52763964398346], [33.44078948513928, 38.526561665642525], [33.44240645265069, 38.526561665642525], [33.44240645265069, 38.52602267647205], [33.44348443099162, 38.52602267647205], [33.44348443099162, 38.527100654813], [33.44186746348021, 38.527100654813], [33.44186746348021, 38.528178633153935], [33.44132847430973, 38.528178633153935], [33.44132847430973, 38.52871762232441], [33.442945441821166, 38.52871762232441], [33.442945441821166, 38.528178633153935], [33.44348443099162, 38.528178633153935], [33.44348443099162, 38.52763964398346], [33.4440234201621, 38.52763964398346], [33.4440234201621, 38.528178633153935], [33.444562409332576, 38.528178633153935], [33.444562409332576, 38.52871762232441], [33.4440234201621, 38.52871762232441], [33.4440234201621, 38.528178633153935], [33.44348443099162, 38.528178633153935], [33.44348443099162, 38.52871762232441], [33.442945441821166, 38.52871762232441], [33.442945441821166, 38.52925661149488], [33.44186746348021, 38.52925661149488], [33.44186746348021, 38.530334589835824], [33.44240645265069, 38.530334589835824], [33.44240645265069, 38.53195155734724], [33.44348443099162, 38.53195155734724], [33.44348443099162, 38.5308735790063], [33.442945441821166, 38.5308735790063], [33.442945441821166, 38.530334589835824], [33.446179376843986, 38.530334589835824], [33.446179376843986, 38.52979560066535], [33.446718366014466, 38.52979560066535], [33.446718366014466, 38.52925661149488], [33.44725735518492, 38.52925661149488], [33.44725735518492, 38.528178633153935], [33.446718366014466, 38.528178633153935], [33.446718366014466, 38.52871762232441], [33.44564038767351, 38.52871762232441], [33.44564038767351, 38.52925661149488], [33.445101398503056, 38.52925661149488], [33.445101398503056, 38.52763964398346], [33.444562409332576, 38.52763964398346], [33.444562409332576, 38.52602267647205], [33.445101398503056, 38.52602267647205], [33.445101398503056, 38.52548368730158], [33.444562409332576, 38.52548368730158], [33.444562409332576, 38.524405708960636], [33.44725735518492, 38.524405708960636], [33.44725735518492, 38.52332773061969], [33.447796344355396, 38.52332773061969], [33.447796344355396, 38.52278874144922], [33.448335333525876, 38.52278874144922], [33.448335333525876, 38.52332773061969], [33.447796344355396, 38.52332773061969], [33.447796344355396, 38.52386671979016], [33.448335333525876, 38.52386671979016], [33.448335333525876, 38.524405708960636], [33.44725735518492, 38.524405708960636], [33.44725735518492, 38.52548368730158], [33.446718366014466, 38.52548368730158], [33.446718366014466, 38.52602267647205], [33.447796344355396, 38.52602267647205], [33.447796344355396, 38.52494469813111], [33.448335333525876, 38.52494469813111], [33.448335333525876, 38.52602267647205], [33.449413311866806, 38.52602267647205], [33.449413311866806, 38.52548368730158], [33.449952301037285, 38.52548368730158], [33.449952301037285, 38.524405708960636], [33.450491290207765, 38.524405708960636], [33.450491290207765, 38.52386671979016], [33.451030279378244, 38.52386671979016], [33.451030279378244, 38.52278874144922], [33.450491290207765, 38.52278874144922], [33.450491290207765, 38.522249752278746], [33.451030279378244, 38.522249752278746], [33.451030279378244, 38.521710763108274], [33.451569268548695, 38.521710763108274], [33.451569268548695, 38.522249752278746], [33.453186236060105, 38.522249752278746], [33.453186236060105, 38.521710763108274], [33.452108257719175, 38.521710763108274], [33.452108257719175, 38.5211717739378], [33.451569268548695, 38.5211717739378], [33.451569268548695, 38.520093795596864], [33.452108257719175, 38.520093795596864], [33.452108257719175, 38.520632784767336], [33.452647246889654, 38.520632784767336], [33.452647246889654, 38.51955480642639], [33.453186236060105, 38.51955480642639], [33.453186236060105, 38.520632784767336], [33.453725225230585, 38.520632784767336], [33.453725225230585, 38.51955480642639], [33.454264214401064, 38.51955480642639], [33.454264214401064, 38.51847682808545], [33.454803203571544, 38.51847682808545], [33.454803203571544, 38.520632784767336], [33.455881181912474, 38.520632784767336], [33.455881181912474, 38.520093795596864], [33.456420171082954, 38.520093795596864], [33.456420171082954, 38.51955480642639], [33.455881181912474, 38.51955480642639], [33.455881181912474, 38.51901581725592], [33.456420171082954, 38.51901581725592], [33.456420171082954, 38.51847682808545], [33.45857612776484, 38.51847682808545], [33.45857612776484, 38.5173988497445], [33.458037138594364, 38.5173988497445], [33.458037138594364, 38.51685986057403]], [[33.42192486417275, 38.5384194273929], [33.42192486417275, 38.538958416563375], [33.4213858750023, 38.538958416563375], [33.4213858750023, 38.5384194273929], [33.42192486417275, 38.5384194273929]], [[33.42354183168416, 38.53734144905196], [33.42354183168416, 38.53788043822243], [33.42300284251371, 38.53788043822243], [33.42300284251371, 38.53734144905196], [33.42354183168416, 38.53734144905196]], [[33.42300284251371, 38.53626347071101], [33.42300284251371, 38.536802459881486], [33.42246385334323, 38.536802459881486], [33.42246385334323, 38.53626347071101], [33.42300284251371, 38.53626347071101]], [[33.42731475587749, 38.53626347071101], [33.42731475587749, 38.536802459881486], [33.42677576670701, 38.536802459881486], [33.42677576670701, 38.53626347071101], [33.42731475587749, 38.53626347071101]], [[33.42354183168416, 38.53572448154054], [33.42354183168416, 38.53626347071101], [33.42300284251371, 38.53626347071101], [33.42300284251371, 38.53572448154054], [33.42354183168416, 38.53572448154054]], [[33.42839273421842, 38.53518549237007], [33.42839273421842, 38.53626347071101], [33.42731475587749, 38.53626347071101], [33.42731475587749, 38.53572448154054], [33.42785374504794, 38.53572448154054], [33.42785374504794, 38.53518549237007], [33.42839273421842, 38.53518549237007]], [[33.43216565841172, 38.533029535688186], [33.43216565841172, 38.53356852485865], [33.43108768007079, 38.53356852485865], [33.43108768007079, 38.533029535688186], [33.43216565841172, 38.533029535688186]], [[33.450491290207765, 38.53788043822243], [33.450491290207765, 38.5384194273929], [33.449952301037285, 38.5384194273929], [33.449952301037285, 38.53788043822243], [33.450491290207765, 38.53788043822243]], [[33.446718366014466, 38.53734144905196], [33.446718366014466, 38.53788043822243], [33.446179376843986, 38.53788043822243], [33.446179376843986, 38.53734144905196], [33.446718366014466, 38.53734144905196]], [[33.4440234201621, 38.536802459881486], [33.4440234201621, 38.53734144905196], [33.44348443099162, 38.53734144905196], [33.44348443099162, 38.536802459881486], [33.4440234201621, 38.536802459881486]], [[33.445101398503056, 38.53626347071101], [33.445101398503056, 38.536802459881486], [33.444562409332576, 38.536802459881486], [33.444562409332576, 38.53626347071101], [33.445101398503056, 38.53626347071101]], [[33.448874322696355, 38.53626347071101], [33.448874322696355, 38.536802459881486], [33.448335333525876, 38.536802459881486], [33.448335333525876, 38.53626347071101], [33.448874322696355, 38.53626347071101]], [[33.445101398503056, 38.53518549237007], [33.445101398503056, 38.53572448154054], [33.444562409332576, 38.53572448154054], [33.444562409332576, 38.53518549237007], [33.445101398503056, 38.53518549237007]], [[33.4402504959688, 38.53356852485865], [33.4402504959688, 38.534107514029124], [33.43971150679832, 38.534107514029124], [33.43971150679832, 38.53356852485865], [33.4402504959688, 38.53356852485865]], [[33.454264214401064, 38.533029535688186], [33.454264214401064, 38.534107514029124], [33.453186236060105, 38.534107514029124], [33.453186236060105, 38.53356852485865], [33.453725225230585, 38.53356852485865], [33.453725225230585, 38.533029535688186], [33.454264214401064, 38.533029535688186]], [[33.450491290207765, 38.5308735790063], [33.450491290207765, 38.53141256817677], [33.449952301037285, 38.53141256817677], [33.449952301037285, 38.5308735790063], [33.450491290207765, 38.5308735790063]], [[33.44564038767351, 38.52602267647205], [33.44564038767351, 38.52763964398346], [33.445101398503056, 38.52763964398346], [33.445101398503056, 38.52602267647205], [33.44564038767351, 38.52602267647205]], [[33.446179376843986, 38.52494469813111], [33.446179376843986, 38.52548368730158], [33.44564038767351, 38.52548368730158], [33.44564038767351, 38.52494469813111], [33.446179376843986, 38.52494469813111]], [[33.451569268548695, 38.524405708960636], [33.451569268548695, 38.52494469813111], [33.451030279378244, 38.52494469813111], [33.451030279378244, 38.524405708960636], [33.451569268548695, 38.524405708960636]], [[33.453186236060105, 38.520632784767336], [33.453186236060105, 38.5211717739378], [33.452647246889654, 38.5211717739378], [33.452647246889654, 38.520632784767336], [33.453186236060105, 38.520632784767336]]]}, "properties": {"area_ha": 213.2660439047342, "mean_dnbr": 0.17533192081267288, "compactness": 0.019, "rectangularity": 0.263, "cropland_frac": 0, "persistent": true}}, {"type": "Feature", "geometry": {"geodesic": false, "type": "Polygon", "coordinates": [[[33.48390861877701, 38.54327032992715], [33.48498659711794, 38.54327032992715], [33.48498659711794, 38.54434830826809], [33.4860645754589, 38.54434830826809], [33.4860645754589, 38.54758224329092], [33.48444760794749, 38.54758224329092], [33.48444760794749, 38.54866022163186], [33.48390861877701, 38.54866022163186], [33.48390861877701, 38.54973819997281], [33.48444760794749, 38.54973819997281], [33.48444760794749, 38.55081617831375], [33.48498659711794, 38.55081617831375], [33.48498659711794, 38.55135516748422], [33.48444760794749, 38.55135516748422], [33.48444760794749, 38.55189415665469], [33.48390861877701, 38.55189415665469], [33.48390861877701, 38.55135516748422], [33.48444760794749, 38.55135516748422], [33.48444760794749, 38.55081617831375], [33.48336962960653, 38.55081617831375], [33.48336962960653, 38.55351112416611], [33.4822916512656, 38.55351112416611], [33.4822916512656, 38.555667080847996], [33.48175266209512, 38.555667080847996], [33.48175266209512, 38.555128091677524], [33.48121367292464, 38.555128091677524], [33.48121367292464, 38.55620607001847], [33.48175266209512, 38.55620607001847], [33.48175266209512, 38.55674505918894], [33.4822916512656, 38.55674505918894], [33.4822916512656, 38.55728404835941], [33.48336962960653, 38.55728404835941], [33.48336962960653, 38.55782303752988], [33.48175266209512, 38.55782303752988], [33.48175266209512, 38.55674505918894], [33.48013569458371, 38.55674505918894], [33.48013569458371, 38.55620607001847], [33.47905771624275, 38.55620607001847], [33.47905771624275, 38.555128091677524], [33.47797973790182, 38.555128091677524], [33.47797973790182, 38.55458910250705], [33.47636277039041, 38.55458910250705], [33.47636277039041, 38.555128091677524], [33.47582378121993, 38.555128091677524], [33.47582378121993, 38.55728404835941], [33.47636277039041, 38.55728404835941], [33.47636277039041, 38.55782303752988], [33.47690175956086, 38.55782303752988], [33.47690175956086, 38.55836202670035], [33.47744074873134, 38.55836202670035], [33.47744074873134, 38.559440005041296], [33.4785187270723, 38.559440005041296], [33.4785187270723, 38.56051798338224], [33.47959670541323, 38.56051798338224], [33.47959670541323, 38.561595961723185], [33.48013569458371, 38.561595961723185], [33.48013569458371, 38.56213495089366], [33.47959670541323, 38.56213495089366], [33.47959670541323, 38.561595961723185], [33.47905771624275, 38.561595961723185], [33.47905771624275, 38.56267394006413], [33.48013569458371, 38.56267394006413], [33.48013569458371, 38.5632129292346], [33.48067468375419, 38.5632129292346], [33.48067468375419, 38.56375191840507], [33.48121367292464, 38.56375191840507], [33.48121367292464, 38.56482989674601], [33.48067468375419, 38.56482989674601], [33.48067468375419, 38.56429090757554], [33.47959670541323, 38.56429090757554], [33.47959670541323, 38.56590787508696], [33.48013569458371, 38.56590787508696], [33.48013569458371, 38.56644686425743], [33.47959670541323, 38.56644686425743], [33.47959670541323, 38.568063831768846], [33.48013569458371, 38.568063831768846], [33.48013569458371, 38.5707587776212], [33.47744074873134, 38.5707587776212], [33.47744074873134, 38.571836755962146], [33.47797973790182, 38.571836755962146], [33.47797973790182, 38.573992712644035], [33.47744074873134, 38.573992712644035], [33.47744074873134, 38.57507069098498], [33.47690175956086, 38.57507069098498], [33.47690175956086, 38.57453170181451], [33.47528479204945, 38.57453170181451], [33.47528479204945, 38.57507069098498], [33.474745802879, 38.57507069098498], [33.474745802879, 38.57453170181451], [33.47420681370852, 38.57453170181451], [33.47420681370852, 38.57345372347356], [33.474745802879, 38.57345372347356], [33.474745802879, 38.573992712644035], [33.47582378121993, 38.573992712644035], [33.47582378121993, 38.57345372347356], [33.47636277039041, 38.57345372347356], [33.47636277039041, 38.573992712644035], [33.47690175956086, 38.573992712644035], [33.47690175956086, 38.57345372347356], [33.47744074873134, 38.57345372347356], [33.47744074873134, 38.57237574513262], [33.47690175956086, 38.57237574513262], [33.47690175956086, 38.57291473430309], [33.47528479204945, 38.57291473430309], [33.47528479204945, 38.571836755962146], [33.47582378121993, 38.571836755962146], [33.47582378121993, 38.57237574513262], [33.47690175956086, 38.57237574513262], [33.47690175956086, 38.571836755962146], [33.47636277039041, 38.571836755962146], [33.47636277039041, 38.57129776679167], [33.47690175956086, 38.57129776679167], [33.47690175956086, 38.5707587776212], [33.47582378121993, 38.5707587776212], [33.47582378121993, 38.57129776679167], [33.47420681370852, 38.57129776679167], [33.47420681370852, 38.5707587776212], [33.474745802879, 38.5707587776212], [33.474745802879, 38.57021978845073], [33.47420681370852, 38.57021978845073], [33.47420681370852, 38.569680799280256], [33.474745802879, 38.569680799280256], [33.474745802879, 38.57021978845073], [33.47582378121993, 38.57021978845073], [33.47582378121993, 38.56914181010979], [33.474745802879, 38.56914181010979], [33.474745802879, 38.565368885916484], [33.47420681370852, 38.565368885916484], [33.47420681370852, 38.56429090757554], [33.474745802879, 38.56429090757554], [33.474745802879, 38.56482989674601], [33.47582378121993, 38.56482989674601], [33.47582378121993, 38.56590787508696], [33.47636277039041, 38.56590787508696], [33.47636277039041, 38.56429090757554], [33.47690175956086, 38.56429090757554], [33.47690175956086, 38.56375191840507], [33.47636277039041, 38.56375191840507], [33.47636277039041, 38.5632129292346], [33.47582378121993, 38.5632129292346], [33.47582378121993, 38.56267394006413], [33.47636277039041, 38.56267394006413], [33.47636277039041, 38.5632129292346], [33.47690175956086, 38.5632129292346], [33.47690175956086, 38.56267394006413], [33.47744074873134, 38.56267394006413], [33.47744074873134, 38.56213495089366], [33.47797973790182, 38.56213495089366], [33.47797973790182, 38.561595961723185], [33.47582378121993, 38.561595961723185], [33.47582378121993, 38.56213495089366], [33.47528479204945, 38.56213495089366], [33.47528479204945, 38.5632129292346], [33.474745802879, 38.5632129292346], [33.474745802879, 38.561595961723185], [33.47420681370852, 38.561595961723185], [33.47420681370852, 38.56051798338224], [33.47366782453804, 38.56051798338224], [33.47366782453804, 38.559440005041296], [33.47420681370852, 38.559440005041296], [33.47420681370852, 38.55836202670035], [33.47366782453804, 38.55836202670035], [33.47366782453804, 38.55890101587082], [33.47312883536756, 38.55890101587082], [33.47312883536756, 38.55836202670035], [33.47205085702663, 38.55836202670035], [33.47205085702663, 38.55890101587082], [33.47151186785615, 38.55890101587082], [33.47151186785615, 38.55728404835941], [33.47097287868567, 38.55728404835941], [33.47097287868567, 38.55351112416611], [33.47043388951522, 38.55351112416611], [33.47043388951522, 38.552972134995635], [33.46881692200381, 38.552972134995635], [33.46881692200381, 38.55135516748422], [33.46989490034474, 38.55135516748422], [33.46989490034474, 38.55081617831375], [33.47312883536756, 38.55081617831375], [33.47312883536756, 38.55135516748422], [33.47366782453804, 38.55135516748422], [33.47366782453804, 38.55081617831375], [33.474745802879, 38.55081617831375], [33.474745802879, 38.55135516748422], [33.47528479204945, 38.55135516748422], [33.47528479204945, 38.55081617831375], [33.47582378121993, 38.55081617831375], [33.47582378121993, 38.55189415665469], [33.47797973790182, 38.55189415665469], [33.47797973790182, 38.55243314582516], [33.47959670541323, 38.55243314582516], [33.47959670541323, 38.55189415665469], [33.47905771624275, 38.55189415665469], [33.47905771624275, 38.55135516748422], [33.4785187270723, 38.55135516748422], [33.4785187270723, 38.54973819997281], [33.47959670541323, 38.54973819997281], [33.47959670541323, 38.55027718914328], [33.48013569458371, 38.55027718914328], [33.48013569458371, 38.546504264949974], [33.48121367292464, 38.546504264949974], [33.48121367292464, 38.544887297438564], [33.48067468375419, 38.544887297438564], [33.48067468375419, 38.54434830826809], [33.47959670541323, 38.54434830826809], [33.47959670541323, 38.54380931909762], [33.48013569458371, 38.54380931909762], [33.48013569458371, 38.54327032992715], [33.48283064043605, 38.54327032992715], [33.48283064043605, 38.54380931909762], [33.48336962960653, 38.54380931909762], [33.48336962960653, 38.54434830826809], [33.48390861877701, 38.54434830826809], [33.48390861877701, 38.54327032992715]], [[33.47636277039041, 38.56860282093932], [33.47636277039041, 38.56914181010979], [33.47582378121993, 38.56914181010979], [33.47582378121993, 38.56860282093932], [33.47636277039041, 38.56860282093932]], [[33.47905771624275, 38.56860282093932], [33.47905771624275, 38.56914181010979], [33.4785187270723, 38.56914181010979], [33.4785187270723, 38.56860282093932], [33.47905771624275, 38.56860282093932]], [[33.47690175956086, 38.568063831768846], [33.47690175956086, 38.56860282093932], [33.47636277039041, 38.56860282093932], [33.47636277039041, 38.568063831768846], [33.47690175956086, 38.568063831768846]], [[33.47905771624275, 38.56644686425743], [33.47905771624275, 38.5669858534279], [33.4785187270723, 38.5669858534279], [33.4785187270723, 38.56644686425743], [33.47905771624275, 38.56644686425743]], [[33.47905771624275, 38.56375191840507], [33.47905771624275, 38.56482989674601], [33.4785187270723, 38.56482989674601], [33.4785187270723, 38.56375191840507], [33.47905771624275, 38.56375191840507]], [[33.4785187270723, 38.56267394006413], [33.4785187270723, 38.5632129292346], [33.47797973790182, 38.5632129292346], [33.47797973790182, 38.56267394006413], [33.4785187270723, 38.56267394006413]], [[33.47528479204945, 38.559440005041296], [33.47528479204945, 38.55997899421177], [33.47582378121993, 38.55997899421177], [33.47582378121993, 38.56051798338224], [33.47420681370852, 38.56051798338224], [33.47420681370852, 38.559440005041296], [33.47528479204945, 38.559440005041296]], [[33.47690175956086, 38.559440005041296], [33.47690175956086, 38.55997899421177], [33.47636277039041, 38.55997899421177], [33.47636277039041, 38.559440005041296], [33.47690175956086, 38.559440005041296]], [[33.47420681370852, 38.555128091677524], [33.47420681370852, 38.555667080847996], [33.47366782453804, 38.555667080847996], [33.47366782453804, 38.555128091677524], [33.47420681370852, 38.555128091677524]], [[33.48013569458371, 38.55458910250705], [33.48013569458371, 38.555128091677524], [33.48067468375419, 38.555128091677524], [33.48067468375419, 38.555667080847996], [33.47959670541323, 38.555667080847996], [33.47959670541323, 38.55458910250705], [33.48013569458371, 38.55458910250705]], [[33.47312883536756, 38.552972134995635], [33.47312883536756, 38.55405011333658], [33.47151186785615, 38.55405011333658], [33.47151186785615, 38.55351112416611], [33.47205085702663, 38.55351112416611], [33.47205085702663, 38.552972134995635], [33.47312883536756, 38.552972134995635]], [[33.47420681370852, 38.552972134995635], [33.47420681370852, 38.55351112416611], [33.47366782453804, 38.55351112416611], [33.47366782453804, 38.552972134995635], [33.47420681370852, 38.552972134995635]], [[33.47151186785615, 38.55189415665469], [33.47151186785615, 38.55351112416611], [33.47097287868567, 38.55351112416611], [33.47097287868567, 38.55189415665469], [33.47151186785615, 38.55189415665469]], [[33.48067468375419, 38.55189415665469], [33.48067468375419, 38.55243314582516], [33.48121367292464, 38.55243314582516], [33.48121367292464, 38.552972134995635], [33.4822916512656, 38.552972134995635], [33.4822916512656, 38.55351112416611], [33.48121367292464, 38.55351112416611], [33.48121367292464, 38.55458910250705], [33.48013569458371, 38.55458910250705], [33.48013569458371, 38.55351112416611], [33.48067468375419, 38.55351112416611], [33.48067468375419, 38.552972134995635], [33.48013569458371, 38.552972134995635], [33.48013569458371, 38.55351112416611], [33.47959670541323, 38.55351112416611], [33.47959670541323, 38.55243314582516], [33.48013569458371, 38.55243314582516], [33.48013569458371, 38.55189415665469], [33.48067468375419, 38.55189415665469]], [[33.48121367292464, 38.55135516748422], [33.48121367292464, 38.55189415665469], [33.48067468375419, 38.55189415665469], [33.48067468375419, 38.55135516748422], [33.48121367292464, 38.55135516748422]], [[33.48013569458371, 38.55081617831375], [33.48013569458371, 38.55189415665469], [33.47959670541323, 38.55189415665469], [33.47959670541323, 38.55081617831375], [33.48013569458371, 38.55081617831375]], [[33.48336962960653, 38.54866022163186], [33.48336962960653, 38.549199210802335], [33.48283064043605, 38.549199210802335], [33.48283064043605, 38.54866022163186], [33.48336962960653, 38.54866022163186]]]}, "properties": {"area_ha": 154.76874663888188, "mean_dnbr": 0.20040637651177198, "compactness": 0.031, "rectangularity": 0.306, "cropland_frac": 0, "persistent": true}}, {"type": "Feature", "geometry": {"geodesic": false, "type": "Polygon", "coordinates": [[[33.48498659711794, 38.501768163800826], [33.48822053214079, 38.501768163800826], [33.48822053214079, 38.5023071529713], [33.48768154297031, 38.5023071529713], [33.48768154297031, 38.503385131312236], [33.48822053214079, 38.503385131312236], [33.48822053214079, 38.50392412048271], [33.48768154297031, 38.50392412048271], [33.48768154297031, 38.50446310965318], [33.4860645754589, 38.50446310965318], [33.4860645754589, 38.50500209882365], [33.48714255379983, 38.50500209882365], [33.48714255379983, 38.505541087994125], [33.48768154297031, 38.505541087994125], [33.48768154297031, 38.50500209882365], [33.48822053214079, 38.50500209882365], [33.48822053214079, 38.5060800771646], [33.48714255379983, 38.5060800771646], [33.48714255379983, 38.50661906633507], [33.48660356462938, 38.50661906633507], [33.48660356462938, 38.507697044676014], [33.48714255379983, 38.507697044676014], [33.48714255379983, 38.50715805550554], [33.48768154297031, 38.50715805550554], [33.48768154297031, 38.507697044676014], [33.48822053214079, 38.507697044676014], [33.48822053214079, 38.50823603384649], [33.48929851048172, 38.50823603384649], [33.48929851048172, 38.509314012187424], [33.4898374996522, 38.509314012187424], [33.4898374996522, 38.50823603384649], [33.490376488822676, 38.50823603384649], [33.490376488822676, 38.509314012187424], [33.49091547799313, 38.509314012187424], [33.49091547799313, 38.5098530013579], [33.49145446716361, 38.5098530013579], [33.49145446716361, 38.51039199052837], [33.492532445504565, 38.51039199052837], [33.492532445504565, 38.51093097969884], [33.491993456334086, 38.51093097969884], [33.491993456334086, 38.51254794721026], [33.492532445504565, 38.51254794721026], [33.492532445504565, 38.51308693638073], [33.494149413015975, 38.51308693638073], [33.494149413015975, 38.514164914721675], [33.494688402186426, 38.514164914721675], [33.494688402186426, 38.51470390389215], [33.494149413015975, 38.51470390389215], [33.494149413015975, 38.514164914721675], [33.493610423845496, 38.514164914721675], [33.493610423845496, 38.51470390389215], [33.492532445504565, 38.51470390389215], [33.492532445504565, 38.5136259255512], [33.49091547799313, 38.5136259255512], [33.49091547799313, 38.51308693638073], [33.4898374996522, 38.51308693638073], [33.4898374996522, 38.512008958039786], [33.48929851048172, 38.512008958039786], [33.48929851048172, 38.51093097969884], [33.48822053214079, 38.51093097969884], [33.48822053214079, 38.51039199052837], [33.48714255379983, 38.51039199052837], [33.48714255379983, 38.509314012187424], [33.48660356462938, 38.509314012187424], [33.48660356462938, 38.50877502301696], [33.48552558628842, 38.50877502301696], [33.48552558628842, 38.50823603384649], [33.48498659711794, 38.50823603384649], [33.48498659711794, 38.50877502301696], [33.48444760794749, 38.50877502301696], [33.48444760794749, 38.51093097969884], [33.48390861877701, 38.51093097969884], [33.48390861877701, 38.511469968869314], [33.48444760794749, 38.511469968869314], [33.48444760794749, 38.51254794721026], [33.48498659711794, 38.51254794721026], [33.48498659711794, 38.51308693638073], [33.48444760794749, 38.51308693638073], [33.48444760794749, 38.514164914721675], [33.48336962960653, 38.514164914721675], [33.48336962960653, 38.51470390389215], [33.48175266209512, 38.51470390389215], [33.48175266209512, 38.51632087140356], [33.48067468375419, 38.51632087140356], [33.48067468375419, 38.51685986057403], [33.48013569458371, 38.51685986057403], [33.48013569458371, 38.5173988497445], [33.47959670541323, 38.5173988497445], [33.47959670541323, 38.517937838914975], [33.47905771624275, 38.517937838914975], [33.47905771624275, 38.51901581725592], [33.47797973790182, 38.51901581725592], [33.47797973790182, 38.51847682808545], [33.47690175956086, 38.51847682808545], [33.47690175956086, 38.51901581725592], [33.47636277039041, 38.51901581725592], [33.47636277039041, 38.520093795596864], [33.47744074873134, 38.520093795596864], [33.47744074873134, 38.51955480642639], [33.47797973790182, 38.51955480642639], [33.47797973790182, 38.520632784767336], [33.47744074873134, 38.520632784767336], [33.47744074873134, 38.521710763108274], [33.47690175956086, 38.521710763108274], [33.47690175956086, 38.52278874144922], [33.47636277039041, 38.52278874144922], [33.47636277039041, 38.52386671979016], [33.47582378121993, 38.52386671979016], [33.47582378121993, 38.524405708960636], [33.47636277039041, 38.524405708960636], [33.47636277039041, 38.52494469813111], [33.47690175956086, 38.52494469813111], [33.47690175956086, 38.52386671979016], [33.47797973790182, 38.52386671979016], [33.47797973790182, 38.52548368730158], [33.47690175956086, 38.52548368730158], [33.47690175956086, 38.52602267647205], [33.47636277039041, 38.52602267647205], [33.47636277039041, 38.52494469813111], [33.47528479204945, 38.52494469813111], [33.47528479204945, 38.52602267647205], [33.474745802879, 38.52602267647205], [33.474745802879, 38.52548368730158], [33.47420681370852, 38.52548368730158], [33.47420681370852, 38.52494469813111], [33.47312883536756, 38.52494469813111], [33.47312883536756, 38.52386671979016], [33.47366782453804, 38.52386671979016], [33.47366782453804, 38.522249752278746], [33.47312883536756, 38.522249752278746], [33.47312883536756, 38.52278874144922], [33.47258984619711, 38.52278874144922], [33.47258984619711, 38.521710763108274], [33.47205085702663, 38.521710763108274], [33.47205085702663, 38.5211717739378], [33.47258984619711, 38.5211717739378], [33.47258984619711, 38.520632784767336], [33.47205085702663, 38.520632784767336], [33.47205085702663, 38.51901581725592], [33.47151186785615, 38.51901581725592], [33.47151186785615, 38.51847682808545], [33.47097287868567, 38.51847682808545], [33.47097287868567, 38.51632087140356], [33.46935591117426, 38.51632087140356], [33.46935591117426, 38.51524289306261], [33.46989490034474, 38.51524289306261], [33.46989490034474, 38.51470390389215], [33.46935591117426, 38.51470390389215], [33.46935591117426, 38.51254794721026], [33.46773894366285, 38.51254794721026], [33.46773894366285, 38.512008958039786], [33.46666096532192, 38.512008958039786], [33.46666096532192, 38.511469968869314], [33.46773894366285, 38.511469968869314], [33.46773894366285, 38.51093097969884], [33.46719995449237, 38.51093097969884], [33.46719995449237, 38.5098530013579], [33.46881692200381, 38.5098530013579], [33.46881692200381, 38.509314012187424], [33.46935591117426, 38.509314012187424], [33.46935591117426, 38.5098530013579], [33.46881692200381, 38.5098530013579], [33.46881692200381, 38.51039199052837], [33.46773894366285, 38.51039199052837], [33.46773894366285, 38.51093097969884], [33.47097287868567, 38.51093097969884], [33.47097287868567, 38.5098530013579], [33.47151186785615, 38.5098530013579], [33.47151186785615, 38.509314012187424], [33.47366782453804, 38.509314012187424], [33.47366782453804, 38.50877502301696], [33.47420681370852, 38.50877502301696], [33.47420681370852, 38.50823603384649], [33.474745802879, 38.50823603384649], [33.474745802879, 38.50877502301696], [33.47528479204945, 38.50877502301696], [33.47528479204945, 38.507697044676014], [33.47582378121993, 38.507697044676014], [33.47582378121993, 38.50715805550554], [33.47528479204945, 38.50715805550554], [33.47528479204945, 38.50661906633507], [33.47636277039041, 38.50661906633507], [33.47636277039041, 38.5060800771646], [33.47582378121993, 38.5060800771646], [33.47582378121993, 38.50500209882365], [33.47690175956086, 38.50500209882365], [33.47690175956086, 38.50446310965318], [33.47959670541323, 38.50446310965318], [33.47959670541323, 38.50392412048271], [33.48067468375419, 38.50392412048271], [33.48067468375419, 38.503385131312236], [33.48175266209512, 38.503385131312236], [33.48175266209512, 38.50284614214177], [33.48283064043605, 38.50284614214177], [33.48283064043605, 38.5023071529713], [33.48390861877701, 38.5023071529713], [33.48390861877701, 38.503385131312236], [33.48444760794749, 38.503385131312236], [33.48444760794749, 38.50284614214177], [33.48498659711794, 38.50284614214177], [33.48498659711794, 38.501768163800826]], [[33.47582378121993, 38.52278874144922], [33.47582378121993, 38.52332773061969], [33.47528479204945, 38.52332773061969], [33.47528479204945, 38.52278874144922], [33.47582378121993, 38.52278874144922]], [[33.47636277039041, 38.5211717739378], [33.47636277039041, 38.521710763108274], [33.47582378121993, 38.521710763108274], [33.47582378121993, 38.5211717739378], [33.47636277039041, 38.5211717739378]], [[33.47636277039041, 38.51847682808545], [33.47636277039041, 38.51901581725592], [33.47582378121993, 38.51901581725592], [33.47582378121993, 38.51847682808545], [33.47636277039041, 38.51847682808545]], [[33.47205085702663, 38.5173988497445], [33.47205085702663, 38.517937838914975], [33.47258984619711, 38.517937838914975], [33.47258984619711, 38.51847682808545], [33.47151186785615, 38.51847682808545], [33.47151186785615, 38.5173988497445], [33.47205085702663, 38.5173988497445]], [[33.47366782453804, 38.51632087140356], [33.47366782453804, 38.51685986057403], [33.47312883536756, 38.51685986057403], [33.47312883536756, 38.51632087140356], [33.47366782453804, 38.51632087140356]], [[33.47258984619711, 38.515781882233085], [33.47258984619711, 38.5173988497445], [33.47205085702663, 38.5173988497445], [33.47205085702663, 38.515781882233085], [33.47258984619711, 38.515781882233085]], [[33.47312883536756, 38.514164914721675], [33.47312883536756, 38.51524289306261], [33.47258984619711, 38.51524289306261], [33.47258984619711, 38.514164914721675], [33.47312883536756, 38.514164914721675]], [[33.47366782453804, 38.512008958039786], [33.47366782453804, 38.51308693638073], [33.47312883536756, 38.51308693638073], [33.47312883536756, 38.512008958039786], [33.47366782453804, 38.512008958039786]], [[33.46935591117426, 38.511469968869314], [33.46935591117426, 38.512008958039786], [33.46881692200381, 38.512008958039786], [33.46881692200381, 38.511469968869314], [33.46935591117426, 38.511469968869314]], [[33.47312883536756, 38.51039199052837], [33.47312883536756, 38.51093097969884], [33.47258984619711, 38.51093097969884], [33.47258984619711, 38.51039199052837], [33.47312883536756, 38.51039199052837]], [[33.49145446716361, 38.51254794721026], [33.49145446716361, 38.51308693638073], [33.49091547799313, 38.51308693638073], [33.49091547799313, 38.51254794721026], [33.49145446716361, 38.51254794721026]], [[33.47636277039041, 38.507697044676014], [33.47636277039041, 38.50823603384649], [33.47582378121993, 38.50823603384649], [33.47582378121993, 38.507697044676014], [33.47636277039041, 38.507697044676014]], [[33.4785187270723, 38.505541087994125], [33.4785187270723, 38.5060800771646], [33.47744074873134, 38.5060800771646], [33.47744074873134, 38.505541087994125], [33.4785187270723, 38.505541087994125]], [[33.47744074873134, 38.50500209882365], [33.47744074873134, 38.505541087994125], [33.47690175956086, 38.505541087994125], [33.47690175956086, 38.50500209882365], [33.47744074873134, 38.50500209882365]], [[33.48390861877701, 38.503385131312236], [33.48390861877701, 38.50392412048271], [33.48444760794749, 38.50392412048271], [33.48444760794749, 38.50500209882365], [33.48336962960653, 38.50500209882365], [33.48336962960653, 38.505541087994125], [33.48283064043605, 38.505541087994125], [33.48283064043605, 38.50500209882365], [33.4822916512656, 38.50500209882365], [33.4822916512656, 38.50392412048271], [33.48283064043605, 38.50392412048271], [33.48283064043605, 38.503385131312236], [33.48390861877701, 38.503385131312236]], [[33.48552558628842, 38.503385131312236], [33.48552558628842, 38.50392412048271], [33.48444760794749, 38.50392412048271], [33.48444760794749, 38.503385131312236], [33.48552558628842, 38.503385131312236]], [[33.48768154297031, 38.503385131312236], [33.48768154297031, 38.50392412048271], [33.48714255379983, 38.50392412048271], [33.48714255379983, 38.503385131312236], [33.48768154297031, 38.503385131312236]]]}, "properties": {"area_ha": 223.72490149779176, "mean_dnbr": 0.16799694812638025, "compactness": 0.061, "rectangularity": 0.455, "cropland_frac": 0, "persistent": true}}, {"type": "Feature", "geometry": {"geodesic": false, "type": "Polygon", "coordinates": [[[33.552360243426904, 38.51955480642639], [33.552360243426904, 38.520093795596864], [33.55343822176786, 38.520093795596864], [33.55343822176786, 38.51847682808545], [33.55397721093834, 38.51847682808545], [33.55397721093834, 38.517937838914975], [33.55451620010879, 38.517937838914975], [33.55451620010879, 38.515781882233085], [33.55343822176786, 38.515781882233085], [33.55343822176786, 38.51685986057403], [33.55397721093834, 38.51685986057403], [33.55397721093834, 38.5173988497445], [33.549126308404084, 38.5173988497445], [33.549126308404084, 38.51685986057403], [33.548587319233604, 38.51685986057403], [33.548587319233604, 38.51632087140356], [33.549126308404084, 38.51632087140356], [33.549126308404084, 38.515781882233085], [33.550204286745014, 38.515781882233085], [33.550204286745014, 38.51470390389215], [33.55128226508597, 38.51470390389215], [33.55128226508597, 38.51308693638073], [33.550743275915494, 38.51308693638073], [33.550743275915494, 38.512008958039786], [33.549126308404084, 38.512008958039786], [33.549126308404084, 38.511469968869314], [33.548587319233604, 38.511469968869314], [33.548587319233604, 38.51093097969884], [33.54804833006315, 38.51093097969884], [33.54804833006315, 38.51039199052837], [33.546970351722194, 38.51039199052837], [33.546970351722194, 38.5098530013579], [33.546431362551715, 38.5098530013579], [33.546431362551715, 38.509314012187424], [33.545353384210784, 38.509314012187424], [33.545353384210784, 38.50877502301696], [33.544814395040305, 38.50877502301696], [33.544814395040305, 38.50823603384649], [33.545353384210784, 38.50823603384649], [33.545353384210784, 38.50877502301696], [33.546970351722194, 38.50877502301696], [33.546970351722194, 38.509314012187424], [33.54804833006315, 38.509314012187424], [33.54804833006315, 38.50877502301696], [33.549126308404084, 38.50877502301696], [33.549126308404084, 38.509314012187424], [33.54966529757456, 38.509314012187424], [33.54966529757456, 38.5098530013579], [33.550743275915494, 38.5098530013579], [33.550743275915494, 38.51039199052837], [33.55182125425645, 38.51039199052837], [33.55182125425645, 38.509314012187424], [33.552360243426904, 38.509314012187424], [33.552360243426904, 38.51039199052837], [33.55343822176786, 38.51039199052837], [33.55343822176786, 38.51093097969884], [33.55451620010879, 38.51093097969884], [33.55451620010879, 38.511469968869314], [33.55505518927927, 38.511469968869314], [33.55505518927927, 38.512008958039786], [33.55559417844975, 38.512008958039786], [33.55559417844975, 38.51254794721026], [33.5561331676202, 38.51254794721026], [33.5561331676202, 38.51308693638073], [33.55667215679068, 38.51308693638073], [33.55667215679068, 38.5136259255512], [33.55828912430209, 38.5136259255512], [33.55828912430209, 38.51470390389215], [33.55882811347257, 38.51470390389215], [33.55882811347257, 38.51524289306261], [33.55936710264305, 38.51524289306261], [33.55936710264305, 38.515781882233085], [33.56044508098398, 38.515781882233085], [33.56044508098398, 38.51685986057403], [33.56098407015446, 38.51685986057403], [33.56098407015446, 38.5173988497445], [33.56152305932494, 38.5173988497445], [33.56152305932494, 38.517937838914975], [33.56206204849539, 38.517937838914975], [33.56206204849539, 38.5211717739378], [33.56260103766587, 38.5211717739378], [33.56260103766587, 38.521710763108274], [33.56367901600683, 38.521710763108274], [33.56367901600683, 38.520632784767336], [33.56421800517728, 38.520632784767336], [33.56421800517728, 38.5211717739378], [33.56637396185917, 38.5211717739378], [33.56637396185917, 38.521710763108274], [33.56691295102965, 38.521710763108274], [33.56691295102965, 38.52278874144922], [33.56745194020013, 38.52278874144922], [33.56745194020013, 38.52332773061969], [33.56799092937058, 38.52332773061969], [33.56799092937058, 38.52278874144922], [33.56852991854106, 38.52278874144922], [33.56852991854106, 38.52332773061969], [33.56906890771154, 38.52332773061969], [33.56906890771154, 38.52278874144922], [33.57014688605247, 38.52278874144922], [33.57014688605247, 38.522249752278746], [33.56960789688202, 38.522249752278746], [33.56960789688202, 38.521710763108274], [33.57176385356391, 38.521710763108274], [33.57176385356391, 38.52278874144922], [33.57338082107532, 38.52278874144922], [33.57338082107532, 38.52332773061969], [33.57445879941625, 38.52332773061969], [33.57445879941625, 38.52386671979016], [33.57499778858673, 38.52386671979016], [33.57499778858673, 38.524405708960636], [33.57553677775721, 38.524405708960636], [33.57553677775721, 38.52494469813111], [33.57607576692766, 38.52494469813111], [33.57607576692766, 38.52548368730158], [33.57823172360955, 38.52548368730158], [33.57823172360955, 38.526561665642525], [33.57715374526862, 38.526561665642525], [33.57715374526862, 38.527100654813], [33.5776927344391, 38.527100654813], [33.5776927344391, 38.52763964398346], [33.57823172360955, 38.52763964398346], [33.57823172360955, 38.528178633153935], [33.57877071278003, 38.528178633153935], [33.57877071278003, 38.52763964398346], [33.57930970195051, 38.52763964398346], [33.57930970195051, 38.528178633153935], [33.58092666946192, 38.528178633153935], [33.58092666946192, 38.52871762232441], [33.581465658632396, 38.52871762232441], [33.581465658632396, 38.52979560066535], [33.583082626143806, 38.52979560066535], [33.583082626143806, 38.5308735790063], [33.583621615314286, 38.5308735790063], [33.583621615314286, 38.53141256817677], [33.584699593655216, 38.53141256817677], [33.584699593655216, 38.53195155734724], [33.585238582825696, 38.53195155734724], [33.585238582825696, 38.532490546517714], [33.584699593655216, 38.532490546517714], [33.584699593655216, 38.53195155734724], [33.58200464780285, 38.53195155734724], [33.58200464780285, 38.5308735790063], [33.581465658632396, 38.5308735790063], [33.581465658632396, 38.53356852485865], [33.58038768029144, 38.53356852485865], [33.58038768029144, 38.533029535688186], [33.5776927344391, 38.533029535688186], [33.5776927344391, 38.53356852485865], [33.57930970195051, 38.53356852485865], [33.57930970195051, 38.534646503199596], [33.57877071278003, 38.534646503199596], [33.57877071278003, 38.534107514029124], [33.5776927344391, 38.534107514029124], [33.5776927344391, 38.53356852485865], [33.57715374526862, 38.53356852485865], [33.57715374526862, 38.533029535688186], [33.57661475609814, 38.533029535688186], [33.57661475609814, 38.534107514029124], [33.57715374526862, 38.534107514029124], [33.57715374526862, 38.53518549237007], [33.57607576692766, 38.53518549237007], [33.57607576692766, 38.53572448154054], [33.57553677775721, 38.53572448154054], [33.57553677775721, 38.53518549237007], [33.57607576692766, 38.53518549237007], [33.57607576692766, 38.53356852485865], [33.57553677775721, 38.53356852485865], [33.57553677775721, 38.534646503199596], [33.57499778858673, 38.534646503199596], [33.57499778858673, 38.534107514029124], [33.57338082107532, 38.534107514029124], [33.57338082107532, 38.534646503199596], [33.57284183190484, 38.534646503199596], [33.57284183190484, 38.533029535688186], [33.57068587522295, 38.533029535688186], [33.57068587522295, 38.53356852485865], [33.57014688605247, 38.53356852485865], [33.57014688605247, 38.533029535688186], [33.56637396185917, 38.533029535688186], [33.56637396185917, 38.53356852485865], [33.56583497268872, 38.53356852485865], [33.56583497268872, 38.532490546517714], [33.56529598351824, 38.532490546517714], [33.56529598351824, 38.53195155734724], [33.56421800517728, 38.53195155734724], [33.56421800517728, 38.532490546517714], [33.56098407015446, 38.532490546517714], [33.56098407015446, 38.533029535688186], [33.55990609181353, 38.533029535688186], [33.55990609181353, 38.53356852485865], [33.56098407015446, 38.53356852485865], [33.56098407015446, 38.534107514029124], [33.55990609181353, 38.534107514029124], [33.55990609181353, 38.53356852485865], [33.55775013513164, 38.53356852485865], [33.55775013513164, 38.533029535688186], [33.55721114596116, 38.533029535688186], [33.55721114596116, 38.532490546517714], [33.55667215679068, 38.532490546517714], [33.55667215679068, 38.53195155734724], [33.5561331676202, 38.53195155734724], [33.5561331676202, 38.532490546517714], [33.55451620010879, 38.532490546517714], [33.55451620010879, 38.53195155734724], [33.55343822176786, 38.53195155734724], [33.55343822176786, 38.53141256817677], [33.55289923259738, 38.53141256817677], [33.55289923259738, 38.5308735790063], [33.55182125425645, 38.5308735790063], [33.55182125425645, 38.53141256817677], [33.552360243426904, 38.53141256817677], [33.552360243426904, 38.532490546517714], [33.55182125425645, 38.532490546517714], [33.55182125425645, 38.53141256817677], [33.55128226508597, 38.53141256817677], [33.55128226508597, 38.530334589835824], [33.55182125425645, 38.530334589835824], [33.55182125425645, 38.52979560066535], [33.55128226508597, 38.52979560066535], [33.55128226508597, 38.52925661149488], [33.550204286745014, 38.52925661149488], [33.550204286745014, 38.530334589835824], [33.54966529757456, 38.530334589835824], [33.54966529757456, 38.5308735790063], [33.550204286745014, 38.5308735790063], [33.550204286745014, 38.53141256817677], [33.54966529757456, 38.53141256817677], [33.54966529757456, 38.5308735790063], [33.548587319233604, 38.5308735790063], [33.548587319233604, 38.530334589835824], [33.54804833006315, 38.530334589835824], [33.54804833006315, 38.52979560066535], [33.548587319233604, 38.52979560066535], [33.548587319233604, 38.52494469813111], [33.54804833006315, 38.52494469813111], [33.54804833006315, 38.52386671979016], [33.549126308404084, 38.52386671979016], [33.549126308404084, 38.52332773061969], [33.548587319233604, 38.52332773061969], [33.548587319233604, 38.520632784767336], [33.549126308404084, 38.520632784767336], [33.549126308404084, 38.520093795596864], [33.54966529757456, 38.520093795596864], [33.54966529757456, 38.520632784767336], [33.550204286745014, 38.520632784767336], [33.550204286745014, 38.520093795596864], [33.550743275915494, 38.520093795596864], [33.550743275915494, 38.51955480642639], [33.552360243426904, 38.51955480642639]], [[33.549126308404084, 38.524405708960636], [33.549126308404084, 38.52494469813111], [33.548587319233604, 38.52494469813111], [33.548587319233604, 38.524405708960636], [33.549126308404084, 38.524405708960636]], [[33.552360243426904, 38.52602267647205], [33.552360243426904, 38.527100654813], [33.55182125425645, 38.527100654813], [33.55182125425645, 38.52602267647205], [33.552360243426904, 38.52602267647205]], [[33.57014688605247, 38.53195155734724], [33.57014688605247, 38.532490546517714], [33.56906890771154, 38.532490546517714], [33.56906890771154, 38.53195155734724], [33.57014688605247, 38.53195155734724]], [[33.57607576692766, 38.53195155734724], [33.57607576692766, 38.532490546517714], [33.57661475609814, 38.532490546517714], [33.57661475609814, 38.533029535688186], [33.57553677775721, 38.533029535688186], [33.57553677775721, 38.53195155734724], [33.57607576692766, 38.53195155734724]], [[33.55505518927927, 38.52871762232441], [33.55505518927927, 38.52925661149488], [33.55451620010879, 38.52925661149488], [33.55451620010879, 38.52871762232441], [33.55505518927927, 38.52871762232441]], [[33.57553677775721, 38.528178633153935], [33.57553677775721, 38.52871762232441], [33.57499778858673, 38.52871762232441], [33.57499778858673, 38.528178633153935], [33.57553677775721, 38.528178633153935]], [[33.56637396185917, 38.524405708960636], [33.56637396185917, 38.52494469813111], [33.56583497268872, 38.52494469813111], [33.56583497268872, 38.524405708960636], [33.56637396185917, 38.524405708960636]], [[33.57499778858673, 38.524405708960636], [33.57499778858673, 38.52494469813111], [33.57445879941625, 38.52494469813111], [33.57445879941625, 38.524405708960636], [33.57499778858673, 38.524405708960636]], [[33.56852991854106, 38.52332773061969], [33.56852991854106, 38.52386671979016], [33.56799092937058, 38.52386671979016], [33.56799092937058, 38.52332773061969], [33.56852991854106, 38.52332773061969]], [[33.55343822176786, 38.51524289306261], [33.55343822176786, 38.515781882233085], [33.55289923259738, 38.515781882233085], [33.55289923259738, 38.51524289306261], [33.55343822176786, 38.51524289306261]], [[33.549126308404084, 38.51039199052837], [33.549126308404084, 38.51093097969884], [33.548587319233604, 38.51093097969884], [33.548587319233604, 38.51039199052837], [33.549126308404084, 38.51039199052837]], [[33.55182125425645, 38.52871762232441], [33.550743275915494, 38.52871762232441], [33.550743275915494, 38.528178633153935], [33.550204286745014, 38.528178633153935], [33.550204286745014, 38.527100654813], [33.55182125425645, 38.527100654813], [33.55182125425645, 38.52763964398346], [33.552360243426904, 38.52763964398346], [33.552360243426904, 38.527100654813], [33.55289923259738, 38.527100654813], [33.55289923259738, 38.52763964398346], [33.55397721093834, 38.52763964398346], [33.55397721093834, 38.527100654813], [33.55343822176786, 38.527100654813], [33.55343822176786, 38.52548368730158], [33.55397721093834, 38.52548368730158], [33.55397721093834, 38.52494469813111], [33.55505518927927, 38.52494469813111], [33.55505518927927, 38.524405708960636], [33.55936710264305, 38.524405708960636], [33.55936710264305, 38.52548368730158], [33.55990609181353, 38.52548368730158], [33.55990609181353, 38.527100654813], [33.55936710264305, 38.527100654813], [33.55936710264305, 38.528178633153935], [33.55882811347257, 38.528178633153935], [33.55882811347257, 38.52871762232441], [33.55505518927927, 38.52871762232441], [33.55505518927927, 38.528178633153935], [33.55451620010879, 38.528178633153935], [33.55451620010879, 38.52871762232441], [33.55397721093834, 38.52871762232441], [33.55397721093834, 38.528178633153935], [33.55343822176786, 38.528178633153935], [33.55343822176786, 38.52871762232441], [33.55397721093834, 38.52871762232441], [33.55397721093834, 38.530334589835824], [33.55343822176786, 38.530334589835824], [33.55343822176786, 38.5308735790063], [33.55289923259738, 38.5308735790063], [33.55289923259738, 38.52925661149488], [33.552360243426904, 38.52925661149488], [33.552360243426904, 38.528178633153935], [33.55182125425645, 38.528178633153935], [33.55182125425645, 38.52871762232441]]]}, "properties": {"area_ha": 384.986779361606, "mean_dnbr": 0.18603444759861623, "compactness": 0.063, "rectangularity": 0.418, "cropland_frac": 0, "persistent": true}}, {"type": "Feature", "geometry": {"geodesic": false, "type": "Polygon", "coordinates": [[[33.55128226508597, 38.77826960825281], [33.55182125425645, 38.77826960825281], [33.55182125425645, 38.77719162991187], [33.55397721093834, 38.77719162991187], [33.55397721093834, 38.776113651570924], [33.55505518927927, 38.776113651570924], [33.55505518927927, 38.77503567322998], [33.55451620010879, 38.77503567322998], [33.55451620010879, 38.77557466240045], [33.55397721093834, 38.77557466240045], [33.55397721093834, 38.77503567322998], [33.55451620010879, 38.77503567322998], [33.55451620010879, 38.77395769488904], [33.5561331676202, 38.77395769488904], [33.5561331676202, 38.77341870571857], [33.55667215679068, 38.77341870571857], [33.55667215679068, 38.7728797165481], [33.55828912430209, 38.7728797165481], [33.55828912430209, 38.772340727377625], [33.55936710264305, 38.772340727377625], [33.55936710264305, 38.77180173820715], [33.56044508098398, 38.77180173820715], [33.56044508098398, 38.772340727377625], [33.55990609181353, 38.772340727377625], [33.55990609181353, 38.77395769488904], [33.55721114596116, 38.77395769488904], [33.55721114596116, 38.77503567322998], [33.55667215679068, 38.77503567322998], [33.55667215679068, 38.77557466240045], [33.5561331676202, 38.77557466240045], [33.5561331676202, 38.776113651570924], [33.55559417844975, 38.776113651570924], [33.55559417844975, 38.776652640741396], [33.55505518927927, 38.776652640741396], [33.55505518927927, 38.77719162991187], [33.55451620010879, 38.77719162991187], [33.55451620010879, 38.77773061908234], [33.55397721093834, 38.77773061908234], [33.55397721093834, 38.77934758659376], [33.55289923259738, 38.77934758659376], [33.55289923259738, 38.77988657576423], [33.552360243426904, 38.77988657576423], [33.552360243426904, 38.780425564934696], [33.55182125425645, 38.780425564934696], [33.55182125425645, 38.78150354327564], [33.55128226508597, 38.78150354327564], [33.55128226508597, 38.782581521616585], [33.550204286745014, 38.782581521616585], [33.550204286745014, 38.78312051078706], [33.54966529757456, 38.78312051078706], [33.54966529757456, 38.78365949995753], [33.549126308404084, 38.78365949995753], [33.549126308404084, 38.784737478298474], [33.548587319233604, 38.784737478298474], [33.548587319233604, 38.78581545663942], [33.54804833006315, 38.78581545663942], [33.54804833006315, 38.78365949995753], [33.548587319233604, 38.78365949995753], [33.548587319233604, 38.782581521616585], [33.549126308404084, 38.782581521616585], [33.549126308404084, 38.78204253244611], [33.54966529757456, 38.78204253244611], [33.54966529757456, 38.78096455410517], [33.550204286745014, 38.78096455410517], [33.550204286745014, 38.780425564934696], [33.550743275915494, 38.780425564934696], [33.550743275915494, 38.778808597423286], [33.55128226508597, 38.778808597423286], [33.55128226508597, 38.77826960825281]]]}, "properties": {"area_ha": 25.48196897552384, "mean_dnbr": 0.18527748693145915, "compactness": 0.103, "rectangularity": 0.359, "cropland_frac": 0, "persistent": true}}, {"type": "Feature", "geometry": {"geodesic": false, "type": "Polygon", "coordinates": [[[33.56906890771154, 38.61387791125894], [33.56960789688202, 38.61387791125894], [33.56960789688202, 38.61441690042941], [33.57014688605247, 38.61441690042941], [33.57014688605247, 38.614955889599884], [33.57068587522295, 38.614955889599884], [33.57068587522295, 38.61603386794083], [33.57176385356391, 38.61603386794083], [33.57176385356391, 38.61711184628177], [33.57230284273436, 38.61711184628177], [33.57230284273436, 38.61872881379318], [33.57284183190484, 38.61872881379318], [33.57284183190484, 38.61980679213413], [33.57176385356391, 38.61980679213413], [33.57176385356391, 38.621423759645545], [33.57338082107532, 38.621423759645545], [33.57338082107532, 38.62250173798649], [33.57391981024577, 38.62250173798649], [33.57391981024577, 38.62304072715696], [33.57230284273436, 38.62304072715696], [33.57230284273436, 38.623579716327434], [33.57176385356391, 38.623579716327434], [33.57176385356391, 38.6241187054979], [33.57122486439343, 38.6241187054979], [33.57122486439343, 38.623579716327434], [33.57068587522295, 38.623579716327434], [33.57068587522295, 38.6241187054979], [33.57014688605247, 38.6241187054979], [33.57014688605247, 38.62465769466837], [33.56799092937058, 38.62465769466837], [33.56799092937058, 38.623579716327434], [33.56745194020013, 38.623579716327434], [33.56745194020013, 38.62250173798649], [33.56583497268872, 38.62250173798649], [33.56583497268872, 38.62304072715696], [33.56475699434776, 38.62304072715696], [33.56475699434776, 38.621423759645545], [33.56529598351824, 38.621423759645545], [33.56529598351824, 38.6203457813046], [33.56852991854106, 38.6203457813046], [33.56852991854106, 38.61980679213413], [33.56799092937058, 38.61980679213413], [33.56799092937058, 38.619267802963655], [33.56745194020013, 38.619267802963655], [33.56745194020013, 38.61818982462271], [33.56799092937058, 38.61818982462271], [33.56799092937058, 38.61711184628177], [33.56691295102965, 38.61711184628177], [33.56691295102965, 38.6165728571113], [33.56583497268872, 38.6165728571113], [33.56583497268872, 38.61603386794083], [33.56745194020013, 38.61603386794083], [33.56745194020013, 38.615494878770356], [33.56960789688202, 38.615494878770356], [33.56960789688202, 38.614955889599884], [33.56906890771154, 38.614955889599884], [33.56906890771154, 38.61387791125894]], [[33.56852991854106, 38.62250173798649], [33.56852991854106, 38.62304072715696], [33.56799092937058, 38.62304072715696], [33.56799092937058, 38.62250173798649], [33.56852991854106, 38.62250173798649]], [[33.57122486439343, 38.61980679213413], [33.57122486439343, 38.6203457813046], [33.57068587522295, 38.6203457813046], [33.57068587522295, 38.61980679213413], [33.57122486439343, 38.61980679213413]], [[33.57122486439343, 38.61711184628177], [33.57122486439343, 38.61765083545224], [33.57068587522295, 38.61765083545224], [33.57068587522295, 38.61711184628177], [33.57122486439343, 38.61711184628177]], [[33.57068587522295, 38.61603386794083], [33.57068587522295, 38.6165728571113], [33.57014688605247, 38.6165728571113], [33.57014688605247, 38.61603386794083], [33.57068587522295, 38.61603386794083]]]}, "properties": {"area_ha": 46.586254271965295, "mean_dnbr": 0.16505912918212862, "compactness": 0.167, "rectangularity": 0.495, "cropland_frac": 0, "persistent": true}}, {"type": "Feature", "geometry": {"geodesic": false, "type": "Polygon", "coordinates": [[[33.56583497268872, 38.603098127849506], [33.57338082107532, 38.603098127849506], [33.57338082107532, 38.60363711701998], [33.57715374526862, 38.60363711701998], [33.57715374526862, 38.60417610619045], [33.5776927344391, 38.60417610619045], [33.5776927344391, 38.60471509536092], [33.58038768029144, 38.60471509536092], [33.58038768029144, 38.60579307370186], [33.57553677775721, 38.60579307370186], [33.57553677775721, 38.60633206287233], [33.57499778858673, 38.60633206287233], [33.57499778858673, 38.605254084531396], [33.57391981024577, 38.605254084531396], [33.57391981024577, 38.60579307370186], [33.57445879941625, 38.60579307370186], [33.57445879941625, 38.60633206287233], [33.57284183190484, 38.60633206287233], [33.57284183190484, 38.60741004121328], [33.57391981024577, 38.60741004121328], [33.57391981024577, 38.60794903038375], [33.57445879941625, 38.60794903038375], [33.57445879941625, 38.60848801955422], [33.57230284273436, 38.60848801955422], [33.57230284273436, 38.60794903038375], [33.57176385356391, 38.60794903038375], [33.57176385356391, 38.60741004121328], [33.57122486439343, 38.60741004121328], [33.57122486439343, 38.606871052042806], [33.57230284273436, 38.606871052042806], [33.57230284273436, 38.60633206287233], [33.57122486439343, 38.60633206287233], [33.57122486439343, 38.60579307370186], [33.57068587522295, 38.60579307370186], [33.57068587522295, 38.605254084531396], [33.56745194020013, 38.605254084531396], [33.56745194020013, 38.60417610619045], [33.56691295102965, 38.60417610619045], [33.56691295102965, 38.60471509536092], [33.56637396185917, 38.60471509536092], [33.56637396185917, 38.605254084531396], [33.56583497268872, 38.605254084531396], [33.56583497268872, 38.60417610619045], [33.56637396185917, 38.60417610619045], [33.56637396185917, 38.60363711701998], [33.56583497268872, 38.60363711701998], [33.56583497268872, 38.603098127849506]], [[33.57284183190484, 38.60579307370186], [33.57284183190484, 38.60633206287233], [33.57230284273436, 38.60633206287233], [33.57230284273436, 38.60579307370186], [33.57284183190484, 38.60579307370186]], [[33.56906890771154, 38.60417610619045], [33.56906890771154, 38.60471509536092], [33.56852991854106, 38.60471509536092], [33.56852991854106, 38.60417610619045], [33.56906890771154, 38.60417610619045]]]}, "properties": {"area_ha": 31.7188098577829, "mean_dnbr": 0.1740588470996456, "compactness": 0.142, "rectangularity": 0.419, "cropland_frac": 0, "persistent": true}}, {"type": "Feature", "geometry": {"geodesic": false, "type": "Polygon", "coordinates": [[[33.60033027959889, 38.52602267647205], [33.60140825793985, 38.52602267647205], [33.60140825793985, 38.528178633153935], [33.60356421462171, 38.528178633153935], [33.60356421462171, 38.52763964398346], [33.60410320379219, 38.52763964398346], [33.60410320379219, 38.528178633153935], [33.60518118213315, 38.528178633153935], [33.60518118213315, 38.52871762232441], [33.60464219296267, 38.52871762232441], [33.60464219296267, 38.52925661149488], [33.60302522545126, 38.52925661149488], [33.60302522545126, 38.530334589835824], [33.60464219296267, 38.530334589835824], [33.60464219296267, 38.52979560066535], [33.6057201713036, 38.52979560066535], [33.6057201713036, 38.530334589835824], [33.60733713881504, 38.530334589835824], [33.60733713881504, 38.52979560066535], [33.60787612798549, 38.52979560066535], [33.60787612798549, 38.52925661149488], [33.60895410632645, 38.52925661149488], [33.60895410632645, 38.52871762232441], [33.61111006300834, 38.52871762232441], [33.61111006300834, 38.528178633153935], [33.61326601969023, 38.528178633153935], [33.61326601969023, 38.52871762232441], [33.61218804134927, 38.52871762232441], [33.61218804134927, 38.530334589835824], [33.61326601969023, 38.530334589835824], [33.61326601969023, 38.52925661149488], [33.61380500886068, 38.52925661149488], [33.61380500886068, 38.52979560066535], [33.61434399803116, 38.52979560066535], [33.61434399803116, 38.52925661149488], [33.61488298720164, 38.52925661149488], [33.61488298720164, 38.52979560066535], [33.61542197637209, 38.52979560066535], [33.61542197637209, 38.52871762232441], [33.61649995471305, 38.52871762232441], [33.61649995471305, 38.52925661149488], [33.61596096554257, 38.52925661149488], [33.61596096554257, 38.530334589835824], [33.61703894388353, 38.530334589835824], [33.61703894388353, 38.53141256817677], [33.61811692222446, 38.53141256817677], [33.61811692222446, 38.53195155734724], [33.61865591139494, 38.53195155734724], [33.61865591139494, 38.533029535688186], [33.61919490056542, 38.533029535688186], [33.61919490056542, 38.532490546517714], [33.62027287890635, 38.532490546517714], [33.62027287890635, 38.53356852485865], [33.62188984641776, 38.53356852485865], [33.62188984641776, 38.534107514029124], [33.62081186807683, 38.534107514029124], [33.62081186807683, 38.534646503199596], [33.62188984641776, 38.534646503199596], [33.62188984641776, 38.536802459881486], [33.62027287890635, 38.536802459881486], [33.62027287890635, 38.5384194273929], [33.61973388973587, 38.5384194273929], [33.61973388973587, 38.538958416563375], [33.61919490056542, 38.538958416563375], [33.61919490056542, 38.54003639490431], [33.61865591139494, 38.54003639490431], [33.61865591139494, 38.540575384074785], [33.61811692222446, 38.540575384074785], [33.61811692222446, 38.54111437324526], [33.61865591139494, 38.54111437324526], [33.61865591139494, 38.54165336241573], [33.61811692222446, 38.54165336241573], [33.61811692222446, 38.5421923515862], [33.61649995471305, 38.5421923515862], [33.61649995471305, 38.542731340756674], [33.61542197637209, 38.542731340756674], [33.61542197637209, 38.54327032992715], [33.61596096554257, 38.54327032992715], [33.61596096554257, 38.54380931909762], [33.61542197637209, 38.54380931909762], [33.61542197637209, 38.544887297438564], [33.61757793305398, 38.544887297438564], [33.61757793305398, 38.546504264949974], [33.61703894388353, 38.546504264949974], [33.61703894388353, 38.547043254120446], [33.61649995471305, 38.547043254120446], [33.61649995471305, 38.54758224329092], [33.61703894388353, 38.54758224329092], [33.61703894388353, 38.54866022163186], [33.61757793305398, 38.54866022163186], [33.61757793305398, 38.54973819997281], [33.61919490056542, 38.54973819997281], [33.61919490056542, 38.549199210802335], [33.61973388973587, 38.549199210802335], [33.61973388973587, 38.54866022163186], [33.62027287890635, 38.54866022163186], [33.62027287890635, 38.54812123246139], [33.62135085724728, 38.54812123246139], [33.62135085724728, 38.55081617831375], [33.62242883558824, 38.55081617831375], [33.62242883558824, 38.54973819997281], [33.62296782475872, 38.54973819997281], [33.62296782475872, 38.549199210802335], [33.62350681392917, 38.549199210802335], [33.62350681392917, 38.54866022163186], [33.62674074895202, 38.54866022163186], [33.62674074895202, 38.54973819997281], [33.628896705633906, 38.54973819997281], [33.628896705633906, 38.55081617831375], [33.62943569480436, 38.55081617831375], [33.62943569480436, 38.55189415665469], [33.630513673145316, 38.55189415665469], [33.630513673145316, 38.55243314582516], [33.62997468397484, 38.55243314582516], [33.62997468397484, 38.55351112416611], [33.630513673145316, 38.55351112416611], [33.630513673145316, 38.55458910250705], [33.63159165148625, 38.55458910250705], [33.63159165148625, 38.555128091677524], [33.631052662315795, 38.555128091677524], [33.631052662315795, 38.55620607001847], [33.63159165148625, 38.55620607001847], [33.63159165148625, 38.55674505918894], [33.630513673145316, 38.55674505918894], [33.630513673145316, 38.55728404835941], [33.62943569480436, 38.55728404835941], [33.62943569480436, 38.55836202670035], [33.62727973812247, 38.55836202670035], [33.62727973812247, 38.55997899421177], [33.62781872729295, 38.55997899421177], [33.62781872729295, 38.56051798338224], [33.62835771646343, 38.56051798338224], [33.62835771646343, 38.56105697255271], [33.62943569480436, 38.56105697255271], [33.62943569480436, 38.56267394006413], [33.62835771646343, 38.56267394006413], [33.62835771646343, 38.56375191840507], [33.62943569480436, 38.56375191840507], [33.62943569480436, 38.56482989674601], [33.62835771646343, 38.56482989674601], [33.62835771646343, 38.56429090757554], [33.62781872729295, 38.56429090757554], [33.62781872729295, 38.5632129292346], [33.62674074895202, 38.5632129292346], [33.62674074895202, 38.56267394006413], [33.62512378144061, 38.56267394006413], [33.62512378144061, 38.56213495089366], [33.62458479227013, 38.56213495089366], [33.62458479227013, 38.561595961723185], [33.62350681392917, 38.561595961723185], [33.62350681392917, 38.56105697255271], [33.62458479227013, 38.56105697255271], [33.62458479227013, 38.561595961723185], [33.62566277061106, 38.561595961723185], [33.62566277061106, 38.56105697255271], [33.62512378144061, 38.56105697255271], [33.62512378144061, 38.55997899421177], [33.62350681392917, 38.55997899421177], [33.62350681392917, 38.56051798338224], [33.62296782475872, 38.56051798338224], [33.62296782475872, 38.55997899421177], [33.62242883558824, 38.55997899421177], [33.62242883558824, 38.559440005041296], [33.62350681392917, 38.559440005041296], [33.62350681392917, 38.55782303752988], [33.62242883558824, 38.55782303752988], [33.62242883558824, 38.55728404835941], [33.62188984641776, 38.55728404835941], [33.62188984641776, 38.55782303752988], [33.62081186807683, 38.55782303752988], [33.62081186807683, 38.55836202670035], [33.62027287890635, 38.55836202670035], [33.62027287890635, 38.55782303752988], [33.61973388973587, 38.55782303752988], [33.61973388973587, 38.55674505918894], [33.62081186807683, 38.55674505918894], [33.62081186807683, 38.55620607001847], [33.62027287890635, 38.55620607001847], [33.62027287890635, 38.555667080847996], [33.62081186807683, 38.555667080847996], [33.62081186807683, 38.555128091677524], [33.61973388973587, 38.555128091677524], [33.61973388973587, 38.555667080847996], [33.61811692222446, 38.555667080847996], [33.61811692222446, 38.555128091677524], [33.61865591139494, 38.555128091677524], [33.61865591139494, 38.55458910250705], [33.61757793305398, 38.55458910250705], [33.61757793305398, 38.55351112416611], [33.61811692222446, 38.55351112416611], [33.61811692222446, 38.552972134995635], [33.61757793305398, 38.552972134995635], [33.61757793305398, 38.55189415665469], [33.61542197637209, 38.55189415665469], [33.61542197637209, 38.55135516748422], [33.61488298720164, 38.55135516748422], [33.61488298720164, 38.55081617831375], [33.61542197637209, 38.55081617831375], [33.61542197637209, 38.55027718914328], [33.61488298720164, 38.55027718914328], [33.61488298720164, 38.54973819997281], [33.61542197637209, 38.54973819997281], [33.61542197637209, 38.54812123246139], [33.61488298720164, 38.54812123246139], [33.61488298720164, 38.5459652757795], [33.61542197637209, 38.5459652757795], [33.61542197637209, 38.544887297438564], [33.61488298720164, 38.544887297438564], [33.61488298720164, 38.54434830826809], [33.61380500886068, 38.54434830826809], [33.61380500886068, 38.54380931909762], [33.61326601969023, 38.54380931909762], [33.61326601969023, 38.54327032992715], [33.61272703051975, 38.54327032992715], [33.61272703051975, 38.54380931909762], [33.61164905217879, 38.54380931909762], [33.61164905217879, 38.54327032992715], [33.61272703051975, 38.54327032992715], [33.61272703051975, 38.54111437324526], [33.61218804134927, 38.54111437324526], [33.61218804134927, 38.540575384074785], [33.61164905217879, 38.540575384074785], [33.61164905217879, 38.54003639490431], [33.60895410632645, 38.54003639490431], [33.60895410632645, 38.538958416563375], [33.60841511715597, 38.538958416563375], [33.60841511715597, 38.53788043822243], [33.60787612798549, 38.53788043822243], [33.60787612798549, 38.53734144905196], [33.60733713881504, 38.53734144905196], [33.60733713881504, 38.536802459881486], [33.60679814964456, 38.536802459881486], [33.60679814964456, 38.53626347071101], [33.60625916047408, 38.53626347071101], [33.60625916047408, 38.534107514029124], [33.6057201713036, 38.534107514029124], [33.6057201713036, 38.53356852485865], [33.60464219296267, 38.53356852485865], [33.60464219296267, 38.533029535688186], [33.60410320379219, 38.533029535688186], [33.60410320379219, 38.532490546517714], [33.60302522545126, 38.532490546517714], [33.60302522545126, 38.53141256817677], [33.60248623628078, 38.53141256817677], [33.60248623628078, 38.530334589835824], [33.6019472471103, 38.530334589835824], [33.6019472471103, 38.52979560066535], [33.60140825793985, 38.52979560066535], [33.60140825793985, 38.52925661149488], [33.60086926876937, 38.52925661149488], [33.60086926876937, 38.52871762232441], [33.60033027959889, 38.52871762232441], [33.60033027959889, 38.528178633153935], [33.59979129042841, 38.528178633153935], [33.59979129042841, 38.526561665642525], [33.60033027959889, 38.526561665642525], [33.60033027959889, 38.52602267647205]], [[33.62081186807683, 38.55728404835941], [33.62081186807683, 38.55782303752988], [33.62027287890635, 38.55782303752988], [33.62027287890635, 38.55728404835941], [33.62081186807683, 38.55728404835941]], [[33.62943569480436, 38.55620607001847], [33.62943569480436, 38.55674505918894], [33.628896705633906, 38.55674505918894], [33.628896705633906, 38.55620607001847], [33.62943569480436, 38.55620607001847]], [[33.61973388973587, 38.55458910250705], [33.61973388973587, 38.555128091677524], [33.61919490056542, 38.555128091677524], [33.61919490056542, 38.55458910250705], [33.61973388973587, 38.55458910250705]], [[33.630513673145316, 38.55458910250705], [33.630513673145316, 38.555128091677524], [33.62997468397484, 38.555128091677524], [33.62997468397484, 38.55458910250705], [33.630513673145316, 38.55458910250705]], [[33.62242883558824, 38.55351112416611], [33.62242883558824, 38.55458910250705], [33.62296782475872, 38.55458910250705], [33.62296782475872, 38.55620607001847], [33.62242883558824, 38.55620607001847], [33.62242883558824, 38.555667080847996], [33.62188984641776, 38.555667080847996], [33.62188984641776, 38.555128091677524], [33.62135085724728, 38.555128091677524], [33.62135085724728, 38.55351112416611], [33.62242883558824, 38.55351112416611]], [[33.61919490056542, 38.552972134995635], [33.61919490056542, 38.55351112416611], [33.61865591139494, 38.55351112416611], [33.61865591139494, 38.552972134995635], [33.61919490056542, 38.552972134995635]], [[33.62512378144061, 38.552972134995635], [33.62512378144061, 38.55351112416611], [33.62458479227013, 38.55351112416611], [33.62458479227013, 38.552972134995635], [33.62512378144061, 38.552972134995635]], [[33.61973388973587, 38.55243314582516], [33.61973388973587, 38.552972134995635], [33.61919490056542, 38.552972134995635], [33.61919490056542, 38.55243314582516], [33.61973388973587, 38.55243314582516]], [[33.62674074895202, 38.55243314582516], [33.62674074895202, 38.552972134995635], [33.62781872729295, 38.552972134995635], [33.62781872729295, 38.555128091677524], [33.62674074895202, 38.555128091677524], [33.62674074895202, 38.55405011333658], [33.62620175978154, 38.55405011333658], [33.62620175978154, 38.55243314582516], [33.62674074895202, 38.55243314582516]], [[33.62458479227013, 38.55189415665469], [33.62458479227013, 38.552972134995635], [33.62350681392917, 38.552972134995635], [33.62350681392917, 38.55189415665469], [33.62458479227013, 38.55189415665469]], [[33.62620175978154, 38.54973819997281], [33.62620175978154, 38.55027718914328], [33.62674074895202, 38.55027718914328], [33.62674074895202, 38.55081617831375], [33.62566277061106, 38.55081617831375], [33.62566277061106, 38.54973819997281], [33.62620175978154, 38.54973819997281]], [[33.61596096554257, 38.547043254120446], [33.61596096554257, 38.54758224329092], [33.61542197637209, 38.54758224329092], [33.61542197637209, 38.547043254120446], [33.61596096554257, 38.547043254120446]], [[33.61649995471305, 38.540575384074785], [33.61649995471305, 38.54111437324526], [33.61596096554257, 38.54111437324526], [33.61596096554257, 38.540575384074785], [33.61649995471305, 38.540575384074785]], [[33.61596096554257, 38.53949740573384], [33.61596096554257, 38.54003639490431], [33.61542197637209, 38.54003639490431], [33.61542197637209, 38.53949740573384], [33.61596096554257, 38.53949740573384]], [[33.61703894388353, 38.53949740573384], [33.61703894388353, 38.540575384074785], [33.61649995471305, 38.540575384074785], [33.61649995471305, 38.53949740573384], [33.61703894388353, 38.53949740573384]], [[33.61811692222446, 38.53734144905196], [33.61811692222446, 38.53949740573384], [33.61757793305398, 38.53949740573384], [33.61757793305398, 38.538958416563375], [33.61703894388353, 38.538958416563375], [33.61703894388353, 38.5384194273929], [33.61757793305398, 38.5384194273929], [33.61757793305398, 38.53734144905196], [33.61811692222446, 38.53734144905196]], [[33.60410320379219, 38.528178633153935], [33.60410320379219, 38.52871762232441], [33.60356421462171, 38.52871762232441], [33.60356421462171, 38.528178633153935], [33.60410320379219, 38.528178633153935]]]}, "properties": {"area_ha": 292.7406697292768, "mean_dnbr": 0.1787878774617512, "compactness": 0.048, "rectangularity": 0.407, "cropland_frac": 0, "persistent": true}}, {"type": "Feature", "geometry": {"geodesic": false, "type": "Polygon", "coordinates": [[[33.64668334825947, 38.69688224351158], [33.64883930494136, 38.69688224351158], [33.64883930494136, 38.7022721352163], [33.64830031577088, 38.7022721352163], [33.64830031577088, 38.70442809189819], [33.6477613266004, 38.70442809189819], [33.6477613266004, 38.70712303775055], [33.64722233742992, 38.70712303775055], [33.64722233742992, 38.708201016091486], [33.64668334825947, 38.708201016091486], [33.64668334825947, 38.70927899443243], [33.64614435908899, 38.70927899443243], [33.64614435908899, 38.710356972773376], [33.64560536991851, 38.710356972773376], [33.64560536991851, 38.71143495111432], [33.64452739157758, 38.71143495111432], [33.64452739157758, 38.7098179836029], [33.64506638074806, 38.7098179836029], [33.64506638074806, 38.708201016091486], [33.64560536991851, 38.708201016091486], [33.64560536991851, 38.70550607023913], [33.64614435908899, 38.70550607023913], [33.64614435908899, 38.698499211023], [33.64560536991851, 38.698499211023], [33.64560536991851, 38.697960221852526], [33.64614435908899, 38.697960221852526], [33.64614435908899, 38.69742123268205], [33.64668334825947, 38.69742123268205], [33.64668334825947, 38.69688224351158]], [[33.64668334825947, 38.697960221852526], [33.64668334825947, 38.698499211023], [33.64614435908899, 38.698499211023], [33.64614435908899, 38.697960221852526], [33.64668334825947, 38.697960221852526]]]}, "properties": {"area_ha": 29.152716962605478, "mean_dnbr": 0.32583290319141706, "compactness": 0.199, "rectangularity": 0.566, "cropland_frac": 0, "persistent": true}}]}