{"type": "FeatureCollection", "crs": {"type": "name", "properties": {"name": "urn:ogc:def:crs:OGC:1.3:CRS84"}}, "features": [{"type": "Feature", "geometry": {"geodesic": false, "type": "Polygon", "coordinates": [[[34.36946782586202, 37.78275661039156], [34.372162771714386, 37.78275661039156], [34.372162771714386, 37.78329559956203], [34.373779739225796, 37.78329559956203], [34.373779739225796, 37.7838345887325], [34.374318728396275, 37.7838345887325], [34.374318728396275, 37.784373577902976], [34.374857717566755, 37.784373577902976], [34.374857717566755, 37.785990545414386], [34.375396706737206, 37.785990545414386], [34.375396706737206, 37.7876075129258], [34.374857717566755, 37.7876075129258], [34.374857717566755, 37.78868549126675], [34.374318728396275, 37.78868549126675], [34.374318728396275, 37.78922448043722], [34.373779739225796, 37.78922448043722], [34.373779739225796, 37.78976346960769], [34.372162771714386, 37.78976346960769], [34.372162771714386, 37.790302458778164], [34.36785085835061, 37.790302458778164], [34.36785085835061, 37.78976346960769], [34.36677288000968, 37.78976346960769], [34.36677288000968, 37.78922448043722], [34.3662338908392, 37.78922448043722], [34.3662338908392, 37.784373577902976], [34.367311869180156, 37.784373577902976], [34.367311869180156, 37.7838345887325], [34.36785085835061, 37.7838345887325], [34.36785085835061, 37.78329559956203], [34.36946782586202, 37.78329559956203], [34.36946782586202, 37.78275661039156]]]}, "properties": {"area_ha": 55.63885637356674, "mean_dnbr": 0.47515497563598635, "compactness": 0.647, "rectangularity": 0.824, "cropland_frac": 0.032, "persistent": true}}, {"type": "Feature", "geometry": {"geodesic": false, "type": "Polygon", "coordinates": [[[34.85886999265034, 37.75203422767467], [34.86102594933223, 37.75203422767467], [34.86102594933223, 37.75257321684514], [34.86318190601412, 37.75257321684514], [34.86318190601412, 37.755268162697504], [34.86264291684364, 37.755268162697504], [34.86264291684364, 37.75472917352703], [34.86210392767319, 37.75472917352703], [34.86210392767319, 37.75580715186797], [34.86264291684364, 37.75580715186797], [34.86264291684364, 37.75742411937939], [34.8637208951846, 37.75742411937939], [34.8637208951846, 37.756885130208914], [34.86318190601412, 37.756885130208914], [34.86318190601412, 37.75634614103844], [34.8637208951846, 37.75634614103844], [34.8637208951846, 37.756885130208914], [34.86425988435505, 37.756885130208914], [34.86425988435505, 37.75742411937939], [34.8637208951846, 37.75742411937939], [34.8637208951846, 37.75796310854986], [34.86425988435505, 37.75796310854986], [34.86425988435505, 37.75850209772033], [34.8637208951846, 37.75850209772033], [34.8637208951846, 37.75796310854986], [34.86318190601412, 37.75796310854986], [34.86318190601412, 37.75850209772033], [34.86210392767319, 37.75850209772033], [34.86210392767319, 37.75796310854986], [34.86102594933223, 37.75796310854986], [34.86102594933223, 37.75850209772033], [34.8599479709913, 37.75850209772033], [34.8599479709913, 37.75796310854986], [34.85940898182082, 37.75796310854986], [34.85940898182082, 37.75742411937939], [34.8599479709913, 37.75742411937939], [34.8599479709913, 37.756885130208914], [34.85886999265034, 37.756885130208914], [34.85886999265034, 37.75796310854986], [34.85833100347986, 37.75796310854986], [34.85833100347986, 37.759580076061276], [34.856175046798, 37.759580076061276], [34.856175046798, 37.759041086890804], [34.85671403596845, 37.759041086890804], [34.85671403596845, 37.75796310854986], [34.85779201430941, 37.75796310854986], [34.85779201430941, 37.75742411937939], [34.85725302513893, 37.75742411937939], [34.85725302513893, 37.756885130208914], [34.85563605762752, 37.756885130208914], [34.85563605762752, 37.75634614103844], [34.85509706845704, 37.75634614103844], [34.85509706845704, 37.75580715186797], [34.85401909011611, 37.75580715186797], [34.85401909011611, 37.75472917352703], [34.85563605762752, 37.75472917352703], [34.85563605762752, 37.75419018435656], [34.856175046798, 37.75419018435656], [34.856175046798, 37.75365119518609], [34.85779201430941, 37.75365119518609], [34.85779201430941, 37.75257321684514], [34.85886999265034, 37.75257321684514], [34.85886999265034, 37.75203422767467]], [[34.86102594933223, 37.75472917352703], [34.86102594933223, 37.755268162697504], [34.86048696016175, 37.755268162697504], [34.86048696016175, 37.75472917352703], [34.86102594933223, 37.75472917352703]], [[34.8599479709913, 37.75365119518609], [34.8599479709913, 37.75419018435656], [34.85940898182082, 37.75419018435656], [34.85940898182082, 37.75472917352703], [34.8599479709913, 37.75472917352703], [34.8599479709913, 37.755268162697504], [34.85940898182082, 37.755268162697504], [34.85940898182082, 37.75580715186797], [34.85833100347986, 37.75580715186797], [34.85833100347986, 37.755268162697504], [34.85886999265034, 37.755268162697504], [34.85886999265034, 37.75472917352703], [34.85833100347986, 37.75472917352703], [34.85833100347986, 37.75419018435656], [34.85886999265034, 37.75419018435656], [34.85886999265034, 37.75365119518609], [34.8599479709913, 37.75365119518609]], [[34.86264291684364, 37.75365119518609], [34.86264291684364, 37.75419018435656], [34.86210392767319, 37.75419018435656], [34.86210392767319, 37.75365119518609], [34.86264291684364, 37.75365119518609]]]}, "properties": {"area_ha": 38.05475152015765, "mean_dnbr": 0.2636053136028666, "compactness": 0.111, "rectangularity": 0.545, "cropland_frac": 0, "persistent": true}}]}