{"type": "FeatureCollection", "crs": {"type": "name", "properties": {"name": "urn:ogc:def:crs:OGC:1.3:CRS84"}}, "features": [{"type": "Feature", "geometry": {"geodesic": false, "type": "Polygon", "coordinates": [[[34.94133533573253, 37.32623278300202], [34.94187432490298, 37.32623278300202], [34.94187432490298, 37.32677177217249], [34.94295230324394, 37.32677177217249], [34.94295230324394, 37.32784975051343], [34.94456927075535, 37.32784975051343], [34.94456927075535, 37.32677177217249], [34.94510825992583, 37.32677177217249], [34.94510825992583, 37.327310761342964], [34.94564724909628, 37.327310761342964], [34.94564724909628, 37.32784975051343], [34.94618623826676, 37.32784975051343], [34.94618623826676, 37.3283887396839], [34.94672522743724, 37.3283887396839], [34.94672522743724, 37.32946671802485], [34.94618623826676, 37.32946671802485], [34.94618623826676, 37.33000570719532], [34.94726421660772, 37.33000570719532], [34.94726421660772, 37.33054469636579], [34.94618623826676, 37.33054469636579], [34.94618623826676, 37.33000570719532], [34.94564724909628, 37.33000570719532], [34.94564724909628, 37.32946671802485], [34.94510825992583, 37.32946671802485], [34.94510825992583, 37.331083685536264], [34.94349129241439, 37.331083685536264], [34.94349129241439, 37.33054469636579], [34.94295230324394, 37.33054469636579], [34.94295230324394, 37.331083685536264], [34.94241331407346, 37.331083685536264], [34.94241331407346, 37.33000570719532], [34.94187432490298, 37.33000570719532], [34.94187432490298, 37.331083685536264], [34.94133533573253, 37.331083685536264], [34.94133533573253, 37.33054469636579], [34.94079634656205, 37.33054469636579], [34.94079634656205, 37.328927728854374], [34.94025735739157, 37.328927728854374], [34.94025735739157, 37.32946671802485], [34.939718368221094, 37.32946671802485], [34.939718368221094, 37.328927728854374], [34.93864038988016, 37.328927728854374], [34.93864038988016, 37.3283887396839], [34.937562411539204, 37.3283887396839], [34.937562411539204, 37.32784975051343], [34.935945444027794, 37.32784975051343], [34.935945444027794, 37.327310761342964], [34.937562411539204, 37.327310761342964], [34.937562411539204, 37.32677177217249], [34.93917937905064, 37.32677177217249], [34.93917937905064, 37.32623278300202], [34.939718368221094, 37.32623278300202], [34.939718368221094, 37.32677177217249], [34.94133533573253, 37.32677177217249], [34.94133533573253, 37.32623278300202]]]}, "properties": {"area_ha": 26.848452144094708, "mean_dnbr": 0.2782486356488724, "compactness": 0.186, "rectangularity": 0.497, "cropland_frac": 0.22, "persistent": true}}, {"type": "Feature", "geometry": {"geodesic": false, "type": "Polygon", "coordinates": [[[34.95534905416477, 37.38336563507202], [34.95804400001714, 37.38336563507202], [34.95804400001714, 37.38390462424249], [34.9591219783581, 37.38390462424249], [34.9591219783581, 37.38444361341296], [34.95966096752855, 37.38444361341296], [34.95966096752855, 37.384982602583435], [34.96073894586951, 37.384982602583435], [34.96073894586951, 37.38552159175391], [34.96127793503996, 37.38552159175391], [34.96127793503996, 37.384982602583435], [34.96451187006281, 37.384982602583435], [34.96451187006281, 37.38444361341296], [34.96558984840374, 37.38444361341296], [34.96558984840374, 37.38552159175391], [34.96343389172185, 37.38552159175391], [34.96343389172185, 37.38606058092438], [34.96073894586951, 37.38606058092438], [34.96073894586951, 37.38552159175391], [34.95804400001714, 37.38552159175391], [34.95804400001714, 37.38606058092438], [34.95750501084666, 37.38606058092438], [34.95750501084666, 37.38552159175391], [34.95696602167621, 37.38552159175391], [34.95696602167621, 37.38606058092438], [34.95534905416477, 37.38606058092438], [34.95534905416477, 37.38552159175391], [34.95481006499432, 37.38552159175391], [34.95481006499432, 37.38606058092438], [34.95265410831243, 37.38606058092438], [34.95265410831243, 37.38659957009485], [34.95211511914195, 37.38659957009485], [34.95211511914195, 37.38552159175391], [34.94995916246006, 37.38552159175391], [34.94995916246006, 37.384982602583435], [34.94888118411913, 37.384982602583435], [34.94888118411913, 37.38444361341296], [34.95265410831243, 37.38444361341296], [34.95265410831243, 37.38390462424249], [34.95534905416477, 37.38390462424249], [34.95534905416477, 37.38336563507202]]]}, "properties": {"area_ha": 23.403377224553783, "mean_dnbr": 0.25145890702721885, "compactness": 0.161, "rectangularity": 0.461, "cropland_frac": 0.0, "persistent": true}}, {"type": "Feature", "geometry": {"geodesic": false, "type": "Polygon", "coordinates": [[[35.01517685208714, 37.34617538230947], [35.01679381959855, 37.34617538230947], [35.01679381959855, 37.34725336065041], [35.016254830428096, 37.34725336065041], [35.016254830428096, 37.347792349820885], [35.01571584125762, 37.347792349820885], [35.01571584125762, 37.34833133899136], [35.017871797939506, 37.34833133899136], [35.017871797939506, 37.349948306502775], [35.018410787109985, 37.349948306502775], [35.018410787109985, 37.35048729567325], [35.017871797939506, 37.35048729567325], [35.017871797939506, 37.35210426318466], [35.018410787109985, 37.35210426318466], [35.018410787109985, 37.35264325235513], [35.020027754621395, 37.35264325235513], [35.020027754621395, 37.353721230696074], [35.020566743791846, 37.353721230696074], [35.020566743791846, 37.354260219866546], [35.019488765450916, 37.354260219866546], [35.019488765450916, 37.35533819820749], [35.020027754621395, 37.35533819820749], [35.020027754621395, 37.35587718737796], [35.017871797939506, 37.35587718737796], [35.017871797939506, 37.35533819820749], [35.01733280876903, 37.35533819820749], [35.01733280876903, 37.35479920903702], [35.01894977628044, 37.35479920903702], [35.01894977628044, 37.354260219866546], [35.01679381959855, 37.354260219866546], [35.01679381959855, 37.353721230696074], [35.016254830428096, 37.353721230696074], [35.016254830428096, 37.35264325235513], [35.01355988457573, 37.35264325235513], [35.01355988457573, 37.35102628484372], [35.01409887374621, 37.35102628484372], [35.01409887374621, 37.35048729567325], [35.01355988457573, 37.35048729567325], [35.01355988457573, 37.34833133899136], [35.01409887374621, 37.34833133899136], [35.01409887374621, 37.347792349820885], [35.01463786291666, 37.347792349820885], [35.01463786291666, 37.34725336065041], [35.01517685208714, 37.34725336065041], [35.01517685208714, 37.34617538230947]], [[35.01679381959855, 37.35210426318466], [35.01679381959855, 37.35264325235513], [35.016254830428096, 37.35264325235513], [35.016254830428096, 37.35210426318466], [35.01679381959855, 37.35210426318466]], [[35.01463786291666, 37.34887032816183], [35.01463786291666, 37.3494093173323], [35.01409887374621, 37.3494093173323], [35.01409887374621, 37.34887032816183], [35.01463786291666, 37.34887032816183]], [[35.01679381959855, 37.34887032816183], [35.01679381959855, 37.3494093173323], [35.01571584125762, 37.3494093173323], [35.01571584125762, 37.34887032816183], [35.01679381959855, 37.34887032816183]]]}, "properties": {"area_ha": 29.41022849805008, "mean_dnbr": 0.2210061761635697, "compactness": 0.154, "rectangularity": 0.477, "cropland_frac": 0.275, "persistent": true}}, {"type": "Feature", "geometry": {"geodesic": false, "type": "Polygon", "coordinates": [[[35.08901836844177, 37.35965011157126], [35.0900963467827, 37.35965011157126], [35.0900963467827, 37.36072808991221], [35.08794039010081, 37.36072808991221], [35.08794039010081, 37.36126707908268], [35.08955735761225, 37.36126707908268], [35.08955735761225, 37.36180606825315], [35.09063533595318, 37.36180606825315], [35.09063533595318, 37.3628840465941], [35.0900963467827, 37.3628840465941], [35.0900963467827, 37.36342303576457], [35.09063533595318, 37.36342303576457], [35.09063533595318, 37.363962024935034], [35.08955735761225, 37.363962024935034], [35.08955735761225, 37.36342303576457], [35.08847937927129, 37.36342303576457], [35.08847937927129, 37.36450101410551], [35.0900963467827, 37.36450101410551], [35.0900963467827, 37.36504000327598], [35.08955735761225, 37.36504000327598], [35.08955735761225, 37.36557899244645], [35.08847937927129, 37.36557899244645], [35.08847937927129, 37.36719595995787], [35.08794039010081, 37.36719595995787], [35.08794039010081, 37.366117981616924], [35.08686241175988, 37.366117981616924], [35.08686241175988, 37.363962024935034], [35.08416746590751, 37.363962024935034], [35.08416746590751, 37.36342303576457], [35.08524544424847, 37.36342303576457], [35.08524544424847, 37.36180606825315], [35.08470645507799, 37.36180606825315], [35.08470645507799, 37.362345057423624], [35.08416746590751, 37.362345057423624], [35.08416746590751, 37.36180606825315], [35.08470645507799, 37.36180606825315], [35.08470645507799, 37.36072808991221], [35.08524544424847, 37.36072808991221], [35.08524544424847, 37.36126707908268], [35.08578443341895, 37.36126707908268], [35.08578443341895, 37.36072808991221], [35.0863234225894, 37.36072808991221], [35.0863234225894, 37.36126707908268], [35.08740140093036, 37.36126707908268], [35.08740140093036, 37.360189100741735], [35.08901836844177, 37.360189100741735], [35.08901836844177, 37.35965011157126]]]}, "properties": {"area_ha": 22.26832202771271, "mean_dnbr": 0.20290085814364764, "compactness": 0.155, "rectangularity": 0.464, "cropland_frac": 0.413, "persistent": true}}, {"type": "Feature", "geometry": {"geodesic": false, "type": "Polygon", "coordinates": [[[35.19789418087706, 37.39684036433381], [35.19951114838847, 37.39684036433381], [35.19951114838847, 37.397379353504284], [35.20005013755895, 37.397379353504284], [35.20005013755895, 37.39791834267476], [35.200589126729426, 37.39791834267476], [35.200589126729426, 37.39845733184523], [35.20112811589988, 37.39845733184523], [35.20112811589988, 37.39791834267476], [35.202206094240836, 37.39791834267476], [35.202206094240836, 37.39845733184523], [35.20166710507036, 37.39845733184523], [35.20166710507036, 37.3989963210157], [35.20112811589988, 37.3989963210157], [35.20112811589988, 37.399535310186174], [35.19897215921799, 37.399535310186174], [35.19897215921799, 37.40007429935664], [35.19951114838847, 37.40007429935664], [35.19951114838847, 37.40061328852711], [35.20005013755895, 37.40061328852711], [35.20005013755895, 37.401152277697584], [35.19951114838847, 37.401152277697584], [35.19951114838847, 37.40061328852711], [35.19897215921799, 37.40061328852711], [35.19897215921799, 37.401152277697584], [35.19843317004754, 37.401152277697584], [35.19843317004754, 37.401691266868056], [35.19897215921799, 37.401691266868056], [35.19897215921799, 37.40223025603853], [35.20005013755895, 37.40223025603853], [35.20005013755895, 37.40330823437947], [35.200589126729426, 37.40330823437947], [35.200589126729426, 37.403847223549946], [35.19951114838847, 37.403847223549946], [35.19951114838847, 37.40438621272042], [35.19843317004754, 37.40438621272042], [35.19843317004754, 37.40492520189089], [35.1968162025361, 37.40492520189089], [35.1968162025361, 37.40546419106136], [35.19573822419517, 37.40546419106136], [35.19573822419517, 37.40492520189089], [35.19466024585424, 37.40492520189089], [35.19466024585424, 37.40438621272042], [35.19519923502469, 37.40438621272042], [35.19519923502469, 37.403847223549946], [35.19466024585424, 37.403847223549946], [35.19466024585424, 37.40330823437947], [35.19573822419517, 37.40330823437947], [35.19573822419517, 37.402769245209], [35.19789418087706, 37.402769245209], [35.19789418087706, 37.40061328852711], [35.1968162025361, 37.40061328852711], [35.1968162025361, 37.40007429935664], [35.19466024585424, 37.40007429935664], [35.19466024585424, 37.399535310186174], [35.19627721336565, 37.399535310186174], [35.19627721336565, 37.3989963210157], [35.1968162025361, 37.3989963210157], [35.1968162025361, 37.39845733184523], [35.19951114838847, 37.39845733184523], [35.19951114838847, 37.397379353504284], [35.19843317004754, 37.397379353504284], [35.19843317004754, 37.39791834267476], [35.19789418087706, 37.39791834267476], [35.19789418087706, 37.39684036433381]], [[35.1968162025361, 37.40438621272042], [35.1968162025361, 37.40492520189089], [35.19627721336565, 37.40492520189089], [35.19627721336565, 37.40438621272042], [35.1968162025361, 37.40438621272042]], [[35.19843317004754, 37.403847223549946], [35.19843317004754, 37.40438621272042], [35.19789418087706, 37.40438621272042], [35.19789418087706, 37.403847223549946], [35.19843317004754, 37.403847223549946]]]}, "properties": {"area_ha": 23.968992549192773, "mean_dnbr": 0.2049023317578149, "compactness": 0.097, "rectangularity": 0.382, "cropland_frac": 0.139, "persistent": true}}, {"type": "Feature", "geometry": {"geodesic": false, "type": "Polygon", "coordinates": [[[35.20005013755895, 37.42810173622117], [35.200589126729426, 37.42810173622117], [35.200589126729426, 37.428640725391645], [35.20166710507036, 37.428640725391645], [35.20166710507036, 37.42917971456212], [35.202206094240836, 37.42917971456212], [35.202206094240836, 37.42971870373259], [35.20274508341129, 37.42971870373259], [35.20274508341129, 37.43079668207353], [35.203284072581766, 37.43079668207353], [35.203284072581766, 37.432413649584944], [35.204901040093176, 37.432413649584944], [35.204901040093176, 37.43295263875542], [35.205440029263656, 37.43295263875542], [35.205440029263656, 37.43403061709636], [35.204362050922725, 37.43403061709636], [35.204362050922725, 37.434569606266834], [35.203823061752246, 37.434569606266834], [35.203823061752246, 37.435108595437306], [35.203284072581766, 37.435108595437306], [35.203284072581766, 37.43403061709636], [35.202206094240836, 37.43403061709636], [35.202206094240836, 37.43295263875542], [35.20112811589988, 37.43295263875542], [35.20112811589988, 37.432413649584944], [35.200589126729426, 37.432413649584944], [35.200589126729426, 37.431335671244], [35.20005013755895, 37.431335671244], [35.20005013755895, 37.43187466041447], [35.19951114838847, 37.43187466041447], [35.19951114838847, 37.43079668207353], [35.19897215921799, 37.43079668207353], [35.19897215921799, 37.430257692903055], [35.19843317004754, 37.430257692903055], [35.19843317004754, 37.43079668207353], [35.19789418087706, 37.43079668207353], [35.19789418087706, 37.42971870373259], [35.19843317004754, 37.42971870373259], [35.19843317004754, 37.428640725391645], [35.19897215921799, 37.428640725391645], [35.19897215921799, 37.42810173622117], [35.19951114838847, 37.42810173622117], [35.19951114838847, 37.428640725391645], [35.20005013755895, 37.428640725391645], [35.20005013755895, 37.42810173622117]], [[35.200589126729426, 37.42971870373259], [35.200589126729426, 37.430257692903055], [35.20005013755895, 37.430257692903055], [35.20005013755895, 37.42971870373259], [35.200589126729426, 37.42971870373259]]]}, "properties": {"area_ha": 20.251399798874942, "mean_dnbr": 0.22436162358144796, "compactness": 0.212, "rectangularity": 0.574, "cropland_frac": 0.103, "persistent": true}}, {"type": "Feature", "geometry": {"geodesic": false, "type": "Polygon", "coordinates": [[[35.254488043776576, 37.428640725391645], [35.256105011287985, 37.428640725391645], [35.256105011287985, 37.42917971456212], [35.255566022117534, 37.42917971456212], [35.255566022117534, 37.42971870373259], [35.255027032947055, 37.42971870373259], [35.255027032947055, 37.43079668207353], [35.256105011287985, 37.43079668207353], [35.256105011287985, 37.43187466041447], [35.257182989628944, 37.43187466041447], [35.257182989628944, 37.432413649584944], [35.256105011287985, 37.432413649584944], [35.256105011287985, 37.43295263875542], [35.256644000458465, 37.43295263875542], [35.256644000458465, 37.43349162792589], [35.255027032947055, 37.43349162792589], [35.255027032947055, 37.43295263875542], [35.253949054606124, 37.43295263875542], [35.253949054606124, 37.43349162792589], [35.252871076265166, 37.43349162792589], [35.252871076265166, 37.43403061709636], [35.252332087094686, 37.43403061709636], [35.252332087094686, 37.43349162792589], [35.251254108753756, 37.43349162792589], [35.251254108753756, 37.43295263875542], [35.251793097924235, 37.43295263875542], [35.251793097924235, 37.432413649584944], [35.252332087094686, 37.432413649584944], [35.252332087094686, 37.43187466041447], [35.251793097924235, 37.43187466041447], [35.251793097924235, 37.431335671244], [35.250715119583276, 37.431335671244], [35.250715119583276, 37.432413649584944], [35.249637141242346, 37.432413649584944], [35.249637141242346, 37.43295263875542], [35.2501761304128, 37.43295263875542], [35.2501761304128, 37.43349162792589], [35.249637141242346, 37.43349162792589], [35.249637141242346, 37.434569606266834], [35.251793097924235, 37.434569606266834], [35.251793097924235, 37.435108595437306], [35.252332087094686, 37.435108595437306], [35.252332087094686, 37.43564758460778], [35.252871076265166, 37.43564758460778], [35.252871076265166, 37.436725562948716], [35.251793097924235, 37.436725562948716], [35.251793097924235, 37.43780354128966], [35.252332087094686, 37.43780354128966], [35.252332087094686, 37.43834253046013], [35.252871076265166, 37.43834253046013], [35.252871076265166, 37.438881519630606], [35.252332087094686, 37.438881519630606], [35.252332087094686, 37.43995949797155], [35.252871076265166, 37.43995949797155], [35.252871076265166, 37.441037476312495], [35.247481184560456, 37.441037476312495], [35.247481184560456, 37.44157646548297], [35.24694219538998, 37.44157646548297], [35.24694219538998, 37.44211545465343], [35.245864217049046, 37.44211545465343], [35.245864217049046, 37.441037476312495], [35.24532522787857, 37.441037476312495], [35.24532522787857, 37.442654443823905], [35.24478623870809, 37.442654443823905], [35.24478623870809, 37.44319343299438], [35.24532522787857, 37.44319343299438], [35.24532522787857, 37.44373242216485], [35.24478623870809, 37.44373242216485], [35.24478623870809, 37.44427141133532], [35.24424724953761, 37.44427141133532], [35.24424724953761, 37.44373242216485], [35.24155230368527, 37.44373242216485], [35.24155230368527, 37.444810400505794], [35.24316927119668, 37.444810400505794], [35.24316927119668, 37.44588837884674], [35.2426302820262, 37.44588837884674], [35.2426302820262, 37.44534938967627], [35.24155230368527, 37.44534938967627], [35.24155230368527, 37.444810400505794], [35.24101331451479, 37.444810400505794], [35.24101331451479, 37.44534938967627], [35.24047432534431, 37.44534938967627], [35.24047432534431, 37.444810400505794], [35.23993533617386, 37.444810400505794], [35.23993533617386, 37.44427141133532], [35.24047432534431, 37.44427141133532], [35.24047432534431, 37.444810400505794], [35.24101331451479, 37.444810400505794], [35.24101331451479, 37.44319343299438], [35.24047432534431, 37.44319343299438], [35.24047432534431, 37.442654443823905], [35.24101331451479, 37.442654443823905], [35.24101331451479, 37.44319343299438], [35.24155230368527, 37.44319343299438], [35.24155230368527, 37.44157646548297], [35.23993533617386, 37.44157646548297], [35.23993533617386, 37.442654443823905], [35.2388573578329, 37.442654443823905], [35.2388573578329, 37.44319343299438], [35.23831836866242, 37.44319343299438], [35.23831836866242, 37.442654443823905], [35.23777937949197, 37.442654443823905], [35.23777937949197, 37.44319343299438], [35.23724039032149, 37.44319343299438], [35.23724039032149, 37.44427141133532], [35.23670140115101, 37.44427141133532], [35.23670140115101, 37.444810400505794], [35.23616241198056, 37.444810400505794], [35.23616241198056, 37.442654443823905], [35.23562342281008, 37.442654443823905], [35.23562342281008, 37.44319343299438], [35.2350844336396, 37.44319343299438], [35.2350844336396, 37.44211545465343], [35.23400645529867, 37.44211545465343], [35.23400645529867, 37.44157646548297], [35.23454544446912, 37.44157646548297], [35.23454544446912, 37.441037476312495], [35.23562342281008, 37.441037476312495], [35.23562342281008, 37.43942050880108], [35.23616241198056, 37.43942050880108], [35.23616241198056, 37.43995949797155], [35.23724039032149, 37.43995949797155], [35.23724039032149, 37.43834253046013], [35.23670140115101, 37.43834253046013], [35.23670140115101, 37.43726455211919], [35.23724039032149, 37.43726455211919], [35.23724039032149, 37.436725562948716], [35.23670140115101, 37.436725562948716], [35.23670140115101, 37.436186573778244], [35.23777937949197, 37.436186573778244], [35.23777937949197, 37.436725562948716], [35.23831836866242, 37.436725562948716], [35.23831836866242, 37.43564758460778], [35.23939634700338, 37.43564758460778], [35.23939634700338, 37.436725562948716], [35.23831836866242, 37.436725562948716], [35.23831836866242, 37.43726455211919], [35.2388573578329, 37.43726455211919], [35.2388573578329, 37.43780354128966], [35.23831836866242, 37.43780354128966], [35.23831836866242, 37.43834253046013], [35.2388573578329, 37.43834253046013], [35.2388573578329, 37.438881519630606], [35.23831836866242, 37.438881519630606], [35.23831836866242, 37.43995949797155], [35.2388573578329, 37.43995949797155], [35.2388573578329, 37.44049848714202], [35.23939634700338, 37.44049848714202], [35.23939634700338, 37.44157646548297], [35.23993533617386, 37.44157646548297], [35.23993533617386, 37.441037476312495], [35.24047432534431, 37.441037476312495], [35.24047432534431, 37.44049848714202], [35.23993533617386, 37.44049848714202], [35.23993533617386, 37.43995949797155], [35.23939634700338, 37.43995949797155], [35.23939634700338, 37.43834253046013], [35.24047432534431, 37.43834253046013], [35.24047432534431, 37.436725562948716], [35.23993533617386, 37.436725562948716], [35.23993533617386, 37.43403061709636], [35.24047432534431, 37.43403061709636], [35.24047432534431, 37.43564758460778], [35.24101331451479, 37.43564758460778], [35.24101331451479, 37.435108595437306], [35.24155230368527, 37.435108595437306], [35.24155230368527, 37.43564758460778], [35.24101331451479, 37.43564758460778], [35.24101331451479, 37.436186573778244], [35.2426302820262, 37.436186573778244], [35.2426302820262, 37.436725562948716], [35.24370826036716, 37.436725562948716], [35.24370826036716, 37.43726455211919], [35.245864217049046, 37.43726455211919], [35.245864217049046, 37.436725562948716], [35.24532522787857, 37.436725562948716], [35.24532522787857, 37.436186573778244], [35.247481184560456, 37.436186573778244], [35.247481184560456, 37.436725562948716], [35.2464032062195, 37.436725562948716], [35.2464032062195, 37.43780354128966], [35.247481184560456, 37.43780354128966], [35.247481184560456, 37.43834253046013], [35.250715119583276, 37.43834253046013], [35.250715119583276, 37.43726455211919], [35.249637141242346, 37.43726455211919], [35.249637141242346, 37.43780354128966], [35.249098152071866, 37.43780354128966], [35.249098152071866, 37.43726455211919], [35.24855916290139, 37.43726455211919], [35.24855916290139, 37.43349162792589], [35.248020173730936, 37.43349162792589], [35.248020173730936, 37.43295263875542], [35.247481184560456, 37.43295263875542], [35.247481184560456, 37.432413649584944], [35.24694219538998, 37.432413649584944], [35.24694219538998, 37.431335671244], [35.247481184560456, 37.431335671244], [35.247481184560456, 37.43079668207353], [35.24855916290139, 37.43079668207353], [35.24855916290139, 37.432413649584944], [35.249637141242346, 37.432413649584944], [35.249637141242346, 37.431335671244], [35.250715119583276, 37.431335671244], [35.250715119583276, 37.43079668207353], [35.249637141242346, 37.43079668207353], [35.249637141242346, 37.430257692903055], [35.250715119583276, 37.430257692903055], [35.250715119583276, 37.42971870373259], [35.252332087094686, 37.42971870373259], [35.252332087094686, 37.42917971456212], [35.253410065435645, 37.42917971456212], [35.253410065435645, 37.428640725391645], [35.253949054606124, 37.428640725391645], [35.253949054606124, 37.42917971456212], [35.254488043776576, 37.42917971456212], [35.254488043776576, 37.428640725391645]], [[35.23724039032149, 37.442654443823905], [35.23724039032149, 37.44319343299438], [35.23670140115101, 37.44319343299438], [35.23670140115101, 37.442654443823905], [35.23724039032149, 37.442654443823905]], [[35.24478623870809, 37.44319343299438], [35.24478623870809, 37.44373242216485], [35.24424724953761, 37.44373242216485], [35.24424724953761, 37.44319343299438], [35.24478623870809, 37.44319343299438]], [[35.24316927119668, 37.442654443823905], [35.24316927119668, 37.44319343299438], [35.2426302820262, 37.44319343299438], [35.2426302820262, 37.442654443823905], [35.24316927119668, 37.442654443823905]], [[35.24424724953761, 37.442654443823905], [35.24424724953761, 37.44319343299438], [35.24370826036716, 37.44319343299438], [35.24370826036716, 37.442654443823905], [35.24424724953761, 37.442654443823905]], [[35.23562342281008, 37.44157646548297], [35.23562342281008, 37.44211545465343], [35.2350844336396, 37.44211545465343], [35.2350844336396, 37.44157646548297], [35.23562342281008, 37.44157646548297]], [[35.23939634700338, 37.44157646548297], [35.23939634700338, 37.44211545465343], [35.23831836866242, 37.44211545465343], [35.23831836866242, 37.44157646548297], [35.23939634700338, 37.44157646548297]], [[35.24478623870809, 37.44157646548297], [35.24478623870809, 37.44211545465343], [35.24424724953761, 37.44211545465343], [35.24424724953761, 37.44157646548297], [35.24478623870809, 37.44157646548297]], [[35.23777937949197, 37.44049848714202], [35.23777937949197, 37.44157646548297], [35.23724039032149, 37.44157646548297], [35.23724039032149, 37.44211545465343], [35.23670140115101, 37.44211545465343], [35.23670140115101, 37.44157646548297], [35.23616241198056, 37.44157646548297], [35.23616241198056, 37.441037476312495], [35.23724039032149, 37.441037476312495], [35.23724039032149, 37.44049848714202], [35.23777937949197, 37.44049848714202]], [[35.24316927119668, 37.44049848714202], [35.24316927119668, 37.44157646548297], [35.24155230368527, 37.44157646548297], [35.24155230368527, 37.44049848714202], [35.24316927119668, 37.44049848714202]], [[35.23831836866242, 37.43834253046013], [35.23831836866242, 37.438881519630606], [35.23777937949197, 37.438881519630606], [35.23777937949197, 37.43834253046013], [35.23831836866242, 37.43834253046013]], [[35.24370826036716, 37.43780354128966], [35.24370826036716, 37.43834253046013], [35.24424724953761, 37.43834253046013], [35.24424724953761, 37.438881519630606], [35.24478623870809, 37.438881519630606], [35.24478623870809, 37.43942050880108], [35.24155230368527, 37.43942050880108], [35.24155230368527, 37.43995949797155], [35.23993533617386, 37.43995949797155], [35.23993533617386, 37.43942050880108], [35.24047432534431, 37.43942050880108], [35.24047432534431, 37.43834253046013], [35.2426302820262, 37.43834253046013], [35.2426302820262, 37.43780354128966], [35.24370826036716, 37.43780354128966]], [[35.23831836866242, 37.43726455211919], [35.23831836866242, 37.43780354128966], [35.23777937949197, 37.43780354128966], [35.23777937949197, 37.43834253046013], [35.23724039032149, 37.43834253046013], [35.23724039032149, 37.43726455211919], [35.23831836866242, 37.43726455211919]], [[35.253410065435645, 37.432413649584944], [35.253410065435645, 37.43295263875542], [35.252871076265166, 37.43295263875542], [35.252871076265166, 37.432413649584944], [35.253410065435645, 37.432413649584944]]]}, "properties": {"area_ha": 110.37523391396981, "mean_dnbr": 0.21417968487389089, "compactness": 0.026, "rectangularity": 0.355, "cropland_frac": 0.356, "persistent": true}}, {"type": "Feature", "geometry": {"geodesic": false, "type": "Polygon", "coordinates": [[[35.26472883801554, 37.434569606266834], [35.26526782718602, 37.434569606266834], [35.26526782718602, 37.43564758460778], [35.2658068163565, 37.43564758460778], [35.2658068163565, 37.436725562948716], [35.26526782718602, 37.436725562948716], [35.26526782718602, 37.43726455211919], [35.26472883801554, 37.43726455211919], [35.26472883801554, 37.43834253046013], [35.264189848845064, 37.43834253046013], [35.264189848845064, 37.43726455211919], [35.26365085967461, 37.43726455211919], [35.26365085967461, 37.438881519630606], [35.26526782718602, 37.438881519630606], [35.26526782718602, 37.43942050880108], [35.2658068163565, 37.43942050880108], [35.2658068163565, 37.43995949797155], [35.26634580552695, 37.43995949797155], [35.26634580552695, 37.44049848714202], [35.26688479469743, 37.44049848714202], [35.26688479469743, 37.441037476312495], [35.26796277303836, 37.441037476312495], [35.26796277303836, 37.43995949797155], [35.26850176220884, 37.43995949797155], [35.26850176220884, 37.44157646548297], [35.26904075137932, 37.44157646548297], [35.26904075137932, 37.44211545465343], [35.27119670806121, 37.44211545465343], [35.27119670806121, 37.442654443823905], [35.27227468640214, 37.442654443823905], [35.27227468640214, 37.44211545465343], [35.27281367557262, 37.44211545465343], [35.27281367557262, 37.444810400505794], [35.2733526647431, 37.444810400505794], [35.2733526647431, 37.44534938967627], [35.27281367557262, 37.44534938967627], [35.27281367557262, 37.44642736801721], [35.27227468640214, 37.44642736801721], [35.27227468640214, 37.446966357187684], [35.27173569723169, 37.446966357187684], [35.27173569723169, 37.44534938967627], [35.27227468640214, 37.44534938967627], [35.27227468640214, 37.44427141133532], [35.27065771889073, 37.44427141133532], [35.27065771889073, 37.444810400505794], [35.27011872972025, 37.444810400505794], [35.27011872972025, 37.44534938967627], [35.27065771889073, 37.44534938967627], [35.27065771889073, 37.44588837884674], [35.27011872972025, 37.44588837884674], [35.27011872972025, 37.446966357187684], [35.27065771889073, 37.446966357187684], [35.27065771889073, 37.447505346358156], [35.26904075137932, 37.447505346358156], [35.26904075137932, 37.44804433552862], [35.26796277303836, 37.44804433552862], [35.26796277303836, 37.44588837884674], [35.2658068163565, 37.44588837884674], [35.2658068163565, 37.44642736801721], [35.26526782718602, 37.44642736801721], [35.26526782718602, 37.446966357187684], [35.26472883801554, 37.446966357187684], [35.26472883801554, 37.44534938967627], [35.26526782718602, 37.44534938967627], [35.26526782718602, 37.444810400505794], [35.26472883801554, 37.444810400505794], [35.26472883801554, 37.44373242216485], [35.264189848845064, 37.44373242216485], [35.264189848845064, 37.44427141133532], [35.26365085967461, 37.44427141133532], [35.26365085967461, 37.44319343299438], [35.26311187050413, 37.44319343299438], [35.26311187050413, 37.44373242216485], [35.262572881333654, 37.44373242216485], [35.262572881333654, 37.444810400505794], [35.26311187050413, 37.444810400505794], [35.26311187050413, 37.44588837884674], [35.264189848845064, 37.44588837884674], [35.264189848845064, 37.44642736801721], [35.26311187050413, 37.44642736801721], [35.26311187050413, 37.44588837884674], [35.262033892163174, 37.44588837884674], [35.262033892163174, 37.44534938967627], [35.262572881333654, 37.44534938967627], [35.262572881333654, 37.444810400505794], [35.262033892163174, 37.444810400505794], [35.262033892163174, 37.44427141133532], [35.26149490299272, 37.44427141133532], [35.26149490299272, 37.44373242216485], [35.260416924651764, 37.44373242216485], [35.260416924651764, 37.44319343299438], [35.25987793548131, 37.44319343299438], [35.25987793548131, 37.442654443823905], [35.259338946310834, 37.442654443823905], [35.259338946310834, 37.44211545465343], [35.25987793548131, 37.44211545465343], [35.25987793548131, 37.442654443823905], [35.260416924651764, 37.442654443823905], [35.260416924651764, 37.44211545465343], [35.260955913822244, 37.44211545465343], [35.260955913822244, 37.442654443823905], [35.262033892163174, 37.442654443823905], [35.262033892163174, 37.44211545465343], [35.262572881333654, 37.44211545465343], [35.262572881333654, 37.441037476312495], [35.262033892163174, 37.441037476312495], [35.262033892163174, 37.44049848714202], [35.26149490299272, 37.44049848714202], [35.26149490299272, 37.441037476312495], [35.260955913822244, 37.441037476312495], [35.260955913822244, 37.44157646548297], [35.258799957140354, 37.44157646548297], [35.258799957140354, 37.441037476312495], [35.260955913822244, 37.441037476312495], [35.260955913822244, 37.44049848714202], [35.259338946310834, 37.44049848714202], [35.259338946310834, 37.43995949797155], [35.258799957140354, 37.43995949797155], [35.258799957140354, 37.43942050880108], [35.260416924651764, 37.43942050880108], [35.260416924651764, 37.438881519630606], [35.25987793548131, 37.438881519630606], [35.25987793548131, 37.43726455211919], [35.260416924651764, 37.43726455211919], [35.260416924651764, 37.436725562948716], [35.26149490299272, 37.436725562948716], [35.26149490299272, 37.43726455211919], [35.262033892163174, 37.43726455211919], [35.262033892163174, 37.436725562948716], [35.262572881333654, 37.436725562948716], [35.262572881333654, 37.436186573778244], [35.26365085967461, 37.436186573778244], [35.26365085967461, 37.43564758460778], [35.26311187050413, 37.43564758460778], [35.26311187050413, 37.435108595437306], [35.26365085967461, 37.435108595437306], [35.26365085967461, 37.43564758460778], [35.264189848845064, 37.43564758460778], [35.264189848845064, 37.435108595437306], [35.26472883801554, 37.435108595437306], [35.26472883801554, 37.434569606266834]], [[35.2695797405498, 37.44427141133532], [35.2695797405498, 37.44534938967627], [35.26688479469743, 37.44534938967627], [35.26688479469743, 37.444810400505794], [35.26742378386791, 37.444810400505794], [35.26742378386791, 37.44427141133532], [35.2695797405498, 37.44427141133532]], [[35.27227468640214, 37.44319343299438], [35.27227468640214, 37.44373242216485], [35.27173569723169, 37.44373242216485], [35.27173569723169, 37.44319343299438], [35.27227468640214, 37.44319343299438]], [[35.26634580552695, 37.442654443823905], [35.26634580552695, 37.44373242216485], [35.26688479469743, 37.44373242216485], [35.26688479469743, 37.44427141133532], [35.26634580552695, 37.44427141133532], [35.26634580552695, 37.444810400505794], [35.2658068163565, 37.444810400505794], [35.2658068163565, 37.44373242216485], [35.26472883801554, 37.44373242216485], [35.26472883801554, 37.44319343299438], [35.264189848845064, 37.44319343299438], [35.264189848845064, 37.442654443823905], [35.26634580552695, 37.442654443823905]], [[35.260955913822244, 37.43834253046013], [35.260955913822244, 37.438881519630606], [35.260416924651764, 37.438881519630606], [35.260416924651764, 37.43834253046013], [35.260955913822244, 37.43834253046013]]]}, "properties": {"area_ha": 69.87172216675935, "mean_dnbr": 0.24678937532992135, "compactness": 0.052, "rectangularity": 0.45, "cropland_frac": 0.37, "persistent": true}}, {"type": "Feature", "geometry": {"geodesic": false, "type": "Polygon", "coordinates": [[[35.264189848845064, 37.41247105027749], [35.26526782718602, 37.41247105027749], [35.26526782718602, 37.41301003944796], [35.26634580552695, 37.41301003944796], [35.26634580552695, 37.413549028618434], [35.26742378386791, 37.413549028618434], [35.26742378386791, 37.414088017788906], [35.26904075137932, 37.414088017788906], [35.26904075137932, 37.413549028618434], [35.2695797405498, 37.413549028618434], [35.2695797405498, 37.414088017788906], [35.27011872972025, 37.414088017788906], [35.27011872972025, 37.413549028618434], [35.27119670806121, 37.413549028618434], [35.27119670806121, 37.414088017788906], [35.27065771889073, 37.414088017788906], [35.27065771889073, 37.41462700695938], [35.27119670806121, 37.41462700695938], [35.27119670806121, 37.41570498530032], [35.27065771889073, 37.41570498530032], [35.27065771889073, 37.41678296364127], [35.27119670806121, 37.41678296364127], [35.27119670806121, 37.416243974470795], [35.27227468640214, 37.416243974470795], [35.27227468640214, 37.41570498530032], [35.2733526647431, 37.41570498530032], [35.2733526647431, 37.41839993115268], [35.27443064308403, 37.41839993115268], [35.27443064308403, 37.41893892032315], [35.27496963225451, 37.41893892032315], [35.27496963225451, 37.41947790949362], [35.27550862142499, 37.41947790949362], [35.27550862142499, 37.420016898664095], [35.27658659976592, 37.420016898664095], [35.27658659976592, 37.42109487700504], [35.27604761059544, 37.42109487700504], [35.27604761059544, 37.42055588783457], [35.27550862142499, 37.42055588783457], [35.27550862142499, 37.420016898664095], [35.27443064308403, 37.420016898664095], [35.27443064308403, 37.41947790949362], [35.27389165391355, 37.41947790949362], [35.27389165391355, 37.420016898664095], [35.27281367557262, 37.420016898664095], [35.27281367557262, 37.41947790949362], [35.2733526647431, 37.41947790949362], [35.2733526647431, 37.41893892032315], [35.27173569723169, 37.41893892032315], [35.27173569723169, 37.41947790949362], [35.27119670806121, 37.41947790949362], [35.27119670806121, 37.41839993115268], [35.27065771889073, 37.41839993115268], [35.27065771889073, 37.41786094198221], [35.27011872972025, 37.41786094198221], [35.27011872972025, 37.41732195281174], [35.26904075137932, 37.41732195281174], [35.26904075137932, 37.41678296364127], [35.26742378386791, 37.41678296364127], [35.26742378386791, 37.416243974470795], [35.26688479469743, 37.416243974470795], [35.26688479469743, 37.41678296364127], [35.2658068163565, 37.41678296364127], [35.2658068163565, 37.41732195281174], [35.26526782718602, 37.41732195281174], [35.26526782718602, 37.41839993115268], [35.26634580552695, 37.41839993115268], [35.26634580552695, 37.41732195281174], [35.26688479469743, 37.41732195281174], [35.26688479469743, 37.41786094198221], [35.26742378386791, 37.41786094198221], [35.26742378386791, 37.41839993115268], [35.26796277303836, 37.41839993115268], [35.26796277303836, 37.41947790949362], [35.26742378386791, 37.41947790949362], [35.26742378386791, 37.41893892032315], [35.26688479469743, 37.41893892032315], [35.26688479469743, 37.41839993115268], [35.26634580552695, 37.41839993115268], [35.26634580552695, 37.41893892032315], [35.2658068163565, 37.41893892032315], [35.2658068163565, 37.41947790949362], [35.26526782718602, 37.41947790949362], [35.26526782718602, 37.41893892032315], [35.26472883801554, 37.41893892032315], [35.26472883801554, 37.41839993115268], [35.264189848845064, 37.41839993115268], [35.264189848845064, 37.41786094198221], [35.26472883801554, 37.41786094198221], [35.26472883801554, 37.41516599612985], [35.264189848845064, 37.41516599612985], [35.264189848845064, 37.414088017788906], [35.26365085967461, 37.414088017788906], [35.26365085967461, 37.41570498530032], [35.264189848845064, 37.41570498530032], [35.264189848845064, 37.416243974470795], [35.262033892163174, 37.416243974470795], [35.262033892163174, 37.41516599612985], [35.262572881333654, 37.41516599612985], [35.262572881333654, 37.41462700695938], [35.26311187050413, 37.41462700695938], [35.26311187050413, 37.414088017788906], [35.262033892163174, 37.414088017788906], [35.262033892163174, 37.41462700695938], [35.260416924651764, 37.41462700695938], [35.260416924651764, 37.414088017788906], [35.260955913822244, 37.414088017788906], [35.260955913822244, 37.413549028618434], [35.26149490299272, 37.413549028618434], [35.26149490299272, 37.41301003944796], [35.26311187050413, 37.41301003944796], [35.26311187050413, 37.413549028618434], [35.264189848845064, 37.413549028618434], [35.264189848845064, 37.41247105027749]], [[35.26688479469743, 37.41516599612985], [35.26688479469743, 37.41570498530032], [35.2658068163565, 37.41570498530032], [35.2658068163565, 37.41516599612985], [35.26688479469743, 37.41516599612985]], [[35.26904075137932, 37.41516599612985], [35.26904075137932, 37.41570498530032], [35.26742378386791, 37.41570498530032], [35.26742378386791, 37.41516599612985], [35.26904075137932, 37.41516599612985]], [[35.27065771889073, 37.41462700695938], [35.27065771889073, 37.41516599612985], [35.27011872972025, 37.41516599612985], [35.27011872972025, 37.41462700695938], [35.27065771889073, 37.41462700695938]]]}, "properties": {"area_ha": 41.65216513529416, "mean_dnbr": 0.20009391502822438, "compactness": 0.058, "rectangularity": 0.351, "cropland_frac": 0.325, "persistent": true}}, {"type": "Feature", "geometry": {"geodesic": false, "type": "Polygon", "coordinates": [[[35.2884443615163, 37.46798693483608], [35.29006132902771, 37.46798693483608], [35.29006132902771, 37.46852592400655], [35.29060031819819, 37.46852592400655], [35.29060031819819, 37.46906491317702], [35.29113930736867, 37.46906491317702], [35.29113930736867, 37.470142891517966], [35.29383425322101, 37.470142891517966], [35.29383425322101, 37.469603902347494], [35.29437324239149, 37.469603902347494], [35.29437324239149, 37.470142891517966], [35.294912231561966, 37.470142891517966], [35.294912231561966, 37.469603902347494], [35.2959902099029, 37.469603902347494], [35.2959902099029, 37.470142891517966], [35.29760717741431, 37.470142891517966], [35.29760717741431, 37.469603902347494], [35.298146166584786, 37.469603902347494], [35.298146166584786, 37.46906491317702], [35.298685155755265, 37.46906491317702], [35.298685155755265, 37.46852592400655], [35.300302123266675, 37.46852592400655], [35.300302123266675, 37.46906491317702], [35.300841112437155, 37.46906491317702], [35.300841112437155, 37.46852592400655], [35.302458079948565, 37.46852592400655], [35.302458079948565, 37.46906491317702], [35.304075047459975, 37.46906491317702], [35.304075047459975, 37.469603902347494], [35.302997069119044, 37.469603902347494], [35.302997069119044, 37.470142891517966], [35.301919090778085, 37.470142891517966], [35.301919090778085, 37.47068188068844], [35.300841112437155, 37.47068188068844], [35.300841112437155, 37.47175985902938], [35.300302123266675, 37.47175985902938], [35.300302123266675, 37.47122086985891], [35.298685155755265, 37.47122086985891], [35.298685155755265, 37.47175985902938], [35.296529199073376, 37.47175985902938], [35.296529199073376, 37.47229884819985], [35.294912231561966, 37.47229884819985], [35.294912231561966, 37.47283783737032], [35.293295264050556, 37.47283783737032], [35.293295264050556, 37.47337682654079], [35.29275627488008, 37.47337682654079], [35.29275627488008, 37.47283783737032], [35.2922172857096, 37.47283783737032], [35.2922172857096, 37.47337682654079], [35.29006132902771, 37.47337682654079], [35.29006132902771, 37.47445480488174], [35.29060031819819, 37.47445480488174], [35.29060031819819, 37.47499379405221], [35.29006132902771, 37.47499379405221], [35.29006132902771, 37.47445480488174], [35.28952233985726, 37.47445480488174], [35.28952233985726, 37.47661076156363], [35.29113930736867, 37.47661076156363], [35.29113930736867, 37.4771497507341], [35.29006132902771, 37.4771497507341], [35.29006132902771, 37.47822772907504], [35.28898335068678, 37.47822772907504], [35.28898335068678, 37.47768873990457], [35.28952233985726, 37.47768873990457], [35.28952233985726, 37.4771497507341], [35.28898335068678, 37.4771497507341], [35.28898335068678, 37.476071772393155], [35.2884443615163, 37.476071772393155], [35.2884443615163, 37.47661076156363], [35.28790537234582, 37.47661076156363], [35.28790537234582, 37.476071772393155], [35.28736638317537, 37.476071772393155], [35.28736638317537, 37.47445480488174], [35.28790537234582, 37.47445480488174], [35.28790537234582, 37.473915815711266], [35.2884443615163, 37.473915815711266], [35.2884443615163, 37.47337682654079], [35.28790537234582, 37.47337682654079], [35.28790537234582, 37.47283783737032], [35.28736638317537, 37.47283783737032], [35.28736638317537, 37.47175985902938], [35.2884443615163, 37.47175985902938], [35.2884443615163, 37.47122086985891], [35.28952233985726, 37.47122086985891], [35.28952233985726, 37.47175985902938], [35.29006132902771, 37.47175985902938], [35.29006132902771, 37.47068188068844], [35.29060031819819, 37.47068188068844], [35.29060031819819, 37.469603902347494], [35.28952233985726, 37.469603902347494], [35.28952233985726, 37.46906491317702], [35.28898335068678, 37.46906491317702], [35.28898335068678, 37.46852592400655], [35.2884443615163, 37.46852592400655], [35.2884443615163, 37.46798693483608]], [[35.301919090778085, 37.469603902347494], [35.301919090778085, 37.470142891517966], [35.300841112437155, 37.470142891517966], [35.300841112437155, 37.469603902347494], [35.301919090778085, 37.469603902347494]]]}, "properties": {"area_ha": 47.607842007110946, "mean_dnbr": 0.2409995992074354, "compactness": 0.096, "rectangularity": 0.286, "cropland_frac": 0.05, "persistent": true}}, {"type": "Feature", "geometry": {"geodesic": false, "type": "Polygon", "coordinates": [[[35.31593280921035, 37.432413649584944], [35.31701078755131, 37.432413649584944], [35.31701078755131, 37.43295263875542], [35.31862775506272, 37.43295263875542], [35.31862775506272, 37.43403061709636], [35.31701078755131, 37.43403061709636], [35.31701078755131, 37.434569606266834], [35.31862775506272, 37.434569606266834], [35.31862775506272, 37.435108595437306], [35.3191667442332, 37.435108595437306], [35.3191667442332, 37.436186573778244], [35.32024472257413, 37.436186573778244], [35.32024472257413, 37.43726455211919], [35.3191667442332, 37.43726455211919], [35.3191667442332, 37.43834253046013], [35.31862775506272, 37.43834253046013], [35.31862775506272, 37.43942050880108], [35.31808876589224, 37.43942050880108], [35.31808876589224, 37.43780354128966], [35.31647179838083, 37.43780354128966], [35.31647179838083, 37.438881519630606], [35.31593280921035, 37.438881519630606], [35.31593280921035, 37.43942050880108], [35.31701078755131, 37.43942050880108], [35.31701078755131, 37.441037476312495], [35.31754977672176, 37.441037476312495], [35.31754977672176, 37.44211545465343], [35.31808876589224, 37.44211545465343], [35.31808876589224, 37.442654443823905], [35.31862775506272, 37.442654443823905], [35.31862775506272, 37.444810400505794], [35.32024472257413, 37.444810400505794], [35.32024472257413, 37.44534938967627], [35.32078371174461, 37.44534938967627], [35.32078371174461, 37.44588837884674], [35.32132270091509, 37.44588837884674], [35.32132270091509, 37.44534938967627], [35.32186169008554, 37.44534938967627], [35.32186169008554, 37.44427141133532], [35.3229396684265, 37.44427141133532], [35.3229396684265, 37.444810400505794], [35.32347865759695, 37.444810400505794], [35.32347865759695, 37.44642736801721], [35.3229396684265, 37.44642736801721], [35.3229396684265, 37.44588837884674], [35.32240067925602, 37.44588837884674], [35.32240067925602, 37.446966357187684], [35.32186169008554, 37.446966357187684], [35.32186169008554, 37.44642736801721], [35.32132270091509, 37.44642736801721], [35.32132270091509, 37.446966357187684], [35.32024472257413, 37.446966357187684], [35.32024472257413, 37.44588837884674], [35.31970573340365, 37.44588837884674], [35.31970573340365, 37.44642736801721], [35.31862775506272, 37.44642736801721], [35.31862775506272, 37.446966357187684], [35.31970573340365, 37.446966357187684], [35.31970573340365, 37.447505346358156], [35.3191667442332, 37.447505346358156], [35.3191667442332, 37.448583324699094], [35.31862775506272, 37.448583324699094], [35.31862775506272, 37.447505346358156], [35.31808876589224, 37.447505346358156], [35.31808876589224, 37.44804433552862], [35.31647179838083, 37.44804433552862], [35.31647179838083, 37.447505346358156], [35.31539382003987, 37.447505346358156], [35.31539382003987, 37.446966357187684], [35.31269887418753, 37.446966357187684], [35.31269887418753, 37.44642736801721], [35.31323786335801, 37.44642736801721], [35.31323786335801, 37.44534938967627], [35.31269887418753, 37.44534938967627], [35.31269887418753, 37.444810400505794], [35.31485483086942, 37.444810400505794], [35.31485483086942, 37.44427141133532], [35.31431584169894, 37.44427141133532], [35.31431584169894, 37.44373242216485], [35.31377685252846, 37.44373242216485], [35.31377685252846, 37.44319343299438], [35.31431584169894, 37.44319343299438], [35.31431584169894, 37.442654443823905], [35.31162089584657, 37.442654443823905], [35.31162089584657, 37.44157646548297], [35.31215988501705, 37.44157646548297], [35.31215988501705, 37.441037476312495], [35.31162089584657, 37.441037476312495], [35.31162089584657, 37.44049848714202], [35.31215988501705, 37.44049848714202], [35.31215988501705, 37.441037476312495], [35.31269887418753, 37.441037476312495], [35.31269887418753, 37.43995949797155], [35.31377685252846, 37.43995949797155], [35.31377685252846, 37.43942050880108], [35.31539382003987, 37.43942050880108], [35.31539382003987, 37.438881519630606], [35.31593280921035, 37.438881519630606], [35.31593280921035, 37.43834253046013], [35.31539382003987, 37.43834253046013], [35.31539382003987, 37.43726455211919], [35.31647179838083, 37.43726455211919], [35.31647179838083, 37.43564758460778], [35.31593280921035, 37.43564758460778], [35.31593280921035, 37.435108595437306], [35.31539382003987, 37.435108595437306], [35.31539382003987, 37.43403061709636], [35.31701078755131, 37.43403061709636], [35.31701078755131, 37.43295263875542], [35.31593280921035, 37.43295263875542], [35.31593280921035, 37.432413649584944]], [[35.31754977672176, 37.44642736801721], [35.31754977672176, 37.446966357187684], [35.31701078755131, 37.446966357187684], [35.31701078755131, 37.44642736801721], [35.31754977672176, 37.44642736801721]], [[35.31808876589224, 37.444810400505794], [35.31808876589224, 37.44534938967627], [35.31754977672176, 37.44534938967627], [35.31754977672176, 37.444810400505794], [35.31808876589224, 37.444810400505794]], [[35.31647179838083, 37.442654443823905], [35.31647179838083, 37.44427141133532], [35.31701078755131, 37.44427141133532], [35.31701078755131, 37.44534938967627], [35.31647179838083, 37.44534938967627], [35.31647179838083, 37.444810400505794], [35.31539382003987, 37.444810400505794], [35.31539382003987, 37.442654443823905], [35.31647179838083, 37.442654443823905]], [[35.31754977672176, 37.44211545465343], [35.31754977672176, 37.442654443823905], [35.31701078755131, 37.442654443823905], [35.31701078755131, 37.44211545465343], [35.31754977672176, 37.44211545465343]], [[35.31701078755131, 37.44157646548297], [35.31701078755131, 37.44211545465343], [35.31647179838083, 37.44211545465343], [35.31647179838083, 37.44157646548297], [35.31701078755131, 37.44157646548297]], [[35.31754977672176, 37.436186573778244], [35.31754977672176, 37.436725562948716], [35.31701078755131, 37.436725562948716], [35.31701078755131, 37.436186573778244], [35.31754977672176, 37.436186573778244]]]}, "properties": {"area_ha": 60.175226251467116, "mean_dnbr": 0.2452337421543038, "compactness": 0.058, "rectangularity": 0.34, "cropland_frac": 0.37, "persistent": true}}, {"type": "Feature", "geometry": {"geodesic": false, "type": "Polygon", "coordinates": [[[35.3229396684265, 37.44966130304004], [35.32455663593791, 37.44966130304004], [35.32455663593791, 37.45073928138098], [35.32347865759695, 37.45073928138098], [35.32347865759695, 37.45181725972193], [35.32509562510839, 37.45181725972193], [35.32509562510839, 37.45073928138098], [35.32563461427884, 37.45073928138098], [35.32563461427884, 37.45181725972193], [35.32509562510839, 37.45181725972193], [35.32509562510839, 37.4523562488924], [35.32563461427884, 37.4523562488924], [35.32563461427884, 37.45289523806287], [35.32617360344932, 37.45289523806287], [35.32617360344932, 37.4523562488924], [35.3267125926198, 37.4523562488924], [35.3267125926198, 37.45181725972193], [35.32617360344932, 37.45181725972193], [35.32617360344932, 37.45073928138098], [35.32779057096073, 37.45073928138098], [35.32779057096073, 37.453434227233345], [35.32725158179028, 37.453434227233345], [35.32725158179028, 37.45289523806287], [35.3267125926198, 37.45289523806287], [35.3267125926198, 37.453434227233345], [35.32617360344932, 37.453434227233345], [35.32617360344932, 37.45451220557428], [35.3267125926198, 37.45451220557428], [35.3267125926198, 37.45397321640382], [35.32725158179028, 37.45397321640382], [35.32725158179028, 37.45451220557428], [35.32832956013121, 37.45451220557428], [35.32832956013121, 37.455051194744755], [35.32779057096073, 37.455051194744755], [35.32779057096073, 37.45559018391523], [35.32886854930169, 37.45559018391523], [35.32886854930169, 37.4561291730857], [35.3267125926198, 37.4561291730857], [35.3267125926198, 37.455051194744755], [35.32563461427884, 37.455051194744755], [35.32563461427884, 37.45559018391523], [35.3229396684265, 37.45559018391523], [35.3229396684265, 37.455051194744755], [35.32240067925602, 37.455051194744755], [35.32240067925602, 37.45451220557428], [35.31970573340365, 37.45451220557428], [35.31970573340365, 37.453434227233345], [35.32078371174461, 37.453434227233345], [35.32078371174461, 37.45289523806287], [35.32132270091509, 37.45289523806287], [35.32132270091509, 37.453434227233345], [35.32240067925602, 37.453434227233345], [35.32240067925602, 37.45181725972193], [35.32186169008554, 37.45181725972193], [35.32186169008554, 37.451278270551455], [35.32240067925602, 37.451278270551455], [35.32240067925602, 37.45073928138098], [35.3229396684265, 37.45073928138098], [35.3229396684265, 37.44966130304004]], [[35.32563461427884, 37.453434227233345], [35.32563461427884, 37.45397321640382], [35.32509562510839, 37.45397321640382], [35.32509562510839, 37.453434227233345], [35.32563461427884, 37.453434227233345]], [[35.32401764676743, 37.45289523806287], [35.32401764676743, 37.45397321640382], [35.32347865759695, 37.45397321640382], [35.32347865759695, 37.45289523806287], [35.32401764676743, 37.45289523806287]], [[35.32509562510839, 37.45289523806287], [35.32509562510839, 37.453434227233345], [35.32455663593791, 37.453434227233345], [35.32455663593791, 37.45289523806287], [35.32509562510839, 37.45289523806287]], [[35.32347865759695, 37.45181725972193], [35.32347865759695, 37.4523562488924], [35.3229396684265, 37.4523562488924], [35.3229396684265, 37.45181725972193], [35.32347865759695, 37.45181725972193]]]}, "properties": {"area_ha": 24.80783388572966, "mean_dnbr": 0.21078097127184245, "compactness": 0.084, "rectangularity": 0.434, "cropland_frac": 0.324, "persistent": true}}, {"type": "Feature", "geometry": {"geodesic": false, "type": "Polygon", "coordinates": [[[35.33695338685877, 37.46475299981325], [35.3380313651997, 37.46475299981325], [35.3380313651997, 37.46529198898372], [35.33857035437018, 37.46529198898372], [35.33857035437018, 37.465830978154194], [35.33749237602922, 37.465830978154194], [35.33749237602922, 37.46636996732466], [35.33641439768829, 37.46636996732466], [35.33641439768829, 37.46690895649513], [35.33587540851781, 37.46690895649513], [35.33587540851781, 37.467447945665604], [35.33533641934733, 37.467447945665604], [35.33533641934733, 37.46690895649513], [35.33479743017688, 37.46690895649513], [35.33479743017688, 37.46636996732466], [35.3342584410064, 37.46636996732466], [35.3342584410064, 37.46690895649513], [35.33371945183592, 37.46690895649513], [35.33371945183592, 37.46852592400655], [35.33156349515403, 37.46852592400655], [35.33156349515403, 37.46906491317702], [35.33102450598358, 37.46906491317702], [35.33102450598358, 37.470142891517966], [35.3304855168131, 37.470142891517966], [35.3304855168131, 37.47068188068844], [35.32994652764262, 37.47068188068844], [35.32994652764262, 37.470142891517966], [35.32940753847214, 37.470142891517966], [35.32940753847214, 37.469603902347494], [35.32994652764262, 37.469603902347494], [35.32994652764262, 37.46852592400655], [35.32940753847214, 37.46852592400655], [35.32940753847214, 37.46798693483608], [35.32832956013121, 37.46798693483608], [35.32832956013121, 37.467447945665604], [35.32940753847214, 37.467447945665604], [35.32940753847214, 37.46690895649513], [35.32832956013121, 37.46690895649513], [35.32832956013121, 37.465830978154194], [35.32994652764262, 37.465830978154194], [35.32994652764262, 37.46529198898372], [35.3304855168131, 37.46529198898372], [35.3304855168131, 37.465830978154194], [35.33318046266547, 37.465830978154194], [35.33318046266547, 37.46529198898372], [35.33695338685877, 37.46529198898372], [35.33695338685877, 37.46475299981325]]]}, "properties": {"area_ha": 22.807546520661166, "mean_dnbr": 0.26611665275282276, "compactness": 0.202, "rectangularity": 0.431, "cropland_frac": 0.373, "persistent": true}}]}