{"type": "FeatureCollection", "crs": {"type": "name", "properties": {"name": "urn:ogc:def:crs:OGC:1.3:CRS84"}}, "features": [{"type": "Feature", "geometry": {"geodesic": false, "type": "Polygon", "coordinates": [[[35.01517685208714, 37.34617538230947], [35.01679381959855, 37.34617538230947], [35.01679381959855, 37.34725336065041], [35.01733280876903, 37.34725336065041], [35.01733280876903, 37.347792349820885], [35.01679381959855, 37.347792349820885], [35.01679381959855, 37.34725336065041], [35.016254830428096, 37.34725336065041], [35.016254830428096, 37.34833133899136], [35.01733280876903, 37.34833133899136], [35.01733280876903, 37.34887032816183], [35.01571584125762, 37.34887032816183], [35.01571584125762, 37.3494093173323], [35.017871797939506, 37.3494093173323], [35.017871797939506, 37.349948306502775], [35.018410787109985, 37.349948306502775], [35.018410787109985, 37.35048729567325], [35.017871797939506, 37.35048729567325], [35.017871797939506, 37.35210426318466], [35.018410787109985, 37.35210426318466], [35.018410787109985, 37.35264325235513], [35.020027754621395, 37.35264325235513], [35.020027754621395, 37.353721230696074], [35.020566743791846, 37.353721230696074], [35.020566743791846, 37.354260219866546], [35.019488765450916, 37.354260219866546], [35.019488765450916, 37.35479920903702], [35.01894977628044, 37.35479920903702], [35.01894977628044, 37.35533819820749], [35.019488765450916, 37.35533819820749], [35.019488765450916, 37.35587718737796], [35.017871797939506, 37.35587718737796], [35.017871797939506, 37.35533819820749], [35.018410787109985, 37.35533819820749], [35.018410787109985, 37.35479920903702], [35.01894977628044, 37.35479920903702], [35.01894977628044, 37.354260219866546], [35.018410787109985, 37.354260219866546], [35.018410787109985, 37.353721230696074], [35.01733280876903, 37.353721230696074], [35.01733280876903, 37.354260219866546], [35.01679381959855, 37.354260219866546], [35.01679381959855, 37.353721230696074], [35.016254830428096, 37.353721230696074], [35.016254830428096, 37.35264325235513], [35.01463786291666, 37.35264325235513], [35.01463786291666, 37.3531822415256], [35.01355988457573, 37.3531822415256], [35.01355988457573, 37.35102628484372], [35.01409887374621, 37.35102628484372], [35.01409887374621, 37.35048729567325], [35.01355988457573, 37.35048729567325], [35.01355988457573, 37.34887032816183], [35.01409887374621, 37.34887032816183], [35.01409887374621, 37.3494093173323], [35.01463786291666, 37.3494093173323], [35.01463786291666, 37.34725336065041], [35.01517685208714, 37.34725336065041], [35.01517685208714, 37.34617538230947]], [[35.01679381959855, 37.351565274014185], [35.01679381959855, 37.35210426318466], [35.01733280876903, 37.35210426318466], [35.01733280876903, 37.35264325235513], [35.016254830428096, 37.35264325235513], [35.016254830428096, 37.351565274014185], [35.01679381959855, 37.351565274014185]]]}, "properties": {"area_ha": 26.554898135625024, "mean_dnbr": 0.2022596306245426, "compactness": 0.121, "rectangularity": 0.42, "cropland_frac": 0.265, "persistent": true}}, {"type": "Feature", "geometry": {"geodesic": false, "type": "Polygon", "coordinates": [[[35.03458046222411, 37.343480436457114], [35.03511945139459, 37.343480436457114], [35.03511945139459, 37.34509740396853], [35.03619742973555, 37.34509740396853], [35.03619742973555, 37.345636393138996], [35.03565844056507, 37.345636393138996], [35.03565844056507, 37.34671437147994], [35.036736418906, 37.34671437147994], [35.036736418906, 37.34725336065041], [35.03565844056507, 37.34725336065041], [35.03565844056507, 37.347792349820885], [35.03511945139459, 37.347792349820885], [35.03511945139459, 37.34887032816183], [35.03565844056507, 37.34887032816183], [35.03565844056507, 37.3494093173323], [35.036736418906, 37.3494093173323], [35.036736418906, 37.349948306502775], [35.03727540807648, 37.349948306502775], [35.03727540807648, 37.35048729567325], [35.03619742973555, 37.35048729567325], [35.03619742973555, 37.35102628484372], [35.03565844056507, 37.35102628484372], [35.03565844056507, 37.35210426318466], [35.03511945139459, 37.35210426318466], [35.03511945139459, 37.35264325235513], [35.032424505542224, 37.35264325235513], [35.032424505542224, 37.35210426318466], [35.03134652720129, 37.35210426318466], [35.03134652720129, 37.351565274014185], [35.03026854886036, 37.351565274014185], [35.03026854886036, 37.353721230696074], [35.030807538030814, 37.353721230696074], [35.030807538030814, 37.356416176548436], [35.03026854886036, 37.356416176548436], [35.03026854886036, 37.35533819820749], [35.02972955968988, 37.35533819820749], [35.02972955968988, 37.35479920903702], [35.029190570519404, 37.35479920903702], [35.029190570519404, 37.3531822415256], [35.028651581348925, 37.3531822415256], [35.028651581348925, 37.35264325235513], [35.027573603007994, 37.35264325235513], [35.027573603007994, 37.35210426318466], [35.02811259217847, 37.35210426318466], [35.02811259217847, 37.351565274014185], [35.027034613837515, 37.351565274014185], [35.027034613837515, 37.35102628484372], [35.026495624667035, 37.35102628484372], [35.026495624667035, 37.35048729567325], [35.025956635496584, 37.35048729567325], [35.025956635496584, 37.349948306502775], [35.025417646326105, 37.349948306502775], [35.025417646326105, 37.3494093173323], [35.025956635496584, 37.3494093173323], [35.025956635496584, 37.34887032816183], [35.026495624667035, 37.34887032816183], [35.026495624667035, 37.349948306502775], [35.02811259217847, 37.349948306502775], [35.02811259217847, 37.34887032816183], [35.027034613837515, 37.34887032816183], [35.027034613837515, 37.34833133899136], [35.026495624667035, 37.34833133899136], [35.026495624667035, 37.347792349820885], [35.025956635496584, 37.347792349820885], [35.025956635496584, 37.34671437147994], [35.025417646326105, 37.34671437147994], [35.025417646326105, 37.34617538230947], [35.025956635496584, 37.34617538230947], [35.025956635496584, 37.345636393138996], [35.029190570519404, 37.345636393138996], [35.029190570519404, 37.34617538230947], [35.02972955968988, 37.34617538230947], [35.02972955968988, 37.34671437147994], [35.03026854886036, 37.34671437147994], [35.03026854886036, 37.347792349820885], [35.02972955968988, 37.347792349820885], [35.02972955968988, 37.34833133899136], [35.029190570519404, 37.34833133899136], [35.029190570519404, 37.3494093173323], [35.028651581348925, 37.3494093173323], [35.028651581348925, 37.349948306502775], [35.02811259217847, 37.349948306502775], [35.02811259217847, 37.35048729567325], [35.028651581348925, 37.35048729567325], [35.028651581348925, 37.35102628484372], [35.029190570519404, 37.35102628484372], [35.029190570519404, 37.349948306502775], [35.02972955968988, 37.349948306502775], [35.02972955968988, 37.34887032816183], [35.03026854886036, 37.34887032816183], [35.03026854886036, 37.34833133899136], [35.03134652720129, 37.34833133899136], [35.03134652720129, 37.34725336065041], [35.032424505542224, 37.34725336065041], [35.032424505542224, 37.34509740396853], [35.0329634947127, 37.34509740396853], [35.0329634947127, 37.34455841479806], [35.03350248388318, 37.34455841479806], [35.03350248388318, 37.344019425627586], [35.03458046222411, 37.344019425627586], [35.03458046222411, 37.343480436457114]], [[35.03026854886036, 37.35048729567325], [35.03026854886036, 37.35102628484372], [35.02972955968988, 37.35102628484372], [35.02972955968988, 37.35048729567325], [35.03026854886036, 37.35048729567325]], [[35.03458046222411, 37.35048729567325], [35.03458046222411, 37.35102628484372], [35.03404147305366, 37.35102628484372], [35.03404147305366, 37.351565274014185], [35.0329634947127, 37.351565274014185], [35.0329634947127, 37.35048729567325], [35.03458046222411, 37.35048729567325]], [[35.032424505542224, 37.3494093173323], [35.032424505542224, 37.349948306502775], [35.03188551637177, 37.349948306502775], [35.03188551637177, 37.3494093173323], [35.032424505542224, 37.3494093173323]], [[35.02811259217847, 37.34617538230947], [35.02811259217847, 37.347792349820885], [35.027573603007994, 37.347792349820885], [35.027573603007994, 37.34671437147994], [35.027034613837515, 37.34671437147994], [35.027034613837515, 37.34617538230947], [35.02811259217847, 37.34617538230947]]]}, "properties": {"area_ha": 59.10752302962458, "mean_dnbr": 0.24870057965967668, "compactness": 0.081, "rectangularity": 0.434, "cropland_frac": 0.052, "persistent": true}}, {"type": "Feature", "geometry": {"geodesic": false, "type": "Polygon", "coordinates": [[[35.073387682498094, 37.366117981616924], [35.074465660839024, 37.366117981616924], [35.074465660839024, 37.36719595995787], [35.07392667166857, 37.36719595995787], [35.07392667166857, 37.36773494912834], [35.074465660839024, 37.36773494912834], [35.074465660839024, 37.36827393829881], [35.07392667166857, 37.36827393829881], [35.07392667166857, 37.368812927469286], [35.073387682498094, 37.368812927469286], [35.073387682498094, 37.36935191663976], [35.07392667166857, 37.36935191663976], [35.07392667166857, 37.370429894980695], [35.074465660839024, 37.370429894980695], [35.074465660839024, 37.37096888415117], [35.07392667166857, 37.37096888415117], [35.07392667166857, 37.37150787332164], [35.072309704157135, 37.37150787332164], [35.072309704157135, 37.370429894980695], [35.071231725816205, 37.370429894980695], [35.071231725816205, 37.37096888415117], [35.070692736645725, 37.37096888415117], [35.070692736645725, 37.370429894980695], [35.069614758304795, 37.370429894980695], [35.069614758304795, 37.37096888415117], [35.069075769134315, 37.37096888415117], [35.069075769134315, 37.37150787332164], [35.069614758304795, 37.37150787332164], [35.069614758304795, 37.37204686249211], [35.069075769134315, 37.37204686249211], [35.069075769134315, 37.37150787332164], [35.067997790793385, 37.37150787332164], [35.067997790793385, 37.37096888415117], [35.067458801622905, 37.37096888415117], [35.067458801622905, 37.37150787332164], [35.066919812452426, 37.37150787332164], [35.066919812452426, 37.37204686249211], [35.066380823281946, 37.37204686249211], [35.066380823281946, 37.37150787332164], [35.065841834111495, 37.37150787332164], [35.065841834111495, 37.37204686249211], [35.064763855770536, 37.37204686249211], [35.064763855770536, 37.37150787332164], [35.06422486660006, 37.37150787332164], [35.06422486660006, 37.37204686249211], [35.06152992074772, 37.37204686249211], [35.06152992074772, 37.37150787332164], [35.062068909918196, 37.37150787332164], [35.062068909918196, 37.37096888415117], [35.06260789908865, 37.37096888415117], [35.06260789908865, 37.370429894980695], [35.063146888259126, 37.370429894980695], [35.063146888259126, 37.36989090581022], [35.06260789908865, 37.36989090581022], [35.06260789908865, 37.368812927469286], [35.062068909918196, 37.368812927469286], [35.062068909918196, 37.36827393829881], [35.063146888259126, 37.36827393829881], [35.063146888259126, 37.36935191663976], [35.064763855770536, 37.36935191663976], [35.064763855770536, 37.36989090581022], [35.065302844941016, 37.36989090581022], [35.065302844941016, 37.36935191663976], [35.066919812452426, 37.36935191663976], [35.066919812452426, 37.368812927469286], [35.067458801622905, 37.368812927469286], [35.067458801622905, 37.36827393829881], [35.069075769134315, 37.36827393829881], [35.069075769134315, 37.36719595995787], [35.070153747475246, 37.36719595995787], [35.070153747475246, 37.366656970787396], [35.071231725816205, 37.366656970787396], [35.071231725816205, 37.366117981616924], [35.072309704157135, 37.366117981616924], [35.072309704157135, 37.366656970787396], [35.073387682498094, 37.366656970787396], [35.073387682498094, 37.366117981616924]], [[35.06422486660006, 37.36989090581022], [35.06422486660006, 37.370429894980695], [35.064763855770536, 37.370429894980695], [35.064763855770536, 37.37096888415117], [35.06422486660006, 37.37096888415117], [35.06422486660006, 37.37150787332164], [35.063146888259126, 37.37150787332164], [35.063146888259126, 37.370429894980695], [35.063685877429606, 37.370429894980695], [35.063685877429606, 37.36989090581022], [35.06422486660006, 37.36989090581022]], [[35.067458801622905, 37.36935191663976], [35.067458801622905, 37.370429894980695], [35.066919812452426, 37.370429894980695], [35.066919812452426, 37.36935191663976], [35.067458801622905, 37.36935191663976]], [[35.070692736645725, 37.36935191663976], [35.070692736645725, 37.36989090581022], [35.070153747475246, 37.36989090581022], [35.070153747475246, 37.36935191663976], [35.070692736645725, 37.36935191663976]], [[35.067997790793385, 37.368812927469286], [35.067997790793385, 37.36935191663976], [35.067458801622905, 37.36935191663976], [35.067458801622905, 37.368812927469286], [35.067997790793385, 37.368812927469286]]]}, "properties": {"area_ha": 37.11066481138397, "mean_dnbr": 0.19808748737298368, "compactness": 0.098, "rectangularity": 0.492, "cropland_frac": 0.276, "persistent": true}}, {"type": "Feature", "geometry": {"geodesic": false, "type": "Polygon", "coordinates": [[[35.300841112437155, 37.46852592400655], [35.301919090778085, 37.46852592400655], [35.301919090778085, 37.46906491317702], [35.301380101607634, 37.46906491317702], [35.301380101607634, 37.469603902347494], [35.300302123266675, 37.469603902347494], [35.300302123266675, 37.47068188068844], [35.299224144925745, 37.47068188068844], [35.299224144925745, 37.47122086985891], [35.296529199073376, 37.47122086985891], [35.296529199073376, 37.47175985902938], [35.294912231561966, 37.47175985902938], [35.294912231561966, 37.47229884819985], [35.2922172857096, 37.47229884819985], [35.2922172857096, 37.47283783737032], [35.29167829653912, 37.47283783737032], [35.29167829653912, 37.47337682654079], [35.29006132902771, 37.47337682654079], [35.29006132902771, 37.473915815711266], [35.28952233985726, 37.473915815711266], [35.28952233985726, 37.47445480488174], [35.28898335068678, 37.47445480488174], [35.28898335068678, 37.47499379405221], [35.28790537234582, 37.47499379405221], [35.28790537234582, 37.47553278322268], [35.28736638317537, 37.47553278322268], [35.28736638317537, 37.47499379405221], [35.28790537234582, 37.47499379405221], [35.28790537234582, 37.47445480488174], [35.28898335068678, 37.47445480488174], [35.28898335068678, 37.47283783737032], [35.2884443615163, 37.47283783737032], [35.2884443615163, 37.47229884819985], [35.28736638317537, 37.47229884819985], [35.28736638317537, 37.47175985902938], [35.28952233985726, 37.47175985902938], [35.28952233985726, 37.47229884819985], [35.29006132902771, 37.47229884819985], [35.29006132902771, 37.47122086985891], [35.29060031819819, 37.47122086985891], [35.29060031819819, 37.47068188068844], [35.29275627488008, 37.47068188068844], [35.29275627488008, 37.470142891517966], [35.29760717741431, 37.470142891517966], [35.29760717741431, 37.469603902347494], [35.298146166584786, 37.469603902347494], [35.298146166584786, 37.46906491317702], [35.300841112437155, 37.46906491317702], [35.300841112437155, 37.46852592400655]], [[35.29383425322101, 37.47068188068844], [35.29383425322101, 37.47122086985891], [35.293295264050556, 37.47122086985891], [35.293295264050556, 37.47068188068844], [35.29383425322101, 37.47068188068844]]]}, "properties": {"area_ha": 24.231578353215316, "mean_dnbr": 0.18264388418122618, "compactness": 0.135, "rectangularity": 0.406, "cropland_frac": 0.075, "persistent": true}}, {"type": "Feature", "geometry": {"geodesic": false, "type": "Polygon", "coordinates": [[[35.31539382003987, 37.43942050880108], [35.31701078755131, 37.43942050880108], [35.31701078755131, 37.441037476312495], [35.31754977672176, 37.441037476312495], [35.31754977672176, 37.44157646548297], [35.31647179838083, 37.44157646548297], [35.31647179838083, 37.442654443823905], [35.31862775506272, 37.442654443823905], [35.31862775506272, 37.444810400505794], [35.32024472257413, 37.444810400505794], [35.32024472257413, 37.44534938967627], [35.32078371174461, 37.44534938967627], [35.32078371174461, 37.44588837884674], [35.32186169008554, 37.44588837884674], [35.32186169008554, 37.44642736801721], [35.32132270091509, 37.44642736801721], [35.32132270091509, 37.446966357187684], [35.32024472257413, 37.446966357187684], [35.32024472257413, 37.44588837884674], [35.3191667442332, 37.44588837884674], [35.3191667442332, 37.44642736801721], [35.31593280921035, 37.44642736801721], [35.31593280921035, 37.446966357187684], [35.3191667442332, 37.446966357187684], [35.3191667442332, 37.447505346358156], [35.31808876589224, 37.447505346358156], [35.31808876589224, 37.44804433552862], [35.31647179838083, 37.44804433552862], [35.31647179838083, 37.447505346358156], [35.31593280921035, 37.447505346358156], [35.31593280921035, 37.446966357187684], [35.31323786335801, 37.446966357187684], [35.31323786335801, 37.44642736801721], [35.31377685252846, 37.44642736801721], [35.31377685252846, 37.44588837884674], [35.31431584169894, 37.44588837884674], [35.31431584169894, 37.44534938967627], [35.31269887418753, 37.44534938967627], [35.31269887418753, 37.444810400505794], [35.31485483086942, 37.444810400505794], [35.31485483086942, 37.44534938967627], [35.31539382003987, 37.44534938967627], [35.31539382003987, 37.444810400505794], [35.31647179838083, 37.444810400505794], [35.31647179838083, 37.44534938967627], [35.31701078755131, 37.44534938967627], [35.31701078755131, 37.44373242216485], [35.31647179838083, 37.44373242216485], [35.31647179838083, 37.442654443823905], [35.31539382003987, 37.442654443823905], [35.31539382003987, 37.44427141133532], [35.31485483086942, 37.44427141133532], [35.31485483086942, 37.44373242216485], [35.31431584169894, 37.44373242216485], [35.31431584169894, 37.442654443823905], [35.31323786335801, 37.442654443823905], [35.31323786335801, 37.44211545465343], [35.31162089584657, 37.44211545465343], [35.31162089584657, 37.44157646548297], [35.31269887418753, 37.44157646548297], [35.31269887418753, 37.441037476312495], [35.31323786335801, 37.441037476312495], [35.31323786335801, 37.43995949797155], [35.31377685252846, 37.43995949797155], [35.31377685252846, 37.43942050880108], [35.31485483086942, 37.43942050880108], [35.31485483086942, 37.441037476312495], [35.31539382003987, 37.441037476312495], [35.31539382003987, 37.43942050880108]], [[35.31808876589224, 37.444810400505794], [35.31808876589224, 37.44534938967627], [35.31754977672176, 37.44534938967627], [35.31754977672176, 37.444810400505794], [35.31808876589224, 37.444810400505794]], [[35.31593280921035, 37.441037476312495], [35.31593280921035, 37.44157646548297], [35.31539382003987, 37.44157646548297], [35.31539382003987, 37.441037476312495], [35.31593280921035, 37.441037476312495]]]}, "properties": {"area_ha": 31.655323977647157, "mean_dnbr": 0.2253195948904099, "compactness": 0.08, "rectangularity": 0.417, "cropland_frac": 0.481, "persistent": true}}]}