{"type": "FeatureCollection", "crs": {"type": "name", "properties": {"name": "urn:ogc:def:crs:OGC:1.3:CRS84"}}, "features": [{"type": "Feature", "geometry": {"geodesic": false, "type": "Polygon", "coordinates": [[[34.193218367117794, 37.77521076200495], [34.194835334629204, 37.77521076200495], [34.194835334629204, 37.775749751175425], [34.196452302140614, 37.775749751175425], [34.196452302140614, 37.7762887403459], [34.19699129131109, 37.7762887403459], [34.19699129131109, 37.77682772951637], [34.196452302140614, 37.77682772951637], [34.196452302140614, 37.77736671868684], [34.195913312970134, 37.77736671868684], [34.195913312970134, 37.77844469702779], [34.195374323799655, 37.77844469702779], [34.195374323799655, 37.77952267536873], [34.194835334629204, 37.77952267536873], [34.194835334629204, 37.7800616645392], [34.193218367117794, 37.7800616645392], [34.193218367117794, 37.78060065370967], [34.191601399606355, 37.78060065370967], [34.191601399606355, 37.781678632050614], [34.191062410435904, 37.781678632050614], [34.191062410435904, 37.78275661039156], [34.189984432094946, 37.78275661039156], [34.189984432094946, 37.782217621221086], [34.190523421265425, 37.782217621221086], [34.190523421265425, 37.781678632050614], [34.191062410435904, 37.781678632050614], [34.191062410435904, 37.78060065370967], [34.191601399606355, 37.78060065370967], [34.191601399606355, 37.77952267536873], [34.190523421265425, 37.77952267536873], [34.190523421265425, 37.775749751175425], [34.191062410435904, 37.775749751175425], [34.191062410435904, 37.7762887403459], [34.192679377947314, 37.7762887403459], [34.192679377947314, 37.775749751175425], [34.193218367117794, 37.775749751175425], [34.193218367117794, 37.77521076200495]]]}, "properties": {"area_ha": 24.41579590305168, "mean_dnbr": 0.46364207665318347, "compactness": 0.296, "rectangularity": 0.491, "cropland_frac": 0.386, "persistent": true}}, {"type": "Feature", "geometry": {"geodesic": false, "type": "Polygon", "coordinates": [[[35.027034613837515, 37.1074031797905], [35.027573603007994, 37.1074031797905], [35.027573603007994, 37.107942168960975], [35.02811259217847, 37.107942168960975], [35.02811259217847, 37.10848115813145], [35.028651581348925, 37.10848115813145], [35.028651581348925, 37.10902014730192], [35.02811259217847, 37.10902014730192], [35.02811259217847, 37.10955913647239], [35.029190570519404, 37.10955913647239], [35.029190570519404, 37.10902014730192], [35.02972955968988, 37.10902014730192], [35.02972955968988, 37.10848115813145], [35.03134652720129, 37.10848115813145], [35.03134652720129, 37.10902014730192], [35.032424505542224, 37.10902014730192], [35.032424505542224, 37.10848115813145], [35.03350248388318, 37.10848115813145], [35.03350248388318, 37.10902014730192], [35.03458046222411, 37.10902014730192], [35.03458046222411, 37.10955913647239], [35.03404147305366, 37.10955913647239], [35.03404147305366, 37.111715093154274], [35.03458046222411, 37.111715093154274], [35.03458046222411, 37.112254082324746], [35.03511945139459, 37.112254082324746], [35.03511945139459, 37.11548801734758], [35.0329634947127, 37.11548801734758], [35.0329634947127, 37.11387104983616], [35.03188551637177, 37.11387104983616], [35.03188551637177, 37.112254082324746], [35.03134652720129, 37.112254082324746], [35.03134652720129, 37.1111761039838], [35.030807538030814, 37.1111761039838], [35.030807538030814, 37.11063711481333], [35.02972955968988, 37.11063711481333], [35.02972955968988, 37.110098125642864], [35.029190570519404, 37.110098125642864], [35.029190570519404, 37.11063711481333], [35.028651581348925, 37.11063711481333], [35.028651581348925, 37.1111761039838], [35.02972955968988, 37.1111761039838], [35.02972955968988, 37.112254082324746], [35.029190570519404, 37.112254082324746], [35.029190570519404, 37.11333206066569], [35.02972955968988, 37.11333206066569], [35.02972955968988, 37.11387104983616], [35.02811259217847, 37.11387104983616], [35.02811259217847, 37.114410039006636], [35.032424505542224, 37.114410039006636], [35.032424505542224, 37.11494902817711], [35.03134652720129, 37.11494902817711], [35.03134652720129, 37.11602700651805], [35.03026854886036, 37.11602700651805], [35.03026854886036, 37.11764397402946], [35.02972955968988, 37.11764397402946], [35.02972955968988, 37.11710498485899], [35.029190570519404, 37.11710498485899], [35.029190570519404, 37.11764397402946], [35.028651581348925, 37.11764397402946], [35.028651581348925, 37.118182963199935], [35.02811259217847, 37.118182963199935], [35.02811259217847, 37.11710498485899], [35.027573603007994, 37.11710498485899], [35.027573603007994, 37.11602700651805], [35.026495624667035, 37.11602700651805], [35.026495624667035, 37.11656599568852], [35.025956635496584, 37.11656599568852], [35.025956635496584, 37.11602700651805], [35.025417646326105, 37.11602700651805], [35.025417646326105, 37.11548801734758], [35.024878657155625, 37.11548801734758], [35.024878657155625, 37.11494902817711], [35.024339667985174, 37.11494902817711], [35.024339667985174, 37.11387104983616], [35.024878657155625, 37.11387104983616], [35.024878657155625, 37.11333206066569], [35.024339667985174, 37.11333206066569], [35.024339667985174, 37.112254082324746], [35.023800678814695, 37.112254082324746], [35.023800678814695, 37.111715093154274], [35.023261689644215, 37.111715093154274], [35.023261689644215, 37.1111761039838], [35.023800678814695, 37.1111761039838], [35.023800678814695, 37.111715093154274], [35.025956635496584, 37.111715093154274], [35.025956635496584, 37.1111761039838], [35.024878657155625, 37.1111761039838], [35.024878657155625, 37.11063711481333], [35.023261689644215, 37.11063711481333], [35.023261689644215, 37.10955913647239], [35.022722700473736, 37.10955913647239], [35.022722700473736, 37.10902014730192], [35.023800678814695, 37.10902014730192], [35.023800678814695, 37.10848115813145], [35.025956635496584, 37.10848115813145], [35.025956635496584, 37.107942168960975], [35.027034613837515, 37.107942168960975], [35.027034613837515, 37.1074031797905]], [[35.02811259217847, 37.11548801734758], [35.02811259217847, 37.11602700651805], [35.027573603007994, 37.11602700651805], [35.027573603007994, 37.11548801734758], [35.02811259217847, 37.11548801734758]], [[35.03026854886036, 37.11548801734758], [35.03026854886036, 37.11602700651805], [35.02972955968988, 37.11602700651805], [35.02972955968988, 37.11548801734758], [35.03026854886036, 37.11548801734758]], [[35.02972955968988, 37.11494902817711], [35.02972955968988, 37.11548801734758], [35.029190570519404, 37.11548801734758], [35.029190570519404, 37.11494902817711], [35.02972955968988, 37.11494902817711]], [[35.02811259217847, 37.114410039006636], [35.02811259217847, 37.11494902817711], [35.027034613837515, 37.11494902817711], [35.027034613837515, 37.114410039006636], [35.02811259217847, 37.114410039006636]], [[35.025417646326105, 37.11387104983616], [35.025417646326105, 37.114410039006636], [35.024878657155625, 37.114410039006636], [35.024878657155625, 37.11387104983616], [35.025417646326105, 37.11387104983616]], [[35.026495624667035, 37.11279307149522], [35.026495624667035, 37.11333206066569], [35.025956635496584, 37.11333206066569], [35.025956635496584, 37.11279307149522], [35.026495624667035, 37.11279307149522]], [[35.028651581348925, 37.1111761039838], [35.028651581348925, 37.111715093154274], [35.029190570519404, 37.111715093154274], [35.029190570519404, 37.112254082324746], [35.028651581348925, 37.112254082324746], [35.028651581348925, 37.11333206066569], [35.02811259217847, 37.11333206066569], [35.02811259217847, 37.11387104983616], [35.027034613837515, 37.11387104983616], [35.027034613837515, 37.114410039006636], [35.025956635496584, 37.114410039006636], [35.025956635496584, 37.11387104983616], [35.026495624667035, 37.11387104983616], [35.026495624667035, 37.11333206066569], [35.027034613837515, 37.11333206066569], [35.027034613837515, 37.11279307149522], [35.026495624667035, 37.11279307149522], [35.026495624667035, 37.112254082324746], [35.027034613837515, 37.112254082324746], [35.027034613837515, 37.111715093154274], [35.02811259217847, 37.111715093154274], [35.02811259217847, 37.1111761039838], [35.028651581348925, 37.1111761039838]], [[35.03404147305366, 37.11333206066569], [35.03404147305366, 37.114410039006636], [35.03350248388318, 37.114410039006636], [35.03350248388318, 37.11333206066569], [35.03404147305366, 37.11333206066569]], [[35.03350248388318, 37.11063711481333], [35.03350248388318, 37.1111761039838], [35.0329634947127, 37.1111761039838], [35.0329634947127, 37.11063711481333], [35.03350248388318, 37.11063711481333]], [[35.032424505542224, 37.110098125642864], [35.032424505542224, 37.1111761039838], [35.03134652720129, 37.1111761039838], [35.03134652720129, 37.11063711481333], [35.030807538030814, 37.11063711481333], [35.030807538030814, 37.110098125642864], [35.032424505542224, 37.110098125642864]], [[35.025956635496584, 37.10955913647239], [35.025956635496584, 37.110098125642864], [35.024878657155625, 37.110098125642864], [35.024878657155625, 37.10955913647239], [35.025956635496584, 37.10955913647239]], [[35.027034613837515, 37.10955913647239], [35.027034613837515, 37.110098125642864], [35.026495624667035, 37.110098125642864], [35.026495624667035, 37.10955913647239], [35.027034613837515, 37.10955913647239]], [[35.026495624667035, 37.10848115813145], [35.026495624667035, 37.10902014730192], [35.025956635496584, 37.10902014730192], [35.025956635496584, 37.10848115813145], [35.026495624667035, 37.10848115813145]]]}, "properties": {"area_ha": 57.86127828514913, "mean_dnbr": 0.2614528890686473, "compactness": 0.044, "rectangularity": 0.462, "cropland_frac": 0.484, "persistent": true}}, {"type": "Feature", "geometry": {"geodesic": false, "type": "Polygon", "coordinates": [[[35.065841834111495, 37.08799956965352], [35.066380823281946, 37.08799956965352], [35.066380823281946, 37.08853855882399], [35.067458801622905, 37.08853855882399], [35.067458801622905, 37.089616537164936], [35.068536779963836, 37.089616537164936], [35.068536779963836, 37.09015552633541], [35.069614758304795, 37.09015552633541], [35.069614758304795, 37.09069451550588], [35.070692736645725, 37.09069451550588], [35.070692736645725, 37.09123350467635], [35.072309704157135, 37.09123350467635], [35.072309704157135, 37.09069451550588], [35.072848693327614, 37.09069451550588], [35.072848693327614, 37.09015552633541], [35.073387682498094, 37.09015552633541], [35.073387682498094, 37.09069451550588], [35.075004650009504, 37.09069451550588], [35.075004650009504, 37.09123350467635], [35.073387682498094, 37.09123350467635], [35.073387682498094, 37.0923114830173], [35.07392667166857, 37.0923114830173], [35.07392667166857, 37.091772493846825], [35.075004650009504, 37.091772493846825], [35.075004650009504, 37.0923114830173], [35.074465660839024, 37.0923114830173], [35.074465660839024, 37.09285047218776], [35.075004650009504, 37.09285047218776], [35.075004650009504, 37.093389461358235], [35.07554363917998, 37.093389461358235], [35.07554363917998, 37.09446743969918], [35.076082628350434, 37.09446743969918], [35.076082628350434, 37.09500642886965], [35.076621617520914, 37.09500642886965], [35.076621617520914, 37.0960844072106], [35.07716060669139, 37.0960844072106], [35.07716060669139, 37.09716238555154], [35.07769959586187, 37.09716238555154], [35.07769959586187, 37.09877935306295], [35.078238585032324, 37.09877935306295], [35.078238585032324, 37.10093530974484], [35.0787775742028, 37.10093530974484], [35.0787775742028, 37.10147429891531], [35.07931656337328, 37.10147429891531], [35.07931656337328, 37.102013288085786], [35.078238585032324, 37.102013288085786], [35.078238585032324, 37.10309126642673], [35.07985555254376, 37.10309126642673], [35.07985555254376, 37.104169244767675], [35.08039454171421, 37.104169244767675], [35.08039454171421, 37.10524722310861], [35.078238585032324, 37.10524722310861], [35.078238585032324, 37.10470823393814], [35.07769959586187, 37.10470823393814], [35.07769959586187, 37.105786212279085], [35.078238585032324, 37.105786212279085], [35.078238585032324, 37.10632520144956], [35.076621617520914, 37.10632520144956], [35.076621617520914, 37.105786212279085], [35.076082628350434, 37.105786212279085], [35.076082628350434, 37.10686419062003], [35.075004650009504, 37.10686419062003], [35.075004650009504, 37.1074031797905], [35.07392667166857, 37.1074031797905], [35.07392667166857, 37.107942168960975], [35.072848693327614, 37.107942168960975], [35.072848693327614, 37.10848115813145], [35.072309704157135, 37.10848115813145], [35.072309704157135, 37.10902014730192], [35.070692736645725, 37.10902014730192], [35.070692736645725, 37.10955913647239], [35.070153747475246, 37.10955913647239], [35.070153747475246, 37.110098125642864], [35.069614758304795, 37.110098125642864], [35.069614758304795, 37.11063711481333], [35.069075769134315, 37.11063711481333], [35.069075769134315, 37.1111761039838], [35.068536779963836, 37.1111761039838], [35.068536779963836, 37.111715093154274], [35.067997790793385, 37.111715093154274], [35.067997790793385, 37.112254082324746], [35.067458801622905, 37.112254082324746], [35.067458801622905, 37.111715093154274], [35.066919812452426, 37.111715093154274], [35.066919812452426, 37.1111761039838], [35.065841834111495, 37.1111761039838], [35.065841834111495, 37.11063711481333], [35.064763855770536, 37.11063711481333], [35.064763855770536, 37.10955913647239], [35.065302844941016, 37.10955913647239], [35.065302844941016, 37.107942168960975], [35.064763855770536, 37.107942168960975], [35.064763855770536, 37.1074031797905], [35.065302844941016, 37.1074031797905], [35.065302844941016, 37.10632520144956], [35.06422486660006, 37.10632520144956], [35.06422486660006, 37.10524722310861], [35.063685877429606, 37.10524722310861], [35.063685877429606, 37.104169244767675], [35.063146888259126, 37.104169244767675], [35.063146888259126, 37.102013288085786], [35.06422486660006, 37.102013288085786], [35.06422486660006, 37.10147429891531], [35.066919812452426, 37.10147429891531], [35.066919812452426, 37.10093530974484], [35.066380823281946, 37.10093530974484], [35.066380823281946, 37.099318342233424], [35.065841834111495, 37.099318342233424], [35.065841834111495, 37.10039632057437], [35.064763855770536, 37.10039632057437], [35.064763855770536, 37.10093530974484], [35.063146888259126, 37.10093530974484], [35.063146888259126, 37.10039632057437], [35.06422486660006, 37.10039632057437], [35.06422486660006, 37.099857331403896], [35.063146888259126, 37.099857331403896], [35.063146888259126, 37.09877935306295], [35.063685877429606, 37.09877935306295], [35.063685877429606, 37.097701374722014], [35.06260789908865, 37.097701374722014], [35.06260789908865, 37.09662339638107], [35.063146888259126, 37.09662339638107], [35.063146888259126, 37.0960844072106], [35.06260789908865, 37.0960844072106], [35.06260789908865, 37.095545418040125], [35.062068909918196, 37.095545418040125], [35.062068909918196, 37.09446743969918], [35.06260789908865, 37.09446743969918], [35.06260789908865, 37.093389461358235], [35.063146888259126, 37.093389461358235], [35.063146888259126, 37.09285047218776], [35.063685877429606, 37.09285047218776], [35.063685877429606, 37.0923114830173], [35.06422486660006, 37.0923114830173], [35.06422486660006, 37.09015552633541], [35.064763855770536, 37.09015552633541], [35.064763855770536, 37.089616537164936], [35.06422486660006, 37.089616537164936], [35.06422486660006, 37.089077547994464], [35.065302844941016, 37.089077547994464], [35.065302844941016, 37.08853855882399], [35.065841834111495, 37.08853855882399], [35.065841834111495, 37.08799956965352]], [[35.068536779963836, 37.11063711481333], [35.068536779963836, 37.1111761039838], [35.067997790793385, 37.1111761039838], [35.067997790793385, 37.111715093154274], [35.067458801622905, 37.111715093154274], [35.067458801622905, 37.11063711481333], [35.068536779963836, 37.11063711481333]], [[35.069075769134315, 37.10848115813145], [35.069075769134315, 37.10902014730192], [35.067997790793385, 37.10902014730192], [35.067997790793385, 37.10848115813145], [35.069075769134315, 37.10848115813145]], [[35.071231725816205, 37.107942168960975], [35.071231725816205, 37.10848115813145], [35.070692736645725, 37.10848115813145], [35.070692736645725, 37.107942168960975], [35.071231725816205, 37.107942168960975]], [[35.072309704157135, 37.10686419062003], [35.072309704157135, 37.1074031797905], [35.071770714986684, 37.1074031797905], [35.071770714986684, 37.10686419062003], [35.072309704157135, 37.10686419062003]], [[35.071231725816205, 37.10632520144956], [35.071231725816205, 37.10686419062003], [35.069614758304795, 37.10686419062003], [35.069614758304795, 37.10632520144956], [35.071231725816205, 37.10632520144956]], [[35.073387682498094, 37.105786212279085], [35.073387682498094, 37.10632520144956], [35.072309704157135, 37.10632520144956], [35.072309704157135, 37.105786212279085], [35.073387682498094, 37.105786212279085]], [[35.064763855770536, 37.1036302555972], [35.064763855770536, 37.104169244767675], [35.063685877429606, 37.104169244767675], [35.063685877429606, 37.1036302555972], [35.064763855770536, 37.1036302555972]], [[35.07716060669139, 37.10093530974484], [35.07716060669139, 37.10147429891531], [35.076082628350434, 37.10147429891531], [35.076082628350434, 37.10093530974484], [35.07716060669139, 37.10093530974484]], [[35.070692736645725, 37.099318342233424], [35.070692736645725, 37.099857331403896], [35.070153747475246, 37.099857331403896], [35.070153747475246, 37.099318342233424], [35.070692736645725, 37.099318342233424]], [[35.072848693327614, 37.09824036389249], [35.072848693327614, 37.09877935306295], [35.072309704157135, 37.09877935306295], [35.072309704157135, 37.09824036389249], [35.072848693327614, 37.09824036389249]], [[35.072848693327614, 37.09716238555154], [35.072848693327614, 37.097701374722014], [35.072309704157135, 37.097701374722014], [35.072309704157135, 37.09716238555154], [35.072848693327614, 37.09716238555154]], [[35.063685877429606, 37.09500642886965], [35.063685877429606, 37.095545418040125], [35.063146888259126, 37.095545418040125], [35.063146888259126, 37.09500642886965], [35.063685877429606, 37.09500642886965]], [[35.069614758304795, 37.09392845052871], [35.069614758304795, 37.09446743969918], [35.069075769134315, 37.09446743969918], [35.069075769134315, 37.09392845052871], [35.069614758304795, 37.09392845052871]], [[35.070153747475246, 37.093389461358235], [35.070153747475246, 37.09392845052871], [35.069614758304795, 37.09392845052871], [35.069614758304795, 37.093389461358235], [35.070153747475246, 37.093389461358235]], [[35.072848693327614, 37.091772493846825], [35.072848693327614, 37.0923114830173], [35.071770714986684, 37.0923114830173], [35.071770714986684, 37.091772493846825], [35.072848693327614, 37.091772493846825]], [[35.066380823281946, 37.09015552633541], [35.066380823281946, 37.091772493846825], [35.065841834111495, 37.091772493846825], [35.065841834111495, 37.09015552633541], [35.066380823281946, 37.09015552633541]]]}, "properties": {"area_ha": 246.95349779354999, "mean_dnbr": 0.49171973641087346, "compactness": 0.118, "rectangularity": 0.614, "cropland_frac": 0.211, "persistent": true}}]}