{"type": "FeatureCollection", "crs": {"type": "name", "properties": {"name": "urn:ogc:def:crs:OGC:1.3:CRS84"}}, "features": [{"type": "Feature", "geometry": {"geodesic": false, "type": "Polygon", "coordinates": [[[35.487870354590825, 36.77646382912087], [35.48948732210226, 36.77646382912087], [35.48948732210226, 36.77700281829134], [35.490026311272715, 36.77700281829134], [35.490026311272715, 36.77808079663229], [35.487870354590825, 36.77808079663229], [35.487870354590825, 36.78185372082559], [35.486792376249895, 36.78185372082559], [35.486792376249895, 36.78239270999606], [35.486253387079415, 36.78239270999606], [35.486253387079415, 36.783470688337005], [35.484097430397526, 36.783470688337005], [35.484097430397526, 36.78239270999606], [35.484636419568005, 36.78239270999606], [35.484636419568005, 36.78185372082559], [35.484097430397526, 36.78185372082559], [35.484097430397526, 36.7796977641437], [35.483019452056595, 36.7796977641437], [35.483019452056595, 36.779158774973226], [35.482480462886116, 36.779158774973226], [35.482480462886116, 36.7796977641437], [35.481402484545185, 36.7796977641437], [35.481402484545185, 36.77861978580276], [35.482480462886116, 36.77861978580276], [35.482480462886116, 36.777541807461816], [35.483019452056595, 36.777541807461816], [35.483019452056595, 36.77808079663229], [35.485714397908936, 36.77808079663229], [35.485714397908936, 36.777541807461816], [35.486253387079415, 36.777541807461816], [35.486253387079415, 36.77808079663229], [35.487870354590825, 36.77808079663229], [35.487870354590825, 36.777541807461816], [35.487331365420374, 36.777541807461816], [35.487331365420374, 36.77700281829134], [35.487870354590825, 36.77700281829134], [35.487870354590825, 36.77646382912087]]]}, "properties": {"area_ha": 25.02946911305274, "mean_dnbr": 0.3050817674186428, "compactness": 0.237, "rectangularity": 0.424, "cropland_frac": 0.374, "persistent": true}}, {"type": "Feature", "geometry": {"geodesic": false, "type": "Polygon", "coordinates": [[[35.583810426934804, 36.700466356084355], [35.585427394446214, 36.700466356084355], [35.585427394446214, 36.70100534525483], [35.58596638361669, 36.70100534525483], [35.58596638361669, 36.7015443344253], [35.5875833511281, 36.7015443344253], [35.5875833511281, 36.70208332359577], [35.58812234029858, 36.70208332359577], [35.58812234029858, 36.7015443344253], [35.58920031863951, 36.7015443344253], [35.58920031863951, 36.70208332359577], [35.58866132946903, 36.70208332359577], [35.58866132946903, 36.70370029110719], [35.58812234029858, 36.70370029110719], [35.58812234029858, 36.702622312766245], [35.584888405275734, 36.702622312766245], [35.584888405275734, 36.70316130193672], [35.585427394446214, 36.70316130193672], [35.585427394446214, 36.70423928027766], [35.581115481082435, 36.70423928027766], [35.581115481082435, 36.704778269448134], [35.579498513571025, 36.704778269448134], [35.579498513571025, 36.70531725861861], [35.578959524400545, 36.70531725861861], [35.578959524400545, 36.704778269448134], [35.577881546059615, 36.704778269448134], [35.577881546059615, 36.70531725861861], [35.576264578548205, 36.70531725861861], [35.576264578548205, 36.704778269448134], [35.575725589377726, 36.704778269448134], [35.575725589377726, 36.70531725861861], [35.574108621866316, 36.70531725861861], [35.574108621866316, 36.70585624778908], [35.57464761103677, 36.70585624778908], [35.57464761103677, 36.70639523695955], [35.574108621866316, 36.70639523695955], [35.574108621866316, 36.706934226130016], [35.57464761103677, 36.706934226130016], [35.57464761103677, 36.70747321530049], [35.577342556889135, 36.70747321530049], [35.577342556889135, 36.706934226130016], [35.579498513571025, 36.706934226130016], [35.579498513571025, 36.70747321530049], [35.580037502741504, 36.70747321530049], [35.580037502741504, 36.70639523695955], [35.579498513571025, 36.70639523695955], [35.579498513571025, 36.70585624778908], [35.580037502741504, 36.70585624778908], [35.580037502741504, 36.70639523695955], [35.580576491911984, 36.70639523695955], [35.580576491911984, 36.70855119364143], [35.579498513571025, 36.70855119364143], [35.579498513571025, 36.709090182811906], [35.578959524400545, 36.709090182811906], [35.578959524400545, 36.70962917198238], [35.577881546059615, 36.70962917198238], [35.577881546059615, 36.70801220447096], [35.576803567718656, 36.70801220447096], [35.576803567718656, 36.70855119364143], [35.575186600207246, 36.70855119364143], [35.575186600207246, 36.709090182811906], [35.574108621866316, 36.709090182811906], [35.574108621866316, 36.70962917198238], [35.573569632695836, 36.70962917198238], [35.573569632695836, 36.709090182811906], [35.572491654354906, 36.709090182811906], [35.572491654354906, 36.70962917198238], [35.57087468684347, 36.70962917198238], [35.57087468684347, 36.71016816115285], [35.570335697673016, 36.71016816115285], [35.570335697673016, 36.71070715032332], [35.57087468684347, 36.71070715032332], [35.57087468684347, 36.71178512866427], [35.57141367601395, 36.71178512866427], [35.57141367601395, 36.71340209617568], [35.57087468684347, 36.71340209617568], [35.57087468684347, 36.71448007451662], [35.570335697673016, 36.71448007451662], [35.570335697673016, 36.71394108534615], [35.56494580596828, 36.71394108534615], [35.56494580596828, 36.71232411783474], [35.56440681679783, 36.71232411783474], [35.56440681679783, 36.711246139493795], [35.56494580596828, 36.711246139493795], [35.56494580596828, 36.71016816115285], [35.56440681679783, 36.71016816115285], [35.56440681679783, 36.709090182811906], [35.56548479513876, 36.709090182811906], [35.56548479513876, 36.70962917198238], [35.56710176265017, 36.70962917198238], [35.56710176265017, 36.71070715032332], [35.56764075182065, 36.71070715032332], [35.56764075182065, 36.70855119364143], [35.56548479513876, 36.70855119364143], [35.56548479513876, 36.70801220447096], [35.56386782762735, 36.70801220447096], [35.56386782762735, 36.70639523695955], [35.56602378430924, 36.70639523695955], [35.56602378430924, 36.70585624778908], [35.56548479513876, 36.70585624778908], [35.56548479513876, 36.70531725861861], [35.56656277347972, 36.70531725861861], [35.56656277347972, 36.70747321530049], [35.56764075182065, 36.70747321530049], [35.56764075182065, 36.70855119364143], [35.56817974099113, 36.70855119364143], [35.56817974099113, 36.70962917198238], [35.56871873016158, 36.70962917198238], [35.56871873016158, 36.71016816115285], [35.56817974099113, 36.71016816115285], [35.56817974099113, 36.71070715032332], [35.56925771933206, 36.71070715032332], [35.56925771933206, 36.70962917198238], [35.56979670850254, 36.70962917198238], [35.56979670850254, 36.71016816115285], [35.570335697673016, 36.71016816115285], [35.570335697673016, 36.70962917198238], [35.57087468684347, 36.70962917198238], [35.57087468684347, 36.709090182811906], [35.57141367601395, 36.709090182811906], [35.57141367601395, 36.70801220447096], [35.571952665184426, 36.70801220447096], [35.571952665184426, 36.706934226130016], [35.572491654354906, 36.706934226130016], [35.572491654354906, 36.70531725861861], [35.57303064352536, 36.70531725861861], [35.57303064352536, 36.704778269448134], [35.573569632695836, 36.704778269448134], [35.573569632695836, 36.70423928027766], [35.57464761103677, 36.70423928027766], [35.57464761103677, 36.70370029110719], [35.575186600207246, 36.70370029110719], [35.575186600207246, 36.70316130193672], [35.583271437764324, 36.70316130193672], [35.583271437764324, 36.702622312766245], [35.583810426934804, 36.702622312766245], [35.583810426934804, 36.70208332359577], [35.584888405275734, 36.70208332359577], [35.584888405275734, 36.7015443344253], [35.583810426934804, 36.7015443344253], [35.583810426934804, 36.700466356084355]], [[35.56925771933206, 36.712863107005205], [35.56925771933206, 36.71340209617568], [35.56817974099113, 36.71340209617568], [35.56817974099113, 36.712863107005205], [35.56925771933206, 36.712863107005205]], [[35.56602378430924, 36.71178512866427], [35.56602378430924, 36.71232411783474], [35.56548479513876, 36.71232411783474], [35.56548479513876, 36.71178512866427], [35.56602378430924, 36.71178512866427]], [[35.57303064352536, 36.70747321530049], [35.57303064352536, 36.70801220447096], [35.574108621866316, 36.70801220447096], [35.574108621866316, 36.70855119364143], [35.572491654354906, 36.70855119364143], [35.572491654354906, 36.70747321530049], [35.57303064352536, 36.70747321530049]], [[35.576803567718656, 36.70423928027766], [35.576803567718656, 36.704778269448134], [35.576264578548205, 36.704778269448134], [35.576264578548205, 36.70423928027766], [35.576803567718656, 36.70423928027766]]]}, "properties": {"area_ha": 76.88665699380708, "mean_dnbr": 0.35314431894037485, "compactness": 0.044, "rectangularity": 0.277, "cropland_frac": 0.0, "persistent": true}}, {"type": "Feature", "geometry": {"geodesic": false, "type": "Polygon", "coordinates": [[[35.82743353198802, 36.28652267316208], [35.82797252115847, 36.28652267316208], [35.82797252115847, 36.287061662332555], [35.82851151032895, 36.287061662332555], [35.82851151032895, 36.28760065150303], [35.82905049949943, 36.28760065150303], [35.82905049949943, 36.287061662332555], [35.83012847784036, 36.287061662332555], [35.83012847784036, 36.28760065150303], [35.83066746701084, 36.28760065150303], [35.83066746701084, 36.2881396406735], [35.83120645618132, 36.2881396406735], [35.83120645618132, 36.289217619014444], [35.83282342369273, 36.289217619014444], [35.83282342369273, 36.29029559735539], [35.83228443452225, 36.29029559735539], [35.83228443452225, 36.291373575696326], [35.83120645618132, 36.291373575696326], [35.83120645618132, 36.290834586525854], [35.83066746701084, 36.290834586525854], [35.83066746701084, 36.291373575696326], [35.82851151032895, 36.291373575696326], [35.82851151032895, 36.29029559735539], [35.82581656447661, 36.29029559735539], [35.82581656447661, 36.291373575696326], [35.82527757530613, 36.291373575696326], [35.82527757530613, 36.293529532378216], [35.82473858613565, 36.293529532378216], [35.82473858613565, 36.29406852154869], [35.82527757530613, 36.29406852154869], [35.82527757530613, 36.29514649988963], [35.82473858613565, 36.29514649988963], [35.82473858613565, 36.297302456571515], [35.82527757530613, 36.297302456571515], [35.82527757530613, 36.29784144574199], [35.82312161862424, 36.29784144574199], [35.82312161862424, 36.297302456571515], [35.82204364028328, 36.297302456571515], [35.82204364028328, 36.29784144574199], [35.82258262945376, 36.29784144574199], [35.82258262945376, 36.29891942408293], [35.82366060779472, 36.29891942408293], [35.82366060779472, 36.299458413253404], [35.82312161862424, 36.299458413253404], [35.82312161862424, 36.301614369935294], [35.82150465111283, 36.301614369935294], [35.82150465111283, 36.30053639159435], [35.82096566194235, 36.30053639159435], [35.82096566194235, 36.30107538076482], [35.82042667277187, 36.30107538076482], [35.82042667277187, 36.301614369935294], [35.81880970526046, 36.301614369935294], [35.81880970526046, 36.30053639159435], [35.818270716089984, 36.30053639159435], [35.818270716089984, 36.30107538076482], [35.81773172691953, 36.30107538076482], [35.81773172691953, 36.301614369935294], [35.818270716089984, 36.301614369935294], [35.818270716089984, 36.30269234827623], [35.81880970526046, 36.30269234827623], [35.81880970526046, 36.303231337446704], [35.816653748578574, 36.303231337446704], [35.816653748578574, 36.30269234827623], [35.81719273774905, 36.30269234827623], [35.81719273774905, 36.30107538076482], [35.81773172691953, 36.30107538076482], [35.81773172691953, 36.29999740242388], [35.81719273774905, 36.29999740242388], [35.81719273774905, 36.299458413253404], [35.81773172691953, 36.299458413253404], [35.81773172691953, 36.29891942408293], [35.81934869443094, 36.29891942408293], [35.81934869443094, 36.29838043491246], [35.81988768360142, 36.29838043491246], [35.81988768360142, 36.29784144574199], [35.81934869443094, 36.29784144574199], [35.81934869443094, 36.297302456571515], [35.82150465111283, 36.297302456571515], [35.82150465111283, 36.29676346740104], [35.82204364028328, 36.29676346740104], [35.82204364028328, 36.29622447823058], [35.82258262945376, 36.29622447823058], [35.82258262945376, 36.295685489060105], [35.82312161862424, 36.295685489060105], [35.82312161862424, 36.29460751071916], [35.82366060779472, 36.29460751071916], [35.82366060779472, 36.293529532378216], [35.82419959696517, 36.293529532378216], [35.82419959696517, 36.29299054320774], [35.82366060779472, 36.29299054320774], [35.82366060779472, 36.2919125648668], [35.82419959696517, 36.2919125648668], [35.82419959696517, 36.290834586525854], [35.82473858613565, 36.290834586525854], [35.82473858613565, 36.29029559735539], [35.82581656447661, 36.29029559735539], [35.82581656447661, 36.289217619014444], [35.82635555364706, 36.289217619014444], [35.82635555364706, 36.28867862984397], [35.82689454281754, 36.28867862984397], [35.82689454281754, 36.28760065150303], [35.82743353198802, 36.28760065150303], [35.82743353198802, 36.28652267316208]], [[35.82258262945376, 36.299458413253404], [35.82258262945376, 36.29999740242388], [35.82204364028328, 36.29999740242388], [35.82204364028328, 36.299458413253404], [35.82258262945376, 36.299458413253404]], [[35.82366060779472, 36.29622447823058], [35.82366060779472, 36.29676346740104], [35.82312161862424, 36.29676346740104], [35.82312161862424, 36.29622447823058], [35.82366060779472, 36.29622447823058]], [[35.82958948866991, 36.28760065150303], [35.82958948866991, 36.2881396406735], [35.83066746701084, 36.2881396406735], [35.83066746701084, 36.28867862984397], [35.82905049949943, 36.28867862984397], [35.82905049949943, 36.28760065150303], [35.82958948866991, 36.28760065150303]]]}, "properties": {"area_ha": 51.821428643077155, "mean_dnbr": 0.25183983292130985, "compactness": 0.07, "rectangularity": 0.364, "cropland_frac": 0, "persistent": true}}, {"type": "Feature", "geometry": {"geodesic": false, "type": "Polygon", "coordinates": [[[35.86947468728482, 36.2423255611834], [35.87432558981905, 36.2423255611834], [35.87432558981905, 36.24286455035387], [35.87378660064857, 36.24286455035387], [35.87378660064857, 36.243403539524344], [35.87109165479623, 36.243403539524344], [35.87109165479623, 36.24394252869482], [35.87001367645527, 36.24394252869482], [35.87001367645527, 36.24448151786529], [35.86947468728482, 36.24448151786529], [35.86947468728482, 36.24502050703576], [35.86893569811434, 36.24502050703576], [35.86893569811434, 36.24771545288812], [35.86947468728482, 36.24771545288812], [35.86947468728482, 36.248254442058595], [35.87001367645527, 36.248254442058595], [35.87001367645527, 36.24879343122906], [35.87055266562575, 36.24879343122906], [35.87055266562575, 36.24933242039953], [35.87216963313716, 36.24933242039953], [35.87216963313716, 36.24879343122906], [35.87270862230764, 36.24879343122906], [35.87270862230764, 36.24933242039953], [35.87594255733046, 36.24933242039953], [35.87594255733046, 36.249871409570005], [35.87648154650094, 36.249871409570005], [35.87648154650094, 36.252027366251895], [35.87702053567142, 36.252027366251895], [35.87702053567142, 36.25310534459284], [35.87755952484187, 36.25310534459284], [35.87755952484187, 36.254183322933784], [35.87863750318283, 36.254183322933784], [35.87863750318283, 36.25526130127472], [35.87917649235331, 36.25526130127472], [35.87917649235331, 36.255800290445194], [35.87863750318283, 36.255800290445194], [35.87863750318283, 36.25741725795661], [35.87809851401235, 36.25741725795661], [35.87809851401235, 36.2595732146385], [35.87863750318283, 36.2595732146385], [35.87863750318283, 36.26065119297944], [35.8813324490352, 36.26065119297944], [35.8813324490352, 36.26172917132038], [35.87755952484187, 36.26172917132038], [35.87755952484187, 36.26119018214991], [35.87702053567142, 36.26119018214991], [35.87702053567142, 36.26065119297944], [35.87648154650094, 36.26065119297944], [35.87648154650094, 36.262268160490855], [35.87702053567142, 36.262268160490855], [35.87702053567142, 36.26280714966133], [35.87486457898953, 36.26280714966133], [35.87486457898953, 36.26065119297944], [35.87540356816001, 36.26065119297944], [35.87540356816001, 36.2595732146385], [35.87594255733046, 36.2595732146385], [35.87594255733046, 36.25903422546803], [35.87540356816001, 36.25903422546803], [35.87540356816001, 36.25687826878614], [35.87378660064857, 36.25687826878614], [35.87378660064857, 36.256339279615666], [35.87324761147812, 36.256339279615666], [35.87324761147812, 36.25687826878614], [35.87270862230764, 36.25687826878614], [35.87270862230764, 36.255800290445194], [35.87216963313716, 36.255800290445194], [35.87216963313716, 36.25472231210425], [35.87163064396668, 36.25472231210425], [35.87163064396668, 36.254183322933784], [35.87109165479623, 36.254183322933784], [35.87109165479623, 36.25310534459284], [35.87055266562575, 36.25310534459284], [35.87055266562575, 36.25256635542237], [35.87001367645527, 36.25256635542237], [35.87001367645527, 36.25310534459284], [35.86893569811434, 36.25310534459284], [35.86893569811434, 36.25256635542237], [35.86785771977338, 36.25256635542237], [35.86785771977338, 36.25310534459284], [35.86731873060293, 36.25310534459284], [35.86731873060293, 36.25364433376331], [35.86677974143245, 36.25364433376331], [35.86677974143245, 36.25310534459284], [35.86624075226197, 36.25310534459284], [35.86624075226197, 36.25364433376331], [35.865701763091494, 36.25364433376331], [35.865701763091494, 36.25472231210425], [35.86731873060293, 36.25472231210425], [35.86731873060293, 36.25687826878614], [35.86839670894386, 36.25687826878614], [35.86839670894386, 36.25795624712708], [35.86785771977338, 36.25795624712708], [35.86785771977338, 36.25903422546803], [35.86731873060293, 36.25903422546803], [35.86731873060293, 36.2595732146385], [35.86677974143245, 36.2595732146385], [35.86677974143245, 36.26011220380897], [35.86731873060293, 36.26011220380897], [35.86731873060293, 36.26065119297944], [35.86839670894386, 36.26065119297944], [35.86839670894386, 36.26119018214991], [35.86947468728482, 36.26119018214991], [35.86947468728482, 36.26172917132038], [35.86893569811434, 36.26172917132038], [35.86893569811434, 36.2633461388318], [35.86947468728482, 36.2633461388318], [35.86947468728482, 36.26604108468416], [35.87001367645527, 36.26604108468416], [35.87001367645527, 36.26658007385463], [35.86785771977338, 36.26658007385463], [35.86785771977338, 36.2671190630251], [35.86731873060293, 36.2671190630251], [35.86731873060293, 36.26604108468416], [35.86624075226197, 36.26604108468416], [35.86624075226197, 36.2671190630251], [35.86677974143245, 36.2671190630251], [35.86677974143245, 36.26765805219557], [35.86731873060293, 36.26765805219557], [35.86731873060293, 36.26927501970699], [35.86624075226197, 36.26927501970699], [35.86624075226197, 36.268736030536516], [35.865701763091494, 36.268736030536516], [35.865701763091494, 36.268197041366044], [35.86516277392104, 36.268197041366044], [35.86516277392104, 36.26927501970699], [35.864084795580084, 36.26927501970699], [35.864084795580084, 36.27035299804793], [35.86354580640963, 36.27035299804793], [35.86354580640963, 36.27143097638888], [35.864084795580084, 36.27143097638888], [35.864084795580084, 36.27196996555935], [35.86300681723915, 36.27196996555935], [35.86300681723915, 36.27143097638888], [35.861928838898194, 36.27143097638888], [35.861928838898194, 36.27196996555935], [35.86138984972774, 36.27196996555935], [35.86138984972774, 36.27143097638888], [35.859772882216305, 36.27143097638888], [35.859772882216305, 36.27196996555935], [35.859233893045854, 36.27196996555935], [35.859233893045854, 36.270891987218405], [35.858694903875374, 36.270891987218405], [35.858694903875374, 36.27143097638888], [35.858155914704895, 36.27143097638888], [35.858155914704895, 36.270891987218405], [35.857077936363964, 36.270891987218405], [35.857077936363964, 36.27035299804793], [35.856538947193485, 36.27035299804793], [35.856538947193485, 36.26981400887746], [35.853305012170665, 36.26981400887746], [35.853305012170665, 36.270891987218405], [35.854382990511596, 36.270891987218405], [35.854382990511596, 36.27304794390029], [35.852766023000186, 36.27304794390029], [35.852766023000186, 36.27358693307076], [35.852227033829706, 36.27358693307076], [35.852227033829706, 36.274664911411705], [35.853305012170665, 36.274664911411705], [35.853305012170665, 36.27520390058218], [35.854382990511596, 36.27520390058218], [35.854382990511596, 36.274664911411705], [35.854921979682075, 36.274664911411705], [35.854921979682075, 36.27358693307076], [35.855460968852555, 36.27358693307076], [35.855460968852555, 36.27412592224123], [35.855999958023006, 36.27412592224123], [35.855999958023006, 36.27520390058218], [35.855460968852555, 36.27520390058218], [35.855460968852555, 36.27574288975265], [35.854382990511596, 36.27574288975265], [35.854382990511596, 36.27628187892312], [35.854921979682075, 36.27628187892312], [35.854921979682075, 36.276820868093594], [35.854382990511596, 36.276820868093594], [35.854382990511596, 36.27628187892312], [35.853844001341116, 36.27628187892312], [35.853844001341116, 36.27574288975265], [35.850610066318296, 36.27574288975265], [35.850610066318296, 36.27520390058218], [35.85007107714782, 36.27520390058218], [35.85007107714782, 36.274664911411705], [35.84845410963641, 36.274664911411705], [35.84845410963641, 36.27304794390029], [35.848993098806886, 36.27304794390029], [35.848993098806886, 36.27196996555935], [35.849532087977366, 36.27196996555935], [35.849532087977366, 36.268197041366044], [35.85007107714782, 36.268197041366044], [35.85007107714782, 36.26765805219557], [35.850610066318296, 36.26765805219557], [35.850610066318296, 36.2671190630251], [35.851688044659255, 36.2671190630251], [35.851688044659255, 36.26765805219557], [35.852766023000186, 36.26765805219557], [35.852766023000186, 36.2671190630251], [35.853844001341116, 36.2671190630251], [35.853844001341116, 36.26658007385463], [35.855460968852555, 36.26658007385463], [35.855460968852555, 36.2671190630251], [35.855999958023006, 36.2671190630251], [35.855999958023006, 36.26765805219557], [35.858155914704895, 36.26765805219557], [35.858155914704895, 36.268197041366044], [35.859233893045854, 36.268197041366044], [35.859233893045854, 36.268736030536516], [35.859772882216305, 36.268736030536516], [35.859772882216305, 36.268197041366044], [35.862467828068674, 36.268197041366044], [35.862467828068674, 36.26765805219557], [35.864084795580084, 36.26765805219557], [35.864084795580084, 36.2671190630251], [35.86462378475056, 36.2671190630251], [35.86462378475056, 36.26658007385463], [35.86516277392104, 36.26658007385463], [35.86516277392104, 36.26604108468416], [35.865701763091494, 36.26604108468416], [35.865701763091494, 36.26550209551369], [35.86624075226197, 36.26550209551369], [35.86624075226197, 36.26496310634322], [35.86677974143245, 36.26496310634322], [35.86677974143245, 36.2633461388318], [35.86731873060293, 36.2633461388318], [35.86731873060293, 36.26065119297944], [35.86677974143245, 36.26065119297944], [35.86677974143245, 36.26011220380897], [35.86624075226197, 36.26011220380897], [35.86624075226197, 36.25903422546803], [35.865701763091494, 36.25903422546803], [35.865701763091494, 36.2595732146385], [35.86516277392104, 36.2595732146385], [35.86516277392104, 36.25903422546803], [35.86354580640963, 36.25903422546803], [35.86354580640963, 36.258495236297556], [35.862467828068674, 36.258495236297556], [35.862467828068674, 36.25795624712708], [35.86300681723915, 36.25795624712708], [35.86300681723915, 36.25741725795661], [35.86354580640963, 36.25741725795661], [35.86354580640963, 36.256339279615666], [35.864084795580084, 36.256339279615666], [35.864084795580084, 36.25310534459284], [35.86354580640963, 36.25310534459284], [35.86354580640963, 36.25094938791095], [35.86516277392104, 36.25094938791095], [35.86516277392104, 36.249871409570005], [35.865701763091494, 36.249871409570005], [35.865701763091494, 36.24933242039953], [35.86677974143245, 36.24933242039953], [35.86677974143245, 36.24879343122906], [35.86731873060293, 36.24879343122906], [35.86731873060293, 36.248254442058595], [35.86785771977338, 36.248254442058595], [35.86785771977338, 36.246098485376706], [35.86731873060293, 36.246098485376706], [35.86731873060293, 36.24502050703576], [35.86785771977338, 36.24502050703576], [35.86785771977338, 36.24448151786529], [35.86839670894386, 36.24448151786529], [35.86839670894386, 36.24394252869482], [35.86947468728482, 36.24394252869482], [35.86947468728482, 36.2423255611834]], [[35.851688044659255, 36.274664911411705], [35.851688044659255, 36.27520390058218], [35.851149055488776, 36.27520390058218], [35.851149055488776, 36.274664911411705], [35.851688044659255, 36.274664911411705]], [[35.852227033829706, 36.27143097638888], [35.852227033829706, 36.27196996555935], [35.851688044659255, 36.27196996555935], [35.851688044659255, 36.27143097638888], [35.852227033829706, 36.27143097638888]], [[35.86624075226197, 36.2671190630251], [35.86624075226197, 36.268197041366044], [35.865701763091494, 36.268197041366044], [35.865701763091494, 36.2671190630251], [35.86624075226197, 36.2671190630251]], [[35.865701763091494, 36.25472231210425], [35.865701763091494, 36.255800290445194], [35.86462378475056, 36.255800290445194], [35.86462378475056, 36.25526130127472], [35.86516277392104, 36.25526130127472], [35.86516277392104, 36.25472231210425], [35.865701763091494, 36.25472231210425]], [[35.87540356816001, 36.255800290445194], [35.87540356816001, 36.256339279615666], [35.87486457898953, 36.256339279615666], [35.87486457898953, 36.255800290445194], [35.87540356816001, 36.255800290445194]], [[35.87486457898953, 36.25526130127472], [35.87486457898953, 36.255800290445194], [35.87378660064857, 36.255800290445194], [35.87378660064857, 36.25526130127472], [35.87486457898953, 36.25526130127472]], [[35.865701763091494, 36.25094938791095], [35.865701763091494, 36.25148837708142], [35.86516277392104, 36.25148837708142], [35.86516277392104, 36.25094938791095], [35.865701763091494, 36.25094938791095]], [[35.87109165479623, 36.24286455035387], [35.87109165479623, 36.243403539524344], [35.87055266562575, 36.243403539524344], [35.87055266562575, 36.24286455035387], [35.87109165479623, 36.24286455035387]]]}, "properties": {"area_ha": 215.19746115674664, "mean_dnbr": 0.3498499702672859, "compactness": 0.04, "rectangularity": 0.246, "cropland_frac": 0, "persistent": true}}, {"type": "Feature", "geometry": {"geodesic": false, "type": "Polygon", "coordinates": [[[35.88294941654661, 36.25741725795661], [35.88348840571706, 36.25741725795661], [35.88348840571706, 36.25795624712708], [35.88402739488754, 36.25795624712708], [35.88402739488754, 36.258495236297556], [35.88456638405802, 36.258495236297556], [35.88456638405802, 36.25903422546803], [35.8851053732285, 36.25903422546803], [35.8851053732285, 36.2595732146385], [35.88456638405802, 36.2595732146385], [35.88456638405802, 36.25903422546803], [35.88348840571706, 36.25903422546803], [35.88348840571706, 36.2595732146385], [35.88402739488754, 36.2595732146385], [35.88402739488754, 36.26011220380897], [35.88780031908084, 36.26011220380897], [35.88780031908084, 36.26065119297944], [35.88833930825132, 36.26065119297944], [35.88833930825132, 36.26119018214991], [35.8888782974218, 36.26119018214991], [35.8888782974218, 36.26172917132038], [35.88780031908084, 36.26172917132038], [35.88780031908084, 36.262268160490855], [35.88672234073991, 36.262268160490855], [35.88672234073991, 36.26280714966133], [35.88618335156943, 36.26280714966133], [35.88618335156943, 36.2633461388318], [35.88672234073991, 36.2633461388318], [35.88672234073991, 36.26388512800227], [35.88564436239895, 36.26388512800227], [35.88564436239895, 36.264424117172744], [35.88672234073991, 36.264424117172744], [35.88672234073991, 36.26496310634322], [35.88726132991039, 36.26496310634322], [35.88726132991039, 36.264424117172744], [35.8888782974218, 36.264424117172744], [35.8888782974218, 36.26550209551369], [35.88833930825132, 36.26550209551369], [35.88833930825132, 36.26604108468416], [35.88726132991039, 36.26604108468416], [35.88726132991039, 36.26658007385463], [35.8851053732285, 36.26658007385463], [35.8851053732285, 36.26604108468416], [35.88456638405802, 36.26604108468416], [35.88456638405802, 36.26658007385463], [35.88402739488754, 36.26658007385463], [35.88402739488754, 36.26604108468416], [35.88348840571706, 36.26604108468416], [35.88348840571706, 36.26496310634322], [35.88187143820565, 36.26496310634322], [35.88187143820565, 36.26388512800227], [35.88241042737613, 36.26388512800227], [35.88241042737613, 36.2633461388318], [35.88348840571706, 36.2633461388318], [35.88348840571706, 36.26280714966133], [35.8813324490352, 36.26280714966133], [35.8813324490352, 36.2633461388318], [35.88025447069424, 36.2633461388318], [35.88025447069424, 36.26496310634322], [35.87917649235331, 36.26496310634322], [35.87917649235331, 36.26388512800227], [35.87971548152376, 36.26388512800227], [35.87971548152376, 36.2633461388318], [35.87917649235331, 36.2633461388318], [35.87917649235331, 36.26280714966133], [35.87971548152376, 36.26280714966133], [35.87971548152376, 36.2633461388318], [35.88025447069424, 36.2633461388318], [35.88025447069424, 36.26280714966133], [35.88079345986472, 36.26280714966133], [35.88079345986472, 36.262268160490855], [35.88294941654661, 36.262268160490855], [35.88294941654661, 36.26172917132038], [35.88348840571706, 36.26172917132038], [35.88348840571706, 36.26119018214991], [35.88294941654661, 36.26119018214991], [35.88294941654661, 36.26011220380897], [35.88187143820565, 36.26011220380897], [35.88187143820565, 36.2595732146385], [35.88294941654661, 36.2595732146385], [35.88294941654661, 36.25741725795661]], [[35.88564436239895, 36.26550209551369], [35.88564436239895, 36.26604108468416], [35.8851053732285, 36.26604108468416], [35.8851053732285, 36.26550209551369], [35.88564436239895, 36.26550209551369]], [[35.88618335156943, 36.26119018214991], [35.88618335156943, 36.26172917132038], [35.88672234073991, 36.26172917132038], [35.88672234073991, 36.262268160490855], [35.88456638405802, 36.262268160490855], [35.88456638405802, 36.26172917132038], [35.8851053732285, 36.26172917132038], [35.8851053732285, 36.26119018214991], [35.88618335156943, 36.26119018214991]], [[35.8851053732285, 36.26065119297944], [35.8851053732285, 36.26119018214991], [35.88402739488754, 36.26119018214991], [35.88402739488754, 36.26065119297944], [35.8851053732285, 36.26065119297944]]]}, "properties": {"area_ha": 33.596286055766875, "mean_dnbr": 0.25406038800511843, "compactness": 0.074, "rectangularity": 0.403, "cropland_frac": 0, "persistent": true}}, {"type": "Feature", "geometry": {"geodesic": false, "type": "Polygon", "coordinates": [[[35.89588515663792, 36.22238296187595], [35.896963134978876, 36.22238296187595], [35.896963134978876, 36.22292195104642], [35.899658080831216, 36.22292195104642], [35.899658080831216, 36.22399992938737], [35.898580102490286, 36.22399992938737], [35.898580102490286, 36.22453891855783], [35.89588515663792, 36.22453891855783], [35.89588515663792, 36.225077907728306], [35.89534616746744, 36.225077907728306], [35.89534616746744, 36.22561689689878], [35.89426818912651, 36.22561689689878], [35.89426818912651, 36.227233864410195], [35.893190210785576, 36.227233864410195], [35.893190210785576, 36.22777285358067], [35.8926512216151, 36.22777285358067], [35.8926512216151, 36.22669487523972], [35.89157324327414, 36.22669487523972], [35.89157324327414, 36.227233864410195], [35.89103425410369, 36.227233864410195], [35.89103425410369, 36.22777285358067], [35.89157324327414, 36.22777285358067], [35.89157324327414, 36.22831184275114], [35.89103425410369, 36.22831184275114], [35.89103425410369, 36.22885083192161], [35.89049526493321, 36.22885083192161], [35.89049526493321, 36.229389821092084], [35.88995627576273, 36.229389821092084], [35.88995627576273, 36.22992881026256], [35.88941728659225, 36.22992881026256], [35.88941728659225, 36.22831184275114], [35.8888782974218, 36.22831184275114], [35.8888782974218, 36.227233864410195], [35.88780031908084, 36.227233864410195], [35.88780031908084, 36.22777285358067], [35.88672234073991, 36.22777285358067], [35.88672234073991, 36.22669487523972], [35.88726132991039, 36.22669487523972], [35.88726132991039, 36.22615588606925], [35.88780031908084, 36.22615588606925], [35.88780031908084, 36.22561689689878], [35.88833930825132, 36.22561689689878], [35.88833930825132, 36.225077907728306], [35.88941728659225, 36.225077907728306], [35.88941728659225, 36.22453891855783], [35.88995627576273, 36.22453891855783], [35.88995627576273, 36.22399992938737], [35.89103425410369, 36.22399992938737], [35.89103425410369, 36.223460940216896], [35.89157324327414, 36.223460940216896], [35.89157324327414, 36.22453891855783], [35.8926512216151, 36.22453891855783], [35.8926512216151, 36.22399992938737], [35.89372919995603, 36.22399992938737], [35.89372919995603, 36.22238296187595], [35.89534616746744, 36.22238296187595], [35.89534616746744, 36.22292195104642], [35.89588515663792, 36.22292195104642], [35.89588515663792, 36.22238296187595]]]}, "properties": {"area_ha": 35.35100479673964, "mean_dnbr": 0.3121121739593798, "compactness": 0.192, "rectangularity": 0.538, "cropland_frac": 0, "persistent": true}}, {"type": "Feature", "geometry": {"geodesic": false, "type": "Polygon", "coordinates": [[[36.23544833403511, 36.5624851284436], [36.23598732320556, 36.5624851284436], [36.23598732320556, 36.56302411761407], [36.23706530154652, 36.56302411761407], [36.23706530154652, 36.56356310678454], [36.237604290717, 36.56356310678454], [36.237604290717, 36.564102095955015], [36.23706530154652, 36.564102095955015], [36.23706530154652, 36.56464108512549], [36.237604290717, 36.56464108512549], [36.237604290717, 36.56518007429596], [36.23814327988745, 36.56518007429596], [36.23814327988745, 36.566258052636904], [36.23868226905793, 36.566258052636904], [36.23868226905793, 36.567875020148314], [36.23814327988745, 36.567875020148314], [36.23814327988745, 36.56895299848926], [36.23652631237604, 36.56895299848926], [36.23652631237604, 36.56949198765973], [36.23544833403511, 36.56949198765973], [36.23544833403511, 36.5700309768302], [36.23490934486463, 36.5700309768302], [36.23490934486463, 36.56949198765973], [36.233831366523674, 36.56949198765973], [36.233831366523674, 36.56895299848926], [36.23329237735322, 36.56895299848926], [36.23329237735322, 36.568414009318786], [36.231136420671334, 36.568414009318786], [36.231136420671334, 36.56733603097785], [36.230597431500854, 36.56733603097785], [36.230597431500854, 36.566797041807376], [36.230058442330375, 36.566797041807376], [36.230058442330375, 36.56571906346643], [36.229519453159924, 36.56571906346643], [36.229519453159924, 36.56464108512549], [36.230058442330375, 36.56464108512549], [36.230058442330375, 36.564102095955015], [36.23652631237604, 36.564102095955015], [36.23652631237604, 36.56356310678454], [36.23544833403511, 36.56356310678454], [36.23544833403511, 36.5624851284436]], [[36.23437035569415, 36.56518007429596], [36.23437035569415, 36.56571906346643], [36.233831366523674, 36.56571906346643], [36.233831366523674, 36.566258052636904], [36.23275338818274, 36.566258052636904], [36.23275338818274, 36.56518007429596], [36.23437035569415, 36.56518007429596]]]}, "properties": {"area_ha": 38.36951520211032, "mean_dnbr": 0.2850157647741513, "compactness": 0.282, "rectangularity": 0.642, "cropland_frac": 0, "persistent": true}}, {"type": "Feature", "geometry": {"geodesic": false, "type": "Polygon", "coordinates": [[[36.28665230522992, 36.73873458718785], [36.28719129440037, 36.73873458718785], [36.28719129440037, 36.73927357635832], [36.28773028357085, 36.73927357635832], [36.28773028357085, 36.739812565528794], [36.28826927274133, 36.739812565528794], [36.28826927274133, 36.74035155469927], [36.28880826191181, 36.74035155469927], [36.28880826191181, 36.74196852221068], [36.28826927274133, 36.74196852221068], [36.28826927274133, 36.74304650055162], [36.28880826191181, 36.74304650055162], [36.28880826191181, 36.74358548972209], [36.28988624025274, 36.74358548972209], [36.28988624025274, 36.74304650055162], [36.29258118610511, 36.74304650055162], [36.29258118610511, 36.74358548972209], [36.29204219693463, 36.74358548972209], [36.29204219693463, 36.74466346806304], [36.29312017527556, 36.74466346806304], [36.29312017527556, 36.74520245723351], [36.29419815361652, 36.74520245723351], [36.29419815361652, 36.74466346806304], [36.29635411029841, 36.74466346806304], [36.29635411029841, 36.74520245723351], [36.29689309946889, 36.74520245723351], [36.29689309946889, 36.74574144640398], [36.29797107780982, 36.74574144640398], [36.29797107780982, 36.746280435574455], [36.2985100669803, 36.746280435574455], [36.2985100669803, 36.74681942474493], [36.29797107780982, 36.74681942474493], [36.29797107780982, 36.746280435574455], [36.29689309946889, 36.746280435574455], [36.29689309946889, 36.74574144640398], [36.29527613195745, 36.74574144640398], [36.29527613195745, 36.74520245723351], [36.294737142787, 36.74520245723351], [36.294737142787, 36.74574144640398], [36.29312017527556, 36.74574144640398], [36.29312017527556, 36.746280435574455], [36.29258118610511, 36.746280435574455], [36.29258118610511, 36.74681942474493], [36.29204219693463, 36.74681942474493], [36.29204219693463, 36.748436392256345], [36.28934725108226, 36.748436392256345], [36.28934725108226, 36.74789740308587], [36.28880826191181, 36.74789740308587], [36.28880826191181, 36.7473584139154], [36.28773028357085, 36.7473584139154], [36.28773028357085, 36.746280435574455], [36.28719129440037, 36.746280435574455], [36.28719129440037, 36.74574144640398], [36.28773028357085, 36.74574144640398], [36.28773028357085, 36.74520245723351], [36.28665230522992, 36.74520245723351], [36.28665230522992, 36.74358548972209], [36.28611331605944, 36.74358548972209], [36.28611331605944, 36.744124478892566], [36.28557432688896, 36.744124478892566], [36.28557432688896, 36.74466346806304], [36.28395735937755, 36.74466346806304], [36.28395735937755, 36.744124478892566], [36.28341837020707, 36.744124478892566], [36.28341837020707, 36.74466346806304], [36.28287938103662, 36.74466346806304], [36.28287938103662, 36.74574144640398], [36.28234039186614, 36.74574144640398], [36.28234039186614, 36.74681942474493], [36.281262413525184, 36.74681942474493], [36.281262413525184, 36.7473584139154], [36.28072342435473, 36.7473584139154], [36.28072342435473, 36.74789740308587], [36.279645446013774, 36.74789740308587], [36.279645446013774, 36.74897538142681], [36.27910645684332, 36.74897538142681], [36.27910645684332, 36.74951437059728], [36.28072342435473, 36.74951437059728], [36.28072342435473, 36.750053359767755], [36.28180140269566, 36.750053359767755], [36.28180140269566, 36.74951437059728], [36.28234039186614, 36.74951437059728], [36.28234039186614, 36.750053359767755], [36.28287938103662, 36.750053359767755], [36.28287938103662, 36.74951437059728], [36.28395735937755, 36.74951437059728], [36.28395735937755, 36.750053359767755], [36.28557432688896, 36.750053359767755], [36.28557432688896, 36.75059234893823], [36.28665230522992, 36.75059234893823], [36.28665230522992, 36.7511313381087], [36.28719129440037, 36.7511313381087], [36.28719129440037, 36.75167032727917], [36.28773028357085, 36.75167032727917], [36.28773028357085, 36.752209316449644], [36.28826927274133, 36.752209316449644], [36.28826927274133, 36.75328729479059], [36.28880826191181, 36.75328729479059], [36.28880826191181, 36.752748305620116], [36.28934725108226, 36.752748305620116], [36.28934725108226, 36.75436527313153], [36.28880826191181, 36.75436527313153], [36.28880826191181, 36.754904262302], [36.28773028357085, 36.754904262302], [36.28773028357085, 36.75436527313153], [36.28665230522992, 36.75436527313153], [36.28665230522992, 36.75328729479059], [36.28503533771851, 36.75328729479059], [36.28503533771851, 36.75436527313153], [36.28449634854803, 36.75436527313153], [36.28449634854803, 36.75544325147247], [36.28395735937755, 36.75544325147247], [36.28395735937755, 36.75598224064294], [36.28341837020707, 36.75598224064294], [36.28341837020707, 36.756521229813416], [36.28234039186614, 36.756521229813416], [36.28234039186614, 36.75759920815436], [36.28287938103662, 36.75759920815436], [36.28287938103662, 36.75813819732483], [36.28341837020707, 36.75813819732483], [36.28341837020707, 36.758677186495305], [36.28395735937755, 36.758677186495305], [36.28395735937755, 36.75921617566578], [36.28449634854803, 36.75921617566578], [36.28449634854803, 36.75975516483625], [36.28557432688896, 36.75975516483625], [36.28557432688896, 36.76191112151813], [36.28611331605944, 36.76191112151813], [36.28611331605944, 36.76298909985908], [36.28665230522992, 36.76298909985908], [36.28665230522992, 36.76352808902955], [36.28503533771851, 36.76352808902955], [36.28503533771851, 36.76298909985908], [36.28341837020707, 36.76298909985908], [36.28341837020707, 36.76352808902955], [36.28180140269566, 36.76352808902955], [36.28180140269566, 36.76298909985908], [36.28072342435473, 36.76298909985908], [36.28072342435473, 36.76352808902955], [36.28018443518425, 36.76352808902955], [36.28018443518425, 36.762450110688604], [36.279645446013774, 36.762450110688604], [36.279645446013774, 36.76191112151813], [36.27856746767284, 36.76191112151813], [36.27856746767284, 36.76137213234766], [36.278028478502364, 36.76137213234766], [36.278028478502364, 36.762450110688604], [36.27856746767284, 36.762450110688604], [36.27856746767284, 36.76298909985908], [36.27910645684332, 36.76298909985908], [36.27910645684332, 36.76406707820002], [36.27856746767284, 36.76406707820002], [36.27856746767284, 36.765145056540966], [36.278028478502364, 36.765145056540966], [36.278028478502364, 36.764606067370494], [36.27695050016143, 36.764606067370494], [36.27695050016143, 36.765145056540966], [36.276411510990954, 36.765145056540966], [36.276411510990954, 36.764606067370494], [36.275872521820475, 36.764606067370494], [36.275872521820475, 36.76406707820002], [36.274255554309065, 36.76406707820002], [36.274255554309065, 36.76352808902955], [36.273716565138585, 36.76352808902955], [36.273716565138585, 36.76406707820002], [36.273177575968134, 36.76406707820002], [36.273177575968134, 36.764606067370494], [36.271021619286245, 36.764606067370494], [36.271021619286245, 36.765145056540966], [36.271560608456696, 36.765145056540966], [36.271560608456696, 36.76622303488191], [36.270482630115765, 36.76622303488191], [36.270482630115765, 36.766762024052376], [36.269943640945286, 36.766762024052376], [36.269943640945286, 36.76622303488191], [36.269404651774806, 36.76622303488191], [36.269404651774806, 36.76568404571144], [36.269943640945286, 36.76568404571144], [36.269943640945286, 36.764606067370494], [36.269404651774806, 36.764606067370494], [36.269404651774806, 36.765145056540966], [36.268865662604355, 36.765145056540966], [36.268865662604355, 36.764606067370494], [36.269404651774806, 36.764606067370494], [36.269404651774806, 36.76406707820002], [36.267787684263396, 36.76406707820002], [36.267787684263396, 36.76352808902955], [36.266709705922466, 36.76352808902955], [36.266709705922466, 36.762450110688604], [36.266170716751986, 36.762450110688604], [36.266170716751986, 36.76191112151813], [36.266709705922466, 36.76191112151813], [36.266709705922466, 36.762450110688604], [36.267787684263396, 36.762450110688604], [36.267787684263396, 36.76191112151813], [36.268326673433876, 36.76191112151813], [36.268326673433876, 36.76029415400672], [36.268865662604355, 36.76029415400672], [36.268865662604355, 36.75975516483625], [36.267787684263396, 36.75975516483625], [36.267787684263396, 36.75921617566578], [36.268865662604355, 36.75921617566578], [36.268865662604355, 36.75813819732483], [36.267787684263396, 36.75813819732483], [36.267787684263396, 36.75759920815436], [36.268326673433876, 36.75759920815436], [36.268326673433876, 36.75706021898389], [36.268865662604355, 36.75706021898389], [36.268865662604355, 36.75598224064294], [36.269404651774806, 36.75598224064294], [36.269404651774806, 36.75544325147247], [36.271021619286245, 36.75544325147247], [36.271021619286245, 36.75436527313153], [36.271560608456696, 36.75436527313153], [36.271560608456696, 36.75382628396106], [36.271021619286245, 36.75382628396106], [36.271021619286245, 36.75328729479059], [36.270482630115765, 36.75328729479059], [36.270482630115765, 36.752748305620116], [36.269943640945286, 36.752748305620116], [36.269943640945286, 36.75328729479059], [36.269404651774806, 36.75328729479059], [36.269404651774806, 36.75382628396106], [36.268865662604355, 36.75382628396106], [36.268865662604355, 36.75436527313153], [36.267787684263396, 36.75436527313153], [36.267787684263396, 36.75382628396106], [36.267248695092945, 36.75382628396106], [36.267248695092945, 36.75328729479059], [36.266709705922466, 36.75328729479059], [36.266709705922466, 36.752748305620116], [36.267248695092945, 36.752748305620116], [36.267248695092945, 36.7511313381087], [36.268865662604355, 36.7511313381087], [36.268865662604355, 36.750053359767755], [36.270482630115765, 36.750053359767755], [36.270482630115765, 36.74897538142681], [36.269943640945286, 36.74897538142681], [36.269943640945286, 36.748436392256345], [36.270482630115765, 36.748436392256345], [36.270482630115765, 36.74789740308587], [36.272099597627175, 36.74789740308587], [36.272099597627175, 36.7473584139154], [36.272638586797655, 36.7473584139154], [36.272638586797655, 36.74789740308587], [36.273177575968134, 36.74789740308587], [36.273177575968134, 36.74681942474493], [36.273716565138585, 36.74681942474493], [36.273716565138585, 36.746280435574455], [36.274794543479544, 36.746280435574455], [36.274794543479544, 36.74574144640398], [36.275333532649995, 36.74574144640398], [36.275333532649995, 36.744124478892566], [36.276411510990954, 36.744124478892566], [36.276411510990954, 36.74304650055162], [36.27910645684332, 36.74304650055162], [36.27910645684332, 36.742507511381156], [36.28018443518425, 36.742507511381156], [36.28018443518425, 36.74196852221068], [36.28072342435473, 36.74196852221068], [36.28072342435473, 36.74142953304021], [36.28287938103662, 36.74142953304021], [36.28287938103662, 36.74089054386974], [36.28395735937755, 36.74089054386974], [36.28395735937755, 36.74035155469927], [36.28503533771851, 36.74035155469927], [36.28503533771851, 36.73927357635832], [36.28665230522992, 36.73927357635832], [36.28665230522992, 36.73873458718785]], [[36.270482630115765, 36.76406707820002], [36.270482630115765, 36.764606067370494], [36.269943640945286, 36.764606067370494], [36.269943640945286, 36.76406707820002], [36.270482630115765, 36.76406707820002]], [[36.274794543479544, 36.76298909985908], [36.274794543479544, 36.76352808902955], [36.274255554309065, 36.76352808902955], [36.274255554309065, 36.76298909985908], [36.274794543479544, 36.76298909985908]], [[36.27856746767284, 36.76298909985908], [36.27856746767284, 36.76352808902955], [36.277489489331884, 36.76352808902955], [36.277489489331884, 36.76298909985908], [36.27856746767284, 36.76298909985908]], [[36.274794543479544, 36.76191112151813], [36.274794543479544, 36.762450110688604], [36.274255554309065, 36.762450110688604], [36.274255554309065, 36.76191112151813], [36.274794543479544, 36.76191112151813]], [[36.28180140269566, 36.76137213234766], [36.28180140269566, 36.76191112151813], [36.281262413525184, 36.76191112151813], [36.281262413525184, 36.76137213234766], [36.28180140269566, 36.76137213234766]], [[36.269943640945286, 36.75759920815436], [36.269943640945286, 36.75813819732483], [36.269404651774806, 36.75813819732483], [36.269404651774806, 36.75759920815436], [36.269943640945286, 36.75759920815436]], [[36.28234039186614, 36.75598224064294], [36.28234039186614, 36.756521229813416], [36.28180140269566, 36.756521229813416], [36.28180140269566, 36.75598224064294], [36.28234039186614, 36.75598224064294]], [[36.271021619286245, 36.750053359767755], [36.271021619286245, 36.75059234893823], [36.270482630115765, 36.75059234893823], [36.270482630115765, 36.750053359767755], [36.271021619286245, 36.750053359767755]], [[36.27910645684332, 36.750053359767755], [36.27910645684332, 36.75059234893823], [36.278028478502364, 36.75059234893823], [36.278028478502364, 36.750053359767755], [36.27910645684332, 36.750053359767755]], [[36.271560608456696, 36.74951437059728], [36.271560608456696, 36.750053359767755], [36.271021619286245, 36.750053359767755], [36.271021619286245, 36.74951437059728], [36.271560608456696, 36.74951437059728]], [[36.27856746767284, 36.748436392256345], [36.27856746767284, 36.74951437059728], [36.278028478502364, 36.74951437059728], [36.278028478502364, 36.750053359767755], [36.277489489331884, 36.750053359767755], [36.277489489331884, 36.74897538142681], [36.278028478502364, 36.74897538142681], [36.278028478502364, 36.748436392256345], [36.27856746767284, 36.748436392256345]], [[36.28773028357085, 36.742507511381156], [36.28773028357085, 36.74358548972209], [36.28665230522992, 36.74358548972209], [36.28665230522992, 36.74304650055162], [36.28719129440037, 36.74304650055162], [36.28719129440037, 36.742507511381156], [36.28773028357085, 36.742507511381156]]]}, "properties": {"area_ha": 345.6415505839777, "mean_dnbr": 0.3813709787465676, "compactness": 0.073, "rectangularity": 0.461, "cropland_frac": 0, "persistent": true}}, {"type": "Feature", "geometry": {"geodesic": false, "type": "Polygon", "coordinates": [[[36.30174400200312, 36.73657863050597], [36.30282198034408, 36.73657863050597], [36.30282198034408, 36.73711761967643], [36.30389995868501, 36.73711761967643], [36.30389995868501, 36.73819559801738], [36.30282198034408, 36.73819559801738], [36.30282198034408, 36.737656608846905], [36.3022829911736, 36.737656608846905], [36.3022829911736, 36.73873458718785], [36.30389995868501, 36.73873458718785], [36.30389995868501, 36.74035155469927], [36.30336096951453, 36.74035155469927], [36.30336096951453, 36.74089054386974], [36.30282198034408, 36.74089054386974], [36.30282198034408, 36.74142953304021], [36.3022829911736, 36.74142953304021], [36.3022829911736, 36.744124478892566], [36.30066602366219, 36.744124478892566], [36.30066602366219, 36.74358548972209], [36.29958804532123, 36.74358548972209], [36.29958804532123, 36.74304650055162], [36.30012703449171, 36.74304650055162], [36.30012703449171, 36.742507511381156], [36.30174400200312, 36.742507511381156], [36.30174400200312, 36.74196852221068], [36.30066602366219, 36.74196852221068], [36.30066602366219, 36.74142953304021], [36.30012703449171, 36.74142953304021], [36.30012703449171, 36.74035155469927], [36.29958804532123, 36.74035155469927], [36.29958804532123, 36.74196852221068], [36.29904905615075, 36.74196852221068], [36.29904905615075, 36.74142953304021], [36.2985100669803, 36.74142953304021], [36.2985100669803, 36.74035155469927], [36.29958804532123, 36.74035155469927], [36.29958804532123, 36.739812565528794], [36.29904905615075, 36.739812565528794], [36.29904905615075, 36.73819559801738], [36.30012703449171, 36.73819559801738], [36.30012703449171, 36.737656608846905], [36.30120501283264, 36.737656608846905], [36.30120501283264, 36.73711761967643], [36.30174400200312, 36.73711761967643], [36.30174400200312, 36.73657863050597]]]}, "properties": {"area_ha": 22.163980981149056, "mean_dnbr": 0.2434737579394113, "compactness": 0.184, "rectangularity": 0.55, "cropland_frac": 0, "persistent": true}}, {"type": "Feature", "geometry": {"geodesic": false, "type": "Polygon", "coordinates": [[[36.30497793702594, 36.818504984417665], [36.30551692619642, 36.818504984417665], [36.30551692619642, 36.81904397358814], [36.30713389370783, 36.81904397358814], [36.30713389370783, 36.82119993027002], [36.30659490453738, 36.82119993027002], [36.30659490453738, 36.82335588695191], [36.30551692619642, 36.82335588695191], [36.30551692619642, 36.82173891944049], [36.30443894785549, 36.82173891944049], [36.30443894785549, 36.822277908610964], [36.30389995868501, 36.822277908610964], [36.30389995868501, 36.82173891944049], [36.30336096951453, 36.82173891944049], [36.30336096951453, 36.822277908610964], [36.30282198034408, 36.822277908610964], [36.30282198034408, 36.822816897781436], [36.30120501283264, 36.822816897781436], [36.30120501283264, 36.82335588695191], [36.29958804532123, 36.82335588695191], [36.29958804532123, 36.82389487612238], [36.29904905615075, 36.82389487612238], [36.29904905615075, 36.82443386529285], [36.29958804532123, 36.82443386529285], [36.29958804532123, 36.824972854463326], [36.2985100669803, 36.824972854463326], [36.2985100669803, 36.82443386529285], [36.29743208863934, 36.82443386529285], [36.29743208863934, 36.8255118436338], [36.29689309946889, 36.8255118436338], [36.29689309946889, 36.82658982197474], [36.29581512112793, 36.82658982197474], [36.29581512112793, 36.82605083280427], [36.29527613195745, 36.82605083280427], [36.29527613195745, 36.82658982197474], [36.294737142787, 36.82658982197474], [36.294737142787, 36.82605083280427], [36.29365916444604, 36.82605083280427], [36.29365916444604, 36.82658982197474], [36.29150320776415, 36.82658982197474], [36.29150320776415, 36.82443386529285], [36.2909642185937, 36.82443386529285], [36.2909642185937, 36.82389487612238], [36.28988624025274, 36.82389487612238], [36.28988624025274, 36.8255118436338], [36.28934725108226, 36.8255118436338], [36.28934725108226, 36.82658982197474], [36.28880826191181, 36.82658982197474], [36.28880826191181, 36.82605083280427], [36.28773028357085, 36.82605083280427], [36.28773028357085, 36.82389487612238], [36.28826927274133, 36.82389487612238], [36.28826927274133, 36.82335588695191], [36.28880826191181, 36.82335588695191], [36.28880826191181, 36.822816897781436], [36.28988624025274, 36.822816897781436], [36.28988624025274, 36.822277908610964], [36.29042522942322, 36.822277908610964], [36.29042522942322, 36.82119993027002], [36.29527613195745, 36.82119993027002], [36.29527613195745, 36.820660941099554], [36.29581512112793, 36.820660941099554], [36.29581512112793, 36.82012195192908], [36.29635411029841, 36.82012195192908], [36.29635411029841, 36.81958296275861], [36.29689309946889, 36.81958296275861], [36.29689309946889, 36.82012195192908], [36.29743208863934, 36.82012195192908], [36.29743208863934, 36.81958296275861], [36.29797107780982, 36.81958296275861], [36.29797107780982, 36.82012195192908], [36.29904905615075, 36.82012195192908], [36.29904905615075, 36.81958296275861], [36.30282198034408, 36.81958296275861], [36.30282198034408, 36.818504984417665], [36.30336096951453, 36.818504984417665], [36.30336096951453, 36.81904397358814], [36.30497793702594, 36.81904397358814], [36.30497793702594, 36.818504984417665]], [[36.29527613195745, 36.8255118436338], [36.29527613195745, 36.82605083280427], [36.294737142787, 36.82605083280427], [36.294737142787, 36.8255118436338], [36.29527613195745, 36.8255118436338]], [[36.29527613195745, 36.82443386529285], [36.29527613195745, 36.824972854463326], [36.294737142787, 36.824972854463326], [36.294737142787, 36.82443386529285], [36.29527613195745, 36.82443386529285]], [[36.29689309946889, 36.82335588695191], [36.29689309946889, 36.82389487612238], [36.29635411029841, 36.82389487612238], [36.29635411029841, 36.82335588695191], [36.29689309946889, 36.82335588695191]], [[36.29743208863934, 36.822816897781436], [36.29743208863934, 36.82335588695191], [36.29689309946889, 36.82335588695191], [36.29689309946889, 36.822816897781436], [36.29743208863934, 36.822816897781436]], [[36.29312017527556, 36.822277908610964], [36.29312017527556, 36.822816897781436], [36.29258118610511, 36.822816897781436], [36.29258118610511, 36.822277908610964], [36.29312017527556, 36.822277908610964]], [[36.30336096951453, 36.820660941099554], [36.30336096951453, 36.82119993027002], [36.30282198034408, 36.82119993027002], [36.30282198034408, 36.820660941099554], [36.30336096951453, 36.820660941099554]], [[36.30551692619642, 36.81958296275861], [36.30551692619642, 36.82012195192908], [36.30497793702594, 36.82012195192908], [36.30497793702594, 36.81958296275861], [36.30551692619642, 36.81958296275861]]]}, "properties": {"area_ha": 75.90897608994537, "mean_dnbr": 0.31886074073329496, "compactness": 0.127, "rectangularity": 0.534, "cropland_frac": 0, "persistent": true}}]}