{"type": "FeatureCollection", "crs": {"type": "name", "properties": {"name": "urn:ogc:def:crs:OGC:1.3:CRS84"}}, "features": [{"type": "Feature", "geometry": {"geodesic": false, "type": "Polygon", "coordinates": [[[35.31431584169894, 36.81796599524719], [35.31647179838083, 36.81796599524719], [35.31647179838083, 36.81904397358814], [35.31485483086942, 36.81904397358814], [35.31485483086942, 36.81958296275861], [35.31539382003987, 36.81958296275861], [35.31539382003987, 36.82173891944049], [35.31485483086942, 36.82173891944049], [35.31485483086942, 36.822277908610964], [35.31431584169894, 36.822277908610964], [35.31431584169894, 36.82335588695191], [35.31377685252846, 36.82335588695191], [35.31377685252846, 36.824972854463326], [35.31269887418753, 36.824972854463326], [35.31269887418753, 36.8255118436338], [35.31162089584657, 36.8255118436338], [35.31162089584657, 36.824972854463326], [35.31054291750564, 36.824972854463326], [35.31054291750564, 36.82443386529285], [35.31000392833516, 36.82443386529285], [35.31000392833516, 36.82389487612238], [35.309464939164684, 36.82389487612238], [35.309464939164684, 36.822816897781436], [35.307847971653274, 36.822816897781436], [35.307847971653274, 36.82335588695191], [35.30730898248282, 36.82335588695191], [35.30730898248282, 36.822816897781436], [35.307847971653274, 36.822816897781436], [35.307847971653274, 36.822277908610964], [35.30730898248282, 36.822277908610964], [35.30730898248282, 36.82173891944049], [35.306769993312344, 36.82173891944049], [35.306769993312344, 36.820660941099554], [35.306231004141864, 36.820660941099554], [35.306231004141864, 36.81958296275861], [35.305692014971385, 36.81958296275861], [35.305692014971385, 36.81904397358814], [35.305153025800934, 36.81904397358814], [35.305153025800934, 36.818504984417665], [35.306231004141864, 36.818504984417665], [35.306231004141864, 36.81958296275861], [35.306769993312344, 36.81958296275861], [35.306769993312344, 36.81904397358814], [35.30730898248282, 36.81904397358814], [35.30730898248282, 36.82173891944049], [35.307847971653274, 36.82173891944049], [35.307847971653274, 36.82119993027002], [35.30838696082375, 36.82119993027002], [35.30838696082375, 36.820660941099554], [35.31000392833516, 36.820660941099554], [35.31000392833516, 36.82012195192908], [35.31108190667612, 36.82012195192908], [35.31108190667612, 36.81958296275861], [35.31215988501705, 36.81958296275861], [35.31215988501705, 36.81904397358814], [35.31377685252846, 36.81904397358814], [35.31377685252846, 36.818504984417665], [35.31431584169894, 36.818504984417665], [35.31431584169894, 36.81796599524719]], [[35.31108190667612, 36.82173891944049], [35.31108190667612, 36.822816897781436], [35.309464939164684, 36.822816897781436], [35.309464939164684, 36.822277908610964], [35.31000392833516, 36.822277908610964], [35.31000392833516, 36.82173891944049], [35.31108190667612, 36.82173891944049]]]}, "properties": {"area_ha": 35.36718710523417, "mean_dnbr": 0.3300666015955346, "compactness": 0.154, "rectangularity": 0.422, "cropland_frac": 0.38, "persistent": true}}, {"type": "Feature", "geometry": {"geodesic": false, "type": "Polygon", "coordinates": [[[35.32455663593791, 36.73496166299455], [35.32563461427884, 36.73496166299455], [35.32563461427884, 36.73550065216502], [35.3304855168131, 36.73550065216502], [35.3304855168131, 36.736039641335495], [35.32994652764262, 36.736039641335495], [35.32994652764262, 36.73657863050597], [35.32886854930169, 36.73657863050597], [35.32886854930169, 36.73711761967643], [35.32940753847214, 36.73711761967643], [35.32940753847214, 36.737656608846905], [35.3304855168131, 36.737656608846905], [35.3304855168131, 36.73873458718785], [35.33102450598358, 36.73873458718785], [35.33102450598358, 36.73927357635832], [35.33156349515403, 36.73927357635832], [35.33156349515403, 36.739812565528794], [35.33318046266547, 36.739812565528794], [35.33318046266547, 36.74035155469927], [35.33371945183592, 36.74035155469927], [35.33371945183592, 36.74089054386974], [35.3342584410064, 36.74089054386974], [35.3342584410064, 36.74142953304021], [35.33371945183592, 36.74142953304021], [35.33371945183592, 36.74196852221068], [35.33210248432451, 36.74196852221068], [35.33210248432451, 36.742507511381156], [35.33264147349499, 36.742507511381156], [35.33264147349499, 36.74304650055162], [35.33156349515403, 36.74304650055162], [35.33156349515403, 36.742507511381156], [35.32940753847214, 36.742507511381156], [35.32940753847214, 36.74196852221068], [35.32779057096073, 36.74196852221068], [35.32779057096073, 36.73873458718785], [35.32725158179028, 36.73873458718785], [35.32725158179028, 36.73927357635832], [35.3267125926198, 36.73927357635832], [35.3267125926198, 36.73819559801738], [35.32617360344932, 36.73819559801738], [35.32617360344932, 36.73927357635832], [35.32563461427884, 36.73927357635832], [35.32563461427884, 36.739812565528794], [35.32401764676743, 36.739812565528794], [35.32401764676743, 36.73927357635832], [35.32347865759695, 36.73927357635832], [35.32347865759695, 36.736039641335495], [35.32455663593791, 36.736039641335495], [35.32455663593791, 36.73496166299455]]]}, "properties": {"area_ha": 41.45013963276069, "mean_dnbr": 0.47778378865555093, "compactness": 0.248, "rectangularity": 0.506, "cropland_frac": 0.134, "persistent": true}}, {"type": "Feature", "geometry": {"geodesic": false, "type": "Polygon", "coordinates": [[[35.344499235245365, 36.818504984417665], [35.345577213586296, 36.818504984417665], [35.345577213586296, 36.81958296275861], [35.346116202756775, 36.81958296275861], [35.346116202756775, 36.82012195192908], [35.346655191927255, 36.82012195192908], [35.346655191927255, 36.820660941099554], [35.347194181097706, 36.820660941099554], [35.347194181097706, 36.82119993027002], [35.347733170268185, 36.82119993027002], [35.347733170268185, 36.82173891944049], [35.346655191927255, 36.82173891944049], [35.346655191927255, 36.822277908610964], [35.346116202756775, 36.822277908610964], [35.346116202756775, 36.82119993027002], [35.345038224415845, 36.82119993027002], [35.345038224415845, 36.820660941099554], [35.342882267733955, 36.820660941099554], [35.342882267733955, 36.82119993027002], [35.342343278563476, 36.82119993027002], [35.342343278563476, 36.82173891944049], [35.34018732188159, 36.82173891944049], [35.34018732188159, 36.822277908610964], [35.33964833271111, 36.822277908610964], [35.33964833271111, 36.822816897781436], [35.339109343540656, 36.822816897781436], [35.339109343540656, 36.82335588695191], [35.33857035437018, 36.82335588695191], [35.33857035437018, 36.822816897781436], [35.3380313651997, 36.822816897781436], [35.3380313651997, 36.82389487612238], [35.33857035437018, 36.82389487612238], [35.33857035437018, 36.824972854463326], [35.33695338685877, 36.824972854463326], [35.33695338685877, 36.8255118436338], [35.33641439768829, 36.8255118436338], [35.33641439768829, 36.82119993027002], [35.33695338685877, 36.82119993027002], [35.33695338685877, 36.82173891944049], [35.33749237602922, 36.82173891944049], [35.33749237602922, 36.822277908610964], [35.3380313651997, 36.822277908610964], [35.3380313651997, 36.82173891944049], [35.33857035437018, 36.82173891944049], [35.33857035437018, 36.82119993027002], [35.33964833271111, 36.82119993027002], [35.33964833271111, 36.820660941099554], [35.34018732188159, 36.820660941099554], [35.34018732188159, 36.81958296275861], [35.34126530022252, 36.81958296275861], [35.34126530022252, 36.81904397358814], [35.341804289393, 36.81904397358814], [35.341804289393, 36.818504984417665], [35.343421256904406, 36.818504984417665], [35.343421256904406, 36.81904397358814], [35.344499235245365, 36.81904397358814], [35.344499235245365, 36.818504984417665]]]}, "properties": {"area_ha": 24.7283865251595, "mean_dnbr": 0.42106623226086054, "compactness": 0.153, "rectangularity": 0.401, "cropland_frac": 0.378, "persistent": true}}]}