{"type": "FeatureCollection", "crs": {"type": "name", "properties": {"name": "urn:ogc:def:crs:OGC:1.3:CRS84"}}, "features": [{"type": "Feature", "geometry": {"geodesic": false, "type": "Polygon", "coordinates": [[[36.132501402475015, 37.62968368597759], [36.135196348327355, 37.62968368597759], [36.135196348327355, 37.63022267514806], [36.134118369986425, 37.63022267514806], [36.134118369986425, 37.630761664318534], [36.134657359156904, 37.630761664318534], [36.134657359156904, 37.63237863182995], [36.135196348327355, 37.63237863182995], [36.135196348327355, 37.63183964265948], [36.135735337497835, 37.63183964265948], [36.135735337497835, 37.63291762100042], [36.136274326668314, 37.63291762100042], [36.136274326668314, 37.63453458851184], [36.133040391645466, 37.63453458851184], [36.133040391645466, 37.63399559934137], [36.134118369986425, 37.63399559934137], [36.134118369986425, 37.633456610170896], [36.133040391645466, 37.633456610170896], [36.133040391645466, 37.63291762100042], [36.131962413304535, 37.63291762100042], [36.131962413304535, 37.630761664318534], [36.132501402475015, 37.630761664318534], [36.132501402475015, 37.62968368597759]], [[36.134657359156904, 37.63237863182995], [36.134657359156904, 37.63291762100042], [36.134118369986425, 37.63291762100042], [36.134118369986425, 37.63237863182995], [36.134657359156904, 37.63237863182995]], [[36.133040391645466, 37.630761664318534], [36.133040391645466, 37.63183964265948], [36.132501402475015, 37.63183964265948], [36.132501402475015, 37.630761664318534], [36.133040391645466, 37.630761664318534]]]}, "properties": {"area_ha": 12.516403933877024, "mean_dnbr": 0.270354683836052, "compactness": 0.189, "rectangularity": 0.611, "cropland_frac": 0.073, "persistent": true}}, {"type": "Feature", "geometry": {"geodesic": false, "type": "Polygon", "coordinates": [[[36.16645772021471, 37.635073577682306], [36.16807468772615, 37.635073577682306], [36.16807468772615, 37.63776852353467], [36.1686136768966, 37.63776852353467], [36.1686136768966, 37.637229534364195], [36.16915266606708, 37.637229534364195], [36.16915266606708, 37.639385491046085], [36.16969165523756, 37.639385491046085], [36.16969165523756, 37.63992448021656], [36.170230644408036, 37.63992448021656], [36.170230644408036, 37.64046346938703], [36.16915266606708, 37.64046346938703], [36.16915266606708, 37.641002458557494], [36.1686136768966, 37.641002458557494], [36.1686136768966, 37.64154144772797], [36.16807468772615, 37.64154144772797], [36.16807468772615, 37.63884650187561], [36.16699670938519, 37.63884650187561], [36.16699670938519, 37.63830751270514], [36.16753569855567, 37.63830751270514], [36.16753569855567, 37.63776852353467], [36.16645772021471, 37.63776852353467], [36.16645772021471, 37.63669054519372], [36.16699670938519, 37.63669054519372], [36.16699670938519, 37.63561256685278], [36.16645772021471, 37.63561256685278], [36.16645772021471, 37.635073577682306]], [[36.16753569855567, 37.63669054519372], [36.16753569855567, 37.637229534364195], [36.16699670938519, 37.637229534364195], [36.16699670938519, 37.63669054519372], [36.16753569855567, 37.63669054519372]]]}, "properties": {"area_ha": 9.102099033543894, "mean_dnbr": 0.3085940482784286, "compactness": 0.166, "rectangularity": 0.503, "cropland_frac": 0.264, "persistent": true}}]}