{"type": "FeatureCollection", "crs": {"type": "name", "properties": {"name": "urn:ogc:def:crs:OGC:1.3:CRS84"}}, "features": [{"type": "Feature", "geometry": {"geodesic": false, "type": "Polygon", "coordinates": [[[35.40324905482677, 36.79532845008738], [35.40432703316773, 36.79532845008738], [35.40432703316773, 36.795867439257854], [35.40486602233818, 36.795867439257854], [35.40486602233818, 36.79640642842833], [35.40594400067914, 36.79640642842833], [35.40594400067914, 36.797484406769264], [35.40702197902007, 36.797484406769264], [35.40702197902007, 36.79802339593974], [35.40863894653148, 36.79802339593974], [35.40863894653148, 36.79910137428068], [35.40917793570196, 36.79910137428068], [35.40917793570196, 36.800179352621626], [35.40971692487244, 36.800179352621626], [35.40971692487244, 36.80125733096257], [35.41025591404292, 36.80125733096257], [35.41025591404292, 36.802335309303515], [35.40917793570196, 36.802335309303515], [35.40917793570196, 36.80287429847399], [35.40648298984959, 36.80287429847399], [35.40648298984959, 36.80179632013304], [35.40594400067914, 36.80179632013304], [35.40594400067914, 36.80125733096257], [35.40756096819055, 36.80125733096257], [35.40756096819055, 36.8007183417921], [35.40702197902007, 36.8007183417921], [35.40702197902007, 36.800179352621626], [35.40648298984959, 36.800179352621626], [35.40648298984959, 36.79856238511021], [35.40432703316773, 36.79856238511021], [35.40432703316773, 36.79802339593974], [35.40378804399725, 36.79802339593974], [35.40378804399725, 36.797484406769264], [35.40324905482677, 36.797484406769264], [35.40324905482677, 36.79694541759879], [35.402710065656294, 36.79694541759879], [35.402710065656294, 36.79640642842833], [35.40324905482677, 36.79640642842833], [35.40324905482677, 36.79532845008738]]]}, "properties": {"area_ha": 20.99637761087562, "mean_dnbr": 0.4516715763982234, "compactness": 0.241, "rectangularity": 0.511, "cropland_frac": 0.378, "persistent": true}}, {"type": "Feature", "geometry": {"geodesic": false, "type": "Polygon", "coordinates": [[[35.487870354590825, 36.77646382912087], [35.490026311272715, 36.77646382912087], [35.490026311272715, 36.77700281829134], [35.490565300443194, 36.77700281829134], [35.490565300443194, 36.77808079663229], [35.487870354590825, 36.77808079663229], [35.487870354590825, 36.78185372082559], [35.486792376249895, 36.78185372082559], [35.486792376249895, 36.78239270999606], [35.486253387079415, 36.78239270999606], [35.486253387079415, 36.783470688337005], [35.484636419568005, 36.783470688337005], [35.484636419568005, 36.78293169916653], [35.484097430397526, 36.78293169916653], [35.484097430397526, 36.78239270999606], [35.484636419568005, 36.78239270999606], [35.484636419568005, 36.78185372082559], [35.484097430397526, 36.78185372082559], [35.484097430397526, 36.78077574248464], [35.484636419568005, 36.78077574248464], [35.484636419568005, 36.78023675331417], [35.484097430397526, 36.78023675331417], [35.484097430397526, 36.7796977641437], [35.483019452056595, 36.7796977641437], [35.483019452056595, 36.779158774973226], [35.482480462886116, 36.779158774973226], [35.482480462886116, 36.7796977641437], [35.481402484545185, 36.7796977641437], [35.481402484545185, 36.77861978580276], [35.482480462886116, 36.77861978580276], [35.482480462886116, 36.777541807461816], [35.483558441227075, 36.777541807461816], [35.483558441227075, 36.77808079663229], [35.485175408738485, 36.77808079663229], [35.485175408738485, 36.777541807461816], [35.485714397908936, 36.777541807461816], [35.485714397908936, 36.77808079663229], [35.487870354590825, 36.77808079663229], [35.487870354590825, 36.777541807461816], [35.487331365420374, 36.777541807461816], [35.487331365420374, 36.77700281829134], [35.487870354590825, 36.77700281829134], [35.487870354590825, 36.77646382912087]]]}, "properties": {"area_ha": 25.604915045924063, "mean_dnbr": 0.28955328694465204, "compactness": 0.218, "rectangularity": 0.418, "cropland_frac": 0.383, "persistent": true}}, {"type": "Feature", "geometry": {"geodesic": false, "type": "Polygon", "coordinates": [[[35.583810426934804, 36.700466356084355], [35.585427394446214, 36.700466356084355], [35.585427394446214, 36.70100534525483], [35.58596638361669, 36.70100534525483], [35.58596638361669, 36.7015443344253], [35.5875833511281, 36.7015443344253], [35.5875833511281, 36.70208332359577], [35.58812234029858, 36.70208332359577], [35.58812234029858, 36.7015443344253], [35.58920031863951, 36.7015443344253], [35.58920031863951, 36.70208332359577], [35.58812234029858, 36.70208332359577], [35.58812234029858, 36.702622312766245], [35.58866132946903, 36.702622312766245], [35.58866132946903, 36.70370029110719], [35.58812234029858, 36.70370029110719], [35.58812234029858, 36.702622312766245], [35.5875833511281, 36.702622312766245], [35.5875833511281, 36.70208332359577], [35.585427394446214, 36.70208332359577], [35.585427394446214, 36.702622312766245], [35.584888405275734, 36.702622312766245], [35.584888405275734, 36.70316130193672], [35.585427394446214, 36.70316130193672], [35.585427394446214, 36.70423928027766], [35.584888405275734, 36.70423928027766], [35.584888405275734, 36.704778269448134], [35.58434941610528, 36.704778269448134], [35.58434941610528, 36.70531725861861], [35.583271437764324, 36.70531725861861], [35.583271437764324, 36.70423928027766], [35.580037502741504, 36.70423928027766], [35.580037502741504, 36.704778269448134], [35.578959524400545, 36.704778269448134], [35.578959524400545, 36.70423928027766], [35.577342556889135, 36.70423928027766], [35.577342556889135, 36.704778269448134], [35.576803567718656, 36.704778269448134], [35.576803567718656, 36.70423928027766], [35.576264578548205, 36.70423928027766], [35.576264578548205, 36.704778269448134], [35.574108621866316, 36.704778269448134], [35.574108621866316, 36.70531725861861], [35.573569632695836, 36.70531725861861], [35.573569632695836, 36.70585624778908], [35.57303064352536, 36.70585624778908], [35.57303064352536, 36.70639523695955], [35.572491654354906, 36.70639523695955], [35.572491654354906, 36.70585624778908], [35.57303064352536, 36.70585624778908], [35.57303064352536, 36.70531725861861], [35.573569632695836, 36.70531725861861], [35.573569632695836, 36.70423928027766], [35.57464761103677, 36.70423928027766], [35.57464761103677, 36.70370029110719], [35.576803567718656, 36.70370029110719], [35.576803567718656, 36.70316130193672], [35.577881546059615, 36.70316130193672], [35.577881546059615, 36.70370029110719], [35.578420535230094, 36.70370029110719], [35.578420535230094, 36.70316130193672], [35.583271437764324, 36.70316130193672], [35.583271437764324, 36.702622312766245], [35.583810426934804, 36.702622312766245], [35.583810426934804, 36.70208332359577], [35.584888405275734, 36.70208332359577], [35.584888405275734, 36.7015443344253], [35.583810426934804, 36.7015443344253], [35.583810426934804, 36.700466356084355]]]}, "properties": {"area_ha": 21.31058227718565, "mean_dnbr": 0.3226686754320061, "compactness": 0.081, "rectangularity": 0.263, "cropland_frac": 0, "persistent": true}}, {"type": "Feature", "geometry": {"geodesic": false, "type": "Polygon", "coordinates": [[[36.15621692597577, 36.291373575696326], [36.15837288265766, 36.291373575696326], [36.15837288265766, 36.2919125648668], [36.15945086099859, 36.2919125648668], [36.15945086099859, 36.29406852154869], [36.15998985016907, 36.29406852154869], [36.15998985016907, 36.29460751071916], [36.16052883933952, 36.29460751071916], [36.16052883933952, 36.295685489060105], [36.16268479602141, 36.295685489060105], [36.16268479602141, 36.29460751071916], [36.16214580685096, 36.29460751071916], [36.16214580685096, 36.29406852154869], [36.16106782851, 36.29406852154869], [36.16106782851, 36.293529532378216], [36.16052883933952, 36.293529532378216], [36.16052883933952, 36.29299054320774], [36.16268479602141, 36.29299054320774], [36.16268479602141, 36.29245155403727], [36.16322378519189, 36.29245155403727], [36.16322378519189, 36.2919125648668], [36.16376277436237, 36.2919125648668], [36.16376277436237, 36.29245155403727], [36.16430176353285, 36.29245155403727], [36.16430176353285, 36.29299054320774], [36.1648407527033, 36.29299054320774], [36.1648407527033, 36.293529532378216], [36.16537974187378, 36.293529532378216], [36.16537974187378, 36.29460751071916], [36.16753569855567, 36.29460751071916], [36.16753569855567, 36.29514649988963], [36.16807468772615, 36.29514649988963], [36.16807468772615, 36.29622447823058], [36.16699670938519, 36.29622447823058], [36.16699670938519, 36.29676346740104], [36.16807468772615, 36.29676346740104], [36.16807468772615, 36.297302456571515], [36.16645772021471, 36.297302456571515], [36.16645772021471, 36.29838043491246], [36.16591873104426, 36.29838043491246], [36.16591873104426, 36.299458413253404], [36.16699670938519, 36.299458413253404], [36.16699670938519, 36.29891942408293], [36.16753569855567, 36.29891942408293], [36.16753569855567, 36.299458413253404], [36.16807468772615, 36.299458413253404], [36.16807468772615, 36.29999740242388], [36.1686136768966, 36.29999740242388], [36.1686136768966, 36.299458413253404], [36.170230644408036, 36.299458413253404], [36.170230644408036, 36.29999740242388], [36.17076963357849, 36.29999740242388], [36.17076963357849, 36.30107538076482], [36.170230644408036, 36.30107538076482], [36.170230644408036, 36.301614369935294], [36.16969165523756, 36.301614369935294], [36.16969165523756, 36.30053639159435], [36.16807468772615, 36.30053639159435], [36.16807468772615, 36.30107538076482], [36.1686136768966, 36.30107538076482], [36.1686136768966, 36.30269234827623], [36.16699670938519, 36.30269234827623], [36.16699670938519, 36.303770326617176], [36.16753569855567, 36.303770326617176], [36.16753569855567, 36.30430931578765], [36.16537974187378, 36.30430931578765], [36.16537974187378, 36.30484830495812], [36.16753569855567, 36.30484830495812], [36.16753569855567, 36.305926283299065], [36.16699670938519, 36.305926283299065], [36.16699670938519, 36.30646527246954], [36.16807468772615, 36.30646527246954], [36.16807468772615, 36.30700426164001], [36.1686136768966, 36.30700426164001], [36.1686136768966, 36.30754325081048], [36.16915266606708, 36.30754325081048], [36.16915266606708, 36.30700426164001], [36.16969165523756, 36.30700426164001], [36.16969165523756, 36.308082239980955], [36.17076963357849, 36.308082239980955], [36.17076963357849, 36.30754325081048], [36.17130862274897, 36.30754325081048], [36.17130862274897, 36.308082239980955], [36.17076963357849, 36.308082239980955], [36.17076963357849, 36.30862122915142], [36.171847611919446, 36.30862122915142], [36.171847611919446, 36.308082239980955], [36.173464579430856, 36.308082239980955], [36.173464579430856, 36.30862122915142], [36.171847611919446, 36.30862122915142], [36.171847611919446, 36.309699207492365], [36.17130862274897, 36.309699207492365], [36.17130862274897, 36.31023819666284], [36.1648407527033, 36.31023819666284], [36.1648407527033, 36.31077718583331], [36.16376277436237, 36.31077718583331], [36.16376277436237, 36.31023819666284], [36.16322378519189, 36.31023819666284], [36.16322378519189, 36.309699207492365], [36.16214580685096, 36.309699207492365], [36.16214580685096, 36.30862122915142], [36.16160681768048, 36.30862122915142], [36.16160681768048, 36.30916021832189], [36.16052883933952, 36.30916021832189], [36.16052883933952, 36.309699207492365], [36.16106782851, 36.309699207492365], [36.16106782851, 36.31077718583331], [36.15945086099859, 36.31077718583331], [36.15945086099859, 36.311855164174254], [36.15998985016907, 36.311855164174254], [36.15998985016907, 36.31347213168567], [36.15945086099859, 36.31347213168567], [36.15945086099859, 36.314011120856144], [36.15891187182811, 36.314011120856144], [36.15891187182811, 36.31562808836755], [36.15783389348718, 36.31562808836755], [36.15783389348718, 36.31508909919708], [36.1572949043167, 36.31508909919708], [36.1572949043167, 36.314550110026616], [36.15675591514622, 36.314550110026616], [36.15675591514622, 36.31347213168567], [36.15513894763481, 36.31347213168567], [36.15513894763481, 36.314011120856144], [36.15459995846433, 36.314011120856144], [36.15459995846433, 36.314550110026616], [36.15406096929388, 36.314550110026616], [36.15406096929388, 36.31347213168567], [36.15244400178247, 36.31347213168567], [36.15244400178247, 36.314011120856144], [36.15190501261199, 36.314011120856144], [36.15190501261199, 36.31724505587897], [36.15136602344151, 36.31724505587897], [36.15136602344151, 36.316167077538026], [36.15082703427103, 36.316167077538026], [36.15082703427103, 36.31508909919708], [36.15028804510058, 36.31508909919708], [36.15028804510058, 36.314550110026616], [36.1497490559301, 36.314550110026616], [36.1497490559301, 36.31347213168567], [36.14867107758914, 36.31347213168567], [36.14867107758914, 36.3129331425152], [36.1459761317368, 36.3129331425152], [36.1459761317368, 36.31239415334473], [36.14651512090728, 36.31239415334473], [36.14651512090728, 36.311855164174254], [36.1459761317368, 36.311855164174254], [36.1459761317368, 36.309699207492365], [36.14651512090728, 36.309699207492365], [36.14651512090728, 36.30862122915142], [36.14705411007773, 36.30862122915142], [36.14705411007773, 36.308082239980955], [36.14651512090728, 36.308082239980955], [36.14651512090728, 36.30754325081048], [36.14759309924821, 36.30754325081048], [36.14759309924821, 36.30700426164001], [36.14813208841869, 36.30700426164001], [36.14813208841869, 36.30538729412859], [36.14759309924821, 36.30538729412859], [36.14759309924821, 36.303770326617176], [36.14813208841869, 36.303770326617176], [36.14813208841869, 36.30430931578765], [36.14867107758914, 36.30430931578765], [36.14867107758914, 36.30484830495812], [36.14921006675962, 36.30484830495812], [36.14921006675962, 36.30430931578765], [36.15028804510058, 36.30430931578765], [36.15028804510058, 36.303770326617176], [36.15082703427103, 36.303770326617176], [36.15082703427103, 36.30269234827623], [36.15136602344151, 36.30269234827623], [36.15136602344151, 36.302153359105766], [36.15082703427103, 36.302153359105766], [36.15082703427103, 36.301614369935294], [36.15028804510058, 36.301614369935294], [36.15028804510058, 36.30107538076482], [36.15082703427103, 36.30107538076482], [36.15082703427103, 36.299458413253404], [36.15244400178247, 36.299458413253404], [36.15244400178247, 36.29838043491246], [36.15406096929388, 36.29838043491246], [36.15406096929388, 36.297302456571515], [36.15459995846433, 36.297302456571515], [36.15459995846433, 36.29676346740104], [36.15513894763481, 36.29676346740104], [36.15513894763481, 36.29622447823058], [36.15459995846433, 36.29622447823058], [36.15459995846433, 36.295685489060105], [36.15567793680529, 36.295685489060105], [36.15567793680529, 36.29514649988963], [36.15459995846433, 36.29514649988963], [36.15459995846433, 36.29406852154869], [36.15406096929388, 36.29406852154869], [36.15406096929388, 36.293529532378216], [36.15459995846433, 36.293529532378216], [36.15459995846433, 36.29299054320774], [36.15567793680529, 36.29299054320774], [36.15567793680529, 36.293529532378216], [36.15675591514622, 36.293529532378216], [36.15675591514622, 36.29299054320774], [36.15621692597577, 36.29299054320774], [36.15621692597577, 36.291373575696326]], [[36.15945086099859, 36.311855164174254], [36.15945086099859, 36.31239415334473], [36.15891187182811, 36.31239415334473], [36.15891187182811, 36.311855164174254], [36.15945086099859, 36.311855164174254]], [[36.15028804510058, 36.308082239980955], [36.15028804510058, 36.309699207492365], [36.15082703427103, 36.309699207492365], [36.15082703427103, 36.31077718583331], [36.15136602344151, 36.31077718583331], [36.15136602344151, 36.3129331425152], [36.14921006675962, 36.3129331425152], [36.14921006675962, 36.31239415334473], [36.14867107758914, 36.31239415334473], [36.14867107758914, 36.311855164174254], [36.14921006675962, 36.311855164174254], [36.14921006675962, 36.31077718583331], [36.14867107758914, 36.31077718583331], [36.14867107758914, 36.309699207492365], [36.14921006675962, 36.309699207492365], [36.14921006675962, 36.30862122915142], [36.1497490559301, 36.30862122915142], [36.1497490559301, 36.308082239980955], [36.15028804510058, 36.308082239980955]], [[36.15945086099859, 36.30754325081048], [36.15945086099859, 36.308082239980955], [36.15998985016907, 36.308082239980955], [36.15998985016907, 36.30862122915142], [36.15945086099859, 36.30862122915142], [36.15945086099859, 36.309699207492365], [36.15837288265766, 36.309699207492365], [36.15837288265766, 36.31239415334473], [36.15621692597577, 36.31239415334473], [36.15621692597577, 36.311855164174254], [36.15513894763481, 36.311855164174254], [36.15513894763481, 36.31239415334473], [36.1535219801234, 36.31239415334473], [36.1535219801234, 36.311855164174254], [36.15298299095292, 36.311855164174254], [36.15298299095292, 36.31077718583331], [36.15513894763481, 36.31077718583331], [36.15513894763481, 36.31023819666284], [36.15567793680529, 36.31023819666284], [36.15567793680529, 36.30916021832189], [36.15621692597577, 36.30916021832189], [36.15621692597577, 36.30862122915142], [36.15675591514622, 36.30862122915142], [36.15675591514622, 36.308082239980955], [36.15783389348718, 36.308082239980955], [36.15783389348718, 36.30754325081048], [36.15945086099859, 36.30754325081048]], [[36.1535219801234, 36.305926283299065], [36.1535219801234, 36.30646527246954], [36.15298299095292, 36.30646527246954], [36.15298299095292, 36.305926283299065], [36.1535219801234, 36.305926283299065]], [[36.15945086099859, 36.303231337446704], [36.15945086099859, 36.303770326617176], [36.15891187182811, 36.303770326617176], [36.15891187182811, 36.30430931578765], [36.15945086099859, 36.30430931578765], [36.15945086099859, 36.303770326617176], [36.15998985016907, 36.303770326617176], [36.15998985016907, 36.30538729412859], [36.15945086099859, 36.30538729412859], [36.15945086099859, 36.30484830495812], [36.15621692597577, 36.30484830495812], [36.15621692597577, 36.30538729412859], [36.15675591514622, 36.30538729412859], [36.15675591514622, 36.305926283299065], [36.15567793680529, 36.305926283299065], [36.15567793680529, 36.30646527246954], [36.15459995846433, 36.30646527246954], [36.15459995846433, 36.30484830495812], [36.1535219801234, 36.30484830495812], [36.1535219801234, 36.303231337446704], [36.15459995846433, 36.303231337446704], [36.15459995846433, 36.303770326617176], [36.15621692597577, 36.303770326617176], [36.15621692597577, 36.30430931578765], [36.15675591514622, 36.30430931578765], [36.15675591514622, 36.303770326617176], [36.15783389348718, 36.303770326617176], [36.15783389348718, 36.303231337446704], [36.15945086099859, 36.303231337446704]], [[36.15567793680529, 36.30269234827623], [36.15567793680529, 36.303231337446704], [36.15513894763481, 36.303231337446704], [36.15513894763481, 36.30269234827623], [36.15567793680529, 36.30269234827623]], [[36.16537974187378, 36.30269234827623], [36.16537974187378, 36.303231337446704], [36.1648407527033, 36.303231337446704], [36.1648407527033, 36.30269234827623], [36.16537974187378, 36.30269234827623]], [[36.16591873104426, 36.302153359105766], [36.16591873104426, 36.30269234827623], [36.16537974187378, 36.30269234827623], [36.16537974187378, 36.302153359105766], [36.16591873104426, 36.302153359105766]], [[36.16699670938519, 36.302153359105766], [36.16699670938519, 36.30269234827623], [36.16645772021471, 36.30269234827623], [36.16645772021471, 36.302153359105766], [36.16699670938519, 36.302153359105766]], [[36.16807468772615, 36.29999740242388], [36.16807468772615, 36.30053639159435], [36.16753569855567, 36.30053639159435], [36.16753569855567, 36.29999740242388], [36.16807468772615, 36.29999740242388]], [[36.15298299095292, 36.299458413253404], [36.15298299095292, 36.29999740242388], [36.15244400178247, 36.29999740242388], [36.15244400178247, 36.299458413253404], [36.15298299095292, 36.299458413253404]], [[36.16268479602141, 36.299458413253404], [36.16268479602141, 36.29999740242388], [36.16214580685096, 36.29999740242388], [36.16214580685096, 36.299458413253404], [36.16268479602141, 36.299458413253404]], [[36.16376277436237, 36.29838043491246], [36.16376277436237, 36.29891942408293], [36.16322378519189, 36.29891942408293], [36.16322378519189, 36.29838043491246], [36.16376277436237, 36.29838043491246]], [[36.16160681768048, 36.29676346740104], [36.16160681768048, 36.29784144574199], [36.16268479602141, 36.29784144574199], [36.16268479602141, 36.29838043491246], [36.16214580685096, 36.29838043491246], [36.16214580685096, 36.29891942408293], [36.16160681768048, 36.29891942408293], [36.16160681768048, 36.30053639159435], [36.16214580685096, 36.30053639159435], [36.16214580685096, 36.30107538076482], [36.16160681768048, 36.30107538076482], [36.16160681768048, 36.301614369935294], [36.16214580685096, 36.301614369935294], [36.16214580685096, 36.302153359105766], [36.16322378519189, 36.302153359105766], [36.16322378519189, 36.303231337446704], [36.1648407527033, 36.303231337446704], [36.1648407527033, 36.303770326617176], [36.16430176353285, 36.303770326617176], [36.16430176353285, 36.30430931578765], [36.1648407527033, 36.30430931578765], [36.1648407527033, 36.30484830495812], [36.16376277436237, 36.30484830495812], [36.16376277436237, 36.30646527246954], [36.16160681768048, 36.30646527246954], [36.16160681768048, 36.30700426164001], [36.16214580685096, 36.30700426164001], [36.16214580685096, 36.30754325081048], [36.15998985016907, 36.30754325081048], [36.15998985016907, 36.30700426164001], [36.15945086099859, 36.30700426164001], [36.15945086099859, 36.305926283299065], [36.16052883933952, 36.305926283299065], [36.16052883933952, 36.303770326617176], [36.15998985016907, 36.303770326617176], [36.15998985016907, 36.303231337446704], [36.15945086099859, 36.303231337446704], [36.15945086099859, 36.302153359105766], [36.15837288265766, 36.302153359105766], [36.15837288265766, 36.30107538076482], [36.15891187182811, 36.30107538076482], [36.15891187182811, 36.30053639159435], [36.15837288265766, 36.30053639159435], [36.15837288265766, 36.29999740242388], [36.15891187182811, 36.29999740242388], [36.15891187182811, 36.299458413253404], [36.16052883933952, 36.299458413253404], [36.16052883933952, 36.29891942408293], [36.16106782851, 36.29891942408293], [36.16106782851, 36.29676346740104], [36.16160681768048, 36.29676346740104]], [[36.16537974187378, 36.29514649988963], [36.16537974187378, 36.297302456571515], [36.1648407527033, 36.297302456571515], [36.1648407527033, 36.29676346740104], [36.16376277436237, 36.29676346740104], [36.16376277436237, 36.29622447823058], [36.16430176353285, 36.29622447823058], [36.16430176353285, 36.295685489060105], [36.1648407527033, 36.295685489060105], [36.1648407527033, 36.29514649988963], [36.16537974187378, 36.29514649988963]], [[36.16753569855567, 36.29514649988963], [36.16753569855567, 36.295685489060105], [36.16699670938519, 36.295685489060105], [36.16699670938519, 36.29622447823058], [36.16645772021471, 36.29622447823058], [36.16645772021471, 36.29514649988963], [36.16753569855567, 36.29514649988963]], [[36.1648407527033, 36.29406852154869], [36.1648407527033, 36.29460751071916], [36.16430176353285, 36.29460751071916], [36.16430176353285, 36.29406852154869], [36.1648407527033, 36.29406852154869]]]}, "properties": {"area_ha": 275.28763416371373, "mean_dnbr": 0.45377300028202444, "compactness": 0.034, "rectangularity": 0.413, "cropland_frac": 0.007, "persistent": true}}]}