{"type": "FeatureCollection", "crs": {"type": "name", "properties": {"name": "urn:ogc:def:crs:OGC:1.3:CRS84"}}, "features": [{"type": "Feature", "geometry": {"geodesic": false, "type": "Polygon", "coordinates": [[[35.56225086011594, 36.69723242106153], [35.56278984928639, 36.69723242106153], [35.56278984928639, 36.697771410232], [35.56386782762735, 36.697771410232], [35.56386782762735, 36.698849388572945], [35.56494580596828, 36.698849388572945], [35.56494580596828, 36.69938837774342], [35.56602378430924, 36.69938837774342], [35.56602378430924, 36.69992736691389], [35.56656277347972, 36.69992736691389], [35.56656277347972, 36.700466356084355], [35.56764075182065, 36.700466356084355], [35.56764075182065, 36.70100534525483], [35.56925771933206, 36.70100534525483], [35.56925771933206, 36.7015443344253], [35.56817974099113, 36.7015443344253], [35.56817974099113, 36.70208332359577], [35.56764075182065, 36.70208332359577], [35.56764075182065, 36.702622312766245], [35.56602378430924, 36.702622312766245], [35.56602378430924, 36.70316130193672], [35.56386782762735, 36.70316130193672], [35.56386782762735, 36.70370029110719], [35.56332883845687, 36.70370029110719], [35.56332883845687, 36.70423928027766], [35.56386782762735, 36.70423928027766], [35.56386782762735, 36.704778269448134], [35.56494580596828, 36.704778269448134], [35.56494580596828, 36.70585624778908], [35.56548479513876, 36.70585624778908], [35.56548479513876, 36.70531725861861], [35.56656277347972, 36.70531725861861], [35.56656277347972, 36.70747321530049], [35.56925771933206, 36.70747321530049], [35.56925771933206, 36.70801220447096], [35.56817974099113, 36.70801220447096], [35.56817974099113, 36.70855119364143], [35.56871873016158, 36.70855119364143], [35.56871873016158, 36.70962917198238], [35.56979670850254, 36.70962917198238], [35.56979670850254, 36.71016816115285], [35.570335697673016, 36.71016816115285], [35.570335697673016, 36.70962917198238], [35.57087468684347, 36.70962917198238], [35.57087468684347, 36.709090182811906], [35.57141367601395, 36.709090182811906], [35.57141367601395, 36.70801220447096], [35.571952665184426, 36.70801220447096], [35.571952665184426, 36.706934226130016], [35.572491654354906, 36.706934226130016], [35.572491654354906, 36.70585624778908], [35.57303064352536, 36.70585624778908], [35.57303064352536, 36.70531725861861], [35.573569632695836, 36.70531725861861], [35.573569632695836, 36.70423928027766], [35.57464761103677, 36.70423928027766], [35.57464761103677, 36.70370029110719], [35.578959524400545, 36.70370029110719], [35.578959524400545, 36.70423928027766], [35.575725589377726, 36.70423928027766], [35.575725589377726, 36.704778269448134], [35.574108621866316, 36.704778269448134], [35.574108621866316, 36.70531725861861], [35.573569632695836, 36.70531725861861], [35.573569632695836, 36.70585624778908], [35.57464761103677, 36.70585624778908], [35.57464761103677, 36.70747321530049], [35.576264578548205, 36.70747321530049], [35.576264578548205, 36.706934226130016], [35.580037502741504, 36.706934226130016], [35.580037502741504, 36.70747321530049], [35.580576491911984, 36.70747321530049], [35.580576491911984, 36.70801220447096], [35.580037502741504, 36.70801220447096], [35.580037502741504, 36.70855119364143], [35.578959524400545, 36.70855119364143], [35.578959524400545, 36.70962917198238], [35.577881546059615, 36.70962917198238], [35.577881546059615, 36.709090182811906], [35.577342556889135, 36.709090182811906], [35.577342556889135, 36.70855119364143], [35.576264578548205, 36.70855119364143], [35.576264578548205, 36.70801220447096], [35.575186600207246, 36.70801220447096], [35.575186600207246, 36.709090182811906], [35.572491654354906, 36.709090182811906], [35.572491654354906, 36.70962917198238], [35.57087468684347, 36.70962917198238], [35.57087468684347, 36.71178512866427], [35.57141367601395, 36.71178512866427], [35.57141367601395, 36.71340209617568], [35.57087468684347, 36.71340209617568], [35.57087468684347, 36.71448007451662], [35.570335697673016, 36.71448007451662], [35.570335697673016, 36.71394108534615], [35.56494580596828, 36.71394108534615], [35.56494580596828, 36.71340209617568], [35.56548479513876, 36.71340209617568], [35.56548479513876, 36.71232411783474], [35.56440681679783, 36.71232411783474], [35.56440681679783, 36.711246139493795], [35.56494580596828, 36.711246139493795], [35.56494580596828, 36.71016816115285], [35.56440681679783, 36.71016816115285], [35.56440681679783, 36.709090182811906], [35.56494580596828, 36.709090182811906], [35.56494580596828, 36.70855119364143], [35.56548479513876, 36.70855119364143], [35.56548479513876, 36.70801220447096], [35.56386782762735, 36.70801220447096], [35.56386782762735, 36.704778269448134], [35.56332883845687, 36.704778269448134], [35.56332883845687, 36.70423928027766], [35.56278984928639, 36.70423928027766], [35.56278984928639, 36.70316130193672], [35.56225086011594, 36.70316130193672], [35.56225086011594, 36.702622312766245], [35.56494580596828, 36.702622312766245], [35.56494580596828, 36.70208332359577], [35.56602378430924, 36.70208332359577], [35.56602378430924, 36.7015443344253], [35.56656277347972, 36.7015443344253], [35.56656277347972, 36.70100534525483], [35.56494580596828, 36.70100534525483], [35.56494580596828, 36.700466356084355], [35.56332883845687, 36.700466356084355], [35.56332883845687, 36.69992736691389], [35.56225086011594, 36.69992736691389], [35.56225086011594, 36.69831039940247], [35.56171187094546, 36.69831039940247], [35.56171187094546, 36.697771410232], [35.56063389260453, 36.697771410232], [35.56063389260453, 36.69723242106153], [35.56171187094546, 36.69723242106153], [35.56171187094546, 36.697771410232], [35.56225086011594, 36.697771410232], [35.56225086011594, 36.69723242106153]], [[35.56871873016158, 36.712863107005205], [35.56871873016158, 36.71340209617568], [35.56817974099113, 36.71340209617568], [35.56817974099113, 36.712863107005205], [35.56871873016158, 36.712863107005205]], [[35.56602378430924, 36.71178512866427], [35.56602378430924, 36.71232411783474], [35.56548479513876, 36.71232411783474], [35.56548479513876, 36.71178512866427], [35.56602378430924, 36.71178512866427]], [[35.56979670850254, 36.71016816115285], [35.56979670850254, 36.71070715032332], [35.56817974099113, 36.71070715032332], [35.56817974099113, 36.71016816115285], [35.56979670850254, 36.71016816115285]], [[35.56602378430924, 36.70855119364143], [35.56602378430924, 36.70962917198238], [35.56548479513876, 36.70962917198238], [35.56548479513876, 36.70855119364143], [35.56602378430924, 36.70855119364143]], [[35.56764075182065, 36.70855119364143], [35.56764075182065, 36.709090182811906], [35.56710176265017, 36.709090182811906], [35.56710176265017, 36.70962917198238], [35.56656277347972, 36.70962917198238], [35.56656277347972, 36.70855119364143], [35.56764075182065, 36.70855119364143]]]}, "properties": {"area_ha": 77.75105832308236, "mean_dnbr": 0.3854536105371535, "compactness": 0.046, "rectangularity": 0.248, "cropland_frac": 0.0, "persistent": true}}]}