{"type": "FeatureCollection", "crs": {"type": "name", "properties": {"name": "urn:ogc:def:crs:OGC:1.3:CRS84"}}, "features": [{"type": "Feature", "geometry": {"geodesic": false, "type": "Polygon", "coordinates": [[[35.91582775594537, 35.78634072296433], [35.91744472345678, 35.78634072296433], [35.91744472345678, 35.786879712134805], [35.91798371262726, 35.786879712134805], [35.91798371262726, 35.78795769047575], [35.91690573428633, 35.78795769047575], [35.91690573428633, 35.78849667964622], [35.91906169096819, 35.78849667964622], [35.91906169096819, 35.78957465798717], [35.91960068013867, 35.78957465798717], [35.91960068013867, 35.79011364715763], [35.91744472345678, 35.79011364715763], [35.91744472345678, 35.78957465798717], [35.91690573428633, 35.78957465798717], [35.91690573428633, 35.79011364715763], [35.91636674511585, 35.79011364715763], [35.91636674511585, 35.789035668816695], [35.91582775594537, 35.789035668816695], [35.91582775594537, 35.78957465798717], [35.91528876677489, 35.78957465798717], [35.91528876677489, 35.790652636328105], [35.91367179926348, 35.790652636328105], [35.91367179926348, 35.79119162549858], [35.91421078843396, 35.79119162549858], [35.91421078843396, 35.79173061466905], [35.91205483175207, 35.79173061466905], [35.91205483175207, 35.790652636328105], [35.91151584258159, 35.790652636328105], [35.91151584258159, 35.79011364715763], [35.91097685341114, 35.79011364715763], [35.91097685341114, 35.78957465798717], [35.91043786424066, 35.78957465798717], [35.91043786424066, 35.78849667964622], [35.91097685341114, 35.78849667964622], [35.91097685341114, 35.78741870130528], [35.91151584258159, 35.78741870130528], [35.91151584258159, 35.786879712134805], [35.91205483175207, 35.786879712134805], [35.91205483175207, 35.78634072296433], [35.913132810093, 35.78634072296433], [35.913132810093, 35.786879712134805], [35.91582775594537, 35.786879712134805], [35.91582775594537, 35.78634072296433]], [[35.91259382092255, 35.78957465798717], [35.91259382092255, 35.79011364715763], [35.91205483175207, 35.79011364715763], [35.91205483175207, 35.78957465798717], [35.91259382092255, 35.78957465798717]], [[35.91798371262726, 35.789035668816695], [35.91798371262726, 35.78957465798717], [35.91744472345678, 35.78957465798717], [35.91744472345678, 35.789035668816695], [35.91798371262726, 35.789035668816695]], [[35.91367179926348, 35.78849667964622], [35.91367179926348, 35.78957465798717], [35.913132810093, 35.78957465798717], [35.913132810093, 35.78849667964622], [35.91367179926348, 35.78849667964622]]]}, "properties": {"area_ha": 27.680314964045095, "mean_dnbr": 0.4203416177378355, "compactness": 0.18, "rectangularity": 0.567, "cropland_frac": 0.003, "persistent": true}}, {"type": "Feature", "geometry": {"geodesic": false, "type": "Polygon", "coordinates": [[[36.10986385731519, 35.5297818778198], [36.11094183565615, 35.5297818778198], [36.11094183565615, 35.53085985616074], [36.1114808248266, 35.53085985616074], [36.1114808248266, 35.53032086699027], [36.11201981399708, 35.53032086699027], [36.11201981399708, 35.53085985616074], [36.11255880316756, 35.53085985616074], [36.11255880316756, 35.53193783450168], [36.11417577067897, 35.53193783450168], [36.11417577067897, 35.532476823672155], [36.1152537490199, 35.532476823672155], [36.1152537490199, 35.53571075869499], [36.11363678150849, 35.53571075869499], [36.11363678150849, 35.53517176952452], [36.11309779233801, 35.53517176952452], [36.11309779233801, 35.534632780354045], [36.1114808248266, 35.534632780354045], [36.1114808248266, 35.53409379118357], [36.11094183565615, 35.53409379118357], [36.11094183565615, 35.53301581284263], [36.10932486814471, 35.53301581284263], [36.10932486814471, 35.53193783450168], [36.10878587897426, 35.53193783450168], [36.10878587897426, 35.53139884533121], [36.10824688980378, 35.53139884533121], [36.10824688980378, 35.53085985616074], [36.10932486814471, 35.53085985616074], [36.10932486814471, 35.53032086699027], [36.10986385731519, 35.53032086699027], [36.10986385731519, 35.5297818778198]]]}, "properties": {"area_ha": 20.753826128036504, "mean_dnbr": 0.4005480776764377, "compactness": 0.356, "rectangularity": 0.621, "cropland_frac": 0, "persistent": true}}, {"type": "Feature", "geometry": {"geodesic": false, "type": "Polygon", "coordinates": [[[36.14867107758914, 35.4403096755215], [36.14921006675962, 35.4403096755215], [36.14921006675962, 35.441387653862435], [36.14867107758914, 35.441387653862435], [36.14867107758914, 35.44192664303291], [36.14921006675962, 35.44192664303291], [36.14921006675962, 35.44246563220338], [36.14867107758914, 35.44246563220338], [36.14867107758914, 35.443543610544324], [36.14813208841869, 35.443543610544324], [36.14813208841869, 35.44300462137385], [36.14705411007773, 35.44300462137385], [36.14705411007773, 35.4440825997148], [36.14759309924821, 35.4440825997148], [36.14759309924821, 35.44462158888527], [36.14705411007773, 35.44462158888527], [36.14705411007773, 35.44516057805574], [36.14651512090728, 35.44516057805574], [36.14651512090728, 35.445699567226214], [36.14543714256632, 35.445699567226214], [36.14543714256632, 35.446238556396686], [36.14435916422539, 35.446238556396686], [36.14435916422539, 35.445699567226214], [36.14489815339584, 35.445699567226214], [36.14489815339584, 35.44516057805574], [36.14435916422539, 35.44516057805574], [36.14435916422539, 35.44462158888527], [36.14382017505491, 35.44462158888527], [36.14382017505491, 35.4440825997148], [36.1422032075435, 35.4440825997148], [36.1422032075435, 35.44462158888527], [36.14166421837302, 35.44462158888527], [36.14166421837302, 35.445699567226214], [36.141125229202544, 35.445699567226214], [36.141125229202544, 35.446238556396686], [36.139508261691134, 35.446238556396686], [36.139508261691134, 35.445699567226214], [36.1384302833502, 35.445699567226214], [36.1384302833502, 35.446238556396686], [36.138969272520654, 35.446238556396686], [36.138969272520654, 35.44677754556715], [36.139508261691134, 35.44677754556715], [36.139508261691134, 35.447316534737624], [36.14004725086161, 35.447316534737624], [36.14004725086161, 35.447855523908096], [36.142742196713954, 35.447855523908096], [36.142742196713954, 35.447316534737624], [36.14328118588443, 35.447316534737624], [36.14328118588443, 35.44893350224904], [36.1422032075435, 35.44893350224904], [36.1422032075435, 35.44947249141951], [36.14166421837302, 35.44947249141951], [36.14166421837302, 35.450011480589986], [36.141125229202544, 35.450011480589986], [36.141125229202544, 35.44947249141951], [36.14058624003209, 35.44947249141951], [36.14058624003209, 35.45055046976046], [36.138969272520654, 35.45055046976046], [36.138969272520654, 35.450011480589986], [36.1384302833502, 35.450011480589986], [36.1384302833502, 35.44893350224904], [36.137891294179724, 35.44893350224904], [36.137891294179724, 35.44947249141951], [36.135735337497835, 35.44947249141951], [36.135735337497835, 35.44893350224904], [36.135196348327355, 35.44893350224904], [36.135196348327355, 35.44839451307857], [36.134657359156904, 35.44839451307857], [36.134657359156904, 35.447316534737624], [36.134118369986425, 35.447316534737624], [36.134118369986425, 35.44677754556715], [36.133579380815945, 35.44677754556715], [36.133579380815945, 35.446238556396686], [36.133040391645466, 35.446238556396686], [36.133040391645466, 35.445699567226214], [36.134118369986425, 35.445699567226214], [36.134118369986425, 35.44516057805574], [36.134657359156904, 35.44516057805574], [36.134657359156904, 35.4440825997148], [36.133579380815945, 35.4440825997148], [36.133579380815945, 35.443543610544324], [36.134118369986425, 35.443543610544324], [36.134118369986425, 35.44300462137385], [36.133579380815945, 35.44300462137385], [36.133579380815945, 35.44246563220338], [36.134118369986425, 35.44246563220338], [36.134118369986425, 35.44192664303291], [36.134657359156904, 35.44192664303291], [36.134657359156904, 35.44246563220338], [36.136813315838765, 35.44246563220338], [36.136813315838765, 35.44300462137385], [36.137352305009244, 35.44300462137385], [36.137352305009244, 35.4440825997148], [36.138969272520654, 35.4440825997148], [36.138969272520654, 35.44462158888527], [36.14058624003209, 35.44462158888527], [36.14058624003209, 35.4440825997148], [36.141125229202544, 35.4440825997148], [36.141125229202544, 35.443543610544324], [36.14004725086161, 35.443543610544324], [36.14004725086161, 35.44246563220338], [36.14166421837302, 35.44246563220338], [36.14166421837302, 35.44300462137385], [36.1422032075435, 35.44300462137385], [36.1422032075435, 35.44192664303291], [36.14382017505491, 35.44192664303291], [36.14382017505491, 35.441387653862435], [36.14759309924821, 35.441387653862435], [36.14759309924821, 35.44084866469196], [36.14867107758914, 35.44084866469196], [36.14867107758914, 35.4403096755215]], [[36.14058624003209, 35.44893350224904], [36.14058624003209, 35.44947249141951], [36.14004725086161, 35.44947249141951], [36.14004725086161, 35.44893350224904], [36.14058624003209, 35.44893350224904]], [[36.136813315838765, 35.445699567226214], [36.136813315838765, 35.446238556396686], [36.136274326668314, 35.446238556396686], [36.136274326668314, 35.445699567226214], [36.136813315838765, 35.445699567226214]], [[36.14435916422539, 35.44192664303291], [36.14435916422539, 35.44300462137385], [36.14382017505491, 35.44300462137385], [36.14382017505491, 35.44192664303291], [36.14435916422539, 35.44192664303291]]]}, "properties": {"area_ha": 67.59647334349572, "mean_dnbr": 0.38800656867071204, "compactness": 0.095, "rectangularity": 0.426, "cropland_frac": 0, "persistent": true}}, {"type": "Feature", "geometry": {"geodesic": false, "type": "Polygon", "coordinates": [[[36.15459995846433, 35.79011364715763], [36.15621692597577, 35.79011364715763], [36.15621692597577, 35.790652636328105], [36.15675591514622, 35.790652636328105], [36.15675591514622, 35.79173061466905], [36.15837288265766, 35.79173061466905], [36.15837288265766, 35.79226960383952], [36.15945086099859, 35.79226960383952], [36.15945086099859, 35.793347582180466], [36.15998985016907, 35.793347582180466], [36.15998985016907, 35.792808593009994], [36.16106782851, 35.792808593009994], [36.16106782851, 35.79388657135094], [36.16052883933952, 35.79388657135094], [36.16052883933952, 35.79442556052141], [36.15891187182811, 35.79442556052141], [36.15891187182811, 35.79496454969188], [36.15837288265766, 35.79496454969188], [36.15837288265766, 35.795503538862356], [36.1572949043167, 35.795503538862356], [36.1572949043167, 35.79604252803283], [36.15567793680529, 35.79604252803283], [36.15567793680529, 35.79442556052141], [36.15513894763481, 35.79442556052141], [36.15513894763481, 35.79388657135094], [36.15459995846433, 35.79388657135094], [36.15459995846433, 35.793347582180466], [36.15513894763481, 35.793347582180466], [36.15513894763481, 35.792808593009994], [36.15459995846433, 35.792808593009994], [36.15459995846433, 35.79226960383952], [36.15513894763481, 35.79226960383952], [36.15513894763481, 35.792808593009994], [36.15675591514622, 35.792808593009994], [36.15675591514622, 35.79226960383952], [36.15621692597577, 35.79226960383952], [36.15621692597577, 35.79173061466905], [36.15406096929388, 35.79173061466905], [36.15406096929388, 35.790652636328105], [36.1535219801234, 35.790652636328105], [36.1535219801234, 35.79173061466905], [36.15190501261199, 35.79173061466905], [36.15190501261199, 35.79119162549858], [36.15244400178247, 35.79119162549858], [36.15244400178247, 35.790652636328105], [36.1535219801234, 35.790652636328105], [36.1535219801234, 35.79011364715763], [36.15406096929388, 35.79011364715763], [36.15406096929388, 35.790652636328105], [36.15459995846433, 35.790652636328105], [36.15459995846433, 35.79011364715763]], [[36.1572949043167, 35.79388657135094], [36.1572949043167, 35.79442556052141], [36.15621692597577, 35.79442556052141], [36.15621692597577, 35.79388657135094], [36.1572949043167, 35.79388657135094]]]}, "properties": {"area_ha": 21.268998305903835, "mean_dnbr": 0.42759043305932076, "compactness": 0.14, "rectangularity": 0.46, "cropland_frac": 0, "persistent": true}}]}