{"type": "FeatureCollection", "crs": {"type": "name", "properties": {"name": "urn:ogc:def:crs:OGC:1.3:CRS84"}}, "features": [{"type": "Feature", "geometry": {"geodesic": false, "type": "Polygon", "coordinates": [[[36.21658371306859, 36.52421689734011], [36.217661691409546, 36.52421689734011], [36.217661691409546, 36.525294875681055], [36.21873966975048, 36.525294875681055], [36.21873966975048, 36.52583386485152], [36.219278658920956, 36.52583386485152], [36.219278658920956, 36.52637285402199], [36.21981764809141, 36.52637285402199], [36.21981764809141, 36.52745083236294], [36.22035663726189, 36.52745083236294], [36.22035663726189, 36.52852881070388], [36.2219736047733, 36.52852881070388], [36.2219736047733, 36.529067799874355], [36.223590572284735, 36.529067799874355], [36.223590572284735, 36.5301457782153], [36.224668550625665, 36.5301457782153], [36.224668550625665, 36.53068476738577], [36.224129561455186, 36.53068476738577], [36.224129561455186, 36.53176274572671], [36.223051583114255, 36.53176274572671], [36.223051583114255, 36.53230173489718], [36.220895626432366, 36.53230173489718], [36.220895626432366, 36.532840724067654], [36.22035663726189, 36.532840724067654], [36.22035663726189, 36.533379713238126], [36.221434615602845, 36.533379713238126], [36.221434615602845, 36.532840724067654], [36.2219736047733, 36.532840724067654], [36.2219736047733, 36.533379713238126], [36.222512593943776, 36.533379713238126], [36.222512593943776, 36.5339187024086], [36.223051583114255, 36.5339187024086], [36.223051583114255, 36.53445769157907], [36.2219736047733, 36.53445769157907], [36.2219736047733, 36.53499668074954], [36.221434615602845, 36.53499668074954], [36.221434615602845, 36.535535669920016], [36.223051583114255, 36.535535669920016], [36.223051583114255, 36.53661364826096], [36.224668550625665, 36.53661364826096], [36.224668550625665, 36.53607465909049], [36.227363496478034, 36.53607465909049], [36.227363496478034, 36.535535669920016], [36.226285518137075, 36.535535669920016], [36.226285518137075, 36.53499668074954], [36.227363496478034, 36.53499668074954], [36.227363496478034, 36.535535669920016], [36.228441474818965, 36.535535669920016], [36.228441474818965, 36.53607465909049], [36.227363496478034, 36.53607465909049], [36.227363496478034, 36.53661364826096], [36.227902485648485, 36.53661364826096], [36.227902485648485, 36.53715263743143], [36.228441474818965, 36.53715263743143], [36.228441474818965, 36.5376916266019], [36.228980463989444, 36.5376916266019], [36.228980463989444, 36.53823061577237], [36.226285518137075, 36.53823061577237], [36.226285518137075, 36.5376916266019], [36.223051583114255, 36.5376916266019], [36.223051583114255, 36.53823061577237], [36.222512593943776, 36.53823061577237], [36.222512593943776, 36.53876960494284], [36.2219736047733, 36.53876960494284], [36.2219736047733, 36.54092556162473], [36.219278658920956, 36.54092556162473], [36.219278658920956, 36.53984758328379], [36.21712270223907, 36.53984758328379], [36.21712270223907, 36.539308594113315], [36.21604472389811, 36.539308594113315], [36.21604472389811, 36.53823061577237], [36.21658371306859, 36.53823061577237], [36.21658371306859, 36.53715263743143], [36.21712270223907, 36.53715263743143], [36.21712270223907, 36.535535669920016], [36.21820068058, 36.535535669920016], [36.21820068058, 36.53445769157907], [36.217661691409546, 36.53445769157907], [36.217661691409546, 36.5339187024086], [36.21820068058, 36.5339187024086], [36.21820068058, 36.532840724067654], [36.21873966975048, 36.532840724067654], [36.21873966975048, 36.53230173489718], [36.219278658920956, 36.53230173489718], [36.219278658920956, 36.53068476738577], [36.21981764809141, 36.53068476738577], [36.21981764809141, 36.5301457782153], [36.21873966975048, 36.5301457782153], [36.21873966975048, 36.53068476738577], [36.217661691409546, 36.53068476738577], [36.217661691409546, 36.52960678904483], [36.219278658920956, 36.52960678904483], [36.219278658920956, 36.529067799874355], [36.21981764809141, 36.529067799874355], [36.21981764809141, 36.52798982153341], [36.219278658920956, 36.52798982153341], [36.219278658920956, 36.52745083236294], [36.21820068058, 36.52745083236294], [36.21820068058, 36.526911843192465], [36.21712270223907, 36.526911843192465], [36.21712270223907, 36.52745083236294], [36.217661691409546, 36.52745083236294], [36.217661691409546, 36.52798982153341], [36.21712270223907, 36.52798982153341], [36.21712270223907, 36.52852881070388], [36.21658371306859, 36.52852881070388], [36.21658371306859, 36.52798982153341], [36.21712270223907, 36.52798982153341], [36.21712270223907, 36.52745083236294], [36.21658371306859, 36.52745083236294], [36.21658371306859, 36.52637285402199], [36.21712270223907, 36.52637285402199], [36.21712270223907, 36.52475588651058], [36.21658371306859, 36.52475588651058], [36.21658371306859, 36.52421689734011]], [[36.223051583114255, 36.53661364826096], [36.223051583114255, 36.53715263743143], [36.222512593943776, 36.53715263743143], [36.222512593943776, 36.53661364826096], [36.223051583114255, 36.53661364826096]], [[36.225746528966596, 36.53661364826096], [36.225746528966596, 36.53715263743143], [36.224668550625665, 36.53715263743143], [36.224668550625665, 36.53661364826096], [36.225746528966596, 36.53661364826096]], [[36.22035663726189, 36.53607465909049], [36.22035663726189, 36.53661364826096], [36.21981764809141, 36.53661364826096], [36.21981764809141, 36.53607465909049], [36.22035663726189, 36.53607465909049]]]}, "properties": {"area_ha": 72.73070256672057, "mean_dnbr": 0.29336531448238634, "compactness": 0.081, "rectangularity": 0.34, "cropland_frac": 0, "persistent": true}}, {"type": "Feature", "geometry": {"geodesic": false, "type": "Polygon", "coordinates": [[[36.24838407412642, 36.59698043535379], [36.25000104163783, 36.59698043535379], [36.25000104163783, 36.597519424524265], [36.25054003080831, 36.597519424524265], [36.25054003080831, 36.59805841369473], [36.25107901997879, 36.59805841369473], [36.25107901997879, 36.5985974028652], [36.25054003080831, 36.5985974028652], [36.25054003080831, 36.599136392035675], [36.25107901997879, 36.599136392035675], [36.25107901997879, 36.59967538120615], [36.25323497666068, 36.59967538120615], [36.25323497666068, 36.60021437037662], [36.25431295500161, 36.60021437037662], [36.25431295500161, 36.60237032705851], [36.25485194417209, 36.60237032705851], [36.25485194417209, 36.60290931622898], [36.25592992251302, 36.60290931622898], [36.25592992251302, 36.60344830539945], [36.2564689116835, 36.60344830539945], [36.2564689116835, 36.60290931622898], [36.25754689002443, 36.60290931622898], [36.25754689002443, 36.60452628374039], [36.2564689116835, 36.60452628374039], [36.2564689116835, 36.60506527291086], [36.25592992251302, 36.60506527291086], [36.25592992251302, 36.605604262081336], [36.25485194417209, 36.605604262081336], [36.25485194417209, 36.60506527291086], [36.25431295500161, 36.60506527291086], [36.25431295500161, 36.60614325125181], [36.25323497666068, 36.60614325125181], [36.25323497666068, 36.605604262081336], [36.2526959874902, 36.605604262081336], [36.2526959874902, 36.60506527291086], [36.25107901997879, 36.60506527291086], [36.25107901997879, 36.60452628374039], [36.24946205246738, 36.60452628374039], [36.24946205246738, 36.60344830539945], [36.24838407412642, 36.60344830539945], [36.24838407412642, 36.60290931622898], [36.24730609578549, 36.60290931622898], [36.24730609578549, 36.60344830539945], [36.24622811744453, 36.60344830539945], [36.24622811744453, 36.60398729456992], [36.2451501391036, 36.60398729456992], [36.2451501391036, 36.60344830539945], [36.24191620408075, 36.60344830539945], [36.24191620408075, 36.60290931622898], [36.2413772149103, 36.60290931622898], [36.2413772149103, 36.60237032705851], [36.24083822573982, 36.60237032705851], [36.24083822573982, 36.601831337888036], [36.24029923656934, 36.601831337888036], [36.24029923656934, 36.601292348717564], [36.23976024739886, 36.601292348717564], [36.23976024739886, 36.60075335954709], [36.23922125822841, 36.60075335954709], [36.23922125822841, 36.60021437037662], [36.23868226905793, 36.60021437037662], [36.23868226905793, 36.59967538120615], [36.23922125822841, 36.59967538120615], [36.23922125822841, 36.60021437037662], [36.24029923656934, 36.60021437037662], [36.24029923656934, 36.60075335954709], [36.24083822573982, 36.60075335954709], [36.24083822573982, 36.601831337888036], [36.2413772149103, 36.601831337888036], [36.2413772149103, 36.601292348717564], [36.24245519325123, 36.601292348717564], [36.24245519325123, 36.601831337888036], [36.24353317159219, 36.601831337888036], [36.24353317159219, 36.601292348717564], [36.24407216076264, 36.601292348717564], [36.24407216076264, 36.60021437037662], [36.24353317159219, 36.60021437037662], [36.24353317159219, 36.60075335954709], [36.24299418242171, 36.60075335954709], [36.24299418242171, 36.60021437037662], [36.24353317159219, 36.60021437037662], [36.24353317159219, 36.59967538120615], [36.24407216076264, 36.59967538120615], [36.24407216076264, 36.5985974028652], [36.2451501391036, 36.5985974028652], [36.2451501391036, 36.59805841369473], [36.24568912827405, 36.59805841369473], [36.24568912827405, 36.599136392035675], [36.2451501391036, 36.599136392035675], [36.2451501391036, 36.59967538120615], [36.24622811744453, 36.59967538120615], [36.24622811744453, 36.5985974028652], [36.24676710661501, 36.5985974028652], [36.24676710661501, 36.59805841369473], [36.24622811744453, 36.59805841369473], [36.24622811744453, 36.597519424524265], [36.24838407412642, 36.597519424524265], [36.24838407412642, 36.59698043535379]], [[36.25431295500161, 36.60237032705851], [36.25431295500161, 36.60290931622898], [36.25377396583113, 36.60290931622898], [36.25377396583113, 36.60237032705851], [36.25431295500161, 36.60237032705851]], [[36.2489230632969, 36.597519424524265], [36.2489230632969, 36.5985974028652], [36.24838407412642, 36.5985974028652], [36.24838407412642, 36.597519424524265], [36.2489230632969, 36.597519424524265]]]}, "properties": {"area_ha": 71.80218771707182, "mean_dnbr": 0.3396966949486161, "compactness": 0.141, "rectangularity": 0.454, "cropland_frac": 0, "persistent": true}}, {"type": "Feature", "geometry": {"geodesic": false, "type": "Polygon", "coordinates": [[[36.25054003080831, 36.669743973367474], [36.25161800914924, 36.669743973367474], [36.25161800914924, 36.67028296253795], [36.2526959874902, 36.67028296253795], [36.2526959874902, 36.67082195170841], [36.25215699831972, 36.67082195170841], [36.25215699831972, 36.671360940878884], [36.2526959874902, 36.671360940878884], [36.2526959874902, 36.67243891921983], [36.25485194417209, 36.67243891921983], [36.25485194417209, 36.6729779083903], [36.25592992251302, 36.6729779083903], [36.25592992251302, 36.674055886731246], [36.25539093334257, 36.674055886731246], [36.25539093334257, 36.67459487590172], [36.25592992251302, 36.67459487590172], [36.25592992251302, 36.67513386507219], [36.25700790085398, 36.67513386507219], [36.25700790085398, 36.6729779083903], [36.25754689002443, 36.6729779083903], [36.25754689002443, 36.67243891921983], [36.25808587919491, 36.67243891921983], [36.25808587919491, 36.67082195170841], [36.26078082504728, 36.67082195170841], [36.26078082504728, 36.67028296253795], [36.26239779255869, 36.67028296253795], [36.26239779255869, 36.67082195170841], [36.26347577089962, 36.67082195170841], [36.26347577089962, 36.671360940878884], [36.26131981421776, 36.671360940878884], [36.26131981421776, 36.671899930049356], [36.26078082504728, 36.671899930049356], [36.26078082504728, 36.67459487590172], [36.26131981421776, 36.67459487590172], [36.26131981421776, 36.67567285424266], [36.26239779255869, 36.67567285424266], [36.26239779255869, 36.6767508325836], [36.26185880338821, 36.6767508325836], [36.26185880338821, 36.67728982175407], [36.26239779255869, 36.67728982175407], [36.26239779255869, 36.677828810924545], [36.26078082504728, 36.677828810924545], [36.26078082504728, 36.67836780009502], [36.25916385753587, 36.67836780009502], [36.25916385753587, 36.67944577843596], [36.25862486836539, 36.67944577843596], [36.25862486836539, 36.68106274594738], [36.25916385753587, 36.68106274594738], [36.25916385753587, 36.68052375677691], [36.25970284670632, 36.68052375677691], [36.25970284670632, 36.68160173511785], [36.2602418358768, 36.68160173511785], [36.2602418358768, 36.68267971345879], [36.26078082504728, 36.68267971345879], [36.26078082504728, 36.68321870262926], [36.26185880338821, 36.68321870262926], [36.26185880338821, 36.683757691799734], [36.26293678172917, 36.683757691799734], [36.26293678172917, 36.684296680970206], [36.267248695092945, 36.684296680970206], [36.267248695092945, 36.683757691799734], [36.267787684263396, 36.683757691799734], [36.267787684263396, 36.68321870262926], [36.269404651774806, 36.68321870262926], [36.269404651774806, 36.68267971345879], [36.269943640945286, 36.68267971345879], [36.269943640945286, 36.68321870262926], [36.271021619286245, 36.68321870262926], [36.271021619286245, 36.683757691799734], [36.270482630115765, 36.683757691799734], [36.270482630115765, 36.684296680970206], [36.271560608456696, 36.684296680970206], [36.271560608456696, 36.68483567014068], [36.272638586797655, 36.68483567014068], [36.272638586797655, 36.68537465931115], [36.273177575968134, 36.68537465931115], [36.273177575968134, 36.68591364848162], [36.273716565138585, 36.68591364848162], [36.273716565138585, 36.686452637652096], [36.272099597627175, 36.686452637652096], [36.272099597627175, 36.68699162682257], [36.271560608456696, 36.68699162682257], [36.271560608456696, 36.68753061599304], [36.272099597627175, 36.68753061599304], [36.272099597627175, 36.68806960516351], [36.270482630115765, 36.68806960516351], [36.270482630115765, 36.68753061599304], [36.269943640945286, 36.68753061599304], [36.269943640945286, 36.68806960516351], [36.267787684263396, 36.68806960516351], [36.267787684263396, 36.68860859433398], [36.268326673433876, 36.68860859433398], [36.268326673433876, 36.68914758350445], [36.269943640945286, 36.68914758350445], [36.269943640945286, 36.68860859433398], [36.272638586797655, 36.68860859433398], [36.272638586797655, 36.68914758350445], [36.273177575968134, 36.68914758350445], [36.273177575968134, 36.68968657267492], [36.273716565138585, 36.68968657267492], [36.273716565138585, 36.690225561845395], [36.274255554309065, 36.690225561845395], [36.274255554309065, 36.69076455101587], [36.273716565138585, 36.69076455101587], [36.273716565138585, 36.69130354018634], [36.271021619286245, 36.69130354018634], [36.271021619286245, 36.69184252935681], [36.268865662604355, 36.69184252935681], [36.268865662604355, 36.69076455101587], [36.268326673433876, 36.69076455101587], [36.268326673433876, 36.69130354018634], [36.266709705922466, 36.69130354018634], [36.266709705922466, 36.69184252935681], [36.267787684263396, 36.69184252935681], [36.267787684263396, 36.692381518527284], [36.268326673433876, 36.692381518527284], [36.268326673433876, 36.69292050769776], [36.268865662604355, 36.69292050769776], [36.268865662604355, 36.69345949686823], [36.270482630115765, 36.69345949686823], [36.270482630115765, 36.6939984860387], [36.271021619286245, 36.6939984860387], [36.271021619286245, 36.69453747520917], [36.271560608456696, 36.69453747520917], [36.271560608456696, 36.69561545355011], [36.271021619286245, 36.69561545355011], [36.271021619286245, 36.696154442720584], [36.270482630115765, 36.696154442720584], [36.270482630115765, 36.696693431891056], [36.271021619286245, 36.696693431891056], [36.271021619286245, 36.69723242106153], [36.271560608456696, 36.69723242106153], [36.271560608456696, 36.696693431891056], [36.272099597627175, 36.696693431891056], [36.272099597627175, 36.69723242106153], [36.273177575968134, 36.69723242106153], [36.273177575968134, 36.696693431891056], [36.273716565138585, 36.696693431891056], [36.273716565138585, 36.69723242106153], [36.274794543479544, 36.69723242106153], [36.274794543479544, 36.697771410232], [36.274255554309065, 36.697771410232], [36.274255554309065, 36.69831039940247], [36.273716565138585, 36.69831039940247], [36.273716565138585, 36.697771410232], [36.273177575968134, 36.697771410232], [36.273177575968134, 36.69831039940247], [36.272099597627175, 36.69831039940247], [36.272099597627175, 36.69938837774342], [36.272638586797655, 36.69938837774342], [36.272638586797655, 36.698849388572945], [36.273177575968134, 36.698849388572945], [36.273177575968134, 36.69938837774342], [36.273716565138585, 36.69938837774342], [36.273716565138585, 36.69992736691389], [36.274255554309065, 36.69992736691389], [36.274255554309065, 36.69938837774342], [36.274794543479544, 36.69938837774342], [36.274794543479544, 36.700466356084355], [36.273716565138585, 36.700466356084355], [36.273716565138585, 36.7015443344253], [36.274255554309065, 36.7015443344253], [36.274255554309065, 36.70208332359577], [36.273716565138585, 36.70208332359577], [36.273716565138585, 36.702622312766245], [36.272638586797655, 36.702622312766245], [36.272638586797655, 36.70316130193672], [36.272099597627175, 36.70316130193672], [36.272099597627175, 36.702622312766245], [36.271560608456696, 36.702622312766245], [36.271560608456696, 36.70370029110719], [36.272099597627175, 36.70370029110719], [36.272099597627175, 36.70423928027766], [36.272638586797655, 36.70423928027766], [36.272638586797655, 36.70531725861861], [36.273177575968134, 36.70531725861861], [36.273177575968134, 36.70639523695955], [36.272099597627175, 36.70639523695955], [36.272099597627175, 36.706934226130016], [36.271560608456696, 36.706934226130016], [36.271560608456696, 36.70747321530049], [36.271021619286245, 36.70747321530049], [36.271021619286245, 36.70801220447096], [36.269943640945286, 36.70801220447096], [36.269943640945286, 36.70855119364143], [36.268326673433876, 36.70855119364143], [36.268326673433876, 36.70962917198238], [36.267787684263396, 36.70962917198238], [36.267787684263396, 36.71016816115285], [36.268865662604355, 36.71016816115285], [36.268865662604355, 36.71070715032332], [36.268326673433876, 36.71070715032332], [36.268326673433876, 36.711246139493795], [36.267787684263396, 36.711246139493795], [36.267787684263396, 36.71178512866427], [36.268326673433876, 36.71178512866427], [36.268326673433876, 36.71340209617568], [36.268865662604355, 36.71340209617568], [36.268865662604355, 36.71394108534615], [36.267787684263396, 36.71394108534615], [36.267787684263396, 36.71448007451662], [36.266709705922466, 36.71448007451662], [36.266709705922466, 36.715019063687095], [36.267248695092945, 36.715019063687095], [36.267248695092945, 36.71663603119851], [36.266170716751986, 36.71663603119851], [36.266170716751986, 36.71340209617568], [36.26563172758151, 36.71340209617568], [36.26563172758151, 36.71232411783474], [36.265092738411056, 36.71232411783474], [36.265092738411056, 36.711246139493795], [36.26455374924058, 36.711246139493795], [36.26455374924058, 36.71070715032332], [36.2640147600701, 36.71070715032332], [36.2640147600701, 36.706934226130016], [36.26347577089962, 36.706934226130016], [36.26347577089962, 36.70639523695955], [36.2640147600701, 36.70639523695955], [36.2640147600701, 36.702622312766245], [36.26455374924058, 36.702622312766245], [36.26455374924058, 36.700466356084355], [36.26347577089962, 36.700466356084355], [36.26347577089962, 36.69992736691389], [36.26293678172917, 36.69992736691389], [36.26293678172917, 36.69938837774342], [36.2602418358768, 36.69938837774342], [36.2602418358768, 36.698849388572945], [36.25970284670632, 36.698849388572945], [36.25970284670632, 36.697771410232], [36.25916385753587, 36.697771410232], [36.25916385753587, 36.696693431891056], [36.25970284670632, 36.696693431891056], [36.25970284670632, 36.696154442720584], [36.25862486836539, 36.696154442720584], [36.25862486836539, 36.69507646437964], [36.25808587919491, 36.69507646437964], [36.25808587919491, 36.69453747520917], [36.2564689116835, 36.69453747520917], [36.2564689116835, 36.6939984860387], [36.25377396583113, 36.6939984860387], [36.25377396583113, 36.69453747520917], [36.2526959874902, 36.69453747520917], [36.2526959874902, 36.6939984860387], [36.25161800914924, 36.6939984860387], [36.25161800914924, 36.69345949686823], [36.25107901997879, 36.69345949686823], [36.25107901997879, 36.69184252935681], [36.25054003080831, 36.69184252935681], [36.25054003080831, 36.69076455101587], [36.25000104163783, 36.69076455101587], [36.25000104163783, 36.68968657267492], [36.24946205246738, 36.68968657267492], [36.24946205246738, 36.68914758350445], [36.2489230632969, 36.68914758350445], [36.2489230632969, 36.68806960516351], [36.24838407412642, 36.68806960516351], [36.24838407412642, 36.68753061599304], [36.2489230632969, 36.68753061599304], [36.2489230632969, 36.686452637652096], [36.24784508495594, 36.686452637652096], [36.24784508495594, 36.68753061599304], [36.24730609578549, 36.68753061599304], [36.24730609578549, 36.68699162682257], [36.24568912827405, 36.68699162682257], [36.24568912827405, 36.686452637652096], [36.2451501391036, 36.686452637652096], [36.2451501391036, 36.68591364848162], [36.24461114993312, 36.68591364848162], [36.24461114993312, 36.684296680970206], [36.2451501391036, 36.684296680970206], [36.2451501391036, 36.68321870262926], [36.24676710661501, 36.68321870262926], [36.24676710661501, 36.68267971345879], [36.24622811744453, 36.68267971345879], [36.24622811744453, 36.682140724288324], [36.2451501391036, 36.682140724288324], [36.2451501391036, 36.68160173511785], [36.24461114993312, 36.68160173511785], [36.24461114993312, 36.682140724288324], [36.24407216076264, 36.682140724288324], [36.24407216076264, 36.68267971345879], [36.24353317159219, 36.68267971345879], [36.24353317159219, 36.682140724288324], [36.24299418242171, 36.682140724288324], [36.24299418242171, 36.68267971345879], [36.24191620408075, 36.68267971345879], [36.24191620408075, 36.67836780009502], [36.2413772149103, 36.67836780009502], [36.2413772149103, 36.677828810924545], [36.24083822573982, 36.677828810924545], [36.24083822573982, 36.67728982175407], [36.24029923656934, 36.67728982175407], [36.24029923656934, 36.6767508325836], [36.23976024739886, 36.6767508325836], [36.23976024739886, 36.676211843413135], [36.23868226905793, 36.676211843413135], [36.23868226905793, 36.67567285424266], [36.23976024739886, 36.67567285424266], [36.23976024739886, 36.67513386507219], [36.24029923656934, 36.67513386507219], [36.24029923656934, 36.67459487590172], [36.24083822573982, 36.67459487590172], [36.24083822573982, 36.674055886731246], [36.24191620408075, 36.674055886731246], [36.24191620408075, 36.67351689756077], [36.24083822573982, 36.67351689756077], [36.24083822573982, 36.6729779083903], [36.24407216076264, 36.6729779083903], [36.24407216076264, 36.67243891921983], [36.24353317159219, 36.67243891921983], [36.24353317159219, 36.671899930049356], [36.24407216076264, 36.671899930049356], [36.24407216076264, 36.671360940878884], [36.24353317159219, 36.671360940878884], [36.24353317159219, 36.67082195170841], [36.24407216076264, 36.67082195170841], [36.24407216076264, 36.671360940878884], [36.24461114993312, 36.671360940878884], [36.24461114993312, 36.671899930049356], [36.2451501391036, 36.671899930049356], [36.2451501391036, 36.67243891921983], [36.24461114993312, 36.67243891921983], [36.24461114993312, 36.6729779083903], [36.24946205246738, 36.6729779083903], [36.24946205246738, 36.67351689756077], [36.25000104163783, 36.67351689756077], [36.25000104163783, 36.67243891921983], [36.24946205246738, 36.67243891921983], [36.24946205246738, 36.671360940878884], [36.2489230632969, 36.671360940878884], [36.2489230632969, 36.67082195170841], [36.24838407412642, 36.67082195170841], [36.24838407412642, 36.67028296253795], [36.25000104163783, 36.67028296253795], [36.25000104163783, 36.671360940878884], [36.25054003080831, 36.671360940878884], [36.25054003080831, 36.669743973367474]], [[36.271021619286245, 36.70316130193672], [36.271021619286245, 36.704778269448134], [36.270482630115765, 36.704778269448134], [36.270482630115765, 36.70423928027766], [36.269404651774806, 36.70423928027766], [36.269404651774806, 36.704778269448134], [36.268326673433876, 36.704778269448134], [36.268326673433876, 36.70423928027766], [36.267787684263396, 36.70423928027766], [36.267787684263396, 36.70370029110719], [36.269943640945286, 36.70370029110719], [36.269943640945286, 36.70316130193672], [36.271021619286245, 36.70316130193672]], [[36.268326673433876, 36.70208332359577], [36.268326673433876, 36.70316130193672], [36.267248695092945, 36.70316130193672], [36.267248695092945, 36.702622312766245], [36.267787684263396, 36.702622312766245], [36.267787684263396, 36.70208332359577], [36.268326673433876, 36.70208332359577]], [[36.266170716751986, 36.7015443344253], [36.266170716751986, 36.70316130193672], [36.26563172758151, 36.70316130193672], [36.26563172758151, 36.70423928027766], [36.265092738411056, 36.70423928027766], [36.265092738411056, 36.70370029110719], [36.26455374924058, 36.70370029110719], [36.26455374924058, 36.702622312766245], [36.26563172758151, 36.702622312766245], [36.26563172758151, 36.7015443344253], [36.266170716751986, 36.7015443344253]], [[36.270482630115765, 36.696693431891056], [36.270482630115765, 36.69723242106153], [36.269943640945286, 36.69723242106153], [36.269943640945286, 36.697771410232], [36.267787684263396, 36.697771410232], [36.267787684263396, 36.69723242106153], [36.268326673433876, 36.69723242106153], [36.268326673433876, 36.696693431891056], [36.270482630115765, 36.696693431891056]], [[36.26131981421776, 36.69345949686823], [36.26131981421776, 36.69453747520917], [36.26078082504728, 36.69453747520917], [36.26078082504728, 36.69345949686823], [36.26131981421776, 36.69345949686823]], [[36.25431295500161, 36.68699162682257], [36.25431295500161, 36.68753061599304], [36.25485194417209, 36.68753061599304], [36.25485194417209, 36.68806960516351], [36.25431295500161, 36.68806960516351], [36.25431295500161, 36.68860859433398], [36.25377396583113, 36.68860859433398], [36.25377396583113, 36.68806960516351], [36.2526959874902, 36.68806960516351], [36.2526959874902, 36.68860859433398], [36.25215699831972, 36.68860859433398], [36.25215699831972, 36.690225561845395], [36.25161800914924, 36.690225561845395], [36.25161800914924, 36.68968657267492], [36.25107901997879, 36.68968657267492], [36.25107901997879, 36.68914758350445], [36.25161800914924, 36.68914758350445], [36.25161800914924, 36.68806960516351], [36.25215699831972, 36.68806960516351], [36.25215699831972, 36.68699162682257], [36.2526959874902, 36.68699162682257], [36.2526959874902, 36.68753061599304], [36.25377396583113, 36.68753061599304], [36.25377396583113, 36.68699162682257], [36.25431295500161, 36.68699162682257]], [[36.25592992251302, 36.686452637652096], [36.25592992251302, 36.68699162682257], [36.2564689116835, 36.68699162682257], [36.2564689116835, 36.68753061599304], [36.25485194417209, 36.68753061599304], [36.25485194417209, 36.686452637652096], [36.25592992251302, 36.686452637652096]], [[36.268326673433876, 36.686452637652096], [36.268326673433876, 36.68699162682257], [36.267787684263396, 36.68699162682257], [36.267787684263396, 36.68806960516351], [36.266709705922466, 36.68806960516351], [36.266709705922466, 36.68860859433398], [36.26563172758151, 36.68860859433398], [36.26563172758151, 36.68968657267492], [36.265092738411056, 36.68968657267492], [36.265092738411056, 36.68753061599304], [36.26563172758151, 36.68753061599304], [36.26563172758151, 36.686452637652096], [36.266709705922466, 36.686452637652096], [36.266709705922466, 36.68699162682257], [36.267248695092945, 36.68699162682257], [36.267248695092945, 36.686452637652096], [36.268326673433876, 36.686452637652096]], [[36.24838407412642, 36.68537465931115], [36.24838407412642, 36.68591364848162], [36.24730609578549, 36.68591364848162], [36.24730609578549, 36.68537465931115], [36.24838407412642, 36.68537465931115]], [[36.24622811744453, 36.68483567014068], [36.24622811744453, 36.68537465931115], [36.24676710661501, 36.68537465931115], [36.24676710661501, 36.686452637652096], [36.24568912827405, 36.686452637652096], [36.24568912827405, 36.68483567014068], [36.24622811744453, 36.68483567014068]], [[36.2602418358768, 36.68267971345879], [36.2602418358768, 36.68321870262926], [36.25970284670632, 36.68321870262926], [36.25970284670632, 36.68267971345879], [36.2602418358768, 36.68267971345879]], [[36.25970284670632, 36.682140724288324], [36.25970284670632, 36.68267971345879], [36.25916385753587, 36.68267971345879], [36.25916385753587, 36.682140724288324], [36.25970284670632, 36.682140724288324]], [[36.24299418242171, 36.68160173511785], [36.24299418242171, 36.682140724288324], [36.24245519325123, 36.682140724288324], [36.24245519325123, 36.68160173511785], [36.24299418242171, 36.68160173511785]], [[36.25592992251302, 36.68160173511785], [36.25592992251302, 36.682140724288324], [36.25539093334257, 36.682140724288324], [36.25539093334257, 36.68160173511785], [36.25592992251302, 36.68160173511785]], [[36.25862486836539, 36.68160173511785], [36.25862486836539, 36.682140724288324], [36.25808587919491, 36.682140724288324], [36.25808587919491, 36.68267971345879], [36.25754689002443, 36.68267971345879], [36.25754689002443, 36.68160173511785], [36.25862486836539, 36.68160173511785]], [[36.25754689002443, 36.68052375677691], [36.25754689002443, 36.68160173511785], [36.25700790085398, 36.68160173511785], [36.25700790085398, 36.68052375677691], [36.25754689002443, 36.68052375677691]], [[36.24461114993312, 36.679984767606435], [36.24461114993312, 36.68160173511785], [36.24353317159219, 36.68160173511785], [36.24353317159219, 36.68106274594738], [36.24299418242171, 36.68106274594738], [36.24299418242171, 36.68052375677691], [36.24353317159219, 36.68052375677691], [36.24353317159219, 36.679984767606435], [36.24461114993312, 36.679984767606435]], [[36.2564689116835, 36.67890678926549], [36.2564689116835, 36.679984767606435], [36.25592992251302, 36.679984767606435], [36.25592992251302, 36.68106274594738], [36.25539093334257, 36.68106274594738], [36.25539093334257, 36.68052375677691], [36.25485194417209, 36.68052375677691], [36.25485194417209, 36.67944577843596], [36.25592992251302, 36.67944577843596], [36.25592992251302, 36.67890678926549], [36.2564689116835, 36.67890678926549]], [[36.24784508495594, 36.67351689756077], [36.24784508495594, 36.674055886731246], [36.24838407412642, 36.674055886731246], [36.24838407412642, 36.67459487590172], [36.24568912827405, 36.67459487590172], [36.24568912827405, 36.67513386507219], [36.24353317159219, 36.67513386507219], [36.24353317159219, 36.67459487590172], [36.24299418242171, 36.67459487590172], [36.24299418242171, 36.67513386507219], [36.24245519325123, 36.67513386507219], [36.24245519325123, 36.67459487590172], [36.24191620408075, 36.67459487590172], [36.24191620408075, 36.674055886731246], [36.24730609578549, 36.674055886731246], [36.24730609578549, 36.67351689756077], [36.24784508495594, 36.67351689756077]], [[36.25215699831972, 36.6729779083903], [36.25215699831972, 36.67351689756077], [36.2526959874902, 36.67351689756077], [36.2526959874902, 36.674055886731246], [36.25215699831972, 36.674055886731246], [36.25215699831972, 36.67459487590172], [36.25161800914924, 36.67459487590172], [36.25161800914924, 36.674055886731246], [36.25054003080831, 36.674055886731246], [36.25054003080831, 36.67351689756077], [36.25161800914924, 36.67351689756077], [36.25161800914924, 36.6729779083903], [36.25215699831972, 36.6729779083903]], [[36.25054003080831, 36.671899930049356], [36.25054003080831, 36.67243891921983], [36.25000104163783, 36.67243891921983], [36.25000104163783, 36.671899930049356], [36.25054003080831, 36.671899930049356]]]}, "properties": {"area_ha": 586.4452188993648, "mean_dnbr": 0.36686321270233935, "compactness": 0.042, "rectangularity": 0.461, "cropland_frac": 0, "persistent": true}}, {"type": "Feature", "geometry": {"geodesic": false, "type": "Polygon", "coordinates": [[[36.26563172758151, 36.82820678948615], [36.267248695092945, 36.82820678948615], [36.267248695092945, 36.828745778656625], [36.267787684263396, 36.828745778656625], [36.267787684263396, 36.8292847678271], [36.269404651774806, 36.8292847678271], [36.269404651774806, 36.82982375699757], [36.272099597627175, 36.82982375699757], [36.272099597627175, 36.83036274616804], [36.271560608456696, 36.83036274616804], [36.271560608456696, 36.830901735338514], [36.269943640945286, 36.830901735338514], [36.269943640945286, 36.83036274616804], [36.269404651774806, 36.83036274616804], [36.269404651774806, 36.82982375699757], [36.268865662604355, 36.82982375699757], [36.268865662604355, 36.830901735338514], [36.269404651774806, 36.830901735338514], [36.269404651774806, 36.83251870284993], [36.268865662604355, 36.83251870284993], [36.268865662604355, 36.833057692020404], [36.267787684263396, 36.833057692020404], [36.267787684263396, 36.83359668119087], [36.266709705922466, 36.83359668119087], [36.266709705922466, 36.83413567036134], [36.266170716751986, 36.83413567036134], [36.266170716751986, 36.83359668119087], [36.26563172758151, 36.83359668119087], [36.26563172758151, 36.834674659531814], [36.265092738411056, 36.834674659531814], [36.265092738411056, 36.83629162704323], [36.26455374924058, 36.83629162704323], [36.26455374924058, 36.8368306162137], [36.26563172758151, 36.8368306162137], [36.26563172758151, 36.83629162704323], [36.266170716751986, 36.83629162704323], [36.266170716751986, 36.8368306162137], [36.26563172758151, 36.8368306162137], [36.26563172758151, 36.837369605384175], [36.265092738411056, 36.837369605384175], [36.265092738411056, 36.83790859455465], [36.266170716751986, 36.83790859455465], [36.266170716751986, 36.837369605384175], [36.266709705922466, 36.837369605384175], [36.266709705922466, 36.83790859455465], [36.267248695092945, 36.83790859455465], [36.267248695092945, 36.83844758372512], [36.266170716751986, 36.83844758372512], [36.266170716751986, 36.83898657289559], [36.265092738411056, 36.83898657289559], [36.265092738411056, 36.83790859455465], [36.26455374924058, 36.83790859455465], [36.26455374924058, 36.837369605384175], [36.26293678172917, 36.837369605384175], [36.26293678172917, 36.8368306162137], [36.2640147600701, 36.8368306162137], [36.2640147600701, 36.83575263787276], [36.26347577089962, 36.83575263787276], [36.26347577089962, 36.834674659531814], [36.265092738411056, 36.834674659531814], [36.265092738411056, 36.83413567036134], [36.26455374924058, 36.83413567036134], [36.26455374924058, 36.83359668119087], [36.26347577089962, 36.83359668119087], [36.26347577089962, 36.83251870284993], [36.26293678172917, 36.83251870284993], [36.26293678172917, 36.83197971367946], [36.26239779255869, 36.83197971367946], [36.26239779255869, 36.83144072450899], [36.26185880338821, 36.83144072450899], [36.26185880338821, 36.830901735338514], [36.26347577089962, 36.830901735338514], [36.26347577089962, 36.82982375699757], [36.2640147600701, 36.82982375699757], [36.2640147600701, 36.8292847678271], [36.26455374924058, 36.8292847678271], [36.26455374924058, 36.828745778656625], [36.265092738411056, 36.828745778656625], [36.265092738411056, 36.8292847678271], [36.26563172758151, 36.8292847678271], [36.26563172758151, 36.82820678948615]], [[36.267248695092945, 36.83197971367946], [36.267248695092945, 36.83251870284993], [36.266709705922466, 36.83251870284993], [36.266709705922466, 36.83197971367946], [36.267248695092945, 36.83197971367946]]]}, "properties": {"area_ha": 37.087240947082215, "mean_dnbr": 0.4243480924337223, "compactness": 0.114, "rectangularity": 0.392, "cropland_frac": 0, "persistent": true}}, {"type": "Feature", "geometry": {"geodesic": false, "type": "Polygon", "coordinates": [[[36.266709705922466, 36.800179352621626], [36.267248695092945, 36.800179352621626], [36.267248695092945, 36.8007183417921], [36.267787684263396, 36.8007183417921], [36.267787684263396, 36.802335309303515], [36.268326673433876, 36.802335309303515], [36.268326673433876, 36.80287429847399], [36.267787684263396, 36.80287429847399], [36.267787684263396, 36.80341328764445], [36.266709705922466, 36.80341328764445], [36.266709705922466, 36.803952276814925], [36.26563172758151, 36.803952276814925], [36.26563172758151, 36.80503025515587], [36.265092738411056, 36.80503025515587], [36.265092738411056, 36.806108233496815], [36.26455374924058, 36.806108233496815], [36.26455374924058, 36.80718621183776], [36.2640147600701, 36.80718621183776], [36.2640147600701, 36.80934216851964], [36.26347577089962, 36.80934216851964], [36.26347577089962, 36.809881157690114], [36.26293678172917, 36.809881157690114], [36.26293678172917, 36.81042014686059], [36.26239779255869, 36.81042014686059], [36.26239779255869, 36.81095913603106], [36.26185880338821, 36.81095913603106], [36.26185880338821, 36.81149812520153], [36.26078082504728, 36.81149812520153], [36.26078082504728, 36.812576103542476], [36.25916385753587, 36.812576103542476], [36.25916385753587, 36.812037114372], [36.25970284670632, 36.812037114372], [36.25970284670632, 36.81149812520153], [36.2602418358768, 36.81149812520153], [36.2602418358768, 36.81042014686059], [36.25916385753587, 36.81042014686059], [36.25916385753587, 36.809881157690114], [36.25862486836539, 36.809881157690114], [36.25862486836539, 36.80880317934918], [36.25808587919491, 36.80880317934918], [36.25808587919491, 36.808264190178704], [36.25916385753587, 36.808264190178704], [36.25916385753587, 36.80772520100823], [36.25970284670632, 36.80772520100823], [36.25970284670632, 36.80718621183776], [36.25916385753587, 36.80718621183776], [36.25916385753587, 36.806108233496815], [36.25862486836539, 36.806108233496815], [36.25862486836539, 36.8044912659854], [36.25916385753587, 36.8044912659854], [36.25916385753587, 36.803952276814925], [36.26185880338821, 36.803952276814925], [36.26185880338821, 36.80341328764445], [36.26293678172917, 36.80341328764445], [36.26293678172917, 36.80287429847399], [36.2640147600701, 36.80287429847399], [36.2640147600701, 36.802335309303515], [36.26455374924058, 36.802335309303515], [36.26455374924058, 36.80179632013304], [36.26563172758151, 36.80179632013304], [36.26563172758151, 36.80125733096257], [36.266170716751986, 36.80125733096257], [36.266170716751986, 36.8007183417921], [36.266709705922466, 36.8007183417921], [36.266709705922466, 36.800179352621626]]]}, "properties": {"area_ha": 50.329237603582044, "mean_dnbr": 0.5692241271032207, "compactness": 0.257, "rectangularity": 0.478, "cropland_frac": 0, "persistent": true}}, {"type": "Feature", "geometry": {"geodesic": false, "type": "Polygon", "coordinates": [[[36.269943640945286, 36.65195733074191], [36.271560608456696, 36.65195733074191], [36.271560608456696, 36.65249631991237], [36.274255554309065, 36.65249631991237], [36.274255554309065, 36.653035309082846], [36.274794543479544, 36.653035309082846], [36.274794543479544, 36.65357429825332], [36.27695050016143, 36.65357429825332], [36.27695050016143, 36.65465227659426], [36.27910645684332, 36.65465227659426], [36.27910645684332, 36.65411328742379], [36.279645446013774, 36.65411328742379], [36.279645446013774, 36.65357429825332], [36.28018443518425, 36.65357429825332], [36.28018443518425, 36.65411328742379], [36.28072342435473, 36.65411328742379], [36.28072342435473, 36.653035309082846], [36.28449634854803, 36.653035309082846], [36.28449634854803, 36.65357429825332], [36.28503533771851, 36.65357429825332], [36.28503533771851, 36.65411328742379], [36.28449634854803, 36.65411328742379], [36.28449634854803, 36.655191265764735], [36.28287938103662, 36.655191265764735], [36.28287938103662, 36.65573025493521], [36.28341837020707, 36.65573025493521], [36.28341837020707, 36.65626924410568], [36.28287938103662, 36.65626924410568], [36.28287938103662, 36.65573025493521], [36.28180140269566, 36.65573025493521], [36.28180140269566, 36.65465227659426], [36.281262413525184, 36.65465227659426], [36.281262413525184, 36.655191265764735], [36.28072342435473, 36.655191265764735], [36.28072342435473, 36.65465227659426], [36.27910645684332, 36.65465227659426], [36.27910645684332, 36.655191265764735], [36.274794543479544, 36.655191265764735], [36.274794543479544, 36.65573025493521], [36.274255554309065, 36.65573025493521], [36.274255554309065, 36.657347222446624], [36.273716565138585, 36.657347222446624], [36.273716565138585, 36.658964189958034], [36.27856746767284, 36.658964189958034], [36.27856746767284, 36.65950317912851], [36.278028478502364, 36.65950317912851], [36.278028478502364, 36.66004216829898], [36.275872521820475, 36.66004216829898], [36.275872521820475, 36.661659135810396], [36.275333532649995, 36.661659135810396], [36.275333532649995, 36.66219812498087], [36.273177575968134, 36.66219812498087], [36.273177575968134, 36.66273711415134], [36.271560608456696, 36.66273711415134], [36.271560608456696, 36.66219812498087], [36.271021619286245, 36.66219812498087], [36.271021619286245, 36.66273711415134], [36.269943640945286, 36.66273711415134], [36.269943640945286, 36.66327610332181], [36.269404651774806, 36.66327610332181], [36.269404651774806, 36.663815092492285], [36.266709705922466, 36.663815092492285], [36.266709705922466, 36.66327610332181], [36.266170716751986, 36.66327610332181], [36.266170716751986, 36.663815092492285], [36.265092738411056, 36.663815092492285], [36.265092738411056, 36.66327610332181], [36.26347577089962, 36.66327610332181], [36.26347577089962, 36.663815092492285], [36.26293678172917, 36.663815092492285], [36.26293678172917, 36.66435408166275], [36.26239779255869, 36.66435408166275], [36.26239779255869, 36.66489307083322], [36.26185880338821, 36.66489307083322], [36.26185880338821, 36.66327610332181], [36.26078082504728, 36.66327610332181], [36.26078082504728, 36.66435408166275], [36.2602418358768, 36.66435408166275], [36.2602418358768, 36.66489307083322], [36.26078082504728, 36.66489307083322], [36.26078082504728, 36.66597104917417], [36.2602418358768, 36.66597104917417], [36.2602418358768, 36.667588016685585], [36.25916385753587, 36.667588016685585], [36.25916385753587, 36.66812700585606], [36.25808587919491, 36.66812700585606], [36.25808587919491, 36.66866599502653], [36.25862486836539, 36.66866599502653], [36.25862486836539, 36.669204984197], [36.2564689116835, 36.669204984197], [36.2564689116835, 36.669743973367474], [36.25592992251302, 36.669743973367474], [36.25592992251302, 36.66866599502653], [36.2564689116835, 36.66866599502653], [36.2564689116835, 36.66651003834464], [36.25700790085398, 36.66651003834464], [36.25700790085398, 36.66597104917417], [36.25754689002443, 36.66597104917417], [36.25754689002443, 36.665432060003695], [36.25862486836539, 36.665432060003695], [36.25862486836539, 36.66435408166275], [36.25916385753587, 36.66435408166275], [36.25916385753587, 36.66327610332181], [36.25862486836539, 36.66327610332181], [36.25862486836539, 36.66273711415134], [36.25808587919491, 36.66273711415134], [36.25808587919491, 36.66219812498087], [36.25431295500161, 36.66219812498087], [36.25431295500161, 36.66273711415134], [36.2526959874902, 36.66273711415134], [36.2526959874902, 36.66219812498087], [36.25215699831972, 36.66219812498087], [36.25215699831972, 36.661659135810396], [36.2526959874902, 36.661659135810396], [36.2526959874902, 36.658964189958034], [36.25323497666068, 36.658964189958034], [36.25323497666068, 36.657347222446624], [36.25485194417209, 36.657347222446624], [36.25485194417209, 36.65680823327615], [36.25808587919491, 36.65680823327615], [36.25808587919491, 36.65626924410568], [36.26347577089962, 36.65626924410568], [36.26347577089962, 36.65573025493521], [36.2640147600701, 36.65573025493521], [36.2640147600701, 36.65626924410568], [36.26347577089962, 36.65626924410568], [36.26347577089962, 36.65680823327615], [36.2640147600701, 36.65680823327615], [36.2640147600701, 36.657347222446624], [36.26347577089962, 36.657347222446624], [36.26347577089962, 36.66004216829898], [36.2640147600701, 36.66004216829898], [36.2640147600701, 36.66058115746945], [36.266709705922466, 36.66058115746945], [36.266709705922466, 36.66004216829898], [36.267248695092945, 36.66004216829898], [36.267248695092945, 36.658964189958034], [36.266709705922466, 36.658964189958034], [36.266709705922466, 36.65950317912851], [36.266170716751986, 36.65950317912851], [36.266170716751986, 36.65842520078756], [36.270482630115765, 36.65842520078756], [36.270482630115765, 36.657347222446624], [36.269943640945286, 36.657347222446624], [36.269943640945286, 36.65680823327615], [36.268865662604355, 36.65680823327615], [36.268865662604355, 36.65626924410568], [36.267248695092945, 36.65626924410568], [36.267248695092945, 36.65680823327615], [36.26563172758151, 36.65680823327615], [36.26563172758151, 36.65626924410568], [36.265092738411056, 36.65626924410568], [36.265092738411056, 36.65411328742379], [36.266170716751986, 36.65411328742379], [36.266170716751986, 36.65357429825332], [36.266709705922466, 36.65357429825332], [36.266709705922466, 36.653035309082846], [36.267248695092945, 36.653035309082846], [36.267248695092945, 36.65195733074191], [36.267787684263396, 36.65195733074191], [36.267787684263396, 36.65249631991237], [36.268326673433876, 36.65249631991237], [36.268326673433876, 36.653035309082846], [36.269404651774806, 36.653035309082846], [36.269404651774806, 36.65249631991237], [36.269943640945286, 36.65249631991237], [36.269943640945286, 36.65195733074191]], [[36.26078082504728, 36.66219812498087], [36.26078082504728, 36.66273711415134], [36.2602418358768, 36.66273711415134], [36.2602418358768, 36.66219812498087], [36.26078082504728, 36.66219812498087]], [[36.25431295500161, 36.66058115746945], [36.25431295500161, 36.661120146639924], [36.25377396583113, 36.661120146639924], [36.25377396583113, 36.66058115746945], [36.25431295500161, 36.66058115746945]], [[36.25754689002443, 36.65950317912851], [36.25754689002443, 36.66058115746945], [36.25700790085398, 36.66058115746945], [36.25700790085398, 36.661120146639924], [36.25592992251302, 36.661120146639924], [36.25592992251302, 36.661659135810396], [36.25485194417209, 36.661659135810396], [36.25485194417209, 36.66004216829898], [36.2564689116835, 36.66004216829898], [36.2564689116835, 36.65950317912851], [36.25754689002443, 36.65950317912851]], [[36.26293678172917, 36.65680823327615], [36.26293678172917, 36.657347222446624], [36.26239779255869, 36.657347222446624], [36.26239779255869, 36.65680823327615], [36.26293678172917, 36.65680823327615]], [[36.271021619286245, 36.653035309082846], [36.271021619286245, 36.65411328742379], [36.269943640945286, 36.65411328742379], [36.269943640945286, 36.65357429825332], [36.270482630115765, 36.65357429825332], [36.270482630115765, 36.653035309082846], [36.271021619286245, 36.653035309082846]]]}, "properties": {"area_ha": 186.43109170962902, "mean_dnbr": 0.35065362391339666, "compactness": 0.07, "rectangularity": 0.428, "cropland_frac": 0, "persistent": true}}, {"type": "Feature", "geometry": {"geodesic": false, "type": "Polygon", "coordinates": [[[36.28503533771851, 36.73927357635832], [36.28557432688896, 36.73927357635832], [36.28557432688896, 36.739812565528794], [36.28611331605944, 36.739812565528794], [36.28611331605944, 36.74035155469927], [36.28665230522992, 36.74035155469927], [36.28665230522992, 36.74142953304021], [36.28719129440037, 36.74142953304021], [36.28719129440037, 36.742507511381156], [36.28665230522992, 36.742507511381156], [36.28665230522992, 36.74466346806304], [36.28719129440037, 36.74466346806304], [36.28719129440037, 36.746280435574455], [36.28773028357085, 36.746280435574455], [36.28773028357085, 36.74681942474493], [36.28880826191181, 36.74681942474493], [36.28880826191181, 36.7473584139154], [36.28934725108226, 36.7473584139154], [36.28934725108226, 36.74789740308587], [36.29042522942322, 36.74789740308587], [36.29042522942322, 36.748436392256345], [36.294737142787, 36.748436392256345], [36.294737142787, 36.74789740308587], [36.29635411029841, 36.74789740308587], [36.29635411029841, 36.7473584139154], [36.29797107780982, 36.7473584139154], [36.29797107780982, 36.74466346806304], [36.2985100669803, 36.74466346806304], [36.2985100669803, 36.744124478892566], [36.29904905615075, 36.744124478892566], [36.29904905615075, 36.74466346806304], [36.30012703449171, 36.74466346806304], [36.30012703449171, 36.74574144640398], [36.30066602366219, 36.74574144640398], [36.30066602366219, 36.74358548972209], [36.30120501283264, 36.74358548972209], [36.30120501283264, 36.742507511381156], [36.30336096951453, 36.742507511381156], [36.30336096951453, 36.74089054386974], [36.30389995868501, 36.74089054386974], [36.30389995868501, 36.74035155469927], [36.30497793702594, 36.74035155469927], [36.30497793702594, 36.74142953304021], [36.30443894785549, 36.74142953304021], [36.30443894785549, 36.742507511381156], [36.30389995868501, 36.742507511381156], [36.30389995868501, 36.74466346806304], [36.30336096951453, 36.74466346806304], [36.30336096951453, 36.74520245723351], [36.3022829911736, 36.74520245723351], [36.3022829911736, 36.74466346806304], [36.30174400200312, 36.74466346806304], [36.30174400200312, 36.74681942474493], [36.3022829911736, 36.74681942474493], [36.3022829911736, 36.74789740308587], [36.30066602366219, 36.74789740308587], [36.30066602366219, 36.748436392256345], [36.30174400200312, 36.748436392256345], [36.30174400200312, 36.74951437059728], [36.30120501283264, 36.74951437059728], [36.30120501283264, 36.7511313381087], [36.3022829911736, 36.7511313381087], [36.3022829911736, 36.75167032727917], [36.30174400200312, 36.75167032727917], [36.30174400200312, 36.752209316449644], [36.30282198034408, 36.752209316449644], [36.30282198034408, 36.752748305620116], [36.30174400200312, 36.752748305620116], [36.30174400200312, 36.75328729479059], [36.30120501283264, 36.75328729479059], [36.30120501283264, 36.752748305620116], [36.30174400200312, 36.752748305620116], [36.30174400200312, 36.752209316449644], [36.2985100669803, 36.752209316449644], [36.2985100669803, 36.75167032727917], [36.29904905615075, 36.75167032727917], [36.29904905615075, 36.7511313381087], [36.2985100669803, 36.7511313381087], [36.2985100669803, 36.75059234893823], [36.29743208863934, 36.75059234893823], [36.29743208863934, 36.750053359767755], [36.29635411029841, 36.750053359767755], [36.29635411029841, 36.75059234893823], [36.29419815361652, 36.75059234893823], [36.29419815361652, 36.74951437059728], [36.29150320776415, 36.74951437059728], [36.29150320776415, 36.74897538142681], [36.28934725108226, 36.74897538142681], [36.28934725108226, 36.74789740308587], [36.28826927274133, 36.74789740308587], [36.28826927274133, 36.7473584139154], [36.28719129440037, 36.7473584139154], [36.28719129440037, 36.74681942474493], [36.28665230522992, 36.74681942474493], [36.28665230522992, 36.746280435574455], [36.28611331605944, 36.746280435574455], [36.28611331605944, 36.74574144640398], [36.28449634854803, 36.74574144640398], [36.28449634854803, 36.74520245723351], [36.28234039186614, 36.74520245723351], [36.28234039186614, 36.74574144640398], [36.28180140269566, 36.74574144640398], [36.28180140269566, 36.74681942474493], [36.281262413525184, 36.74681942474493], [36.281262413525184, 36.748436392256345], [36.27856746767284, 36.748436392256345], [36.27856746767284, 36.7511313381087], [36.278028478502364, 36.7511313381087], [36.278028478502364, 36.75167032727917], [36.275872521820475, 36.75167032727917], [36.275872521820475, 36.752209316449644], [36.276411510990954, 36.752209316449644], [36.276411510990954, 36.752748305620116], [36.27695050016143, 36.752748305620116], [36.27695050016143, 36.752209316449644], [36.277489489331884, 36.752209316449644], [36.277489489331884, 36.752748305620116], [36.278028478502364, 36.752748305620116], [36.278028478502364, 36.75328729479059], [36.28018443518425, 36.75328729479059], [36.28018443518425, 36.752748305620116], [36.28072342435473, 36.752748305620116], [36.28072342435473, 36.75328729479059], [36.28287938103662, 36.75328729479059], [36.28287938103662, 36.75598224064294], [36.281262413525184, 36.75598224064294], [36.281262413525184, 36.756521229813416], [36.28234039186614, 36.756521229813416], [36.28234039186614, 36.75759920815436], [36.28180140269566, 36.75759920815436], [36.28180140269566, 36.758677186495305], [36.28341837020707, 36.758677186495305], [36.28341837020707, 36.76029415400672], [36.28449634854803, 36.76029415400672], [36.28449634854803, 36.76083314317719], [36.28503533771851, 36.76083314317719], [36.28503533771851, 36.76191112151813], [36.28611331605944, 36.76191112151813], [36.28611331605944, 36.762450110688604], [36.28665230522992, 36.762450110688604], [36.28665230522992, 36.76298909985908], [36.28557432688896, 36.76298909985908], [36.28557432688896, 36.76352808902955], [36.28449634854803, 36.76352808902955], [36.28449634854803, 36.76298909985908], [36.28341837020707, 36.76298909985908], [36.28341837020707, 36.76352808902955], [36.28180140269566, 36.76352808902955], [36.28180140269566, 36.76298909985908], [36.281262413525184, 36.76298909985908], [36.281262413525184, 36.76352808902955], [36.28072342435473, 36.76352808902955], [36.28072342435473, 36.765145056540966], [36.28018443518425, 36.765145056540966], [36.28018443518425, 36.76622303488191], [36.281262413525184, 36.76622303488191], [36.281262413525184, 36.766762024052376], [36.28180140269566, 36.766762024052376], [36.28180140269566, 36.76622303488191], [36.28287938103662, 36.76622303488191], [36.28287938103662, 36.76837899156379], [36.28234039186614, 36.76837899156379], [36.28234039186614, 36.768917980734265], [36.28180140269566, 36.768917980734265], [36.28180140269566, 36.77053494824568], [36.279645446013774, 36.77053494824568], [36.279645446013774, 36.76999595907521], [36.27910645684332, 36.76999595907521], [36.27910645684332, 36.771073937416155], [36.27856746767284, 36.771073937416155], [36.27856746767284, 36.7721519157571], [36.27910645684332, 36.7721519157571], [36.27910645684332, 36.77269090492757], [36.279645446013774, 36.77269090492757], [36.279645446013774, 36.77376888326851], [36.27910645684332, 36.77376888326851], [36.27910645684332, 36.77322989409804], [36.27695050016143, 36.77322989409804], [36.27695050016143, 36.77376888326851], [36.275872521820475, 36.77376888326851], [36.275872521820475, 36.77322989409804], [36.272638586797655, 36.77322989409804], [36.272638586797655, 36.77376888326851], [36.273177575968134, 36.77376888326851], [36.273177575968134, 36.77430787243898], [36.272099597627175, 36.77430787243898], [36.272099597627175, 36.774846861609454], [36.271560608456696, 36.774846861609454], [36.271560608456696, 36.77538585077993], [36.272099597627175, 36.77538585077993], [36.272099597627175, 36.7759248399504], [36.272638586797655, 36.7759248399504], [36.272638586797655, 36.77538585077993], [36.273716565138585, 36.77538585077993], [36.273716565138585, 36.7759248399504], [36.273177575968134, 36.7759248399504], [36.273177575968134, 36.77700281829134], [36.274255554309065, 36.77700281829134], [36.274255554309065, 36.777541807461816], [36.27695050016143, 36.777541807461816], [36.27695050016143, 36.77700281829134], [36.277489489331884, 36.77700281829134], [36.277489489331884, 36.77646382912087], [36.279645446013774, 36.77646382912087], [36.279645446013774, 36.77700281829134], [36.28018443518425, 36.77700281829134], [36.28018443518425, 36.77861978580276], [36.28072342435473, 36.77861978580276], [36.28072342435473, 36.777541807461816], [36.28180140269566, 36.777541807461816], [36.28180140269566, 36.77808079663229], [36.28395735937755, 36.77808079663229], [36.28395735937755, 36.77861978580276], [36.28287938103662, 36.77861978580276], [36.28287938103662, 36.7796977641437], [36.28180140269566, 36.7796977641437], [36.28180140269566, 36.78023675331417], [36.281262413525184, 36.78023675331417], [36.281262413525184, 36.78293169916653], [36.28180140269566, 36.78293169916653], [36.28180140269566, 36.78400967750748], [36.28018443518425, 36.78400967750748], [36.28018443518425, 36.78454866667795], [36.28072342435473, 36.78454866667795], [36.28072342435473, 36.785087655848415], [36.281262413525184, 36.785087655848415], [36.281262413525184, 36.78670462335983], [36.28018443518425, 36.78670462335983], [36.28018443518425, 36.787782601700776], [36.279645446013774, 36.787782601700776], [36.279645446013774, 36.78832159087125], [36.27856746767284, 36.78832159087125], [36.27856746767284, 36.78886058004172], [36.27910645684332, 36.78886058004172], [36.27910645684332, 36.79047754755314], [36.27856746767284, 36.79047754755314], [36.27856746767284, 36.7910165367236], [36.28072342435473, 36.7910165367236], [36.28072342435473, 36.79047754755314], [36.28180140269566, 36.79047754755314], [36.28180140269566, 36.789938558382666], [36.28287938103662, 36.789938558382666], [36.28287938103662, 36.79047754755314], [36.28341837020707, 36.79047754755314], [36.28341837020707, 36.789938558382666], [36.28719129440037, 36.789938558382666], [36.28719129440037, 36.7910165367236], [36.28773028357085, 36.7910165367236], [36.28773028357085, 36.79263350423502], [36.28719129440037, 36.79263350423502], [36.28719129440037, 36.79317249340549], [36.28665230522992, 36.79317249340549], [36.28665230522992, 36.793711482575965], [36.28449634854803, 36.793711482575965], [36.28449634854803, 36.79425047174644], [36.28341837020707, 36.79425047174644], [36.28341837020707, 36.793711482575965], [36.28234039186614, 36.793711482575965], [36.28234039186614, 36.79478946091691], [36.28180140269566, 36.79478946091691], [36.28180140269566, 36.79532845008738], [36.281262413525184, 36.79532845008738], [36.281262413525184, 36.79640642842833], [36.28234039186614, 36.79640642842833], [36.28234039186614, 36.795867439257854], [36.28395735937755, 36.795867439257854], [36.28395735937755, 36.79640642842833], [36.28611331605944, 36.79640642842833], [36.28611331605944, 36.795867439257854], [36.28665230522992, 36.795867439257854], [36.28665230522992, 36.79640642842833], [36.28719129440037, 36.79640642842833], [36.28719129440037, 36.79694541759879], [36.28773028357085, 36.79694541759879], [36.28773028357085, 36.79856238511021], [36.28826927274133, 36.79856238511021], [36.28826927274133, 36.79910137428068], [36.2909642185937, 36.79910137428068], [36.2909642185937, 36.799640363451154], [36.29150320776415, 36.799640363451154], [36.29150320776415, 36.800179352621626], [36.29204219693463, 36.800179352621626], [36.29204219693463, 36.8007183417921], [36.29150320776415, 36.8007183417921], [36.29150320776415, 36.80179632013304], [36.294737142787, 36.80179632013304], [36.294737142787, 36.80125733096257], [36.29689309946889, 36.80125733096257], [36.29689309946889, 36.8007183417921], [36.29527613195745, 36.8007183417921], [36.29527613195745, 36.800179352621626], [36.294737142787, 36.800179352621626], [36.294737142787, 36.799640363451154], [36.29581512112793, 36.799640363451154], [36.29581512112793, 36.800179352621626], [36.29635411029841, 36.800179352621626], [36.29635411029841, 36.799640363451154], [36.29743208863934, 36.799640363451154], [36.29743208863934, 36.79802339593974], [36.2985100669803, 36.79802339593974], [36.2985100669803, 36.79856238511021], [36.29904905615075, 36.79856238511021], [36.29904905615075, 36.799640363451154], [36.29958804532123, 36.799640363451154], [36.29958804532123, 36.79856238511021], [36.30066602366219, 36.79856238511021], [36.30066602366219, 36.79802339593974], [36.30120501283264, 36.79802339593974], [36.30120501283264, 36.797484406769264], [36.30066602366219, 36.797484406769264], [36.30066602366219, 36.79694541759879], [36.30012703449171, 36.79694541759879], [36.30012703449171, 36.795867439257854], [36.30066602366219, 36.795867439257854], [36.30066602366219, 36.79694541759879], [36.30120501283264, 36.79694541759879], [36.30120501283264, 36.797484406769264], [36.30282198034408, 36.797484406769264], [36.30282198034408, 36.79802339593974], [36.30336096951453, 36.79802339593974], [36.30336096951453, 36.797484406769264], [36.30389995868501, 36.797484406769264], [36.30389995868501, 36.79694541759879], [36.30497793702594, 36.79694541759879], [36.30497793702594, 36.79640642842833], [36.30443894785549, 36.79640642842833], [36.30443894785549, 36.79532845008738], [36.30497793702594, 36.79532845008738], [36.30497793702594, 36.79640642842833], [36.30551692619642, 36.79640642842833], [36.30551692619642, 36.79694541759879], [36.3060559153669, 36.79694541759879], [36.3060559153669, 36.79856238511021], [36.30659490453738, 36.79856238511021], [36.30659490453738, 36.799640363451154], [36.30551692619642, 36.799640363451154], [36.30551692619642, 36.800179352621626], [36.30497793702594, 36.800179352621626], [36.30497793702594, 36.80179632013304], [36.30659490453738, 36.80179632013304], [36.30659490453738, 36.80125733096257], [36.30767288287831, 36.80125733096257], [36.30767288287831, 36.80287429847399], [36.308750861219266, 36.80287429847399], [36.308750861219266, 36.8044912659854], [36.30928985038972, 36.8044912659854], [36.30928985038972, 36.80503025515587], [36.308750861219266, 36.80503025515587], [36.308750861219266, 36.8044912659854], [36.30821187204879, 36.8044912659854], [36.30821187204879, 36.803952276814925], [36.30713389370783, 36.803952276814925], [36.30713389370783, 36.8044912659854], [36.30767288287831, 36.8044912659854], [36.30767288287831, 36.80503025515587], [36.30713389370783, 36.80503025515587], [36.30713389370783, 36.80556924432634], [36.30659490453738, 36.80556924432634], [36.30659490453738, 36.80503025515587], [36.3060559153669, 36.80503025515587], [36.3060559153669, 36.80556924432634], [36.30551692619642, 36.80556924432634], [36.30551692619642, 36.80503025515587], [36.3060559153669, 36.80503025515587], [36.3060559153669, 36.8044912659854], [36.30551692619642, 36.8044912659854], [36.30551692619642, 36.803952276814925], [36.30497793702594, 36.803952276814925], [36.30497793702594, 36.8044912659854], [36.30443894785549, 36.8044912659854], [36.30443894785549, 36.80503025515587], [36.30389995868501, 36.80503025515587], [36.30389995868501, 36.80556924432634], [36.30443894785549, 36.80556924432634], [36.30443894785549, 36.806108233496815], [36.30389995868501, 36.806108233496815], [36.30389995868501, 36.80556924432634], [36.30336096951453, 36.80556924432634], [36.30336096951453, 36.80503025515587], [36.30389995868501, 36.80503025515587], [36.30389995868501, 36.8044912659854], [36.30174400200312, 36.8044912659854], [36.30174400200312, 36.80503025515587], [36.30120501283264, 36.80503025515587], [36.30120501283264, 36.8044912659854], [36.30174400200312, 36.8044912659854], [36.30174400200312, 36.80287429847399], [36.30120501283264, 36.80287429847399], [36.30120501283264, 36.802335309303515], [36.30066602366219, 36.802335309303515], [36.30066602366219, 36.80287429847399], [36.30012703449171, 36.80287429847399], [36.30012703449171, 36.802335309303515], [36.30066602366219, 36.802335309303515], [36.30066602366219, 36.80179632013304], [36.30120501283264, 36.80179632013304], [36.30120501283264, 36.800179352621626], [36.30174400200312, 36.800179352621626], [36.30174400200312, 36.79856238511021], [36.30120501283264, 36.79856238511021], [36.30120501283264, 36.799640363451154], [36.29958804532123, 36.799640363451154], [36.29958804532123, 36.800179352621626], [36.29904905615075, 36.800179352621626], [36.29904905615075, 36.799640363451154], [36.29743208863934, 36.799640363451154], [36.29743208863934, 36.8007183417921], [36.29904905615075, 36.8007183417921], [36.29904905615075, 36.802335309303515], [36.29743208863934, 36.802335309303515], [36.29743208863934, 36.80341328764445], [36.29689309946889, 36.80341328764445], [36.29689309946889, 36.80179632013304], [36.29635411029841, 36.80179632013304], [36.29635411029841, 36.80287429847399], [36.294737142787, 36.80287429847399], [36.294737142787, 36.80341328764445], [36.29258118610511, 36.80341328764445], [36.29258118610511, 36.80287429847399], [36.29204219693463, 36.80287429847399], [36.29204219693463, 36.802335309303515], [36.29150320776415, 36.802335309303515], [36.29150320776415, 36.80179632013304], [36.2909642185937, 36.80179632013304], [36.2909642185937, 36.80125733096257], [36.28826927274133, 36.80125733096257], [36.28826927274133, 36.8007183417921], [36.28611331605944, 36.8007183417921], [36.28611331605944, 36.800179352621626], [36.28341837020707, 36.800179352621626], [36.28341837020707, 36.799640363451154], [36.28072342435473, 36.799640363451154], [36.28072342435473, 36.79910137428068], [36.27910645684332, 36.79910137428068], [36.27910645684332, 36.79856238511021], [36.27856746767284, 36.79856238511021], [36.27856746767284, 36.79802339593974], [36.278028478502364, 36.79802339593974], [36.278028478502364, 36.797484406769264], [36.276411510990954, 36.797484406769264], [36.276411510990954, 36.79694541759879], [36.275872521820475, 36.79694541759879], [36.275872521820475, 36.79640642842833], [36.275333532649995, 36.79640642842833], [36.275333532649995, 36.795867439257854], [36.274794543479544, 36.795867439257854], [36.274794543479544, 36.79532845008738], [36.275333532649995, 36.79532845008738], [36.275333532649995, 36.79478946091691], [36.276411510990954, 36.79478946091691], [36.276411510990954, 36.79425047174644], [36.277489489331884, 36.79425047174644], [36.277489489331884, 36.79317249340549], [36.278028478502364, 36.79317249340549], [36.278028478502364, 36.787782601700776], [36.277489489331884, 36.787782601700776], [36.277489489331884, 36.78670462335983], [36.27695050016143, 36.78670462335983], [36.27695050016143, 36.78616563418936], [36.276411510990954, 36.78616563418936], [36.276411510990954, 36.783470688337005], [36.27695050016143, 36.783470688337005], [36.27695050016143, 36.78077574248464], [36.276411510990954, 36.78077574248464], [36.276411510990954, 36.7796977641437], [36.275872521820475, 36.7796977641437], [36.275872521820475, 36.779158774973226], [36.275333532649995, 36.779158774973226], [36.275333532649995, 36.77861978580276], [36.274255554309065, 36.77861978580276], [36.274255554309065, 36.77808079663229], [36.273716565138585, 36.77808079663229], [36.273716565138585, 36.777541807461816], [36.272638586797655, 36.777541807461816], [36.272638586797655, 36.77646382912087], [36.271560608456696, 36.77646382912087], [36.271560608456696, 36.77538585077993], [36.271021619286245, 36.77538585077993], [36.271021619286245, 36.774846861609454], [36.268865662604355, 36.774846861609454], [36.268865662604355, 36.77430787243898], [36.268326673433876, 36.77430787243898], [36.268326673433876, 36.77376888326851], [36.267248695092945, 36.77376888326851], [36.267248695092945, 36.7721519157571], [36.267787684263396, 36.7721519157571], [36.267787684263396, 36.77161292658663], [36.268865662604355, 36.77161292658663], [36.268865662604355, 36.771073937416155], [36.269404651774806, 36.771073937416155], [36.269404651774806, 36.77053494824568], [36.269943640945286, 36.77053494824568], [36.269943640945286, 36.76837899156379], [36.270482630115765, 36.76837899156379], [36.270482630115765, 36.765145056540966], [36.269943640945286, 36.765145056540966], [36.269943640945286, 36.76406707820002], [36.270482630115765, 36.76406707820002], [36.270482630115765, 36.76191112151813], [36.271021619286245, 36.76191112151813], [36.271021619286245, 36.75706021898389], [36.270482630115765, 36.75706021898389], [36.270482630115765, 36.75598224064294], [36.269943640945286, 36.75598224064294], [36.269943640945286, 36.75544325147247], [36.269404651774806, 36.75544325147247], [36.269404651774806, 36.75382628396106], [36.268865662604355, 36.75382628396106], [36.268865662604355, 36.75328729479059], [36.268326673433876, 36.75328729479059], [36.268326673433876, 36.752748305620116], [36.267787684263396, 36.752748305620116], [36.267787684263396, 36.7511313381087], [36.268326673433876, 36.7511313381087], [36.268326673433876, 36.74897538142681], [36.269404651774806, 36.74897538142681], [36.269404651774806, 36.74789740308587], [36.268865662604355, 36.74789740308587], [36.268865662604355, 36.7473584139154], [36.269404651774806, 36.7473584139154], [36.269404651774806, 36.746280435574455], [36.269943640945286, 36.746280435574455], [36.269943640945286, 36.74574144640398], [36.273177575968134, 36.74574144640398], [36.273177575968134, 36.746280435574455], [36.273716565138585, 36.746280435574455], [36.273716565138585, 36.74574144640398], [36.274794543479544, 36.74574144640398], [36.274794543479544, 36.74520245723351], [36.275872521820475, 36.74520245723351], [36.275872521820475, 36.74466346806304], [36.276411510990954, 36.74466346806304], [36.276411510990954, 36.744124478892566], [36.27695050016143, 36.744124478892566], [36.27695050016143, 36.74196852221068], [36.277489489331884, 36.74196852221068], [36.277489489331884, 36.74035155469927], [36.278028478502364, 36.74035155469927], [36.278028478502364, 36.739812565528794], [36.27910645684332, 36.739812565528794], [36.27910645684332, 36.74035155469927], [36.28449634854803, 36.74035155469927], [36.28449634854803, 36.739812565528794], [36.28503533771851, 36.739812565528794], [36.28503533771851, 36.73927357635832]], [[36.30713389370783, 36.8044912659854], [36.30713389370783, 36.80503025515587], [36.30659490453738, 36.80503025515587], [36.30659490453738, 36.8044912659854], [36.30713389370783, 36.8044912659854]], [[36.3060559153669, 36.80341328764445], [36.3060559153669, 36.803952276814925], [36.30551692619642, 36.803952276814925], [36.30551692619642, 36.80341328764445], [36.3060559153669, 36.80341328764445]], [[36.30713389370783, 36.80179632013304], [36.30713389370783, 36.802335309303515], [36.30659490453738, 36.802335309303515], [36.30659490453738, 36.80179632013304], [36.30713389370783, 36.80179632013304]], [[36.30282198034408, 36.80125733096257], [36.30282198034408, 36.80179632013304], [36.30336096951453, 36.80179632013304], [36.30336096951453, 36.802335309303515], [36.30389995868501, 36.802335309303515], [36.30389995868501, 36.80341328764445], [36.30443894785549, 36.80341328764445], [36.30443894785549, 36.803952276814925], [36.30336096951453, 36.803952276814925], [36.30336096951453, 36.80341328764445], [36.3022829911736, 36.80341328764445], [36.3022829911736, 36.80287429847399], [36.30174400200312, 36.80287429847399], [36.30174400200312, 36.802335309303515], [36.3022829911736, 36.802335309303515], [36.3022829911736, 36.80125733096257], [36.30282198034408, 36.80125733096257]], [[36.3022829911736, 36.8007183417921], [36.3022829911736, 36.80125733096257], [36.30174400200312, 36.80125733096257], [36.30174400200312, 36.8007183417921], [36.3022829911736, 36.8007183417921]], [[36.30336096951453, 36.79910137428068], [36.30336096951453, 36.799640363451154], [36.30389995868501, 36.799640363451154], [36.30389995868501, 36.800179352621626], [36.30282198034408, 36.800179352621626], [36.30282198034408, 36.79910137428068], [36.30336096951453, 36.79910137428068]], [[36.2985100669803, 36.79856238511021], [36.2985100669803, 36.79910137428068], [36.29797107780982, 36.79910137428068], [36.29797107780982, 36.79856238511021], [36.2985100669803, 36.79856238511021]], [[36.28341837020707, 36.79694541759879], [36.28341837020707, 36.797484406769264], [36.28180140269566, 36.797484406769264], [36.28180140269566, 36.79694541759879], [36.28341837020707, 36.79694541759879]], [[36.27910645684332, 36.79640642842833], [36.27910645684332, 36.79694541759879], [36.27856746767284, 36.79694541759879], [36.27856746767284, 36.797484406769264], [36.278028478502364, 36.797484406769264], [36.278028478502364, 36.79694541759879], [36.277489489331884, 36.79694541759879], [36.277489489331884, 36.79640642842833], [36.27910645684332, 36.79640642842833]], [[36.27910645684332, 36.783470688337005], [36.27910645684332, 36.78400967750748], [36.27856746767284, 36.78400967750748], [36.27856746767284, 36.783470688337005], [36.27910645684332, 36.783470688337005]], [[36.271560608456696, 36.77269090492757], [36.271560608456696, 36.77322989409804], [36.271021619286245, 36.77322989409804], [36.271021619286245, 36.77269090492757], [36.271560608456696, 36.77269090492757]], [[36.273716565138585, 36.76999595907521], [36.273716565138585, 36.77053494824568], [36.273177575968134, 36.77053494824568], [36.273177575968134, 36.76999595907521], [36.273716565138585, 36.76999595907521]], [[36.272099597627175, 36.768917980734265], [36.272099597627175, 36.76945696990474], [36.271560608456696, 36.76945696990474], [36.271560608456696, 36.768917980734265], [36.272099597627175, 36.768917980734265]], [[36.272638586797655, 36.76837899156379], [36.272638586797655, 36.768917980734265], [36.272099597627175, 36.768917980734265], [36.272099597627175, 36.76837899156379], [36.272638586797655, 36.76837899156379]], [[36.274255554309065, 36.76730101322285], [36.274255554309065, 36.76784000239332], [36.273716565138585, 36.76784000239332], [36.273716565138585, 36.76730101322285], [36.274255554309065, 36.76730101322285]], [[36.278028478502364, 36.76568404571144], [36.278028478502364, 36.76730101322285], [36.277489489331884, 36.76730101322285], [36.277489489331884, 36.766762024052376], [36.276411510990954, 36.766762024052376], [36.276411510990954, 36.76568404571144], [36.278028478502364, 36.76568404571144]], [[36.272638586797655, 36.764606067370494], [36.272638586797655, 36.765145056540966], [36.271560608456696, 36.765145056540966], [36.271560608456696, 36.764606067370494], [36.272638586797655, 36.764606067370494]], [[36.275872521820475, 36.764606067370494], [36.275872521820475, 36.765145056540966], [36.275333532649995, 36.765145056540966], [36.275333532649995, 36.764606067370494], [36.275872521820475, 36.764606067370494]], [[36.28018443518425, 36.764606067370494], [36.28018443518425, 36.765145056540966], [36.27910645684332, 36.765145056540966], [36.27910645684332, 36.764606067370494], [36.28018443518425, 36.764606067370494]], [[36.274255554309065, 36.76352808902955], [36.274255554309065, 36.765145056540966], [36.273177575968134, 36.765145056540966], [36.273177575968134, 36.764606067370494], [36.273716565138585, 36.764606067370494], [36.273716565138585, 36.76352808902955], [36.274255554309065, 36.76352808902955]], [[36.27856746767284, 36.76298909985908], [36.27856746767284, 36.76352808902955], [36.277489489331884, 36.76352808902955], [36.277489489331884, 36.76298909985908], [36.27856746767284, 36.76298909985908]], [[36.27856746767284, 36.76083314317719], [36.27856746767284, 36.76137213234766], [36.27910645684332, 36.76137213234766], [36.27910645684332, 36.76191112151813], [36.279645446013774, 36.76191112151813], [36.279645446013774, 36.762450110688604], [36.28018443518425, 36.762450110688604], [36.28018443518425, 36.76352808902955], [36.279645446013774, 36.76352808902955], [36.279645446013774, 36.76298909985908], [36.27856746767284, 36.76298909985908], [36.27856746767284, 36.76191112151813], [36.278028478502364, 36.76191112151813], [36.278028478502364, 36.76137213234766], [36.277489489331884, 36.76137213234766], [36.277489489331884, 36.76083314317719], [36.27856746767284, 36.76083314317719]], [[36.271021619286245, 36.750053359767755], [36.271021619286245, 36.75059234893823], [36.270482630115765, 36.75059234893823], [36.270482630115765, 36.750053359767755], [36.271021619286245, 36.750053359767755]], [[36.272099597627175, 36.750053359767755], [36.272099597627175, 36.75059234893823], [36.271560608456696, 36.75059234893823], [36.271560608456696, 36.750053359767755], [36.272099597627175, 36.750053359767755]], [[36.273177575968134, 36.74951437059728], [36.273177575968134, 36.750053359767755], [36.272099597627175, 36.750053359767755], [36.272099597627175, 36.74951437059728], [36.273177575968134, 36.74951437059728]], [[36.273177575968134, 36.746280435574455], [36.273177575968134, 36.74681942474493], [36.272638586797655, 36.74681942474493], [36.272638586797655, 36.746280435574455], [36.273177575968134, 36.746280435574455]], [[36.29958804532123, 36.75059234893823], [36.29958804532123, 36.7511313381087], [36.29904905615075, 36.7511313381087], [36.29904905615075, 36.75059234893823], [36.29958804532123, 36.75059234893823]], [[36.29797107780982, 36.748436392256345], [36.29797107780982, 36.74897538142681], [36.29743208863934, 36.74897538142681], [36.29743208863934, 36.748436392256345], [36.29797107780982, 36.748436392256345]], [[36.30282198034408, 36.744124478892566], [36.30282198034408, 36.74466346806304], [36.3022829911736, 36.74466346806304], [36.3022829911736, 36.744124478892566], [36.30282198034408, 36.744124478892566]], [[36.28503533771851, 36.74196852221068], [36.28503533771851, 36.742507511381156], [36.28395735937755, 36.742507511381156], [36.28395735937755, 36.74196852221068], [36.28503533771851, 36.74196852221068]]]}, "properties": {"area_ha": 626.6948732832881, "mean_dnbr": 0.3374181176258157, "compactness": 0.022, "rectangularity": 0.235, "cropland_frac": 0, "persistent": true}}, {"type": "Feature", "geometry": {"geodesic": false, "type": "Polygon", "coordinates": [[[36.31090681790113, 36.80718621183776], [36.31144580707161, 36.80718621183776], [36.31144580707161, 36.80772520100823], [36.312523785412566, 36.80772520100823], [36.312523785412566, 36.808264190178704], [36.31306277458302, 36.808264190178704], [36.31306277458302, 36.80772520100823], [36.317913677117275, 36.80772520100823], [36.317913677117275, 36.808264190178704], [36.318452666287754, 36.808264190178704], [36.318452666287754, 36.80880317934918], [36.318991655458206, 36.80880317934918], [36.318991655458206, 36.812037114372], [36.319530644628685, 36.812037114372], [36.319530644628685, 36.814732060224365], [36.318452666287754, 36.814732060224365], [36.318452666287754, 36.81419307105389], [36.316296709605865, 36.81419307105389], [36.316296709605865, 36.81527104939483], [36.313601763753496, 36.81527104939483], [36.313601763753496, 36.81365408188342], [36.31306277458302, 36.81365408188342], [36.31306277458302, 36.8158100385653], [36.311984796242086, 36.8158100385653], [36.311984796242086, 36.816349027735775], [36.31144580707161, 36.816349027735775], [36.31144580707161, 36.8158100385653], [36.308750861219266, 36.8158100385653], [36.308750861219266, 36.81527104939483], [36.30821187204879, 36.81527104939483], [36.30821187204879, 36.8158100385653], [36.30551692619642, 36.8158100385653], [36.30551692619642, 36.816349027735775], [36.3060559153669, 36.816349027735775], [36.3060559153669, 36.81688801690625], [36.30551692619642, 36.81688801690625], [36.30551692619642, 36.81742700607672], [36.30443894785549, 36.81742700607672], [36.30443894785549, 36.81904397358814], [36.3022829911736, 36.81904397358814], [36.3022829911736, 36.818504984417665], [36.30120501283264, 36.818504984417665], [36.30120501283264, 36.81904397358814], [36.30174400200312, 36.81904397358814], [36.30174400200312, 36.81958296275861], [36.30282198034408, 36.81958296275861], [36.30282198034408, 36.820660941099554], [36.3022829911736, 36.820660941099554], [36.3022829911736, 36.82119993027002], [36.30282198034408, 36.82119993027002], [36.30282198034408, 36.82173891944049], [36.30120501283264, 36.82173891944049], [36.30120501283264, 36.822277908610964], [36.29904905615075, 36.822277908610964], [36.29904905615075, 36.81958296275861], [36.29743208863934, 36.81958296275861], [36.29743208863934, 36.820660941099554], [36.29635411029841, 36.820660941099554], [36.29635411029841, 36.82012195192908], [36.29581512112793, 36.82012195192908], [36.29581512112793, 36.81688801690625], [36.29635411029841, 36.81688801690625], [36.29635411029841, 36.816349027735775], [36.29581512112793, 36.816349027735775], [36.29581512112793, 36.8158100385653], [36.29635411029841, 36.8158100385653], [36.29635411029841, 36.81527104939483], [36.29419815361652, 36.81527104939483], [36.29419815361652, 36.814732060224365], [36.294737142787, 36.814732060224365], [36.294737142787, 36.81365408188342], [36.29527613195745, 36.81365408188342], [36.29527613195745, 36.812576103542476], [36.294737142787, 36.812576103542476], [36.294737142787, 36.812037114372], [36.29419815361652, 36.812037114372], [36.29419815361652, 36.81042014686059], [36.29365916444604, 36.81042014686059], [36.29365916444604, 36.80880317934918], [36.294737142787, 36.80880317934918], [36.294737142787, 36.808264190178704], [36.29689309946889, 36.808264190178704], [36.29689309946889, 36.80880317934918], [36.29797107780982, 36.80880317934918], [36.29797107780982, 36.81095913603106], [36.2985100669803, 36.81095913603106], [36.2985100669803, 36.81149812520153], [36.29797107780982, 36.81149812520153], [36.29797107780982, 36.812037114372], [36.30174400200312, 36.812037114372], [36.30174400200312, 36.809881157690114], [36.30120501283264, 36.809881157690114], [36.30120501283264, 36.80934216851964], [36.30066602366219, 36.80934216851964], [36.30066602366219, 36.80880317934918], [36.3022829911736, 36.80880317934918], [36.3022829911736, 36.80934216851964], [36.30174400200312, 36.80934216851964], [36.30174400200312, 36.809881157690114], [36.3022829911736, 36.809881157690114], [36.3022829911736, 36.81042014686059], [36.30282198034408, 36.81042014686059], [36.30282198034408, 36.81095913603106], [36.30336096951453, 36.81095913603106], [36.30336096951453, 36.812037114372], [36.30497793702594, 36.812037114372], [36.30497793702594, 36.812576103542476], [36.3060559153669, 36.812576103542476], [36.3060559153669, 36.81149812520153], [36.30659490453738, 36.81149812520153], [36.30659490453738, 36.812037114372], [36.30713389370783, 36.812037114372], [36.30713389370783, 36.81095913603106], [36.30767288287831, 36.81095913603106], [36.30767288287831, 36.81042014686059], [36.30821187204879, 36.81042014686059], [36.30821187204879, 36.81095913603106], [36.3098288395602, 36.81095913603106], [36.3098288395602, 36.81149812520153], [36.310367828730676, 36.81149812520153], [36.310367828730676, 36.812037114372], [36.31090681790113, 36.812037114372], [36.31090681790113, 36.812576103542476], [36.310367828730676, 36.812576103542476], [36.310367828730676, 36.81365408188342], [36.3098288395602, 36.81365408188342], [36.3098288395602, 36.814732060224365], [36.310367828730676, 36.814732060224365], [36.310367828730676, 36.81419307105389], [36.31144580707161, 36.81419307105389], [36.31144580707161, 36.81365408188342], [36.31306277458302, 36.81365408188342], [36.31306277458302, 36.812576103542476], [36.313601763753496, 36.812576103542476], [36.313601763753496, 36.812037114372], [36.316835698776316, 36.812037114372], [36.316835698776316, 36.81095913603106], [36.315218731264906, 36.81095913603106], [36.315218731264906, 36.80934216851964], [36.314679742094455, 36.80934216851964], [36.314679742094455, 36.80880317934918], [36.312523785412566, 36.80880317934918], [36.312523785412566, 36.808264190178704], [36.31144580707161, 36.808264190178704], [36.31144580707161, 36.80772520100823], [36.31090681790113, 36.80772520100823], [36.31090681790113, 36.80718621183776]], [[36.30066602366219, 36.818504984417665], [36.30066602366219, 36.81958296275861], [36.29904905615075, 36.81958296275861], [36.29904905615075, 36.81904397358814], [36.30012703449171, 36.81904397358814], [36.30012703449171, 36.818504984417665], [36.30066602366219, 36.818504984417665]], [[36.30174400200312, 36.81742700607672], [36.30174400200312, 36.81796599524719], [36.30120501283264, 36.81796599524719], [36.30120501283264, 36.818504984417665], [36.30066602366219, 36.818504984417665], [36.30066602366219, 36.81742700607672], [36.30174400200312, 36.81742700607672]], [[36.29743208863934, 36.812576103542476], [36.29743208863934, 36.81311509271295], [36.29689309946889, 36.81311509271295], [36.29689309946889, 36.81365408188342], [36.29635411029841, 36.81365408188342], [36.29635411029841, 36.812576103542476], [36.29743208863934, 36.812576103542476]], [[36.29958804532123, 36.812576103542476], [36.29958804532123, 36.81311509271295], [36.29904905615075, 36.81311509271295], [36.29904905615075, 36.81365408188342], [36.2985100669803, 36.81365408188342], [36.2985100669803, 36.812576103542476], [36.29958804532123, 36.812576103542476]], [[36.317374687946796, 36.812576103542476], [36.317374687946796, 36.81311509271295], [36.315757720435386, 36.81311509271295], [36.315757720435386, 36.812576103542476], [36.317374687946796, 36.812576103542476]], [[36.317374687946796, 36.81042014686059], [36.317374687946796, 36.81095913603106], [36.316835698776316, 36.81095913603106], [36.316835698776316, 36.81042014686059], [36.317374687946796, 36.81042014686059]]]}, "properties": {"area_ha": 154.7105894565849, "mean_dnbr": 0.3322211670959703, "compactness": 0.068, "rectangularity": 0.424, "cropland_frac": 0, "persistent": true}}]}