{"type": "FeatureCollection", "crs": {"type": "name", "properties": {"name": "urn:ogc:def:crs:OGC:1.3:CRS84"}}, "features": [{"type": "Feature", "geometry": {"geodesic": false, "type": "Polygon", "coordinates": [[[36.1459761317368, 35.724895957530556], [36.14651512090728, 35.724895957530556], [36.14651512090728, 35.72543494670103], [36.14813208841869, 35.72543494670103], [36.14813208841869, 35.727051914212446], [36.14867107758914, 35.727051914212446], [36.14867107758914, 35.72759090338292], [36.1497490559301, 35.72759090338292], [36.1497490559301, 35.729207870894335], [36.14921006675962, 35.729207870894335], [36.14921006675962, 35.73136382757622], [36.1497490559301, 35.73136382757622], [36.1497490559301, 35.73190281674669], [36.15028804510058, 35.73190281674669], [36.15028804510058, 35.730824838405745], [36.1497490559301, 35.730824838405745], [36.1497490559301, 35.72974686006481], [36.15082703427103, 35.72974686006481], [36.15082703427103, 35.730824838405745], [36.15136602344151, 35.730824838405745], [36.15136602344151, 35.73244180591716], [36.15190501261199, 35.73244180591716], [36.15190501261199, 35.732980795087634], [36.15082703427103, 35.732980795087634], [36.15082703427103, 35.73244180591716], [36.14921006675962, 35.73244180591716], [36.14921006675962, 35.732980795087634], [36.14867107758914, 35.732980795087634], [36.14867107758914, 35.73459776259905], [36.14813208841869, 35.73459776259905], [36.14813208841869, 35.736753719280934], [36.1497490559301, 35.736753719280934], [36.1497490559301, 35.73621473011046], [36.15136602344151, 35.73621473011046], [36.15136602344151, 35.736753719280934], [36.15190501261199, 35.736753719280934], [36.15190501261199, 35.737292708451406], [36.15244400178247, 35.737292708451406], [36.15244400178247, 35.73783169762188], [36.1535219801234, 35.73783169762188], [36.1535219801234, 35.73837068679235], [36.15406096929388, 35.73837068679235], [36.15406096929388, 35.73890967596282], [36.15459995846433, 35.73890967596282], [36.15459995846433, 35.739448665133295], [36.1572949043167, 35.739448665133295], [36.1572949043167, 35.74106563264471], [36.15675591514622, 35.74106563264471], [36.15675591514622, 35.741604621815185], [36.15621692597577, 35.741604621815185], [36.15621692597577, 35.74214361098565], [36.15567793680529, 35.74214361098565], [36.15567793680529, 35.74268260015612], [36.15406096929388, 35.74268260015612], [36.15406096929388, 35.743221589326595], [36.14705411007773, 35.743221589326595], [36.14705411007773, 35.74376057849707], [36.14651512090728, 35.74376057849707], [36.14651512090728, 35.74429956766754], [36.1459761317368, 35.74429956766754], [36.1459761317368, 35.74483855683801], [36.14489815339584, 35.74483855683801], [36.14489815339584, 35.74429956766754], [36.14435916422539, 35.74429956766754], [36.14435916422539, 35.74376057849707], [36.14382017505491, 35.74376057849707], [36.14382017505491, 35.74429956766754], [36.14004725086161, 35.74429956766754], [36.14004725086161, 35.745377546008484], [36.139508261691134, 35.745377546008484], [36.139508261691134, 35.74645552434943], [36.138969272520654, 35.74645552434943], [36.138969272520654, 35.7469945135199], [36.1384302833502, 35.7469945135199], [36.1384302833502, 35.74753350269037], [36.137352305009244, 35.74753350269037], [36.137352305009244, 35.7469945135199], [36.137891294179724, 35.7469945135199], [36.137891294179724, 35.74645552434943], [36.138969272520654, 35.74645552434943], [36.138969272520654, 35.74429956766754], [36.14004725086161, 35.74429956766754], [36.14004725086161, 35.74268260015612], [36.14058624003209, 35.74268260015612], [36.14058624003209, 35.74106563264471], [36.138969272520654, 35.74106563264471], [36.138969272520654, 35.74052664347424], [36.1384302833502, 35.74052664347424], [36.1384302833502, 35.74106563264471], [36.137352305009244, 35.74106563264471], [36.137352305009244, 35.74214361098565], [36.137891294179724, 35.74214361098565], [36.137891294179724, 35.74268260015612], [36.1384302833502, 35.74268260015612], [36.1384302833502, 35.743221589326595], [36.137891294179724, 35.743221589326595], [36.137891294179724, 35.74429956766754], [36.136813315838765, 35.74429956766754], [36.136813315838765, 35.74376057849707], [36.136274326668314, 35.74376057849707], [36.136274326668314, 35.74429956766754], [36.135735337497835, 35.74429956766754], [36.135735337497835, 35.74376057849707], [36.133040391645466, 35.74376057849707], [36.133040391645466, 35.74483855683801], [36.131962413304535, 35.74483855683801], [36.131962413304535, 35.74429956766754], [36.132501402475015, 35.74429956766754], [36.132501402475015, 35.74268260015612], [36.131962413304535, 35.74268260015612], [36.131962413304535, 35.74106563264471], [36.130884434963576, 35.74106563264471], [36.130884434963576, 35.74052664347424], [36.132501402475015, 35.74052664347424], [36.132501402475015, 35.73837068679235], [36.133579380815945, 35.73837068679235], [36.133579380815945, 35.73621473011046], [36.134118369986425, 35.73621473011046], [36.134118369986425, 35.735675740939996], [36.134657359156904, 35.735675740939996], [36.134657359156904, 35.735136751769524], [36.135196348327355, 35.735136751769524], [36.135196348327355, 35.73459776259905], [36.135735337497835, 35.73459776259905], [36.135735337497835, 35.73405877342858], [36.136274326668314, 35.73405877342858], [36.136274326668314, 35.73244180591716], [36.136813315838765, 35.73244180591716], [36.136813315838765, 35.73136382757622], [36.1384302833502, 35.73136382757622], [36.1384302833502, 35.73028584923527], [36.138969272520654, 35.73028584923527], [36.138969272520654, 35.729207870894335], [36.1384302833502, 35.729207870894335], [36.1384302833502, 35.72866888172386], [36.137352305009244, 35.72866888172386], [36.137352305009244, 35.72759090338292], [36.1384302833502, 35.72759090338292], [36.1384302833502, 35.72812989255339], [36.138969272520654, 35.72812989255339], [36.138969272520654, 35.729207870894335], [36.139508261691134, 35.729207870894335], [36.139508261691134, 35.72866888172386], [36.14004725086161, 35.72866888172386], [36.14004725086161, 35.72812989255339], [36.14058624003209, 35.72812989255339], [36.14058624003209, 35.72866888172386], [36.14004725086161, 35.72866888172386], [36.14004725086161, 35.729207870894335], [36.141125229202544, 35.729207870894335], [36.141125229202544, 35.72812989255339], [36.1422032075435, 35.72812989255339], [36.1422032075435, 35.727051914212446], [36.14328118588443, 35.727051914212446], [36.14328118588443, 35.72651292504197], [36.14435916422539, 35.72651292504197], [36.14435916422539, 35.7259739358715], [36.14489815339584, 35.7259739358715], [36.14489815339584, 35.724895957530556], [36.14543714256632, 35.724895957530556], [36.14543714256632, 35.72543494670103], [36.1459761317368, 35.72543494670103], [36.1459761317368, 35.724895957530556]], [[36.136274326668314, 35.743221589326595], [36.136274326668314, 35.74376057849707], [36.135735337497835, 35.74376057849707], [36.135735337497835, 35.743221589326595], [36.136274326668314, 35.743221589326595]], [[36.14166421837302, 35.74214361098565], [36.14166421837302, 35.74268260015612], [36.141125229202544, 35.74268260015612], [36.141125229202544, 35.74214361098565], [36.14166421837302, 35.74214361098565]], [[36.14382017505491, 35.74052664347424], [36.14382017505491, 35.741604621815185], [36.14328118588443, 35.741604621815185], [36.14328118588443, 35.743221589326595], [36.142742196713954, 35.743221589326595], [36.142742196713954, 35.74268260015612], [36.1422032075435, 35.74268260015612], [36.1422032075435, 35.74106563264471], [36.14328118588443, 35.74106563264471], [36.14328118588443, 35.74052664347424], [36.14382017505491, 35.74052664347424]], [[36.14489815339584, 35.73998765430377], [36.14489815339584, 35.74052664347424], [36.14382017505491, 35.74052664347424], [36.14382017505491, 35.73998765430377], [36.14489815339584, 35.73998765430377]], [[36.14543714256632, 35.739448665133295], [36.14543714256632, 35.73998765430377], [36.14489815339584, 35.73998765430377], [36.14489815339584, 35.739448665133295], [36.14543714256632, 35.739448665133295]], [[36.137352305009244, 35.73890967596282], [36.137352305009244, 35.739448665133295], [36.135735337497835, 35.739448665133295], [36.135735337497835, 35.73890967596282], [36.137352305009244, 35.73890967596282]], [[36.14004725086161, 35.73621473011046], [36.14004725086161, 35.736753719280934], [36.14058624003209, 35.736753719280934], [36.14058624003209, 35.73783169762188], [36.14004725086161, 35.73783169762188], [36.14004725086161, 35.73837068679235], [36.1384302833502, 35.73837068679235], [36.1384302833502, 35.73890967596282], [36.137891294179724, 35.73890967596282], [36.137891294179724, 35.736753719280934], [36.139508261691134, 35.736753719280934], [36.139508261691134, 35.73621473011046], [36.14004725086161, 35.73621473011046]], [[36.14058624003209, 35.73459776259905], [36.14058624003209, 35.735675740939996], [36.1384302833502, 35.735675740939996], [36.1384302833502, 35.735136751769524], [36.139508261691134, 35.735136751769524], [36.139508261691134, 35.73459776259905], [36.14058624003209, 35.73459776259905]], [[36.14489815339584, 35.73351978425811], [36.14489815339584, 35.73459776259905], [36.14435916422539, 35.73459776259905], [36.14435916422539, 35.73351978425811], [36.14489815339584, 35.73351978425811]], [[36.14382017505491, 35.73136382757622], [36.14382017505491, 35.732980795087634], [36.14328118588443, 35.732980795087634], [36.14328118588443, 35.73351978425811], [36.1422032075435, 35.73351978425811], [36.1422032075435, 35.73136382757622], [36.14382017505491, 35.73136382757622]], [[36.14759309924821, 35.73136382757622], [36.14759309924821, 35.73190281674669], [36.14705411007773, 35.73190281674669], [36.14705411007773, 35.73136382757622], [36.14759309924821, 35.73136382757622]], [[36.14651512090728, 35.730824838405745], [36.14651512090728, 35.73136382757622], [36.1459761317368, 35.73136382757622], [36.1459761317368, 35.730824838405745], [36.14651512090728, 35.730824838405745]], [[36.14759309924821, 35.72974686006481], [36.14759309924821, 35.730824838405745], [36.14705411007773, 35.730824838405745], [36.14705411007773, 35.72974686006481], [36.14759309924821, 35.72974686006481]], [[36.14813208841869, 35.72866888172386], [36.14813208841869, 35.729207870894335], [36.14759309924821, 35.729207870894335], [36.14759309924821, 35.72866888172386], [36.14813208841869, 35.72866888172386]], [[36.14651512090728, 35.727051914212446], [36.14651512090728, 35.72759090338292], [36.1459761317368, 35.72759090338292], [36.1459761317368, 35.72812989255339], [36.14543714256632, 35.72812989255339], [36.14543714256632, 35.72759090338292], [36.14489815339584, 35.72759090338292], [36.14489815339584, 35.727051914212446], [36.14651512090728, 35.727051914212446]]]}, "properties": {"area_ha": 262.6979643953646, "mean_dnbr": 0.5626903096818427, "compactness": 0.072, "rectangularity": 0.511, "cropland_frac": 0.001, "persistent": true}}, {"type": "Feature", "geometry": {"geodesic": false, "type": "Polygon", "coordinates": [[[36.20418696214773, 35.75346238356556], [36.2068819080001, 35.75346238356556], [36.2068819080001, 35.75400137273603], [36.20634291882962, 35.75400137273603], [36.20634291882962, 35.75507935107697], [36.2068819080001, 35.75507935107697], [36.2068819080001, 35.755618340247445], [36.20634291882962, 35.755618340247445], [36.20634291882962, 35.75615732941792], [36.20580392965917, 35.75615732941792], [36.20580392965917, 35.75669631858839], [36.20526494048869, 35.75669631858839], [36.20526494048869, 35.75723530775886], [36.20472595131821, 35.75723530775886], [36.20472595131821, 35.758313286099806], [36.2031089838068, 35.758313286099806], [36.2031089838068, 35.75885227527028], [36.20364797297728, 35.75885227527028], [36.20364797297728, 35.75993025361122], [36.20256999463632, 35.75993025361122], [36.20256999463632, 35.76046924278169], [36.2031089838068, 35.76046924278169], [36.2031089838068, 35.76100823195216], [36.20364797297728, 35.76100823195216], [36.20364797297728, 35.76154722112263], [36.2031089838068, 35.76154722112263], [36.2031089838068, 35.76316418863405], [36.20256999463632, 35.76316418863405], [36.20256999463632, 35.76262519946358], [36.20203100546584, 35.76262519946358], [36.20203100546584, 35.76370317780452], [36.20041403795443, 35.76370317780452], [36.20041403795443, 35.76316418863405], [36.19987504878398, 35.76316418863405], [36.19987504878398, 35.76262519946358], [36.19771909210209, 35.76262519946358], [36.19771909210209, 35.762086210293106], [36.19718010293161, 35.762086210293106], [36.19718010293161, 35.76154722112263], [36.19610212459065, 35.76154722112263], [36.19610212459065, 35.76100823195216], [36.1955631354202, 35.76100823195216], [36.1955631354202, 35.75993025361122], [36.19448515707924, 35.75993025361122], [36.19448515707924, 35.75939126444075], [36.1955631354202, 35.75939126444075], [36.1955631354202, 35.758313286099806], [36.19664111376113, 35.758313286099806], [36.19664111376113, 35.75885227527028], [36.19771909210209, 35.75885227527028], [36.19771909210209, 35.758313286099806], [36.19825808127254, 35.758313286099806], [36.19825808127254, 35.757774296929334], [36.19879707044302, 35.757774296929334], [36.19879707044302, 35.75723530775886], [36.1993360596135, 35.75723530775886], [36.1993360596135, 35.75669631858839], [36.20095302712491, 35.75669631858839], [36.20095302712491, 35.75507935107697], [36.20203100546584, 35.75507935107697], [36.20203100546584, 35.7545403619065], [36.2031089838068, 35.7545403619065], [36.2031089838068, 35.75400137273603], [36.20418696214773, 35.75400137273603], [36.20418696214773, 35.75346238356556]], [[36.20418696214773, 35.755618340247445], [36.20418696214773, 35.75669631858839], [36.20364797297728, 35.75669631858839], [36.20364797297728, 35.755618340247445], [36.20418696214773, 35.755618340247445]]]}, "properties": {"area_ha": 56.83893979154571, "mean_dnbr": 0.5376421211042984, "compactness": 0.238, "rectangularity": 0.511, "cropland_frac": 0, "persistent": true}}, {"type": "Feature", "geometry": {"geodesic": false, "type": "Polygon", "coordinates": [[[36.219278658920956, 35.929172853139335], [36.217661691409546, 35.929172853139335], [36.217661691409546, 35.92863386396887], [36.21658371306859, 35.92863386396887], [36.21658371306859, 35.92971184230981], [36.21604472389811, 35.92971184230981], [36.21604472389811, 35.93078982065075], [36.21550573472766, 35.93078982065075], [36.21550573472766, 35.931328809821224], [36.21496674555718, 35.931328809821224], [36.21496674555718, 35.93078982065075], [36.2144277563867, 35.93078982065075], [36.2144277563867, 35.93025083148028], [36.21388876721622, 35.93025083148028], [36.21388876721622, 35.92971184230981], [36.21173281053436, 35.92971184230981], [36.21173281053436, 35.92863386396887], [36.21227179970481, 35.92863386396887], [36.21227179970481, 35.9280948747984], [36.21281078887529, 35.9280948747984], [36.21281078887529, 35.92593891811651], [36.21388876721622, 35.92593891811651], [36.21388876721622, 35.92647790728698], [36.2144277563867, 35.92647790728698], [36.2144277563867, 35.925399928946035], [36.21496674555718, 35.925399928946035], [36.21496674555718, 35.92378296143462], [36.21712270223907, 35.92378296143462], [36.21712270223907, 35.92432195060509], [36.217661691409546, 35.92432195060509], [36.217661691409546, 35.925399928946035], [36.21712270223907, 35.925399928946035], [36.21712270223907, 35.92593891811651], [36.219278658920956, 35.92593891811651], [36.219278658920956, 35.92647790728698], [36.21981764809141, 35.92647790728698], [36.21981764809141, 35.92701689645745], [36.22035663726189, 35.92701689645745], [36.22035663726189, 35.927555885627925], [36.219278658920956, 35.927555885627925], [36.219278658920956, 35.929172853139335]], [[36.21712270223907, 35.92647790728698], [36.21712270223907, 35.92701689645745], [36.21496674555718, 35.92701689645745], [36.21496674555718, 35.92647790728698], [36.21712270223907, 35.92647790728698]]]}, "properties": {"area_ha": 31.122263821979914, "mean_dnbr": 0.560838898998229, "compactness": 0.235, "rectangularity": 0.561, "cropland_frac": 0.03, "persistent": true}}, {"type": "Feature", "geometry": {"geodesic": false, "type": "Polygon", "coordinates": [[[36.35348696236841, 35.148177545125826], [36.35456494070934, 35.148177545125826], [36.35456494070934, 35.1487165342963], [36.35510392987982, 35.1487165342963], [36.35510392987982, 35.14925552346677], [36.35672089739123, 35.14925552346677], [36.35672089739123, 35.14979451263724], [36.35725988656171, 35.14979451263724], [36.35725988656171, 35.150333501807715], [36.357798875732186, 35.150333501807715], [36.357798875732186, 35.15087249097819], [36.35833786490264, 35.15087249097819], [36.35833786490264, 35.14979451263724], [36.35887685407312, 35.14979451263724], [36.35887685407312, 35.150333501807715], [36.359954832414076, 35.150333501807715], [36.359954832414076, 35.15141148014865], [36.36049382158453, 35.15141148014865], [36.36049382158453, 35.15087249097819], [36.361571799925485, 35.15087249097819], [36.361571799925485, 35.150333501807715], [36.361032810755006, 35.150333501807715], [36.361032810755006, 35.14979451263724], [36.361571799925485, 35.14979451263724], [36.361571799925485, 35.1487165342963], [36.362649778266416, 35.1487165342963], [36.362649778266416, 35.14979451263724], [36.363188767436895, 35.14979451263724], [36.363188767436895, 35.15087249097819], [36.364805734948305, 35.15087249097819], [36.364805734948305, 35.151950469319125], [36.365344724118785, 35.151950469319125], [36.365344724118785, 35.15356743683054], [36.364805734948305, 35.15356743683054], [36.364805734948305, 35.154106426001015], [36.365344724118785, 35.154106426001015], [36.365344724118785, 35.15518440434196], [36.365883713289264, 35.15518440434196], [36.365883713289264, 35.15464541517149], [36.366422702459715, 35.15464541517149], [36.366422702459715, 35.15518440434196], [36.368039669971154, 35.15518440434196], [36.368039669971154, 35.15572339351243], [36.368578659141605, 35.15572339351243], [36.368578659141605, 35.15518440434196], [36.369656637482564, 35.15518440434196], [36.369656637482564, 35.15464541517149], [36.370734615823494, 35.15464541517149], [36.370734615823494, 35.15572339351243], [36.37127360499397, 35.15572339351243], [36.37127360499397, 35.156801371853376], [36.370734615823494, 35.156801371853376], [36.370734615823494, 35.15734036102384], [36.37019562665304, 35.15734036102384], [36.37019562665304, 35.157879350194314], [36.369656637482564, 35.157879350194314], [36.369656637482564, 35.156801371853376], [36.369117648312084, 35.156801371853376], [36.369117648312084, 35.158418339364786], [36.37019562665304, 35.158418339364786], [36.37019562665304, 35.15895732853526], [36.370734615823494, 35.15895732853526], [36.370734615823494, 35.15949631770573], [36.37289057250538, 35.15949631770573], [36.37289057250538, 35.1600353068762], [36.37342956167586, 35.1600353068762], [36.37342956167586, 35.160574296046676], [36.37289057250538, 35.160574296046676], [36.37289057250538, 35.16111328521715], [36.37127360499397, 35.16111328521715], [36.37127360499397, 35.16165227438762], [36.370734615823494, 35.16165227438762], [36.370734615823494, 35.16219126355809], [36.368578659141605, 35.16219126355809], [36.368578659141605, 35.16165227438762], [36.368039669971154, 35.16165227438762], [36.368039669971154, 35.16111328521715], [36.366422702459715, 35.16111328521715], [36.366422702459715, 35.1600353068762], [36.364805734948305, 35.1600353068762], [36.364805734948305, 35.15949631770573], [36.364266745777854, 35.15949631770573], [36.364266745777854, 35.15895732853526], [36.363188767436895, 35.15895732853526], [36.363188767436895, 35.15734036102384], [36.362649778266416, 35.15734036102384], [36.362649778266416, 35.15572339351243], [36.362110789095965, 35.15572339351243], [36.362110789095965, 35.154106426001015], [36.36049382158453, 35.154106426001015], [36.36049382158453, 35.15356743683054], [36.357798875732186, 35.15356743683054], [36.357798875732186, 35.15464541517149], [36.35725988656171, 35.15464541517149], [36.35725988656171, 35.15518440434196], [36.356181908220776, 35.15518440434196], [36.356181908220776, 35.15464541517149], [36.35456494070934, 35.15464541517149], [36.35456494070934, 35.15356743683054], [36.35348696236841, 35.15356743683054], [36.35348696236841, 35.154106426001015], [36.35294797319793, 35.154106426001015], [36.35294797319793, 35.15356743683054], [36.35133100568652, 35.15356743683054], [36.35133100568652, 35.15302844766007], [36.35079201651604, 35.15302844766007], [36.35079201651604, 35.1524894584896], [36.35133100568652, 35.1524894584896], [36.35133100568652, 35.151950469319125], [36.35079201651604, 35.151950469319125], [36.35079201651604, 35.15141148014865], [36.35133100568652, 35.15141148014865], [36.35133100568652, 35.14925552346677], [36.351869994857, 35.14925552346677], [36.351869994857, 35.1487165342963], [36.35348696236841, 35.1487165342963], [36.35348696236841, 35.148177545125826]], [[36.368039669971154, 35.15949631770573], [36.368039669971154, 35.1600353068762], [36.367500680800674, 35.1600353068762], [36.367500680800674, 35.15949631770573], [36.368039669971154, 35.15949631770573]], [[36.37019562665304, 35.15518440434196], [36.37019562665304, 35.15572339351243], [36.369656637482564, 35.15572339351243], [36.369656637482564, 35.15518440434196], [36.37019562665304, 35.15518440434196]]]}, "properties": {"area_ha": 111.59797673493543, "mean_dnbr": 0.38145122188935365, "compactness": 0.133, "rectangularity": 0.472, "cropland_frac": 0.001, "persistent": true}}]}