{"type": "FeatureCollection", "crs": {"type": "name", "properties": {"name": "urn:ogc:def:crs:OGC:1.3:CRS84"}}, "features": [{"type": "Feature", "geometry": {"geodesic": false, "type": "Polygon", "coordinates": [[[35.97242161884492, 35.6478205061531], [35.97296060801537, 35.6478205061531], [35.97296060801537, 35.648359495323575], [35.97673353220867, 35.648359495323575], [35.97673353220867, 35.64943747366452], [35.97888948889056, 35.64943747366452], [35.97888948889056, 35.64997646283499], [35.97673353220867, 35.64997646283499], [35.97673353220867, 35.650515452005465], [35.97565555386774, 35.650515452005465], [35.97565555386774, 35.6515934303464], [35.97403858635633, 35.6515934303464], [35.97403858635633, 35.652132419516875], [35.97188262967444, 35.652132419516875], [35.97188262967444, 35.654827365369236], [35.97242161884492, 35.654827365369236], [35.97242161884492, 35.65536635453971], [35.97134364050396, 35.65536635453971], [35.97134364050396, 35.65590534371018], [35.97026566216303, 35.65590534371018], [35.97026566216303, 35.65644433288065], [35.96918768382207, 35.65644433288065], [35.96918768382207, 35.656983322051126], [35.96864869465159, 35.656983322051126], [35.96864869465159, 35.65752231122159], [35.96757071631066, 35.65752231122159], [35.96757071631066, 35.65644433288065], [35.96541475962877, 35.65644433288065], [35.96541475962877, 35.65590534371018], [35.96595374879925, 35.65590534371018], [35.96595374879925, 35.654827365369236], [35.96541475962877, 35.654827365369236], [35.96541475962877, 35.654288376198764], [35.96595374879925, 35.654288376198764], [35.96595374879925, 35.65321039785782], [35.96810970548114, 35.65321039785782], [35.96810970548114, 35.65267140868735], [35.96864869465159, 35.65267140868735], [35.96864869465159, 35.652132419516875], [35.96972667299255, 35.652132419516875], [35.96972667299255, 35.64997646283499], [35.96918768382207, 35.64997646283499], [35.96918768382207, 35.64943747366452], [35.96972667299255, 35.64943747366452], [35.96972667299255, 35.64889848449405], [35.97026566216303, 35.64889848449405], [35.97026566216303, 35.648359495323575], [35.97080465133348, 35.648359495323575], [35.97080465133348, 35.64889848449405], [35.97134364050396, 35.64889848449405], [35.97134364050396, 35.648359495323575], [35.97242161884492, 35.648359495323575], [35.97242161884492, 35.6478205061531]], [[35.96864869465159, 35.654827365369236], [35.96864869465159, 35.65536635453971], [35.96810970548114, 35.65536635453971], [35.96810970548114, 35.654827365369236], [35.96864869465159, 35.654827365369236]], [[35.97511656469726, 35.64943747366452], [35.97511656469726, 35.64997646283499], [35.97565555386774, 35.64997646283499], [35.97565555386774, 35.650515452005465], [35.97511656469726, 35.650515452005465], [35.97511656469726, 35.65105444117594], [35.97457757552678, 35.65105444117594], [35.97457757552678, 35.650515452005465], [35.97349959718585, 35.650515452005465], [35.97349959718585, 35.64997646283499], [35.97403858635633, 35.64997646283499], [35.97403858635633, 35.64943747366452], [35.97511656469726, 35.64943747366452]]]}, "properties": {"area_ha": 46.99119979634967, "mean_dnbr": 0.4243132780580048, "compactness": 0.166, "rectangularity": 0.488, "cropland_frac": 0, "persistent": true}}, {"type": "Feature", "geometry": {"geodesic": false, "type": "Polygon", "coordinates": [[[36.20580392965917, 35.75507935107697], [36.2068819080001, 35.75507935107697], [36.2068819080001, 35.755618340247445], [36.20634291882962, 35.755618340247445], [36.20634291882962, 35.75615732941792], [36.20580392965917, 35.75615732941792], [36.20580392965917, 35.75669631858839], [36.20526494048869, 35.75669631858839], [36.20526494048869, 35.75723530775886], [36.20472595131821, 35.75723530775886], [36.20472595131821, 35.758313286099806], [36.2031089838068, 35.758313286099806], [36.2031089838068, 35.75885227527028], [36.20364797297728, 35.75885227527028], [36.20364797297728, 35.75993025361122], [36.20256999463632, 35.75993025361122], [36.20256999463632, 35.76046924278169], [36.2031089838068, 35.76046924278169], [36.2031089838068, 35.76100823195216], [36.20364797297728, 35.76100823195216], [36.20364797297728, 35.76154722112263], [36.2031089838068, 35.76154722112263], [36.2031089838068, 35.76316418863405], [36.20203100546584, 35.76316418863405], [36.20203100546584, 35.76370317780452], [36.20041403795443, 35.76370317780452], [36.20041403795443, 35.76316418863405], [36.19987504878398, 35.76316418863405], [36.19987504878398, 35.76262519946358], [36.19771909210209, 35.76262519946358], [36.19771909210209, 35.762086210293106], [36.19718010293161, 35.762086210293106], [36.19718010293161, 35.76154722112263], [36.19610212459065, 35.76154722112263], [36.19610212459065, 35.76100823195216], [36.1955631354202, 35.76100823195216], [36.1955631354202, 35.75993025361122], [36.19448515707924, 35.75993025361122], [36.19448515707924, 35.75939126444075], [36.1955631354202, 35.75939126444075], [36.1955631354202, 35.758313286099806], [36.19664111376113, 35.758313286099806], [36.19664111376113, 35.75885227527028], [36.19771909210209, 35.75885227527028], [36.19771909210209, 35.758313286099806], [36.19825808127254, 35.758313286099806], [36.19825808127254, 35.757774296929334], [36.19879707044302, 35.757774296929334], [36.19879707044302, 35.75723530775886], [36.19987504878398, 35.75723530775886], [36.19987504878398, 35.757774296929334], [36.2031089838068, 35.757774296929334], [36.2031089838068, 35.75669631858839], [36.20364797297728, 35.75669631858839], [36.20364797297728, 35.75615732941792], [36.20526494048869, 35.75615732941792], [36.20526494048869, 35.755618340247445], [36.20580392965917, 35.755618340247445], [36.20580392965917, 35.75507935107697]]]}, "properties": {"area_ha": 41.97274849152029, "mean_dnbr": 0.5601999814943288, "compactness": 0.24, "rectangularity": 0.437, "cropland_frac": 0, "persistent": true}}, {"type": "Feature", "geometry": {"geodesic": false, "type": "Polygon", "coordinates": [[[36.24568912827405, 35.91731509138896], [36.24622811744453, 35.91731509138896], [36.24622811744453, 35.91785408055943], [36.24676710661501, 35.91785408055943], [36.24676710661501, 35.9183930697299], [36.25054003080831, 35.9183930697299], [36.25054003080831, 35.918932058900374], [36.25107901997879, 35.918932058900374], [36.25107901997879, 35.91947104807085], [36.25323497666068, 35.91947104807085], [36.25323497666068, 35.92001003724132], [36.25431295500161, 35.92001003724132], [36.25431295500161, 35.92054902641179], [36.25485194417209, 35.92054902641179], [36.25485194417209, 35.92001003724132], [36.25592992251302, 35.92001003724132], [36.25592992251302, 35.92054902641179], [36.25539093334257, 35.92054902641179], [36.25539093334257, 35.921088015582264], [36.25700790085398, 35.921088015582264], [36.25700790085398, 35.92270498309368], [36.2564689116835, 35.92270498309368], [36.2564689116835, 35.923243972264146], [36.25700790085398, 35.923243972264146], [36.25700790085398, 35.92432195060509], [36.2564689116835, 35.92432195060509], [36.2564689116835, 35.92486093977556], [36.25700790085398, 35.92486093977556], [36.25700790085398, 35.92647790728698], [36.2564689116835, 35.92647790728698], [36.2564689116835, 35.92863386396887], [36.25700790085398, 35.92863386396887], [36.25700790085398, 35.929172853139335], [36.25754689002443, 35.929172853139335], [36.25754689002443, 35.93025083148028], [36.25700790085398, 35.93025083148028], [36.25700790085398, 35.92971184230981], [36.2564689116835, 35.92971184230981], [36.2564689116835, 35.92863386396887], [36.25539093334257, 35.92863386396887], [36.25539093334257, 35.927555885627925], [36.25485194417209, 35.927555885627925], [36.25485194417209, 35.92593891811651], [36.25431295500161, 35.92593891811651], [36.25431295500161, 35.927555885627925], [36.25377396583113, 35.927555885627925], [36.25377396583113, 35.92701689645745], [36.2526959874902, 35.92701689645745], [36.2526959874902, 35.92647790728698], [36.25215699831972, 35.92647790728698], [36.25215699831972, 35.923243972264146], [36.25161800914924, 35.923243972264146], [36.25161800914924, 35.92216599392321], [36.25215699831972, 35.92216599392321], [36.25215699831972, 35.921088015582264], [36.2526959874902, 35.921088015582264], [36.2526959874902, 35.92054902641179], [36.25107901997879, 35.92054902641179], [36.25107901997879, 35.921088015582264], [36.25054003080831, 35.921088015582264], [36.25054003080831, 35.91947104807085], [36.24784508495594, 35.91947104807085], [36.24784508495594, 35.918932058900374], [36.24622811744453, 35.918932058900374], [36.24622811744453, 35.91785408055943], [36.24568912827405, 35.91785408055943], [36.24568912827405, 35.91731509138896]], [[36.25431295500161, 35.925399928946035], [36.25431295500161, 35.92593891811651], [36.25377396583113, 35.92593891811651], [36.25377396583113, 35.925399928946035], [36.25431295500161, 35.925399928946035]]]}, "properties": {"area_ha": 41.30466696767013, "mean_dnbr": 0.4298918705514533, "compactness": 0.126, "rectangularity": 0.335, "cropland_frac": 0, "persistent": true}}]}