{"type": "FeatureCollection", "crs": {"type": "name", "properties": {"name": "urn:ogc:def:crs:OGC:1.3:CRS84"}}, "features": [{"type": "Feature", "geometry": {"geodesic": false, "type": "Polygon", "coordinates": [[[36.133579380815945, 37.62914469680712], [36.134118369986425, 37.62914469680712], [36.134118369986425, 37.62968368597759], [36.135196348327355, 37.62968368597759], [36.135196348327355, 37.63022267514806], [36.134118369986425, 37.63022267514806], [36.134118369986425, 37.631300653489006], [36.135196348327355, 37.631300653489006], [36.135196348327355, 37.63183964265948], [36.135735337497835, 37.63183964265948], [36.135735337497835, 37.63291762100042], [36.136274326668314, 37.63291762100042], [36.136274326668314, 37.633456610170896], [36.136813315838765, 37.633456610170896], [36.136813315838765, 37.63399559934137], [36.136274326668314, 37.63399559934137], [36.136274326668314, 37.63453458851184], [36.136813315838765, 37.63453458851184], [36.136813315838765, 37.635073577682306], [36.134657359156904, 37.635073577682306], [36.134657359156904, 37.63453458851184], [36.133040391645466, 37.63453458851184], [36.133040391645466, 37.63291762100042], [36.132501402475015, 37.63291762100042], [36.132501402475015, 37.633456610170896], [36.131962413304535, 37.633456610170896], [36.131962413304535, 37.63237863182995], [36.132501402475015, 37.63237863182995], [36.132501402475015, 37.631300653489006], [36.131962413304535, 37.631300653489006], [36.131962413304535, 37.630761664318534], [36.132501402475015, 37.630761664318534], [36.132501402475015, 37.62968368597759], [36.133579380815945, 37.62968368597759], [36.133579380815945, 37.62914469680712]], [[36.135196348327355, 37.63237863182995], [36.135196348327355, 37.63291762100042], [36.134657359156904, 37.63291762100042], [36.134657359156904, 37.63237863182995], [36.135196348327355, 37.63237863182995]], [[36.133040391645466, 37.630761664318534], [36.133040391645466, 37.631300653489006], [36.132501402475015, 37.631300653489006], [36.132501402475015, 37.630761664318534], [36.133040391645466, 37.630761664318534]]]}, "properties": {"area_ha": 15.076521760424418, "mean_dnbr": 0.2609043147135833, "compactness": 0.197, "rectangularity": 0.535, "cropland_frac": 0.088, "persistent": true}}, {"type": "Feature", "geometry": {"geodesic": false, "type": "Polygon", "coordinates": [[[36.16699670938519, 37.635073577682306], [36.16807468772615, 37.635073577682306], [36.16807468772615, 37.63615155602325], [36.1686136768966, 37.63615155602325], [36.1686136768966, 37.63669054519372], [36.16807468772615, 37.63669054519372], [36.16807468772615, 37.637229534364195], [36.1686136768966, 37.637229534364195], [36.1686136768966, 37.63776852353467], [36.16915266606708, 37.63776852353467], [36.16915266606708, 37.639385491046085], [36.170230644408036, 37.639385491046085], [36.170230644408036, 37.64046346938703], [36.16969165523756, 37.64046346938703], [36.16969165523756, 37.641002458557494], [36.1686136768966, 37.641002458557494], [36.1686136768966, 37.64154144772797], [36.16807468772615, 37.64154144772797], [36.16807468772615, 37.63992448021656], [36.16753569855567, 37.63992448021656], [36.16753569855567, 37.63776852353467], [36.16807468772615, 37.63776852353467], [36.16807468772615, 37.637229534364195], [36.16699670938519, 37.637229534364195], [36.16699670938519, 37.63776852353467], [36.16645772021471, 37.63776852353467], [36.16645772021471, 37.637229534364195], [36.16699670938519, 37.637229534364195], [36.16699670938519, 37.635073577682306]]]}, "properties": {"area_ha": 9.38650805377138, "mean_dnbr": 0.308021672454298, "compactness": 0.203, "rectangularity": 0.503, "cropland_frac": 0.244, "persistent": true}}, {"type": "Feature", "geometry": {"geodesic": false, "type": "Polygon", "coordinates": [[[36.320608622969644, 37.585486573998914], [36.321147612140095, 37.585486573998914], [36.321147612140095, 37.586025563169386], [36.321686601310574, 37.586025563169386], [36.321686601310574, 37.58656455233986], [36.320608622969644, 37.58656455233986], [36.320608622969644, 37.58818151985127], [36.319530644628685, 37.58818151985127], [36.319530644628685, 37.587642530680796], [36.318991655458206, 37.587642530680796], [36.318991655458206, 37.587103541510324], [36.318452666287754, 37.587103541510324], [36.318452666287754, 37.586025563169386], [36.320608622969644, 37.586025563169386], [36.320608622969644, 37.585486573998914]], [[36.320069633799164, 37.58656455233986], [36.320069633799164, 37.587103541510324], [36.319530644628685, 37.587103541510324], [36.319530644628685, 37.58656455233986], [36.320069633799164, 37.58656455233986]]]}, "properties": {"area_ha": 4.269556442009496, "mean_dnbr": 0.20455533682763638, "compactness": 0.28, "rectangularity": 0.5, "cropland_frac": 0.369, "persistent": true}}, {"type": "Feature", "geometry": {"geodesic": false, "type": "Polygon", "coordinates": [[[36.52272956189651, 37.73370859587863], [36.52434652940795, 37.73370859587863], [36.52434652940795, 37.73478657421958], [36.52380754023747, 37.73478657421958], [36.52380754023747, 37.73586455256052], [36.52272956189651, 37.73586455256052], [36.52272956189651, 37.73532556339005], [36.52219057272606, 37.73532556339005], [36.52219057272606, 37.734247585049104], [36.52272956189651, 37.734247585049104], [36.52272956189651, 37.73370859587863]]]}, "properties": {"area_ha": 3.4088493094857926, "mean_dnbr": 0.252285331238518, "compactness": 0.581, "rectangularity": 0.75, "cropland_frac": 0.322, "persistent": true}}]}