{"type": "FeatureCollection", "crs": {"type": "name", "properties": {"name": "urn:ogc:def:crs:OGC:1.3:CRS84"}}, "features": [{"type": "Feature", "geometry": {"geodesic": false, "type": "Polygon", "coordinates": [[[36.32438154716294, 37.68142664634288], [36.324920536333394, 37.68142664634288], [36.324920536333394, 37.68196563551335], [36.32599851467435, 37.68196563551335], [36.32599851467435, 37.683043613854295], [36.327076493015284, 37.683043613854295], [36.327076493015284, 37.68358260302476], [36.32653750384483, 37.68358260302476], [36.32653750384483, 37.684660581365705], [36.32815447135624, 37.684660581365705], [36.32815447135624, 37.686816538047594], [36.32977143886765, 37.686816538047594], [36.32977143886765, 37.68735552721807], [36.33031042803813, 37.68735552721807], [36.33031042803813, 37.68627754887712], [36.33084941720858, 37.68627754887712], [36.33084941720858, 37.68573855970665], [36.33138840637906, 37.68573855970665], [36.33138840637906, 37.686816538047594], [36.33246638472002, 37.686816538047594], [36.33246638472002, 37.68735552721807], [36.33300537389047, 37.68735552721807], [36.33300537389047, 37.68789451638854], [36.33408335223143, 37.68789451638854], [36.33408335223143, 37.688972494729484], [36.33462234140188, 37.688972494729484], [36.33462234140188, 37.68951148389995], [36.33516133057236, 37.68951148389995], [36.33516133057236, 37.69005047307042], [36.33354436306095, 37.69005047307042], [36.33354436306095, 37.691128451411366], [36.33246638472002, 37.691128451411366], [36.33246638472002, 37.69166744058184], [36.33192739554954, 37.69166744058184], [36.33192739554954, 37.69220642975231], [36.33138840637906, 37.69220642975231], [36.33138840637906, 37.690589462240894], [36.33192739554954, 37.690589462240894], [36.33192739554954, 37.69005047307042], [36.33246638472002, 37.69005047307042], [36.33246638472002, 37.688972494729484], [36.32977143886765, 37.688972494729484], [36.32977143886765, 37.68951148389995], [36.32923244969717, 37.68951148389995], [36.32923244969717, 37.688972494729484], [36.32815447135624, 37.688972494729484], [36.32815447135624, 37.68951148389995], [36.32761548218576, 37.68951148389995], [36.32761548218576, 37.690589462240894], [36.327076493015284, 37.690589462240894], [36.327076493015284, 37.69166744058184], [36.325459525503874, 37.69166744058184], [36.325459525503874, 37.69220642975231], [36.32438154716294, 37.69220642975231], [36.32438154716294, 37.69274541892278], [36.323842557992464, 37.69274541892278], [36.323842557992464, 37.69220642975231], [36.32438154716294, 37.69220642975231], [36.32438154716294, 37.69166744058184], [36.325459525503874, 37.69166744058184], [36.325459525503874, 37.691128451411366], [36.32599851467435, 37.691128451411366], [36.32599851467435, 37.690589462240894], [36.32653750384483, 37.690589462240894], [36.32653750384483, 37.69005047307042], [36.327076493015284, 37.69005047307042], [36.327076493015284, 37.688972494729484], [36.32815447135624, 37.688972494729484], [36.32815447135624, 37.68843350555901], [36.328693460526694, 37.68843350555901], [36.328693460526694, 37.68735552721807], [36.32815447135624, 37.68735552721807], [36.32815447135624, 37.68789451638854], [36.32761548218576, 37.68789451638854], [36.32761548218576, 37.68573855970665], [36.327076493015284, 37.68573855970665], [36.327076493015284, 37.68519957053618], [36.32599851467435, 37.68519957053618], [36.32599851467435, 37.68358260302476], [36.32438154716294, 37.68358260302476], [36.32438154716294, 37.68412159219523], [36.323842557992464, 37.68412159219523], [36.323842557992464, 37.68358260302476], [36.323303568821984, 37.68358260302476], [36.323303568821984, 37.683043613854295], [36.32438154716294, 37.683043613854295], [36.32438154716294, 37.68250462468382], [36.324920536333394, 37.68250462468382], [36.324920536333394, 37.68196563551335], [36.32438154716294, 37.68196563551335], [36.32438154716294, 37.68142664634288]], [[36.32977143886765, 37.68789451638854], [36.32977143886765, 37.68843350555901], [36.32923244969717, 37.68843350555901], [36.32923244969717, 37.68789451638854], [36.32977143886765, 37.68789451638854]]]}, "properties": {"area_ha": 27.57235613432066, "mean_dnbr": 0.33319069448257116, "compactness": 0.062, "rectangularity": 0.217, "cropland_frac": 0.446, "persistent": true}}]}