{"type": "FeatureCollection", "crs": {"type": "name", "properties": {"name": "urn:ogc:def:crs:OGC:1.3:CRS84"}}, "features": [{"type": "Feature", "geometry": {"geodesic": false, "type": "Polygon", "coordinates": [[[35.97134364050396, 35.648359495323575], [35.97673353220867, 35.648359495323575], [35.97673353220867, 35.64943747366452], [35.97781151054963, 35.64943747366452], [35.97781151054963, 35.64997646283499], [35.97727252137915, 35.64997646283499], [35.97727252137915, 35.650515452005465], [35.97565555386774, 35.650515452005465], [35.97565555386774, 35.64997646283499], [35.97403858635633, 35.64997646283499], [35.97403858635633, 35.64943747366452], [35.97349959718585, 35.64943747366452], [35.97349959718585, 35.650515452005465], [35.97457757552678, 35.650515452005465], [35.97457757552678, 35.65105444117594], [35.97511656469726, 35.65105444117594], [35.97511656469726, 35.6515934303464], [35.97403858635633, 35.6515934303464], [35.97403858635633, 35.65267140868735], [35.97349959718585, 35.65267140868735], [35.97349959718585, 35.654288376198764], [35.97296060801537, 35.654288376198764], [35.97296060801537, 35.654827365369236], [35.97134364050396, 35.654827365369236], [35.97134364050396, 35.65590534371018], [35.97026566216303, 35.65590534371018], [35.97026566216303, 35.65644433288065], [35.96864869465159, 35.65644433288065], [35.96864869465159, 35.65752231122159], [35.96810970548114, 35.65752231122159], [35.96810970548114, 35.656983322051126], [35.96757071631066, 35.656983322051126], [35.96757071631066, 35.65644433288065], [35.96541475962877, 35.65644433288065], [35.96541475962877, 35.65590534371018], [35.96595374879925, 35.65590534371018], [35.96595374879925, 35.654827365369236], [35.96541475962877, 35.654827365369236], [35.96541475962877, 35.654288376198764], [35.96595374879925, 35.654288376198764], [35.96595374879925, 35.65321039785782], [35.96810970548114, 35.65321039785782], [35.96810970548114, 35.65267140868735], [35.96864869465159, 35.65267140868735], [35.96864869465159, 35.652132419516875], [35.96972667299255, 35.652132419516875], [35.96972667299255, 35.64997646283499], [35.96918768382207, 35.64997646283499], [35.96918768382207, 35.64943747366452], [35.96972667299255, 35.64943747366452], [35.96972667299255, 35.64889848449405], [35.97026566216303, 35.64889848449405], [35.97026566216303, 35.648359495323575], [35.97080465133348, 35.648359495323575], [35.97080465133348, 35.64889848449405], [35.97134364050396, 35.64889848449405], [35.97134364050396, 35.648359495323575]], [[35.96864869465159, 35.654827365369236], [35.96864869465159, 35.65536635453971], [35.96810970548114, 35.65536635453971], [35.96810970548114, 35.654827365369236], [35.96864869465159, 35.654827365369236]]]}, "properties": {"area_ha": 49.32606885401293, "mean_dnbr": 0.4467365371642543, "compactness": 0.217, "rectangularity": 0.572, "cropland_frac": 0, "persistent": true}}, {"type": "Feature", "geometry": {"geodesic": false, "type": "Polygon", "coordinates": [[[35.996676131516125, 35.47049306906791], [35.998832088198014, 35.47049306906791], [35.998832088198014, 35.47157104740885], [35.999371077368494, 35.47157104740885], [35.999371077368494, 35.47211003657932], [36.000988044879904, 35.47211003657932], [36.000988044879904, 35.47372700409074], [36.00152703405038, 35.47372700409074], [36.00152703405038, 35.47318801492027], [36.00206602322086, 35.47318801492027], [36.00206602322086, 35.47372700409074], [36.002605012391314, 35.47372700409074], [36.002605012391314, 35.474804982431685], [36.000988044879904, 35.474804982431685], [36.000988044879904, 35.47534397160216], [36.000449055709424, 35.47534397160216], [36.000449055709424, 35.47588296077263], [35.996676131516125, 35.47588296077263], [35.996676131516125, 35.47534397160216], [35.994520174834236, 35.47534397160216], [35.994520174834236, 35.474804982431685], [35.993442196493305, 35.474804982431685], [35.993442196493305, 35.47426599326121], [35.993981185663785, 35.47426599326121], [35.993981185663785, 35.472649025749796], [35.995059164004715, 35.472649025749796], [35.995059164004715, 35.47157104740885], [35.996676131516125, 35.47157104740885], [35.996676131516125, 35.47049306906791]]]}, "properties": {"area_ha": 31.007466929817344, "mean_dnbr": 0.455357618389216, "compactness": 0.439, "rectangularity": 0.624, "cropland_frac": 0.01, "persistent": true}}, {"type": "Feature", "geometry": {"geodesic": false, "type": "Polygon", "coordinates": [[[36.142742196713954, 35.43923169718055], [36.14543714256632, 35.43923169718055], [36.14543714256632, 35.439770686351025], [36.1459761317368, 35.439770686351025], [36.1459761317368, 35.4403096755215], [36.14705411007773, 35.4403096755215], [36.14705411007773, 35.439770686351025], [36.14867107758914, 35.439770686351025], [36.14867107758914, 35.4403096755215], [36.14921006675962, 35.4403096755215], [36.14921006675962, 35.44084866469196], [36.1497490559301, 35.44084866469196], [36.1497490559301, 35.441387653862435], [36.14921006675962, 35.441387653862435], [36.14921006675962, 35.44246563220338], [36.14813208841869, 35.44246563220338], [36.14813208841869, 35.44300462137385], [36.14867107758914, 35.44300462137385], [36.14867107758914, 35.443543610544324], [36.14813208841869, 35.443543610544324], [36.14813208841869, 35.44300462137385], [36.14705411007773, 35.44300462137385], [36.14705411007773, 35.443543610544324], [36.14759309924821, 35.443543610544324], [36.14759309924821, 35.4440825997148], [36.14705411007773, 35.4440825997148], [36.14705411007773, 35.44516057805574], [36.14651512090728, 35.44516057805574], [36.14651512090728, 35.445699567226214], [36.14543714256632, 35.445699567226214], [36.14543714256632, 35.446238556396686], [36.14435916422539, 35.446238556396686], [36.14435916422539, 35.44462158888527], [36.14382017505491, 35.44462158888527], [36.14382017505491, 35.4440825997148], [36.14166421837302, 35.4440825997148], [36.14166421837302, 35.44516057805574], [36.141125229202544, 35.44516057805574], [36.141125229202544, 35.446238556396686], [36.14004725086161, 35.446238556396686], [36.14004725086161, 35.445699567226214], [36.138969272520654, 35.445699567226214], [36.138969272520654, 35.44677754556715], [36.139508261691134, 35.44677754556715], [36.139508261691134, 35.447316534737624], [36.14004725086161, 35.447316534737624], [36.14004725086161, 35.447855523908096], [36.14058624003209, 35.447855523908096], [36.14058624003209, 35.44839451307857], [36.141125229202544, 35.44839451307857], [36.141125229202544, 35.447316534737624], [36.14328118588443, 35.447316534737624], [36.14328118588443, 35.447855523908096], [36.14382017505491, 35.447855523908096], [36.14382017505491, 35.44839451307857], [36.14328118588443, 35.44839451307857], [36.14328118588443, 35.44893350224904], [36.1422032075435, 35.44893350224904], [36.1422032075435, 35.44947249141951], [36.141125229202544, 35.44947249141951], [36.141125229202544, 35.44893350224904], [36.14058624003209, 35.44893350224904], [36.14058624003209, 35.44947249141951], [36.14004725086161, 35.44947249141951], [36.14004725086161, 35.450011480589986], [36.14058624003209, 35.450011480589986], [36.14058624003209, 35.45055046976046], [36.138969272520654, 35.45055046976046], [36.138969272520654, 35.450011480589986], [36.1384302833502, 35.450011480589986], [36.1384302833502, 35.44893350224904], [36.137891294179724, 35.44893350224904], [36.137891294179724, 35.44947249141951], [36.137352305009244, 35.44947249141951], [36.137352305009244, 35.450011480589986], [36.136813315838765, 35.450011480589986], [36.136813315838765, 35.44947249141951], [36.135735337497835, 35.44947249141951], [36.135735337497835, 35.44893350224904], [36.135196348327355, 35.44893350224904], [36.135196348327355, 35.44839451307857], [36.134657359156904, 35.44839451307857], [36.134657359156904, 35.447316534737624], [36.134118369986425, 35.447316534737624], [36.134118369986425, 35.44677754556715], [36.133579380815945, 35.44677754556715], [36.133579380815945, 35.446238556396686], [36.133040391645466, 35.446238556396686], [36.133040391645466, 35.445699567226214], [36.134118369986425, 35.445699567226214], [36.134118369986425, 35.44462158888527], [36.133579380815945, 35.44462158888527], [36.133579380815945, 35.4440825997148], [36.133040391645466, 35.4440825997148], [36.133040391645466, 35.44246563220338], [36.134657359156904, 35.44246563220338], [36.134657359156904, 35.44084866469196], [36.135735337497835, 35.44084866469196], [36.135735337497835, 35.4403096755215], [36.137891294179724, 35.4403096755215], [36.137891294179724, 35.44084866469196], [36.14058624003209, 35.44084866469196], [36.14058624003209, 35.4403096755215], [36.141125229202544, 35.4403096755215], [36.141125229202544, 35.44084866469196], [36.14166421837302, 35.44084866469196], [36.14166421837302, 35.439770686351025], [36.142742196713954, 35.439770686351025], [36.142742196713954, 35.43923169718055]], [[36.136813315838765, 35.445699567226214], [36.136813315838765, 35.446238556396686], [36.136274326668314, 35.446238556396686], [36.136274326668314, 35.445699567226214], [36.136813315838765, 35.445699567226214]], [[36.14058624003209, 35.44462158888527], [36.14058624003209, 35.44516057805574], [36.14004725086161, 35.44516057805574], [36.14004725086161, 35.44462158888527], [36.14058624003209, 35.44462158888527]], [[36.139508261691134, 35.443543610544324], [36.139508261691134, 35.4440825997148], [36.14004725086161, 35.4440825997148], [36.14004725086161, 35.44462158888527], [36.138969272520654, 35.44462158888527], [36.138969272520654, 35.4440825997148], [36.137352305009244, 35.4440825997148], [36.137352305009244, 35.443543610544324], [36.139508261691134, 35.443543610544324]], [[36.14867107758914, 35.4403096755215], [36.14867107758914, 35.44084866469196], [36.14759309924821, 35.44084866469196], [36.14759309924821, 35.4403096755215], [36.14867107758914, 35.4403096755215]]]}, "properties": {"area_ha": 100.37208778210292, "mean_dnbr": 0.4263911885878852, "compactness": 0.124, "rectangularity": 0.543, "cropland_frac": 0, "persistent": true}}, {"type": "Feature", "geometry": {"geodesic": false, "type": "Polygon", "coordinates": [[[36.20418696214773, 35.75346238356556], [36.20634291882962, 35.75346238356556], [36.20634291882962, 35.75507935107697], [36.20580392965917, 35.75507935107697], [36.20580392965917, 35.755618340247445], [36.20634291882962, 35.755618340247445], [36.20634291882962, 35.75615732941792], [36.20580392965917, 35.75615732941792], [36.20580392965917, 35.75669631858839], [36.20526494048869, 35.75669631858839], [36.20526494048869, 35.75723530775886], [36.20472595131821, 35.75723530775886], [36.20472595131821, 35.758313286099806], [36.2031089838068, 35.758313286099806], [36.2031089838068, 35.75993025361122], [36.20256999463632, 35.75993025361122], [36.20256999463632, 35.76046924278169], [36.2031089838068, 35.76046924278169], [36.2031089838068, 35.76316418863405], [36.20256999463632, 35.76316418863405], [36.20256999463632, 35.76262519946358], [36.20203100546584, 35.76262519946358], [36.20203100546584, 35.76370317780452], [36.20041403795443, 35.76370317780452], [36.20041403795443, 35.76316418863405], [36.19987504878398, 35.76316418863405], [36.19987504878398, 35.76262519946358], [36.1993360596135, 35.76262519946358], [36.1993360596135, 35.762086210293106], [36.19879707044302, 35.762086210293106], [36.19879707044302, 35.76262519946358], [36.19771909210209, 35.76262519946358], [36.19771909210209, 35.762086210293106], [36.19718010293161, 35.762086210293106], [36.19718010293161, 35.76154722112263], [36.19610212459065, 35.76154722112263], [36.19610212459065, 35.76100823195216], [36.1955631354202, 35.76100823195216], [36.1955631354202, 35.75993025361122], [36.19448515707924, 35.75993025361122], [36.19448515707924, 35.75939126444075], [36.1955631354202, 35.75939126444075], [36.1955631354202, 35.758313286099806], [36.19664111376113, 35.758313286099806], [36.19664111376113, 35.75885227527028], [36.19771909210209, 35.75885227527028], [36.19771909210209, 35.758313286099806], [36.19825808127254, 35.758313286099806], [36.19825808127254, 35.75723530775886], [36.1993360596135, 35.75723530775886], [36.1993360596135, 35.75669631858839], [36.20095302712491, 35.75669631858839], [36.20095302712491, 35.75507935107697], [36.20203100546584, 35.75507935107697], [36.20203100546584, 35.7545403619065], [36.2031089838068, 35.7545403619065], [36.2031089838068, 35.75400137273603], [36.20418696214773, 35.75400137273603], [36.20418696214773, 35.75346238356556]], [[36.20256999463632, 35.76046924278169], [36.20256999463632, 35.76100823195216], [36.20203100546584, 35.76100823195216], [36.20203100546584, 35.76046924278169], [36.20256999463632, 35.76046924278169]]]}, "properties": {"area_ha": 55.38154511472288, "mean_dnbr": 0.5565338208379003, "compactness": 0.259, "rectangularity": 0.513, "cropland_frac": 0, "persistent": true}}, {"type": "Feature", "geometry": {"geodesic": false, "type": "Polygon", "coordinates": [[[36.24622811744453, 35.91785408055943], [36.24676710661501, 35.91785408055943], [36.24676710661501, 35.9183930697299], [36.24946205246738, 35.9183930697299], [36.24946205246738, 35.918932058900374], [36.25000104163783, 35.918932058900374], [36.25000104163783, 35.9183930697299], [36.25054003080831, 35.9183930697299], [36.25054003080831, 35.918932058900374], [36.25107901997879, 35.918932058900374], [36.25107901997879, 35.91947104807085], [36.25323497666068, 35.91947104807085], [36.25323497666068, 35.92001003724132], [36.25431295500161, 35.92001003724132], [36.25431295500161, 35.92054902641179], [36.25485194417209, 35.92054902641179], [36.25485194417209, 35.92001003724132], [36.25592992251302, 35.92001003724132], [36.25592992251302, 35.92054902641179], [36.25539093334257, 35.92054902641179], [36.25539093334257, 35.921088015582264], [36.25700790085398, 35.921088015582264], [36.25700790085398, 35.92216599392321], [36.2564689116835, 35.92216599392321], [36.2564689116835, 35.923243972264146], [36.25700790085398, 35.923243972264146], [36.25700790085398, 35.92432195060509], [36.2564689116835, 35.92432195060509], [36.2564689116835, 35.925399928946035], [36.25700790085398, 35.925399928946035], [36.25700790085398, 35.92647790728698], [36.2564689116835, 35.92647790728698], [36.2564689116835, 35.92863386396887], [36.25700790085398, 35.92863386396887], [36.25700790085398, 35.929172853139335], [36.25754689002443, 35.929172853139335], [36.25754689002443, 35.93025083148028], [36.25700790085398, 35.93025083148028], [36.25700790085398, 35.92971184230981], [36.2564689116835, 35.92971184230981], [36.2564689116835, 35.92863386396887], [36.25539093334257, 35.92863386396887], [36.25539093334257, 35.927555885627925], [36.25485194417209, 35.927555885627925], [36.25485194417209, 35.92593891811651], [36.25431295500161, 35.92593891811651], [36.25431295500161, 35.927555885627925], [36.25377396583113, 35.927555885627925], [36.25377396583113, 35.92701689645745], [36.2526959874902, 35.92701689645745], [36.2526959874902, 35.92647790728698], [36.25215699831972, 35.92647790728698], [36.25215699831972, 35.923243972264146], [36.25161800914924, 35.923243972264146], [36.25161800914924, 35.92216599392321], [36.25215699831972, 35.92216599392321], [36.25215699831972, 35.921088015582264], [36.2526959874902, 35.921088015582264], [36.2526959874902, 35.92054902641179], [36.25054003080831, 35.92054902641179], [36.25054003080831, 35.91947104807085], [36.24784508495594, 35.91947104807085], [36.24784508495594, 35.918932058900374], [36.24622811744453, 35.918932058900374], [36.24622811744453, 35.91785408055943]], [[36.25431295500161, 35.925399928946035], [36.25431295500161, 35.92593891811651], [36.25377396583113, 35.92593891811651], [36.25377396583113, 35.925399928946035], [36.25431295500161, 35.925399928946035]]]}, "properties": {"area_ha": 39.850262051052304, "mean_dnbr": 0.4185454809037068, "compactness": 0.131, "rectangularity": 0.338, "cropland_frac": 0, "persistent": true}}, {"type": "Feature", "geometry": {"geodesic": false, "type": "Polygon", "coordinates": [[[36.35348696236841, 35.148177545125826], [36.35456494070934, 35.148177545125826], [36.35456494070934, 35.1487165342963], [36.35510392987982, 35.1487165342963], [36.35510392987982, 35.14925552346677], [36.35672089739123, 35.14925552346677], [36.35672089739123, 35.14979451263724], [36.35725988656171, 35.14979451263724], [36.35725988656171, 35.150333501807715], [36.357798875732186, 35.150333501807715], [36.357798875732186, 35.15141148014865], [36.35833786490264, 35.15141148014865], [36.35833786490264, 35.14979451263724], [36.35887685407312, 35.14979451263724], [36.35887685407312, 35.150333501807715], [36.359954832414076, 35.150333501807715], [36.359954832414076, 35.15141148014865], [36.36049382158453, 35.15141148014865], [36.36049382158453, 35.15087249097819], [36.361571799925485, 35.15087249097819], [36.361571799925485, 35.150333501807715], [36.361032810755006, 35.150333501807715], [36.361032810755006, 35.14979451263724], [36.361571799925485, 35.14979451263724], [36.361571799925485, 35.1487165342963], [36.362110789095965, 35.1487165342963], [36.362110789095965, 35.14925552346677], [36.362649778266416, 35.14925552346677], [36.362649778266416, 35.150333501807715], [36.363188767436895, 35.150333501807715], [36.363188767436895, 35.15087249097819], [36.364805734948305, 35.15087249097819], [36.364805734948305, 35.151950469319125], [36.365344724118785, 35.151950469319125], [36.365344724118785, 35.15356743683054], [36.364805734948305, 35.15356743683054], [36.364805734948305, 35.154106426001015], [36.365344724118785, 35.154106426001015], [36.365344724118785, 35.15518440434196], [36.365883713289264, 35.15518440434196], [36.365883713289264, 35.15464541517149], [36.366422702459715, 35.15464541517149], [36.366422702459715, 35.15518440434196], [36.368039669971154, 35.15518440434196], [36.368039669971154, 35.15572339351243], [36.369117648312084, 35.15572339351243], [36.369117648312084, 35.15518440434196], [36.369656637482564, 35.15518440434196], [36.369656637482564, 35.15572339351243], [36.37019562665304, 35.15572339351243], [36.37019562665304, 35.15464541517149], [36.370734615823494, 35.15464541517149], [36.370734615823494, 35.15572339351243], [36.37127360499397, 35.15572339351243], [36.37127360499397, 35.156801371853376], [36.370734615823494, 35.156801371853376], [36.370734615823494, 35.15734036102384], [36.37019562665304, 35.15734036102384], [36.37019562665304, 35.157879350194314], [36.369656637482564, 35.157879350194314], [36.369656637482564, 35.156801371853376], [36.369117648312084, 35.156801371853376], [36.369117648312084, 35.158418339364786], [36.37019562665304, 35.158418339364786], [36.37019562665304, 35.15949631770573], [36.37289057250538, 35.15949631770573], [36.37289057250538, 35.1600353068762], [36.37342956167586, 35.1600353068762], [36.37342956167586, 35.160574296046676], [36.37289057250538, 35.160574296046676], [36.37289057250538, 35.16111328521715], [36.37019562665304, 35.16111328521715], [36.37019562665304, 35.160574296046676], [36.366961691630195, 35.160574296046676], [36.366961691630195, 35.1600353068762], [36.365344724118785, 35.1600353068762], [36.365344724118785, 35.15949631770573], [36.364805734948305, 35.15949631770573], [36.364805734948305, 35.15895732853526], [36.363188767436895, 35.15895732853526], [36.363188767436895, 35.15734036102384], [36.362649778266416, 35.15734036102384], [36.362649778266416, 35.15572339351243], [36.362110789095965, 35.15572339351243], [36.362110789095965, 35.154106426001015], [36.361032810755006, 35.154106426001015], [36.361032810755006, 35.15302844766007], [36.36049382158453, 35.15302844766007], [36.36049382158453, 35.15356743683054], [36.357798875732186, 35.15356743683054], [36.357798875732186, 35.15464541517149], [36.35725988656171, 35.15464541517149], [36.35725988656171, 35.15518440434196], [36.356181908220776, 35.15518440434196], [36.356181908220776, 35.15464541517149], [36.35456494070934, 35.15464541517149], [36.35456494070934, 35.15356743683054], [36.35348696236841, 35.15356743683054], [36.35348696236841, 35.154106426001015], [36.35294797319793, 35.154106426001015], [36.35294797319793, 35.15356743683054], [36.351869994857, 35.15356743683054], [36.351869994857, 35.15302844766007], [36.35133100568652, 35.15302844766007], [36.35133100568652, 35.14925552346677], [36.351869994857, 35.14925552346677], [36.351869994857, 35.1487165342963], [36.35348696236841, 35.1487165342963], [36.35348696236841, 35.148177545125826]], [[36.368039669971154, 35.15949631770573], [36.368039669971154, 35.1600353068762], [36.367500680800674, 35.1600353068762], [36.367500680800674, 35.15949631770573], [36.368039669971154, 35.15949631770573]]]}, "properties": {"area_ha": 102.4943590499321, "mean_dnbr": 0.34253966386695894, "compactness": 0.129, "rectangularity": 0.461, "cropland_frac": 0.0, "persistent": true}}]}