{"type": "FeatureCollection", "crs": {"type": "name", "properties": {"name": "urn:ogc:def:crs:OGC:1.3:CRS84"}}, "features": [{"type": "Feature", "geometry": {"geodesic": false, "type": "Polygon", "coordinates": [[[32.73381535653718, 37.943914372362606], [32.73417468265083, 37.943914372362606], [32.73417468265083, 37.94409403541943], [32.73435434570766, 37.94409403541943], [32.73435434570766, 37.94427369847625], [32.734534008764484, 37.94427369847625], [32.734534008764484, 37.94445336153308], [32.73489333487814, 37.94445336153308], [32.73489333487814, 37.9446330245899], [32.735072997934964, 37.9446330245899], [32.735072997934964, 37.944812687646724], [32.73525266099176, 37.944812687646724], [32.73525266099176, 37.94499235070355], [32.73543232404859, 37.94499235070355], [32.73543232404859, 37.94517201376037], [32.735611987105415, 37.94517201376037], [32.735611987105415, 37.94553133987402], [32.73543232404859, 37.94553133987402], [32.73543232404859, 37.94589066598767], [32.73525266099176, 37.94589066598767], [32.73525266099176, 37.946249992101315], [32.735072997934964, 37.946249992101315], [32.735072997934964, 37.94642965515814], [32.73489333487814, 37.94642965515814], [32.73489333487814, 37.94660931821496], [32.73471367182131, 37.94660931821496], [32.73471367182131, 37.94678898127179], [32.734534008764484, 37.94678898127179], [32.734534008764484, 37.94714830738543], [32.73435434570766, 37.94714830738543], [32.73435434570766, 37.947507633499086], [32.73417468265083, 37.947507633499086], [32.73417468265083, 37.94786695961273], [32.733995019594005, 37.94786695961273], [32.733995019594005, 37.94804662266956], [32.73381535653718, 37.94804662266956], [32.73381535653718, 37.948405948783204], [32.73363569348035, 37.948405948783204], [32.73363569348035, 37.94930426406732], [32.733456030423525, 37.94930426406732], [32.733456030423525, 37.949843253237795], [32.7332763673667, 37.949843253237795], [32.7332763673667, 37.95002291629462], [32.73273737819625, 37.95002291629462], [32.73273737819625, 37.949843253237795], [32.73201872596894, 37.949843253237795], [32.73201872596894, 37.94966359018097], [32.73112041068484, 37.94966359018097], [32.73112041068484, 37.94948392712415], [32.73040175845753, 37.94948392712415], [32.73040175845753, 37.94930426406732], [32.730222095400705, 37.94930426406732], [32.730222095400705, 37.949124601010496], [32.73004243234388, 37.949124601010496], [32.73004243234388, 37.94876527489685], [32.7295034431734, 37.94876527489685], [32.7295034431734, 37.94858561184002], [32.72932378011657, 37.94858561184002], [32.72932378011657, 37.94876527489685], [32.729144117059775, 37.94876527489685], [32.729144117059775, 37.94894493795368], [32.72842546483247, 37.94894493795368], [32.72842546483247, 37.94876527489685], [32.72734748649151, 37.94876527489685], [32.72734748649151, 37.94858561184002], [32.72716782343471, 37.94858561184002], [32.72716782343471, 37.94822628572638], [32.72734748649151, 37.94822628572638], [32.72734748649151, 37.94804662266956], [32.72752714954834, 37.94804662266956], [32.72752714954834, 37.94786695961273], [32.72770681260516, 37.94786695961273], [32.72770681260516, 37.947687296555905], [32.72824580177564, 37.947687296555905], [32.72824580177564, 37.947507633499086], [32.72842546483247, 37.947507633499086], [32.72842546483247, 37.94732797044226], [32.728605127889296, 37.94732797044226], [32.728605127889296, 37.94714830738543], [32.729144117059775, 37.94714830738543], [32.729144117059775, 37.946968644328614], [32.72932378011657, 37.946968644328614], [32.72932378011657, 37.94678898127179], [32.7295034431734, 37.94678898127179], [32.7295034431734, 37.94660931821496], [32.72986276928705, 37.94660931821496], [32.72986276928705, 37.94642965515814], [32.73004243234388, 37.94642965515814], [32.73004243234388, 37.946249992101315], [32.730222095400705, 37.946249992101315], [32.730222095400705, 37.946070329044495], [32.73058142151436, 37.946070329044495], [32.73058142151436, 37.94589066598767], [32.73094074762801, 37.94589066598767], [32.73094074762801, 37.94571100293084], [32.73112041068484, 37.94571100293084], [32.73112041068484, 37.94553133987402], [32.731839062912115, 37.94553133987402], [32.731839062912115, 37.94571100293084], [32.73201872596894, 37.94571100293084], [32.73201872596894, 37.94589066598767], [32.73219838902577, 37.94589066598767], [32.73219838902577, 37.946070329044495], [32.732378052082595, 37.946070329044495], [32.732378052082595, 37.94660931821496], [32.73273737819625, 37.94660931821496], [32.73273737819625, 37.946070329044495], [32.732917041253074, 37.946070329044495], [32.732917041253074, 37.94553133987402], [32.7330967043099, 37.94553133987402], [32.7330967043099, 37.9453516768172], [32.7332763673667, 37.9453516768172], [32.7332763673667, 37.944812687646724], [32.733456030423525, 37.944812687646724], [32.733456030423525, 37.94427369847625], [32.73363569348035, 37.94427369847625], [32.73363569348035, 37.94409403541943], [32.73381535653718, 37.94409403541943], [32.73381535653718, 37.943914372362606]]]}, "properties": {"area_ha": 22.723199252162186, "mean_dnbr": 0.5387269616318421, "compactness": 0.286, "rectangularity": 0.546, "cropland_frac": 0.475, "persistent": null}}]}