{"type": "FeatureCollection", "crs": {"type": "name", "properties": {"name": "urn:ogc:def:crs:OGC:1.3:CRS84"}}, "features": [{"type": "Feature", "geometry": {"geodesic": false, "type": "Polygon", "coordinates": [[[32.65548226376197, 37.77880402314144], [32.656739905159725, 37.77880402314144], [32.656739905159725, 37.77898368619826], [32.657278894330204, 37.77898368619826], [32.657278894330204, 37.779163349255086], [32.65745855738703, 37.779163349255086], [32.65745855738703, 37.77952267536873], [32.65763822044386, 37.77952267536873], [32.65763822044386, 37.77970233842556], [32.657817883500684, 37.77970233842556], [32.657817883500684, 37.78024132759603], [32.65763822044386, 37.78024132759603], [32.65763822044386, 37.78042099065285], [32.65494327459149, 37.78042099065285], [32.65494327459149, 37.78185829510744], [32.65476361153466, 37.78185829510744], [32.65476361153466, 37.78203795816427], [32.654583948477836, 37.78203795816427], [32.654583948477836, 37.78221762122109], [32.654044959307384, 37.78221762122109], [32.654044959307384, 37.78239728427791], [32.65386529625056, 37.78239728427791], [32.65386529625056, 37.78257694733474], [32.65332630708008, 37.78257694733474], [32.65332630708008, 37.782756610391566], [32.65314664402325, 37.782756610391566], [32.65314664402325, 37.782936273448385], [32.652966980966426, 37.782936273448385], [32.652966980966426, 37.78311593650521], [32.652427991795946, 37.78311593650521], [32.652427991795946, 37.78329559956204], [32.65206866568232, 37.78329559956204], [32.65206866568232, 37.78347526261886], [32.651889002625495, 37.78347526261886], [32.651889002625495, 37.783654925675684], [32.651350013455016, 37.783654925675684], [32.651350013455016, 37.7838345887325], [32.65117035039819, 37.7838345887325], [32.65117035039819, 37.78401425178933], [32.65063136122771, 37.78401425178933], [32.65063136122771, 37.784193914846156], [32.65027203511406, 37.784193914846156], [32.65027203511406, 37.784373577902976], [32.649733045943606, 37.784373577902976], [32.649733045943606, 37.7845532409598], [32.64937371982995, 37.7845532409598], [32.64937371982995, 37.78473290401663], [32.6490143937163, 37.78473290401663], [32.6490143937163, 37.78491256707345], [32.64865506760265, 37.78491256707345], [32.64865506760265, 37.78473290401663], [32.64847540454582, 37.78473290401663], [32.64847540454582, 37.784373577902976], [32.648295741488994, 37.784373577902976], [32.648295741488994, 37.784193914846156], [32.648116078432196, 37.784193914846156], [32.648116078432196, 37.78401425178933], [32.64793641537537, 37.78401425178933], [32.64793641537537, 37.78311593650521], [32.647577089261716, 37.78311593650521], [32.647577089261716, 37.78329559956204], [32.64721776314806, 37.78329559956204], [32.64721776314806, 37.78347526261886], [32.64685843703441, 37.78347526261886], [32.64685843703441, 37.783654925675684], [32.64613978480713, 37.783654925675684], [32.64613978480713, 37.7838345887325], [32.645960121750306, 37.7838345887325], [32.645960121750306, 37.78401425178933], [32.64560079563665, 37.78401425178933], [32.64560079563665, 37.784193914846156], [32.645241469523, 37.784193914846156], [32.645241469523, 37.78401425178933], [32.645061806466174, 37.78401425178933], [32.645061806466174, 37.78239728427791], [32.645241469523, 37.78239728427791], [32.645241469523, 37.78221762122109], [32.64542113257983, 37.78221762122109], [32.64542113257983, 37.78203795816427], [32.64560079563665, 37.78203795816427], [32.64560079563665, 37.78185829510744], [32.64631944786393, 37.78185829510744], [32.64631944786393, 37.78167863205062], [32.64685843703441, 37.78167863205062], [32.64685843703441, 37.781498968993795], [32.64721776314806, 37.781498968993795], [32.64721776314806, 37.781319305936975], [32.64775675231854, 37.781319305936975], [32.64775675231854, 37.78113964288015], [32.648116078432196, 37.78113964288015], [32.648116078432196, 37.78095997982332], [32.64865506760265, 37.78095997982332], [32.64865506760265, 37.7807803167665], [32.6490143937163, 37.7807803167665], [32.6490143937163, 37.780600653709676], [32.649733045943606, 37.780600653709676], [32.649733045943606, 37.78042099065285], [32.65027203511406, 37.78042099065285], [32.65027203511406, 37.78024132759603], [32.65099068734136, 37.78024132759603], [32.65099068734136, 37.780061664539204], [32.651350013455016, 37.780061664539204], [32.651350013455016, 37.77988200148238], [32.65170933956867, 37.77988200148238], [32.65170933956867, 37.780061664539204], [32.651889002625495, 37.780061664539204], [32.651889002625495, 37.77988200148238], [32.65224832873912, 37.77988200148238], [32.65224832873912, 37.77970233842556], [32.6527873179096, 37.77970233842556], [32.6527873179096, 37.77952267536873], [32.65314664402325, 37.77952267536873], [32.65314664402325, 37.77934301231191], [32.65386529625056, 37.77934301231191], [32.65386529625056, 37.779163349255086], [32.65440428542101, 37.779163349255086], [32.65440428542101, 37.77898368619826], [32.65476361153466, 37.77898368619826], [32.65476361153466, 37.77880402314144], [32.65530260070514, 37.77880402314144], [32.65530260070514, 37.77898368619826], [32.65548226376197, 37.77898368619826], [32.65548226376197, 37.77880402314144]]]}, "properties": {"area_ha": 34.16149088337343, "mean_dnbr": 0.544083994510059, "compactness": 0.279, "rectangularity": 0.645, "cropland_frac": 0.121, "persistent": true}}, {"type": "Feature", "geometry": {"geodesic": false, "type": "Polygon", "coordinates": [[[32.67668250446718, 37.70586082207093], [32.67776048280814, 37.70586082207093], [32.67776048280814, 37.70604048512776], [32.67865879809224, 37.70604048512776], [32.67865879809224, 37.70622014818458], [32.67919778726272, 37.70622014818458], [32.67919778726272, 37.706399811241404], [32.67937745031955, 37.706399811241404], [32.67937745031955, 37.70657947429823], [32.6797367764332, 37.70657947429823], [32.6797367764332, 37.70675913735505], [32.67991643949, 37.70675913735505], [32.67991643949, 37.706938800411876], [32.68027576560365, 37.706938800411876], [32.68027576560365, 37.7071184634687], [32.68045542866048, 37.7071184634687], [32.68045542866048, 37.70747778958235], [32.68081475477413, 37.70747778958235], [32.68081475477413, 37.70765745263917], [32.68099441783096, 37.70765745263917], [32.68099441783096, 37.70837610486647], [32.681174080887786, 37.70837610486647], [32.681174080887786, 37.709993072377884], [32.68099441783096, 37.709993072377884], [32.68099441783096, 37.710532061548356], [32.68081475477413, 37.710532061548356], [32.68081475477413, 37.710711724605176], [32.68045542866048, 37.710711724605176], [32.68045542866048, 37.71107105071883], [32.68027576560365, 37.71107105071883], [32.68027576560365, 37.71125071377565], [32.68009610254683, 37.71125071377565], [32.68009610254683, 37.711430376832475], [32.67991643949, 37.711430376832475], [32.67991643949, 37.711610039889294], [32.67937745031955, 37.711610039889294], [32.67937745031955, 37.71178970294612], [32.67919778726272, 37.71178970294612], [32.67919778726272, 37.71196936600295], [32.67865879809224, 37.71196936600295], [32.67865879809224, 37.712149029059766], [32.67776048280814, 37.712149029059766], [32.67776048280814, 37.71232869211659], [32.677401156694486, 37.71232869211659], [32.677401156694486, 37.712149029059766], [32.675963852239875, 37.712149029059766], [32.675963852239875, 37.71196936600295], [32.6752452000126, 37.71196936600295], [32.6752452000126, 37.71178970294612], [32.67506553695577, 37.71178970294612], [32.67506553695577, 37.711430376832475], [32.674885873898944, 37.711430376832475], [32.674885873898944, 37.711610039889294], [32.67470621084212, 37.711610039889294], [32.67470621084212, 37.711430376832475], [32.67452654778529, 37.711430376832475], [32.67452654778529, 37.71125071377565], [32.674346884728465, 37.71125071377565], [32.674346884728465, 37.710711724605176], [32.67398755861481, 37.710711724605176], [32.67398755861481, 37.710532061548356], [32.67362823250119, 37.710532061548356], [32.67362823250119, 37.71035239849153], [32.67344856944436, 37.71035239849153], [32.67344856944436, 37.70981340932106], [32.673268906387534, 37.70981340932106], [32.673268906387534, 37.70855576792329], [32.67344856944436, 37.70855576792329], [32.67344856944436, 37.70837610486647], [32.673268906387534, 37.70837610486647], [32.673268906387534, 37.70819644180964], [32.67344856944436, 37.70819644180964], [32.67344856944436, 37.70801677875282], [32.67362823250119, 37.70801677875282], [32.67362823250119, 37.707837115695995], [32.673807895558014, 37.707837115695995], [32.673807895558014, 37.70747778958235], [32.67398755861481, 37.70747778958235], [32.67398755861481, 37.706938800411876], [32.67416722167164, 37.706938800411876], [32.67416722167164, 37.70675913735505], [32.674346884728465, 37.70675913735505], [32.674346884728465, 37.70657947429823], [32.67452654778529, 37.70657947429823], [32.67452654778529, 37.70675913735505], [32.67470621084212, 37.70675913735505], [32.67470621084212, 37.70657947429823], [32.67506553695577, 37.70657947429823], [32.67506553695577, 37.706399811241404], [32.6752452000126, 37.706399811241404], [32.6752452000126, 37.70622014818458], [32.675963852239875, 37.70622014818458], [32.675963852239875, 37.70604048512776], [32.67668250446718, 37.70604048512776], [32.67668250446718, 37.70586082207093]], [[32.67686216752401, 37.709274420150585], [32.67686216752401, 37.70945408320741], [32.67668250446718, 37.70945408320741], [32.67668250446718, 37.709274420150585], [32.67686216752401, 37.709274420150585]]]}, "properties": {"area_ha": 38.489143592345386, "mean_dnbr": 0.48788253475835497, "compactness": 0.533, "rectangularity": 0.77, "cropland_frac": 0.056, "persistent": true}}]}