{"type": "FeatureCollection", "crs": {"type": "name", "properties": {"name": "urn:ogc:def:crs:OGC:1.3:CRS84"}}, "features": [{"type": "Feature", "geometry": {"geodesic": false, "type": "Polygon", "coordinates": [[[32.63949225170464, 37.82497742874518], [32.640210903931944, 37.82497742874518], [32.640210903931944, 37.825157091802005], [32.64039056698874, 37.825157091802005], [32.64039056698874, 37.82533675485883], [32.64057023004557, 37.82533675485883], [32.64057023004557, 37.82569608097248], [32.64039056698874, 37.82569608097248], [32.64039056698874, 37.82605540708612], [32.64057023004557, 37.82605540708612], [32.64057023004557, 37.82623507014295], [32.640749893102395, 37.82623507014295], [32.640749893102395, 37.826594396256596], [32.64092955615922, 37.826594396256596], [32.64092955615922, 37.82677405931342], [32.640749893102395, 37.82677405931342], [32.640749893102395, 37.82857068988166], [32.64092955615922, 37.82857068988166], [32.64092955615922, 37.828750352938485], [32.640749893102395, 37.828750352938485], [32.640749893102395, 37.82928934210896], [32.64254652367063, 37.82928934210896], [32.64254652367063, 37.82946900516578], [32.64272618672746, 37.82946900516578], [32.64272618672746, 37.82928934210896], [32.64488214340935, 37.82928934210896], [32.64488214340935, 37.82946900516578], [32.645960121750306, 37.82946900516578], [32.645960121750306, 37.8296486682226], [32.64613978480713, 37.8296486682226], [32.64613978480713, 37.82982833127942], [32.64631944786393, 37.82982833127942], [32.64631944786393, 37.830367320449895], [32.64613978480713, 37.830367320449895], [32.64613978480713, 37.83072664656355], [32.64631944786393, 37.83072664656355], [32.64631944786393, 37.83090630962037], [32.64613978480713, 37.83090630962037], [32.64613978480713, 37.831085972677194], [32.64631944786393, 37.831085972677194], [32.64631944786393, 37.83144529879084], [32.64613978480713, 37.83144529879084], [32.64613978480713, 37.831624961847666], [32.645960121750306, 37.831624961847666], [32.645960121750306, 37.831804624904485], [32.64398382812524, 37.831804624904485], [32.64398382812524, 37.831624961847666], [32.64380416506842, 37.831624961847666], [32.64380416506842, 37.831804624904485], [32.64308551284111, 37.831804624904485], [32.64308551284111, 37.831624961847666], [32.642905849784285, 37.831624961847666], [32.642905849784285, 37.831804624904485], [32.642366860613805, 37.831804624904485], [32.642366860613805, 37.831624961847666], [32.64218719755701, 37.831624961847666], [32.64218719755701, 37.831804624904485], [32.64200753450018, 37.831804624904485], [32.64200753450018, 37.83270294018861], [32.641827871443354, 37.83270294018861], [32.641827871443354, 37.83288260324543], [32.63931258864781, 37.83288260324543], [32.63931258864781, 37.83270294018861], [32.639132925590985, 37.83270294018861], [32.639132925590985, 37.831804624904485], [32.63877359947733, 37.831804624904485], [32.63877359947733, 37.831624961847666], [32.6376956211364, 37.831624961847666], [32.6376956211364, 37.83144529879084], [32.637515958079575, 37.83144529879084], [32.637515958079575, 37.83090630962037], [32.63733629502275, 37.83090630962037], [32.63733629502275, 37.83072664656355], [32.637515958079575, 37.83072664656355], [32.637515958079575, 37.83054698350672], [32.63733629502275, 37.83054698350672], [32.63733629502275, 37.82839102682483], [32.63338370777262, 37.82839102682483], [32.63338370777262, 37.82821136376801], [32.6332040447158, 37.82821136376801], [32.6332040447158, 37.82785203765436], [32.63302438165897, 37.82785203765436], [32.63302438165897, 37.82767237459754], [32.6332040447158, 37.82767237459754], [32.6332040447158, 37.827492711540714], [32.634821012227206, 37.827492711540714], [32.634821012227206, 37.827313048483894], [32.63661764279544, 37.827313048483894], [32.63661764279544, 37.82713338542707], [32.63679730585227, 37.82713338542707], [32.63679730585227, 37.827313048483894], [32.636976968909096, 37.827313048483894], [32.636976968909096, 37.82767237459754], [32.63715663196592, 37.82767237459754], [32.63715663196592, 37.82785203765436], [32.63733629502275, 37.82785203765436], [32.63733629502275, 37.827313048483894], [32.63715663196592, 37.827313048483894], [32.63715663196592, 37.82713338542707], [32.63733629502275, 37.82713338542707], [32.63733629502275, 37.82569608097248], [32.637515958079575, 37.82569608097248], [32.637515958079575, 37.82551641791565], [32.63823461030688, 37.82551641791565], [32.63823461030688, 37.82533675485883], [32.63895326253416, 37.82533675485883], [32.63895326253416, 37.825157091802005], [32.63949225170464, 37.825157091802005], [32.63949225170464, 37.82497742874518]]]}, "properties": {"area_ha": 41.106076969360146, "mean_dnbr": 0.5199127860474251, "compactness": 0.241, "rectangularity": 0.524, "cropland_frac": 0.353, "persistent": null}}, {"type": "Feature", "geometry": {"geodesic": false, "type": "Polygon", "coordinates": [[[32.73094074762801, 37.73658320478782], [32.73273737819625, 37.73658320478782], [32.73273737819625, 37.73676286784465], [32.732917041253074, 37.73676286784465], [32.732917041253074, 37.73712219395829], [32.7330967043099, 37.73712219395829], [32.7330967043099, 37.73891882452653], [32.7332763673667, 37.73891882452653], [32.7332763673667, 37.73927815064018], [32.733456030423525, 37.73927815064018], [32.733456030423525, 37.739457813697], [32.73363569348035, 37.739457813697], [32.73363569348035, 37.73963747675383], [32.73381535653718, 37.73963747675383], [32.73381535653718, 37.74071545509477], [32.73363569348035, 37.74071545509477], [32.73363569348035, 37.74089511815159], [32.733456030423525, 37.74089511815159], [32.733456030423525, 37.74107478120842], [32.7332763673667, 37.74107478120842], [32.7332763673667, 37.741254444265245], [32.732378052082595, 37.741254444265245], [32.732378052082595, 37.741434107322064], [32.731839062912115, 37.741434107322064], [32.731839062912115, 37.74161377037889], [32.73147973679846, 37.74161377037889], [32.73147973679846, 37.74179343343571], [32.730761084571185, 37.74179343343571], [32.730761084571185, 37.741973096492536], [32.72932378011657, 37.741973096492536], [32.72932378011657, 37.74215275954936], [32.72878479094612, 37.74215275954936], [32.72878479094612, 37.74233242260618], [32.72734748649151, 37.74233242260618], [32.72734748649151, 37.74215275954936], [32.72716782343471, 37.74215275954936], [32.72716782343471, 37.73963747675383], [32.72734748649151, 37.73963747675383], [32.72734748649151, 37.739457813697], [32.73040175845753, 37.739457813697], [32.73040175845753, 37.737661183128765], [32.730222095400705, 37.737661183128765], [32.730222095400705, 37.73748152007194], [32.73004243234388, 37.73748152007194], [32.73004243234388, 37.736942530901466], [32.730222095400705, 37.736942530901466], [32.730222095400705, 37.73676286784465], [32.73040175845753, 37.73676286784465], [32.73040175845753, 37.73658320478782], [32.730761084571185, 37.73658320478782], [32.730761084571185, 37.73676286784465], [32.73094074762801, 37.73676286784465], [32.73094074762801, 37.73658320478782]]]}, "properties": {"area_ha": 22.976585364246635, "mean_dnbr": 0.6166242355837047, "compactness": 0.444, "rectangularity": 0.615, "cropland_frac": 0.147, "persistent": null}}]}