{"type": "FeatureCollection", "columns": {"area_ha": "Number", "count": "Long<0, 4294967295>", "label": "Byte<0, 1>", "mean_dnbr": "Object", "system:index": "String"}, "features": [{"type": "Feature", "geometry": {"geodesic": false, "type": "Polygon", "coordinates": [[[26.44632701992785, 38.3287526400794], [26.44686600909833, 38.3287526400794], [26.44686600909833, 38.329830618420345], [26.44794398743926, 38.329830618420345], [26.44794398743926, 38.33036960759082], [26.44956095495067, 38.33036960759082], [26.44956095495067, 38.331986575102235], [26.44902196578022, 38.331986575102235], [26.44902196578022, 38.33144758593176], [26.44794398743926, 38.33144758593176], [26.44794398743926, 38.33090859676129], [26.44740499826878, 38.33090859676129], [26.44740499826878, 38.33036960759082], [26.44632701992785, 38.33036960759082], [26.44632701992785, 38.329830618420345], [26.44578803075737, 38.329830618420345], [26.44578803075737, 38.32929162924987], [26.44632701992785, 38.32929162924987], [26.44632701992785, 38.3287526400794]]]}, "id": "+383025+84734", "properties": {"area_ha": 3.944776333734018, "count": 14, "label": 1, "mean_dnbr": 0.19661173500724174}}, {"type": "Feature", "geometry": {"geodesic": false, "type": "Polygon", "coordinates": [[[26.44686600909833, 38.197239282484304], [26.44848297660974, 38.197239282484304], [26.44848297660974, 38.19777827165478], [26.45009994412115, 38.19777827165478], [26.45009994412115, 38.19831726082525], [26.451177922462108, 38.19831726082525], [26.451177922462108, 38.19885624999572], [26.45171691163256, 38.19885624999572], [26.45171691163256, 38.19939523916619], [26.45225590080304, 38.19939523916619], [26.45225590080304, 38.199934228336666], [26.451177922462108, 38.199934228336666], [26.451177922462108, 38.19939523916619], [26.44956095495067, 38.19939523916619], [26.44956095495067, 38.199934228336666], [26.44848297660974, 38.199934228336666], [26.44848297660974, 38.19939523916619], [26.44740499826878, 38.19939523916619], [26.44740499826878, 38.19885624999572], [26.44686600909833, 38.19885624999572], [26.44686600909833, 38.19939523916619], [26.44632701992785, 38.19939523916619], [26.44632701992785, 38.19777827165478], [26.44686600909833, 38.19777827165478], [26.44686600909833, 38.197239282484304]]]}, "id": "+383028+84978", "properties": {"area_ha": 9.033008393304934, "count": 32, "label": 1, "mean_dnbr": 0.2633655500145846}}, {"type": "Feature", "geometry": {"geodesic": false, "type": "Polygon", "coordinates": [[[26.597782976830388, 38.476435672788654], [26.598321966000867, 38.476435672788654], [26.598321966000867, 38.476974661959126], [26.598860955171347, 38.476974661959126], [26.598860955171347, 38.4775136511296], [26.600477922682757, 38.4775136511296], [26.600477922682757, 38.47859162947054], [26.601555901023715, 38.47859162947054], [26.601555901023715, 38.47966960781148], [26.599938933512277, 38.47966960781148], [26.599938933512277, 38.47913061864101], [26.599399944341826, 38.47913061864101], [26.599399944341826, 38.47859162947054], [26.597782976830388, 38.47859162947054], [26.597782976830388, 38.476435672788654]]]}, "id": "+383306+84460", "properties": {"area_ha": 5.623885813454366, "count": 20, "label": 1, "mean_dnbr": 0.4474475620119885}}, {"type": "Feature", "geometry": {"geodesic": false, "type": "Polygon", "coordinates": [[[26.787507164836455, 38.29803025736252], [26.788046154006906, 38.29803025736252], [26.788046154006906, 38.298569246532985], [26.785351208154566, 38.298569246532985], [26.785351208154566, 38.29964722487393], [26.784812218984086, 38.29964722487393], [26.784812218984086, 38.3001862140444], [26.784273229813607, 38.3001862140444], [26.784273229813607, 38.29964722487393], [26.784812218984086, 38.29964722487393], [26.784812218984086, 38.29910823570346], [26.784273229813607, 38.29910823570346], [26.784273229813607, 38.298569246532985], [26.783734240643156, 38.298569246532985], [26.783734240643156, 38.29803025736252], [26.784273229813607, 38.29803025736252], [26.784273229813607, 38.296952279021575], [26.784812218984086, 38.296952279021575], [26.784812218984086, 38.29587430068063], [26.788046154006906, 38.29587430068063], [26.788046154006906, 38.29749126819205], [26.787507164836455, 38.29749126819205], [26.787507164836455, 38.29803025736252]]]}, "id": "+383658+84795", "properties": {"area_ha": 10.430213920274795, "count": 37, "label": 1, "mean_dnbr": 0.40512358217107597}}, {"type": "Feature", "geometry": {"geodesic": false, "type": "Polygon", "coordinates": [[[26.788046154006906, 38.30126419238535], [26.788585143177386, 38.30126419238535], [26.788585143177386, 38.30180318155582], [26.788046154006906, 38.30180318155582], [26.788046154006906, 38.30234217072629], [26.787507164836455, 38.30234217072629], [26.787507164836455, 38.302881159896764], [26.786429186495496, 38.302881159896764], [26.786429186495496, 38.303420149067236], [26.786968175665976, 38.303420149067236], [26.786968175665976, 38.30395913823771], [26.786429186495496, 38.30395913823771], [26.786429186495496, 38.30449812740817], [26.785890197325017, 38.30449812740817], [26.785890197325017, 38.305037116578646], [26.784812218984086, 38.305037116578646], [26.784812218984086, 38.30557610574912], [26.783734240643156, 38.30557610574912], [26.783734240643156, 38.30611509491959], [26.784273229813607, 38.30611509491959], [26.784273229813607, 38.307193073260535], [26.781578283961267, 38.307193073260535], [26.781578283961267, 38.305037116578646], [26.782656262302197, 38.305037116578646], [26.782656262302197, 38.30449812740817], [26.782117273131718, 38.30449812740817], [26.782117273131718, 38.30395913823771], [26.783195251472677, 38.30395913823771], [26.783195251472677, 38.302881159896764], [26.782117273131718, 38.302881159896764], [26.782117273131718, 38.30234217072629], [26.783734240643156, 38.30234217072629], [26.783734240643156, 38.30180318155582], [26.784273229813607, 38.30180318155582], [26.784273229813607, 38.30234217072629], [26.783734240643156, 38.30234217072629], [26.783734240643156, 38.302881159896764], [26.784273229813607, 38.302881159896764], [26.784273229813607, 38.303420149067236], [26.784812218984086, 38.303420149067236], [26.784812218984086, 38.30395913823771], [26.785351208154566, 38.30395913823771], [26.785351208154566, 38.302881159896764], [26.785890197325017, 38.302881159896764], [26.785890197325017, 38.30234217072629], [26.786429186495496, 38.30234217072629], [26.786429186495496, 38.30180318155582], [26.786968175665976, 38.30180318155582], [26.786968175665976, 38.30126419238535], [26.787507164836455, 38.30126419238535], [26.787507164836455, 38.30180318155582], [26.788046154006906, 38.30180318155582], [26.788046154006906, 38.30126419238535]]]}, "id": "+383659+84785", "properties": {"area_ha": 15.784795950050366, "count": 56, "label": 1, "mean_dnbr": 0.32492103412149764}}, {"type": "Feature", "geometry": {"geodesic": false, "type": "Polygon", "coordinates": [[[26.789124132347865, 38.291023398146386], [26.789663121518345, 38.291023398146386], [26.789663121518345, 38.294796322339685], [26.790202110688796, 38.294796322339685], [26.790202110688796, 38.29533531151016], [26.785890197325017, 38.29533531151016], [26.785890197325017, 38.294796322339685], [26.784812218984086, 38.294796322339685], [26.784812218984086, 38.29425733316921], [26.785351208154566, 38.29425733316921], [26.785351208154566, 38.29317935482827], [26.785890197325017, 38.29317935482827], [26.785890197325017, 38.291023398146386], [26.788585143177386, 38.291023398146386], [26.788585143177386, 38.29156238731686], [26.789124132347865, 38.29156238731686], [26.789124132347865, 38.291023398146386]]]}, "id": "+383661+84804", "properties": {"area_ha": 16.91489552772703, "count": 60, "label": 1, "mean_dnbr": 0.43229598673581426}}, {"type": "Feature", "geometry": {"geodesic": false, "type": "Polygon", "coordinates": [[[26.798286948245874, 38.238741448610625], [26.799364926586833, 38.238741448610625], [26.799364926586833, 38.23981942695157], [26.800442904927763, 38.23981942695157], [26.800442904927763, 38.240897405292515], [26.797747959075394, 38.240897405292515], [26.797747959075394, 38.2392804377811], [26.798286948245874, 38.2392804377811], [26.798286948245874, 38.238741448610625]]]}, "id": "+383679+84901", "properties": {"area_ha": 4.231828475512694, "count": 15, "label": 1, "mean_dnbr": 0.3038112985021133}}, {"type": "Feature", "geometry": {"geodesic": false, "type": "Polygon", "coordinates": [[[26.804215829121063, 38.23766347026969], [26.804754818291542, 38.23766347026969], [26.804754818291542, 38.238741448610625], [26.80529380746202, 38.238741448610625], [26.80529380746202, 38.240897405292515], [26.804215829121063, 38.240897405292515], [26.804215829121063, 38.238741448610625], [26.803676839950583, 38.238741448610625], [26.803676839950583, 38.23820245944015], [26.804215829121063, 38.23820245944015], [26.804215829121063, 38.23766347026969]]]}, "id": "+383689+84903", "properties": {"area_ha": 3.1033592244026966, "count": 11, "label": 1, "mean_dnbr": 0.2230077417215201}}, {"type": "Feature", "geometry": {"geodesic": false, "type": "Polygon", "coordinates": [[[26.834938211837965, 38.62088477047507], [26.837094168519855, 38.62088477047507], [26.837094168519855, 38.621423759645545], [26.837633157690306, 38.621423759645545], [26.837633157690306, 38.62196274881602], [26.838711136031264, 38.62196274881602], [26.838711136031264, 38.62250173798649], [26.838172146860785, 38.62250173798649], [26.838172146860785, 38.62304072715696], [26.837633157690306, 38.62304072715696], [26.837633157690306, 38.62250173798649], [26.837094168519855, 38.62250173798649], [26.837094168519855, 38.62196274881602], [26.835477201008416, 38.62196274881602], [26.835477201008416, 38.621423759645545], [26.834938211837965, 38.621423759645545], [26.834938211837965, 38.62088477047507]]]}, "id": "+383749+84192", "properties": {"area_ha": 3.3675995257627322, "count": 12, "label": 1, "mean_dnbr": 0.1703899124563183}}, {"type": "Feature", "geometry": {"geodesic": false, "type": "Polygon", "coordinates": [[[26.86619958372532, 38.590162387758184], [26.870511497089097, 38.590162387758184], [26.870511497089097, 38.590701376928656], [26.869972507918618, 38.590701376928656], [26.869972507918618, 38.59124036609913], [26.86943351874814, 38.59124036609913], [26.86943351874814, 38.5917793552696], [26.870511497089097, 38.5917793552696], [26.870511497089097, 38.592857333610546], [26.869972507918618, 38.592857333610546], [26.869972507918618, 38.59339632278102], [26.86889452957766, 38.59339632278102], [26.86889452957766, 38.592857333610546], [26.868355540407208, 38.592857333610546], [26.868355540407208, 38.59339632278102], [26.866738572895798, 38.59339632278102], [26.866738572895798, 38.59393531195148], [26.86404362704343, 38.59393531195148], [26.86404362704343, 38.594474301121956], [26.86458261621391, 38.594474301121956], [26.86458261621391, 38.59501329029243], [26.86404362704343, 38.59501329029243], [26.86404362704343, 38.5955522794629], [26.86512160538436, 38.5955522794629], [26.86512160538436, 38.59501329029243], [26.86566059455484, 38.59501329029243], [26.86566059455484, 38.59609126863337], [26.86350463787295, 38.59609126863337], [26.86350463787295, 38.59501329029243], [26.86296564870247, 38.59501329029243], [26.86296564870247, 38.59393531195148], [26.86350463787295, 38.59393531195148], [26.86350463787295, 38.59339632278102], [26.86296564870247, 38.59339632278102], [26.86296564870247, 38.59231834444007], [26.86242665953202, 38.59231834444007], [26.86242665953202, 38.590162387758184], [26.86296564870247, 38.590162387758184], [26.86296564870247, 38.590701376928656], [26.86350463787295, 38.590701376928656], [26.86350463787295, 38.590162387758184], [26.86566059455484, 38.590162387758184], [26.86566059455484, 38.590701376928656], [26.86619958372532, 38.590701376928656], [26.86619958372532, 38.590162387758184]], [[26.86566059455484, 38.5917793552696], [26.86566059455484, 38.59231834444007], [26.86458261621391, 38.59231834444007], [26.86458261621391, 38.5917793552696], [26.86566059455484, 38.5917793552696]], [[26.86404362704343, 38.59124036609913], [26.86404362704343, 38.5917793552696], [26.86350463787295, 38.5917793552696], [26.86350463787295, 38.59124036609913], [26.86404362704343, 38.59124036609913]]]}, "id": "+383811+84249", "properties": {"area_ha": 26.67110811710619, "count": 95, "label": 1, "mean_dnbr": 0.18164678272622697}}, {"type": "Feature", "geometry": {"geodesic": false, "type": "Polygon", "coordinates": [[[26.869972507918618, 38.61872881379318], [26.872667453770987, 38.61872881379318], [26.872667453770987, 38.61980679213413], [26.873745432111917, 38.61980679213413], [26.873745432111917, 38.6203457813046], [26.874284421282397, 38.6203457813046], [26.874284421282397, 38.62196274881602], [26.873206442941438, 38.62196274881602], [26.873206442941438, 38.621423759645545], [26.872667453770987, 38.621423759645545], [26.872667453770987, 38.62088477047507], [26.872128464600507, 38.62088477047507], [26.872128464600507, 38.61980679213413], [26.871589475430028, 38.61980679213413], [26.871589475430028, 38.619267802963655], [26.869972507918618, 38.619267802963655], [26.869972507918618, 38.61872881379318]]]}, "id": "+383815+84196", "properties": {"area_ha": 5.332144536318229, "count": 19, "label": 1, "mean_dnbr": 0.2911205285874828}}, {"type": "Feature", "geometry": {"geodesic": false, "type": "Polygon", "coordinates": [[[26.873206442941438, 38.64837321816913], [26.874284421282397, 38.64837321816913], [26.874284421282397, 38.64945119651007], [26.873206442941438, 38.64945119651007], [26.873206442941438, 38.649990185680544], [26.87105048625955, 38.649990185680544], [26.87105048625955, 38.64945119651007], [26.871589475430028, 38.64945119651007], [26.871589475430028, 38.64837321816913], [26.872667453770987, 38.64837321816913], [26.872667453770987, 38.6489122073396], [26.873206442941438, 38.6489122073396], [26.873206442941438, 38.64837321816913]]]}, "id": "+383818+84141", "properties": {"area_ha": 3.64684704847331, "count": 13, "label": 1, "mean_dnbr": 0.2181052570864435}}, {"type": "Feature", "geometry": {"geodesic": false, "type": "Polygon", "coordinates": [[[26.876440377964286, 38.625196683838844], [26.877518356305217, 38.625196683838844], [26.877518356305217, 38.62627466217979], [26.878057345475696, 38.62627466217979], [26.878057345475696, 38.62681365135026], [26.877518356305217, 38.62681365135026], [26.877518356305217, 38.62735264052073], [26.876979367134737, 38.62735264052073], [26.876979367134737, 38.627891629691206], [26.876440377964286, 38.627891629691206], [26.876440377964286, 38.62735264052073], [26.875901388793807, 38.62735264052073], [26.875901388793807, 38.62681365135026], [26.874823410452876, 38.62681365135026], [26.874823410452876, 38.62627466217979], [26.875362399623327, 38.62627466217979], [26.875362399623327, 38.625735673009316], [26.876440377964286, 38.625735673009316], [26.876440377964286, 38.625196683838844]]]}, "id": "+383824+84184", "properties": {"area_ha": 4.489843480158385, "count": 16, "label": 1, "mean_dnbr": 0.3187923054133133}}, {"type": "Feature", "geometry": {"geodesic": false, "type": "Polygon", "coordinates": [[[26.878057345475696, 38.59609126863337], [26.882369258839475, 38.59609126863337], [26.882369258839475, 38.596630257803845], [26.882908248009926, 38.596630257803845], [26.882908248009926, 38.59716924697432], [26.877518356305217, 38.59716924697432], [26.877518356305217, 38.596630257803845], [26.878057345475696, 38.596630257803845], [26.878057345475696, 38.59609126863337]]]}, "id": "+383833+84238", "properties": {"area_ha": 5.053224075300953, "count": 18, "label": 1, "mean_dnbr": 0.23816450683802665}}, {"type": "Feature", "geometry": {"geodesic": false, "type": "Polygon", "coordinates": [[[26.895843988101262, 38.637593434759694], [26.89638297727174, 38.637593434759694], [26.89638297727174, 38.638132423930166], [26.896921966442193, 38.638132423930166], [26.896921966442193, 38.63867141310064], [26.899077923124082, 38.63867141310064], [26.899077923124082, 38.63974939144158], [26.90015590146504, 38.63974939144158], [26.90015590146504, 38.64082736978253], [26.900694890635492, 38.64082736978253], [26.900694890635492, 38.641366358953], [26.899077923124082, 38.641366358953], [26.899077923124082, 38.641905348123466], [26.897460955612672, 38.641905348123466], [26.897460955612672, 38.64244433729394], [26.89638297727174, 38.64244433729394], [26.89638297727174, 38.640288380612056], [26.895843988101262, 38.640288380612056], [26.895843988101262, 38.63974939144158], [26.895304998930783, 38.63974939144158], [26.895304998930783, 38.63867141310064], [26.895843988101262, 38.63867141310064], [26.895843988101262, 38.637593434759694]], [[26.899077923124082, 38.64082736978253], [26.899077923124082, 38.641366358953], [26.89853893395363, 38.641366358953], [26.89853893395363, 38.64082736978253], [26.899077923124082, 38.64082736978253]], [[26.89853893395363, 38.63974939144158], [26.89853893395363, 38.640288380612056], [26.89799994478315, 38.640288380612056], [26.89799994478315, 38.63974939144158], [26.89853893395363, 38.63974939144158]]]}, "id": "+383859+84161", "properties": {"area_ha": 12.625266756174316, "count": 45, "label": 1, "mean_dnbr": 0.1750947586503832}}, {"type": "Feature", "geometry": {"geodesic": false, "type": "Polygon", "coordinates": [[[26.89961691229456, 38.615494878770356], [26.900694890635492, 38.615494878770356], [26.900694890635492, 38.6165728571113], [26.90123387980597, 38.6165728571113], [26.90123387980597, 38.61818982462271], [26.90177286897645, 38.61818982462271], [26.90177286897645, 38.61872881379318], [26.90015590146504, 38.61872881379318], [26.90015590146504, 38.61711184628177], [26.89961691229456, 38.61711184628177], [26.89961691229456, 38.615494878770356]]]}, "id": "+383867+84202", "properties": {"area_ha": 3.929122513007573, "count": 14, "label": 1, "mean_dnbr": 0.22903815479888748}}, {"type": "Feature", "geometry": {"geodesic": false, "type": "Polygon", "coordinates": [[[26.90123387980597, 38.606871052042806], [26.90231185814693, 38.606871052042806], [26.90231185814693, 38.60741004121328], [26.90285084731738, 38.60741004121328], [26.90285084731738, 38.60794903038375], [26.90554579316975, 38.60794903038375], [26.90554579316975, 38.609027008724695], [26.90500680399927, 38.609027008724695], [26.90500680399927, 38.61010498706564], [26.90446781482882, 38.61010498706564], [26.90446781482882, 38.60956599789517], [26.90285084731738, 38.60956599789517], [26.90285084731738, 38.609027008724695], [26.90177286897645, 38.609027008724695], [26.90177286897645, 38.60794903038375], [26.90123387980597, 38.60794903038375], [26.90123387980597, 38.606871052042806]]]}, "id": "+383870+84218", "properties": {"area_ha": 6.736444055716062, "count": 24, "label": 1, "mean_dnbr": 0.2585661068719043}}, {"type": "Feature", "geometry": {"geodesic": false, "type": "Polygon", "coordinates": [[[26.91255265238587, 38.5632129292346], [26.91309164155635, 38.5632129292346], [26.91309164155635, 38.56482989674601], [26.91363063072683, 38.56482989674601], [26.91363063072683, 38.56590787508696], [26.914169619897308, 38.56590787508696], [26.914169619897308, 38.5669858534279], [26.91363063072683, 38.5669858534279], [26.91363063072683, 38.567524842598374], [26.91309164155635, 38.567524842598374], [26.91309164155635, 38.568063831768846], [26.91147467404494, 38.568063831768846], [26.91147467404494, 38.567524842598374], [26.90985770653353, 38.567524842598374], [26.90985770653353, 38.5669858534279], [26.90931871736305, 38.5669858534279], [26.90931871736305, 38.56644686425743], [26.90824073902212, 38.56644686425743], [26.90824073902212, 38.56590787508696], [26.90770174985164, 38.56590787508696], [26.90770174985164, 38.565368885916484], [26.90824073902212, 38.565368885916484], [26.90824073902212, 38.56482989674601], [26.90770174985164, 38.56482989674601], [26.90770174985164, 38.56429090757554], [26.90877972819257, 38.56429090757554], [26.90877972819257, 38.56482989674601], [26.90931871736305, 38.56482989674601], [26.90931871736305, 38.56429090757554], [26.90985770653353, 38.56429090757554], [26.90985770653353, 38.56375191840507], [26.91039669570401, 38.56375191840507], [26.91039669570401, 38.5632129292346], [26.91147467404494, 38.5632129292346], [26.91147467404494, 38.56375191840507], [26.91255265238587, 38.56375191840507], [26.91255265238587, 38.5632129292346]]]}, "id": "+383890+84299", "properties": {"area_ha": 19.378856303515853, "count": 69, "label": 1, "mean_dnbr": 0.31213595570337527}}, {"type": "Feature", "geometry": {"geodesic": false, "type": "Polygon", "coordinates": [[[26.931417273352395, 38.63921040227111], [26.933573230034284, 38.63921040227111], [26.933573230034284, 38.63974939144158], [26.935729186716173, 38.63974939144158], [26.935729186716173, 38.640288380612056], [26.934651208375215, 38.640288380612056], [26.934651208375215, 38.64082736978253], [26.931956262522874, 38.64082736978253], [26.931956262522874, 38.640288380612056], [26.931417273352395, 38.640288380612056], [26.931417273352395, 38.63921040227111]]]}, "id": "+383928+84158", "properties": {"area_ha": 4.769554601787357, "count": 17, "label": 1, "mean_dnbr": 0.21953161948143174}}, {"type": "Feature", "geometry": {"geodesic": false, "type": "Polygon", "coordinates": [[[26.94704795929607, 38.756171052263475], [26.94920391597796, 38.756171052263475], [26.94920391597796, 38.75671004143394], [26.94974290514844, 38.75671004143394], [26.94974290514844, 38.75724903060441], [26.95028189431889, 38.75724903060441], [26.95028189431889, 38.757788019774885], [26.94920391597796, 38.757788019774885], [26.94920391597796, 38.75832700894536], [26.94758694846655, 38.75832700894536], [26.94758694846655, 38.75886599811583], [26.94596998095514, 38.75886599811583], [26.94596998095514, 38.7594049872863], [26.94543099178466, 38.7594049872863], [26.94543099178466, 38.759943976456775], [26.944892002614182, 38.759943976456775], [26.944892002614182, 38.75886599811583], [26.94543099178466, 38.75886599811583], [26.94543099178466, 38.75832700894536], [26.946508970125592, 38.75832700894536], [26.946508970125592, 38.75671004143394], [26.94704795929607, 38.75671004143394], [26.94704795929607, 38.756171052263475]]]}, "id": "+383957+83941", "properties": {"area_ha": 8.12292509942305, "count": 29, "label": 1, "mean_dnbr": 0.4281004175814649}}, {"type": "Feature", "geometry": {"geodesic": false, "type": "Polygon", "coordinates": [[[26.982082255376724, 38.72814361539894], [26.983699222888134, 38.72814361539894], [26.983699222888134, 38.728682604569414], [26.984777201229093, 38.728682604569414], [26.984777201229093, 38.72922159373989], [26.985855179570024, 38.72922159373989], [26.985855179570024, 38.72976058291036], [26.984777201229093, 38.72976058291036], [26.984777201229093, 38.72922159373989], [26.983699222888134, 38.72922159373989], [26.983699222888134, 38.728682604569414], [26.983160233717683, 38.728682604569414], [26.983160233717683, 38.72922159373989], [26.982621244547204, 38.72922159373989], [26.982621244547204, 38.72976058291036], [26.982082255376724, 38.72976058291036], [26.982082255376724, 38.73029957208083], [26.981004277035794, 38.73029957208083], [26.981004277035794, 38.72976058291036], [26.981543266206273, 38.72976058291036], [26.981543266206273, 38.728682604569414], [26.982082255376724, 38.728682604569414], [26.982082255376724, 38.72814361539894]]]}, "id": "+384021+83993", "properties": {"area_ha": 3.922978525549604, "count": 14, "label": 1, "mean_dnbr": 0.20517086841931653}}, {"type": "Feature", "geometry": {"geodesic": false, "type": "Polygon", "coordinates": [[[27.00310283302514, 38.69310931931828], [27.00364182219559, 38.69310931931828], [27.00364182219559, 38.693648308488754], [27.00418081136607, 38.693648308488754], [27.00418081136607, 38.69418729765923], [27.00364182219559, 38.69418729765923], [27.00364182219559, 38.69526527600017], [27.00310283302514, 38.69526527600017], [27.00310283302514, 38.69634325434111], [27.00256384385466, 38.69634325434111], [27.00256384385466, 38.69418729765923], [27.00202485468418, 38.69418729765923], [27.00202485468418, 38.693648308488754], [27.00310283302514, 38.693648308488754], [27.00310283302514, 38.69310931931828]]]}, "id": "+384058+84058", "properties": {"area_ha": 3.0838350526615628, "count": 11, "label": 1, "mean_dnbr": 0.2365690660268283}}, {"type": "Feature", "geometry": {"geodesic": false, "type": "Polygon", "coordinates": [[[27.00471980053655, 38.65160715319196], [27.00633676804796, 38.65160715319196], [27.00633676804796, 38.65214614236243], [27.006875757218438, 38.65214614236243], [27.006875757218438, 38.652685131532905], [27.005258789707028, 38.652685131532905], [27.005258789707028, 38.65322412070338], [27.00471980053655, 38.65322412070338], [27.00471980053655, 38.65376310987385], [27.00310283302514, 38.65376310987385], [27.00310283302514, 38.652685131532905], [27.00418081136607, 38.652685131532905], [27.00418081136607, 38.65214614236243], [27.00471980053655, 38.65214614236243], [27.00471980053655, 38.65160715319196]]]}, "id": "+384063+84135", "properties": {"area_ha": 4.207690956135364, "count": 15, "label": 1, "mean_dnbr": 0.37870999064350097}}, {"type": "Feature", "geometry": {"geodesic": false, "type": "Polygon", "coordinates": [[[27.010648681411737, 38.822466720231496], [27.011726659752668, 38.822466720231496], [27.011726659752668, 38.823544698572434], [27.010648681411737, 38.823544698572434], [27.010648681411737, 38.824083687742906], [27.00957070307078, 38.824083687742906], [27.00957070307078, 38.82462267691338], [27.009031713900328, 38.82462267691338], [27.009031713900328, 38.82516166608385], [27.008492724729848, 38.82516166608385], [27.008492724729848, 38.82462267691338], [27.009031713900328, 38.82462267691338], [27.009031713900328, 38.824083687742906], [27.00957070307078, 38.824083687742906], [27.00957070307078, 38.823544698572434], [27.009031713900328, 38.823544698572434], [27.009031713900328, 38.822466720231496], [27.010109692241258, 38.822466720231496], [27.010109692241258, 38.823544698572434], [27.010648681411737, 38.823544698572434], [27.010648681411737, 38.822466720231496]]]}, "id": "+384073+83818", "properties": {"area_ha": 3.3581133670838943, "count": 12, "label": 1, "mean_dnbr": 0.21370197599004168}}, {"type": "Feature", "geometry": {"geodesic": false, "type": "Polygon", "coordinates": [[[27.021967453991635, 38.57453170181451], [27.023045432332594, 38.57453170181451], [27.023045432332594, 38.57507069098498], [27.023584421503045, 38.57507069098498], [27.023584421503045, 38.575609680155445], [27.024662399844004, 38.575609680155445], [27.024662399844004, 38.57722664766686], [27.024123410673525, 38.57722664766686], [27.024123410673525, 38.57830462600781], [27.023584421503045, 38.57830462600781], [27.023584421503045, 38.57884361517828], [27.021967453991635, 38.57884361517828], [27.021967453991635, 38.577765636837334], [27.020889475650705, 38.577765636837334], [27.020889475650705, 38.575609680155445], [27.021428464821156, 38.575609680155445], [27.021428464821156, 38.57507069098498], [27.021967453991635, 38.57507069098498], [27.021967453991635, 38.57453170181451]]]}, "id": "+384094+84278", "properties": {"area_ha": 11.232392281721383, "count": 40, "label": 1, "mean_dnbr": 0.3393784676601673}}, {"type": "Feature", "geometry": {"geodesic": false, "type": "Polygon", "coordinates": [[[27.020889475650705, 38.644061304805355], [27.025201389014484, 38.644061304805355], [27.025201389014484, 38.646217261487244], [27.021428464821156, 38.646217261487244], [27.021428464821156, 38.64675625065772], [27.020889475650705, 38.64675625065772], [27.020889475650705, 38.644061304805355]]]}, "id": "+384098+84149", "properties": {"area_ha": 9.257865216020967, "count": 33, "label": 1, "mean_dnbr": 0.3042200637065225}}, {"type": "Feature", "geometry": {"geodesic": false, "type": "Polygon", "coordinates": [[[27.029513302378234, 38.80198513175357], [27.030591280719193, 38.80198513175357], [27.030591280719193, 38.80414108843546], [27.028435324037304, 38.80414108843546], [27.028435324037304, 38.803602099264985], [27.027896334866824, 38.803602099264985], [27.027896334866824, 38.80468007760592], [27.027357345696345, 38.80468007760592], [27.027357345696345, 38.80414108843546], [27.026279367355414, 38.80414108843546], [27.026279367355414, 38.80306311009451], [27.027896334866824, 38.80306311009451], [27.027896334866824, 38.80252412092404], [27.029513302378234, 38.80252412092404], [27.029513302378234, 38.80198513175357]], [[27.028974313207783, 38.80306311009451], [27.028974313207783, 38.803602099264985], [27.028435324037304, 38.803602099264985], [27.028435324037304, 38.80306311009451], [27.028974313207783, 38.80306311009451]]]}, "id": "+384108+83856", "properties": {"area_ha": 6.158278086260475, "count": 22, "label": 1, "mean_dnbr": 0.26361799882805875}}, {"type": "Feature", "geometry": {"geodesic": false, "type": "Polygon", "coordinates": [[[27.032208248230603, 38.59932520365621], [27.033286226571533, 38.59932520365621], [27.033286226571533, 38.600403181997144], [27.032747237401082, 38.600403181997144], [27.032747237401082, 38.60148116033809], [27.032208248230603, 38.60148116033809], [27.032208248230603, 38.602559138679034], [27.031130269889672, 38.602559138679034], [27.031130269889672, 38.60148116033809], [27.032208248230603, 38.60148116033809], [27.032208248230603, 38.60094217116762], [27.031669259060124, 38.60094217116762], [27.031669259060124, 38.600403181997144], [27.031130269889672, 38.600403181997144], [27.031130269889672, 38.59986419282667], [27.032208248230603, 38.59986419282667], [27.032208248230603, 38.59932520365621]]]}, "id": "+384113+84232", "properties": {"area_ha": 3.649301436566154, "count": 13, "label": 1, "mean_dnbr": 0.1803862838985586}}, {"type": "Feature", "geometry": {"geodesic": false, "type": "Polygon", "coordinates": [[[27.03652016159438, 38.603098127849506], [27.037598139935312, 38.603098127849506], [27.037598139935312, 38.60471509536092], [27.039215107446722, 38.60471509536092], [27.039215107446722, 38.605254084531396], [27.03867611827627, 38.605254084531396], [27.03867611827627, 38.60579307370186], [27.03705915076486, 38.60579307370186], [27.03705915076486, 38.605254084531396], [27.03652016159438, 38.605254084531396], [27.03652016159438, 38.60417610619045], [27.03705915076486, 38.60417610619045], [27.03705915076486, 38.60363711701998], [27.03652016159438, 38.60363711701998], [27.03652016159438, 38.603098127849506]]]}, "id": "+384121+84225", "properties": {"area_ha": 3.6491038695825204, "count": 13, "label": 1, "mean_dnbr": 0.18426710162192483}}, {"type": "Feature", "geometry": {"geodesic": false, "type": "Polygon", "coordinates": [[[27.058079728413247, 38.582077550201106], [27.059696695924657, 38.582077550201106], [27.059696695924657, 38.58261653937158], [27.059157706754178, 38.58261653937158], [27.059157706754178, 38.58315552854205], [27.060235685095137, 38.58315552854205], [27.060235685095137, 38.58369451771252], [27.061313663436067, 38.58369451771252], [27.061313663436067, 38.584233506882995], [27.059696695924657, 38.584233506882995], [27.059696695924657, 38.58369451771252], [27.059157706754178, 38.58369451771252], [27.059157706754178, 38.58315552854205], [27.057540739242768, 38.58315552854205], [27.057540739242768, 38.58261653937158], [27.058079728413247, 38.58261653937158], [27.058079728413247, 38.582077550201106]]]}, "id": "+384162+84264", "properties": {"area_ha": 3.088632737782389, "count": 11, "label": 1, "mean_dnbr": 0.3197515219491041}}, {"type": "Feature", "geometry": {"geodesic": false, "type": "Polygon", "coordinates": [[[27.059696695924657, 38.55458910250705], [27.061313663436067, 38.55458910250705], [27.061313663436067, 38.555128091677524], [27.060774674265616, 38.555128091677524], [27.060774674265616, 38.55620607001847], [27.060235685095137, 38.55620607001847], [27.060235685095137, 38.55674505918894], [27.059696695924657, 38.55674505918894], [27.059696695924657, 38.55728404835941], [27.059157706754178, 38.55728404835941], [27.059157706754178, 38.55782303752988], [27.058618717583727, 38.55782303752988], [27.058618717583727, 38.55836202670035], [27.058079728413247, 38.55836202670035], [27.058079728413247, 38.55782303752988], [27.056462760901837, 38.55782303752988], [27.056462760901837, 38.55728404835941], [27.055923771731358, 38.55728404835941], [27.055923771731358, 38.555667080847996], [27.05700175007229, 38.555667080847996], [27.05700175007229, 38.55674505918894], [27.057540739242768, 38.55674505918894], [27.057540739242768, 38.55728404835941], [27.058618717583727, 38.55728404835941], [27.058618717583727, 38.55674505918894], [27.059157706754178, 38.55674505918894], [27.059157706754178, 38.555667080847996], [27.059696695924657, 38.555667080847996], [27.059696695924657, 38.55458910250705]]]}, "id": "+384165+84315", "properties": {"area_ha": 7.022220288589564, "count": 25, "label": 1, "mean_dnbr": 0.31620050517272213}}, {"type": "Feature", "geometry": {"geodesic": false, "type": "Polygon", "coordinates": [[[27.09958189453957, 38.600403181997144], [27.1006598728805, 38.600403181997144], [27.1006598728805, 38.60148116033809], [27.100120883710048, 38.60148116033809], [27.100120883710048, 38.60202014950856], [27.09958189453957, 38.60202014950856], [27.09958189453957, 38.602559138679034], [27.09904290536909, 38.602559138679034], [27.09904290536909, 38.603098127849506], [27.09796492702816, 38.603098127849506], [27.09796492702816, 38.60202014950856], [27.09850391619861, 38.60202014950856], [27.09850391619861, 38.60094217116762], [27.09958189453957, 38.60094217116762], [27.09958189453957, 38.600403181997144]]]}, "id": "+384238+84230", "properties": {"area_ha": 3.929967565719329, "count": 14, "label": 1, "mean_dnbr": 0.37805287749522243}}]}