{"type": "FeatureCollection", "columns": {"area_ha": "Number", "count": "Long<0, 4294967295>", "label": "Byte<0, 1>", "mean_dnbr": "Object", "system:index": "String"}, "features": [{"type": "Feature", "geometry": {"geodesic": false, "type": "Polygon", "coordinates": [[[27.09203604615297, 35.59284361076499], [27.09149705698249, 35.59284361076499], [27.09149705698249, 35.59176563242404], [27.09203604615297, 35.59176563242404], [27.09203604615297, 35.59122664325357], [27.0931140244939, 35.59122664325357], [27.0931140244939, 35.59176563242404], [27.09419200283486, 35.59176563242404], [27.09419200283486, 35.592304621594515], [27.09473099200531, 35.592304621594515], [27.09473099200531, 35.59338259993546], [27.09526998117579, 35.59338259993546], [27.09526998117579, 35.59392158910593], [27.0968869486872, 35.59392158910593], [27.0968869486872, 35.594460578276404], [27.09796492702816, 35.594460578276404], [27.09796492702816, 35.59499956744688], [27.09742593785768, 35.59499956744688], [27.09742593785768, 35.59607754578782], [27.09634795951675, 35.59607754578782], [27.09634795951675, 35.596616534958294], [27.09580897034627, 35.596616534958294], [27.09580897034627, 35.59607754578782], [27.09526998117579, 35.59607754578782], [27.09526998117579, 35.59553855661735], [27.09580897034627, 35.59553855661735], [27.09580897034627, 35.59499956744688], [27.09473099200531, 35.59499956744688], [27.09473099200531, 35.59607754578782], [27.0931140244939, 35.59607754578782], [27.0931140244939, 35.59499956744688], [27.09257503532342, 35.59499956744688], [27.09257503532342, 35.59607754578782], [27.09203604615297, 35.59607754578782], [27.09203604615297, 35.59284361076499]], [[27.09365301366438, 35.59284361076499], [27.09365301366438, 35.59392158910593], [27.09257503532342, 35.59392158910593], [27.09257503532342, 35.59284361076499], [27.09365301366438, 35.59284361076499]]]}, "id": "+384224+89813", "properties": {"area_ha": 16.35668013383435, "count": 56, "label": 1, "mean_dnbr": 0.23189045373390024}}, {"type": "Feature", "geometry": {"geodesic": false, "type": "Polygon", "coordinates": [[[27.09850391619861, 35.60739631836773], [27.09958189453957, 35.60739631836773], [27.09958189453957, 35.6079353075382], [27.100120883710048, 35.6079353075382], [27.100120883710048, 35.60847429670867], [27.1006598728805, 35.60847429670867], [27.1006598728805, 35.6079353075382], [27.101737851221458, 35.6079353075382], [27.101737851221458, 35.60847429670867], [27.1006598728805, 35.60847429670867], [27.1006598728805, 35.60901328587914], [27.100120883710048, 35.60901328587914], [27.100120883710048, 35.60955227504961], [27.09850391619861, 35.60955227504961], [27.09850391619861, 35.61009126422008], [27.09796492702816, 35.61009126422008], [27.09796492702816, 35.60955227504961], [27.09742593785768, 35.60955227504961], [27.09742593785768, 35.60847429670867], [27.09796492702816, 35.60847429670867], [27.09796492702816, 35.6079353075382], [27.09850391619861, 35.6079353075382], [27.09850391619861, 35.60739631836773]]]}, "id": "+384236+89783", "properties": {"area_ha": 5.840613835680868, "count": 20, "label": 1, "mean_dnbr": 0.23950467267070724}}]}