{"type": "FeatureCollection", "columns": {"area_ha": "Number", "count": "Long<0, 4294967295>", "label": "Byte<0, 1>", "mean_dnbr": "Object", "system:index": "String"}, "features": [{"type": "Feature", "geometry": {"geodesic": false, "type": "Polygon", "coordinates": [[[26.011901748527663, 39.28384145015528], [26.012979726868593, 39.28384145015528], [26.012979726868593, 39.284919428496224], [26.012440737698114, 39.284919428496224], [26.012440737698114, 39.285458417666696], [26.011901748527663, 39.285458417666696], [26.011901748527663, 39.28599740683717], [26.012979726868593, 39.28599740683717], [26.012979726868593, 39.287075385178106], [26.012440737698114, 39.287075385178106], [26.012440737698114, 39.28761437434858], [26.011901748527663, 39.28761437434858], [26.011901748527663, 39.287075385178106], [26.011362759357183, 39.287075385178106], [26.011362759357183, 39.28815336351905], [26.010284781016225, 39.28815336351905], [26.010284781016225, 39.28761437434858], [26.009745791845774, 39.28761437434858], [26.009745791845774, 39.28815336351905], [26.009206802675294, 39.28815336351905], [26.009206802675294, 39.287075385178106], [26.011362759357183, 39.287075385178106], [26.011362759357183, 39.28653639600764], [26.010823770186704, 39.28653639600764], [26.010823770186704, 39.284919428496224], [26.011362759357183, 39.284919428496224], [26.011362759357183, 39.28438043932575], [26.011901748527663, 39.28438043932575], [26.011901748527663, 39.28384145015528]]]}, "id": "+382220+82962", "properties": {"area_ha": 6.950362316641158, "count": 25, "label": 1, "mean_dnbr": 0.3298527465179419}}, {"type": "Feature", "geometry": {"geodesic": false, "type": "Polygon", "coordinates": [[[26.187073228930956, 39.20083711790264], [26.187612218101435, 39.20083711790264], [26.187612218101435, 39.20353206375499], [26.185456261419546, 39.20353206375499], [26.185456261419546, 39.204071052925464], [26.184378283078587, 39.204071052925464], [26.184378283078587, 39.20353206375499], [26.184917272249066, 39.20353206375499], [26.184917272249066, 39.20299307458452], [26.185456261419546, 39.20299307458452], [26.185456261419546, 39.20245408541405], [26.186534239760476, 39.20245408541405], [26.186534239760476, 39.20137610707311], [26.187073228930956, 39.20137610707311], [26.187073228930956, 39.20083711790264]]]}, "id": "+382544+83116", "properties": {"area_ha": 4.453540098198532, "count": 16, "label": 1, "mean_dnbr": 0.3678503558965354}}, {"type": "Feature", "geometry": {"geodesic": false, "type": "Polygon", "coordinates": [[[26.190846153124255, 39.21377285799396], [26.191385142294735, 39.21377285799396], [26.191385142294735, 39.2148508363349], [26.191924131465214, 39.2148508363349], [26.191924131465214, 39.21592881467584], [26.190307163953776, 39.21592881467584], [26.190307163953776, 39.21538982550537], [26.189229185612845, 39.21538982550537], [26.189229185612845, 39.21592881467584], [26.188690196442366, 39.21592881467584], [26.188690196442366, 39.216467803846314], [26.188151207271886, 39.216467803846314], [26.188151207271886, 39.21538982550537], [26.188690196442366, 39.21538982550537], [26.188690196442366, 39.2148508363349], [26.189768174783325, 39.2148508363349], [26.189768174783325, 39.21431184716443], [26.190846153124255, 39.21431184716443], [26.190846153124255, 39.21377285799396]]]}, "id": "+382551+83092", "properties": {"area_ha": 4.452745275674572, "count": 16, "label": 1, "mean_dnbr": 0.44814263679277655}}, {"type": "Feature", "geometry": {"geodesic": false, "type": "Polygon", "coordinates": [[[26.21402268745453, 39.55926491626632], [26.21563965496597, 39.55926491626632], [26.21563965496597, 39.559803905436794], [26.2167176333069, 39.559803905436794], [26.2167176333069, 39.56088188377774], [26.21617864413642, 39.56088188377774], [26.21617864413642, 39.56142087294821], [26.21725662247738, 39.56142087294821], [26.21725662247738, 39.561959862118684], [26.21779561164783, 39.561959862118684], [26.21779561164783, 39.562498851289156], [26.2167176333069, 39.562498851289156], [26.2167176333069, 39.56303784045963], [26.21617864413642, 39.56303784045963], [26.21617864413642, 39.5635768296301], [26.21563965496597, 39.5635768296301], [26.21563965496597, 39.562498851289156], [26.21456167662501, 39.562498851289156], [26.21456167662501, 39.56088188377774], [26.21402268745453, 39.56088188377774], [26.21402268745453, 39.55926491626632]]]}, "id": "+382596+82451", "properties": {"area_ha": 8.307595267167798, "count": 30, "label": 1, "mean_dnbr": 0.3355821280884549}}, {"type": "Feature", "geometry": {"geodesic": false, "type": "Polygon", "coordinates": [[[26.2204905575002, 39.21377285799396], [26.221029546670678, 39.21377285799396], [26.221029546670678, 39.2148508363349], [26.221568535841158, 39.2148508363349], [26.221568535841158, 39.21592881467584], [26.21887358998879, 39.21592881467584], [26.21887358998879, 39.216467803846314], [26.21833460081831, 39.216467803846314], [26.21833460081831, 39.217006793016786], [26.21887358998879, 39.217006793016786], [26.21887358998879, 39.21754578218726], [26.21941257915927, 39.21754578218726], [26.21941257915927, 39.21808477135773], [26.21833460081831, 39.21808477135773], [26.21833460081831, 39.21754578218726], [26.21617864413642, 39.21754578218726], [26.21617864413642, 39.217006793016786], [26.2167176333069, 39.217006793016786], [26.2167176333069, 39.216467803846314], [26.21725662247738, 39.216467803846314], [26.21725662247738, 39.21592881467584], [26.2167176333069, 39.21592881467584], [26.2167176333069, 39.21538982550537], [26.21563965496597, 39.21538982550537], [26.21563965496597, 39.2148508363349], [26.21617864413642, 39.2148508363349], [26.21617864413642, 39.21431184716443], [26.21725662247738, 39.21431184716443], [26.21725662247738, 39.21377285799396], [26.21779561164783, 39.21377285799396], [26.21779561164783, 39.21431184716443], [26.21833460081831, 39.21431184716443], [26.21833460081831, 39.2148508363349], [26.21725662247738, 39.2148508363349], [26.21725662247738, 39.21538982550537], [26.21833460081831, 39.21538982550537], [26.21833460081831, 39.21592881467584], [26.21887358998879, 39.21592881467584], [26.21887358998879, 39.2148508363349], [26.21941257915927, 39.2148508363349], [26.21941257915927, 39.21431184716443], [26.21995156832972, 39.21431184716443], [26.21995156832972, 39.2148508363349], [26.2204905575002, 39.2148508363349], [26.2204905575002, 39.21377285799396]]]}, "id": "+382606+83092", "properties": {"area_ha": 10.296906895421522, "count": 37, "label": 1, "mean_dnbr": 0.278366806508985}}, {"type": "Feature", "geometry": {"geodesic": false, "type": "Polygon", "coordinates": [[[26.224263481693498, 39.2073049879483], [26.226419438375387, 39.2073049879483], [26.226419438375387, 39.20892195545971], [26.226958427545867, 39.20892195545971], [26.226958427545867, 39.20946094463018], [26.225341460034457, 39.20946094463018], [26.225341460034457, 39.20892195545971], [26.224802470863978, 39.20892195545971], [26.224802470863978, 39.20784397711877], [26.224263481693498, 39.20784397711877], [26.224263481693498, 39.2073049879483]]]}, "id": "+382616+83104", "properties": {"area_ha": 3.618203928446528, "count": 13, "label": 1, "mean_dnbr": 0.3557448652941124}}, {"type": "Feature", "geometry": {"geodesic": false, "type": "Polygon", "coordinates": [[[26.231809330080097, 39.21161690131207], [26.232348319250576, 39.21161690131207], [26.232348319250576, 39.21215589048254], [26.232887308421056, 39.21215589048254], [26.232887308421056, 39.2148508363349], [26.231809330080097, 39.2148508363349], [26.231809330080097, 39.21538982550537], [26.230192362568687, 39.21538982550537], [26.230192362568687, 39.21592881467584], [26.231809330080097, 39.21592881467584], [26.231809330080097, 39.21808477135773], [26.230192362568687, 39.21808477135773], [26.230192362568687, 39.21754578218726], [26.229653373398236, 39.21754578218726], [26.229653373398236, 39.216467803846314], [26.228036405886797, 39.216467803846314], [26.228036405886797, 39.21592881467584], [26.228575395057277, 39.21592881467584], [26.228575395057277, 39.21538982550537], [26.229114384227756, 39.21538982550537], [26.229114384227756, 39.2148508363349], [26.229653373398236, 39.2148508363349], [26.229653373398236, 39.21323386882349], [26.230192362568687, 39.21323386882349], [26.230192362568687, 39.21215589048254], [26.230731351739166, 39.21215589048254], [26.230731351739166, 39.212694879653014], [26.231270340909646, 39.212694879653014], [26.231270340909646, 39.21215589048254], [26.231809330080097, 39.21215589048254], [26.231809330080097, 39.21161690131207]]]}, "id": "+382627+83096", "properties": {"area_ha": 15.028075997546376, "count": 54, "label": 1, "mean_dnbr": 0.40259429735729235}}, {"type": "Feature", "geometry": {"geodesic": false, "type": "Polygon", "coordinates": [[[26.243667091830474, 39.70802592731652], [26.246901026853322, 39.70802592731652], [26.246901026853322, 39.70910390565746], [26.248517994364732, 39.70910390565746], [26.248517994364732, 39.70964289482793], [26.249595972705663, 39.70964289482793], [26.249595972705663, 39.7101818839984], [26.250134961876142, 39.7101818839984], [26.250134961876142, 39.71125986233935], [26.251751929387552, 39.71125986233935], [26.251751929387552, 39.713415819021236], [26.2512129402171, 39.713415819021236], [26.2512129402171, 39.71449379736218], [26.247979005194253, 39.71449379736218], [26.247979005194253, 39.71233784068029], [26.247440016023802, 39.71233784068029], [26.247440016023802, 39.71179885150982], [26.245823048512364, 39.71179885150982], [26.245823048512364, 39.71233784068029], [26.245284059341913, 39.71233784068029], [26.245284059341913, 39.71179885150982], [26.244206081000954, 39.71179885150982], [26.244206081000954, 39.71125986233935], [26.243667091830474, 39.71125986233935], [26.243667091830474, 39.710720873168874], [26.244206081000954, 39.710720873168874], [26.244206081000954, 39.7101818839984], [26.242589113489544, 39.7101818839984], [26.242589113489544, 39.70964289482793], [26.242050124319064, 39.70964289482793], [26.242050124319064, 39.70910390565746], [26.241511135148613, 39.70910390565746], [26.241511135148613, 39.70802592731652], [26.243128102660023, 39.70802592731652], [26.243128102660023, 39.70856491648699], [26.242589113489544, 39.70856491648699], [26.242589113489544, 39.70910390565746], [26.243667091830474, 39.70910390565746], [26.243667091830474, 39.70802592731652]], [[26.249056983535212, 39.71233784068029], [26.249056983535212, 39.712876829850764], [26.248517994364732, 39.712876829850764], [26.248517994364732, 39.71233784068029], [26.249056983535212, 39.71233784068029]], [[26.245284059341913, 39.7101818839984], [26.245284059341913, 39.710720873168874], [26.244745070171433, 39.710720873168874], [26.244745070171433, 39.7101818839984], [26.245284059341913, 39.7101818839984]], [[26.247979005194253, 39.7101818839984], [26.247979005194253, 39.710720873168874], [26.245823048512364, 39.710720873168874], [26.245823048512364, 39.7101818839984], [26.247979005194253, 39.7101818839984]]]}, "id": "+382654+82175", "properties": {"area_ha": 29.842657793692755, "count": 108, "label": 1, "mean_dnbr": 0.41527888821727077}}, {"type": "Feature", "geometry": {"geodesic": false, "type": "Polygon", "coordinates": [[[26.25552485358085, 39.496203183321136], [26.25714182109229, 39.496203183321136], [26.25714182109229, 39.49674217249161], [26.25768081026274, 39.49674217249161], [26.25768081026274, 39.49728116166208], [26.25714182109229, 39.49728116166208], [26.25714182109229, 39.49782015083255], [26.25660283192181, 39.49782015083255], [26.25660283192181, 39.49835914000302], [26.2549858644104, 39.49835914000302], [26.2549858644104, 39.49674217249161], [26.25552485358085, 39.49674217249161], [26.25552485358085, 39.496203183321136]]]}, "id": "+382673+82568", "properties": {"area_ha": 4.1576259758554155, "count": 15, "label": 1, "mean_dnbr": 0.37637677082394316}}, {"type": "Feature", "geometry": {"geodesic": false, "type": "Polygon", "coordinates": [[[26.407519799653898, 39.56519379714151], [26.409675756335787, 39.56519379714151], [26.409675756335787, 39.566271775482456], [26.408597777994828, 39.566271775482456], [26.408597777994828, 39.56681076465293], [26.40805878882435, 39.56681076465293], [26.40805878882435, 39.5673497538234], [26.407519799653898, 39.5673497538234], [26.407519799653898, 39.56681076465293], [26.40805878882435, 39.56681076465293], [26.40805878882435, 39.566271775482456], [26.406980810483418, 39.566271775482456], [26.406980810483418, 39.56573278631198], [26.407519799653898, 39.56573278631198], [26.407519799653898, 39.56519379714151]]]}, "id": "+382956+82440", "properties": {"area_ha": 3.0459055384722533, "count": 11, "label": 1, "mean_dnbr": 0.2516257019169211}}, {"type": "Feature", "geometry": {"geodesic": false, "type": "Polygon", "coordinates": [[[26.410753734676717, 39.665984772019726], [26.412909691358607, 39.665984772019726], [26.412909691358607, 39.6665237611902], [26.413448680529086, 39.6665237611902], [26.413448680529086, 39.667062750360664], [26.413987669699537, 39.667062750360664], [26.413987669699537, 39.667601739531136], [26.413448680529086, 39.667601739531136], [26.413448680529086, 39.66814072870161], [26.412909691358607, 39.66814072870161], [26.412909691358607, 39.66867971787208], [26.412370702188127, 39.66867971787208], [26.412370702188127, 39.66814072870161], [26.411831713017648, 39.66814072870161], [26.411831713017648, 39.667601739531136], [26.410753734676717, 39.667601739531136], [26.410753734676717, 39.665984772019726]], [[26.413448680529086, 39.667062750360664], [26.413448680529086, 39.667601739531136], [26.412909691358607, 39.667601739531136], [26.412909691358607, 39.667062750360664], [26.413448680529086, 39.667062750360664]]]}, "id": "+382962+82253", "properties": {"area_ha": 4.976934204044421, "count": 18, "label": 1, "mean_dnbr": 0.31170715313126085}}, {"type": "Feature", "geometry": {"geodesic": false, "type": "Polygon", "coordinates": [[[26.423150485597574, 39.584597407278494], [26.424228463938505, 39.584597407278494], [26.424228463938505, 39.585136396448966], [26.424767453108984, 39.585136396448966], [26.424767453108984, 39.58567538561944], [26.424228463938505, 39.58567538561944], [26.424228463938505, 39.58621437478991], [26.423689474768025, 39.58621437478991], [26.423689474768025, 39.58675336396038], [26.422611496427095, 39.58675336396038], [26.422611496427095, 39.585136396448966], [26.423150485597574, 39.585136396448966], [26.423150485597574, 39.584597407278494]]]}, "id": "+382983+82404", "properties": {"area_ha": 3.0450452464065587, "count": 11, "label": 1, "mean_dnbr": 0.2025841079851921}}]}