{"type": "FeatureCollection", "columns": {"area_ha": "Number", "count": "Long<0, 4294967295>", "label": "Byte<0, 1>", "mean_dnbr": "Object", "system:index": "String"}, "features": [{"type": "Feature", "geometry": {"geodesic": false, "type": "Polygon", "coordinates": [[[26.7637916413357, 38.2753927122027], [26.76486961967663, 38.2753927122027], [26.76486961967663, 38.275931701373175], [26.76594759801759, 38.275931701373175], [26.76594759801759, 38.27647069054365], [26.76702557635852, 38.27647069054365], [26.76702557635852, 38.27754866888459], [26.767564565529, 38.27754866888459], [26.767564565529, 38.278087658055064], [26.76810355469945, 38.278087658055064], [26.76810355469945, 38.278626647225536], [26.76972052221089, 38.278626647225536], [26.76972052221089, 38.280243614736946], [26.76918153304041, 38.280243614736946], [26.76918153304041, 38.28078260390742], [26.76810355469945, 38.28078260390742], [26.76810355469945, 38.282399571418836], [26.76864254386993, 38.282399571418836], [26.76864254386993, 38.28293856058931], [26.767564565529, 38.28293856058931], [26.767564565529, 38.28347754975978], [26.76810355469945, 38.28347754975978], [26.76810355469945, 38.28401653893025], [26.76648658718804, 38.28401653893025], [26.76648658718804, 38.28293856058931], [26.76594759801759, 38.28293856058931], [26.76594759801759, 38.28132159307789], [26.76540860884711, 38.28132159307789], [26.76540860884711, 38.28186058224836], [26.76486961967663, 38.28186058224836], [26.76486961967663, 38.28132159307789], [26.76433063050615, 38.28132159307789], [26.76433063050615, 38.28078260390742], [26.7637916413357, 38.28078260390742], [26.7637916413357, 38.27916563639601], [26.76271366299474, 38.27916563639601], [26.76271366299474, 38.278626647225536], [26.7637916413357, 38.278626647225536], [26.7637916413357, 38.27647069054365], [26.76325265216522, 38.27647069054365], [26.76325265216522, 38.275931701373175], [26.7637916413357, 38.275931701373175], [26.7637916413357, 38.2753927122027]], [[26.76486961967663, 38.275931701373175], [26.76486961967663, 38.27647069054365], [26.7637916413357, 38.27647069054365], [26.7637916413357, 38.275931701373175], [26.76486961967663, 38.275931701373175]]]}, "id": "+383615+84833", "properties": {"area_ha": 29.042663634037435, "count": 103, "label": 1, "mean_dnbr": 0.5560633000263758}}, {"type": "Feature", "geometry": {"geodesic": false, "type": "Polygon", "coordinates": [[[26.784273229813607, 38.29749126819205], [26.784273229813607, 38.296952279021575], [26.784812218984086, 38.296952279021575], [26.784812218984086, 38.29587430068063], [26.787507164836455, 38.29587430068063], [26.787507164836455, 38.2964132898511], [26.788046154006906, 38.2964132898511], [26.788046154006906, 38.29749126819205], [26.787507164836455, 38.29749126819205], [26.787507164836455, 38.298569246532985], [26.786429186495496, 38.298569246532985], [26.786429186495496, 38.29803025736252], [26.785890197325017, 38.29803025736252], [26.785890197325017, 38.298569246532985], [26.785351208154566, 38.298569246532985], [26.785351208154566, 38.29964722487393], [26.784812218984086, 38.29964722487393], [26.784812218984086, 38.29910823570346], [26.784273229813607, 38.29910823570346], [26.784273229813607, 38.29803025736252], [26.784812218984086, 38.29803025736252], [26.784812218984086, 38.29749126819205], [26.784273229813607, 38.29749126819205]]]}, "id": "+383657+84795", "properties": {"area_ha": 8.738838220204267, "count": 31, "label": 1, "mean_dnbr": 0.41101451390903226}}, {"type": "Feature", "geometry": {"geodesic": false, "type": "Polygon", "coordinates": [[[26.788046154006906, 38.30126419238535], [26.788585143177386, 38.30126419238535], [26.788585143177386, 38.30180318155582], [26.788046154006906, 38.30180318155582], [26.788046154006906, 38.30234217072629], [26.787507164836455, 38.30234217072629], [26.787507164836455, 38.302881159896764], [26.786968175665976, 38.302881159896764], [26.786968175665976, 38.30234217072629], [26.786429186495496, 38.30234217072629], [26.786429186495496, 38.302881159896764], [26.785890197325017, 38.302881159896764], [26.785890197325017, 38.303420149067236], [26.786429186495496, 38.303420149067236], [26.786429186495496, 38.30449812740817], [26.785890197325017, 38.30449812740817], [26.785890197325017, 38.305037116578646], [26.783734240643156, 38.305037116578646], [26.783734240643156, 38.30611509491959], [26.783195251472677, 38.30611509491959], [26.783195251472677, 38.30665408409006], [26.784273229813607, 38.30665408409006], [26.784273229813607, 38.307193073260535], [26.781578283961267, 38.307193073260535], [26.781578283961267, 38.305037116578646], [26.783195251472677, 38.305037116578646], [26.783195251472677, 38.302881159896764], [26.784273229813607, 38.302881159896764], [26.784273229813607, 38.303420149067236], [26.784812218984086, 38.303420149067236], [26.784812218984086, 38.30395913823771], [26.785351208154566, 38.30395913823771], [26.785351208154566, 38.302881159896764], [26.785890197325017, 38.302881159896764], [26.785890197325017, 38.30234217072629], [26.786429186495496, 38.30234217072629], [26.786429186495496, 38.30180318155582], [26.786968175665976, 38.30180318155582], [26.786968175665976, 38.30126419238535], [26.787507164836455, 38.30126419238535], [26.787507164836455, 38.30180318155582], [26.788046154006906, 38.30180318155582], [26.788046154006906, 38.30126419238535]]]}, "id": "+383659+84785", "properties": {"area_ha": 11.838582265556383, "count": 42, "label": 1, "mean_dnbr": 0.34027477601581807}}, {"type": "Feature", "geometry": {"geodesic": false, "type": "Polygon", "coordinates": [[[26.785890197325017, 38.291023398146386], [26.788585143177386, 38.291023398146386], [26.788585143177386, 38.29156238731686], [26.789663121518345, 38.29156238731686], [26.789663121518345, 38.29317935482827], [26.789124132347865, 38.29317935482827], [26.789124132347865, 38.29371834399874], [26.789663121518345, 38.29371834399874], [26.789663121518345, 38.29533531151016], [26.786429186495496, 38.29533531151016], [26.786429186495496, 38.294796322339685], [26.784812218984086, 38.294796322339685], [26.784812218984086, 38.29425733316921], [26.785890197325017, 38.29425733316921], [26.785890197325017, 38.29371834399874], [26.785351208154566, 38.29371834399874], [26.785351208154566, 38.29317935482827], [26.785890197325017, 38.29317935482827], [26.785890197325017, 38.291023398146386]]]}, "id": "+383659+84804", "properties": {"area_ha": 15.505302511910353, "count": 55, "label": 1, "mean_dnbr": 0.439250556410622}}, {"type": "Feature", "geometry": {"geodesic": false, "type": "Polygon", "coordinates": [[[26.804215829121063, 38.23766347026969], [26.804754818291542, 38.23766347026969], [26.804754818291542, 38.238741448610625], [26.80529380746202, 38.238741448610625], [26.80529380746202, 38.240897405292515], [26.804754818291542, 38.240897405292515], [26.804754818291542, 38.24143639446299], [26.80529380746202, 38.24143639446299], [26.80529380746202, 38.24251437280393], [26.804754818291542, 38.24251437280393], [26.804754818291542, 38.24143639446299], [26.804215829121063, 38.24143639446299], [26.804215829121063, 38.23766347026969]]]}, "id": "+383689+84903", "properties": {"area_ha": 3.6675751723411443, "count": 13, "label": 1, "mean_dnbr": 0.20644048411585905}}, {"type": "Feature", "geometry": {"geodesic": false, "type": "Polygon", "coordinates": [[[26.825236406769477, 38.61226094374752], [26.825775395939928, 38.61226094374752], [26.825775395939928, 38.61333892208847], [26.826314385110408, 38.61333892208847], [26.826314385110408, 38.61387791125894], [26.825775395939928, 38.61387791125894], [26.825775395939928, 38.61441690042941], [26.825236406769477, 38.61441690042941], [26.825236406769477, 38.615494878770356], [26.824697417598998, 38.615494878770356], [26.824697417598998, 38.61333892208847], [26.824158428428518, 38.61333892208847], [26.824158428428518, 38.61226094374752], [26.824697417598998, 38.61226094374752], [26.824697417598998, 38.61333892208847], [26.825236406769477, 38.61333892208847], [26.825236406769477, 38.61226094374752]]]}, "id": "+383728+84208", "properties": {"area_ha": 3.0873181558870972, "count": 11, "label": 1, "mean_dnbr": 0.6603175599170497}}, {"type": "Feature", "geometry": {"geodesic": false, "type": "Polygon", "coordinates": [[[26.827392363451338, 38.61010498706564], [26.827931352621817, 38.61010498706564], [26.827931352621817, 38.61387791125894], [26.828470341792297, 38.61387791125894], [26.828470341792297, 38.61441690042941], [26.827931352621817, 38.61441690042941], [26.827931352621817, 38.614955889599884], [26.829548320133227, 38.614955889599884], [26.829548320133227, 38.615494878770356], [26.830087309303707, 38.615494878770356], [26.830087309303707, 38.61765083545224], [26.828470341792297, 38.61765083545224], [26.828470341792297, 38.61603386794083], [26.827931352621817, 38.61603386794083], [26.827931352621817, 38.615494878770356], [26.827392363451338, 38.615494878770356], [26.827392363451338, 38.61441690042941], [26.826853374280887, 38.61441690042941], [26.826853374280887, 38.61064397623611], [26.827392363451338, 38.61064397623611], [26.827392363451338, 38.61010498706564]]]}, "id": "+383732+84212", "properties": {"area_ha": 9.542518721501338, "count": 34, "label": 1, "mean_dnbr": 0.8170984724412024}}, {"type": "Feature", "geometry": {"geodesic": false, "type": "Polygon", "coordinates": [[[26.847873951929273, 38.64460029397583], [26.848412941099753, 38.64460029397583], [26.848412941099753, 38.6451392831463], [26.848951930270232, 38.6451392831463], [26.848951930270232, 38.64837321816913], [26.846795973588343, 38.64837321816913], [26.846795973588343, 38.647834228998654], [26.846256984417863, 38.647834228998654], [26.846256984417863, 38.6451392831463], [26.846795973588343, 38.6451392831463], [26.846795973588343, 38.64460029397583], [26.847334962758794, 38.64460029397583], [26.847334962758794, 38.6451392831463], [26.847873951929273, 38.6451392831463], [26.847873951929273, 38.64460029397583]]]}, "id": "+383770+84148", "properties": {"area_ha": 8.69663459401238, "count": 31, "label": 1, "mean_dnbr": 0.20422249248007712}}, {"type": "Feature", "geometry": {"geodesic": false, "type": "Polygon", "coordinates": [[[26.846795973588343, 38.23981942695157], [26.848951930270232, 38.23981942695157], [26.848951930270232, 38.24035841612204], [26.849490919440683, 38.24035841612204], [26.849490919440683, 38.240897405292515], [26.848951930270232, 38.240897405292515], [26.848951930270232, 38.24197538363346], [26.849490919440683, 38.24197538363346], [26.849490919440683, 38.24251437280393], [26.848951930270232, 38.24251437280393], [26.848951930270232, 38.243592351144876], [26.848412941099753, 38.243592351144876], [26.848412941099753, 38.24413134031534], [26.847334962758794, 38.24413134031534], [26.847334962758794, 38.244670329485814], [26.846256984417863, 38.244670329485814], [26.846256984417863, 38.24413134031534], [26.846795973588343, 38.24413134031534], [26.846795973588343, 38.243053361974404], [26.846256984417863, 38.243053361974404], [26.846256984417863, 38.24251437280393], [26.845717995247384, 38.24251437280393], [26.845717995247384, 38.24197538363346], [26.846256984417863, 38.24197538363346], [26.846256984417863, 38.24143639446299], [26.846795973588343, 38.24143639446299], [26.846795973588343, 38.24197538363346], [26.847334962758794, 38.24197538363346], [26.847334962758794, 38.240897405292515], [26.846256984417863, 38.240897405292515], [26.846256984417863, 38.24035841612204], [26.846795973588343, 38.24035841612204], [26.846795973588343, 38.23981942695157]]]}, "id": "+383771+84899", "properties": {"area_ha": 10.720298979053158, "count": 38, "label": 1, "mean_dnbr": 0.3250938118095518}}, {"type": "Feature", "geometry": {"geodesic": false, "type": "Polygon", "coordinates": [[[26.86296564870247, 38.59393531195148], [26.86404362704343, 38.59393531195148], [26.86404362704343, 38.594474301121956], [26.86458261621391, 38.594474301121956], [26.86458261621391, 38.59501329029243], [26.86404362704343, 38.59501329029243], [26.86404362704343, 38.5955522794629], [26.86512160538436, 38.5955522794629], [26.86512160538436, 38.59501329029243], [26.86566059455484, 38.59501329029243], [26.86566059455484, 38.59609126863337], [26.86350463787295, 38.59609126863337], [26.86350463787295, 38.59501329029243], [26.86296564870247, 38.59501329029243], [26.86296564870247, 38.59393531195148]]]}, "id": "+383799+84242", "properties": {"area_ha": 3.0881202411266684, "count": 11, "label": 1, "mean_dnbr": 0.17085494191220948}}, {"type": "Feature", "geometry": {"geodesic": false, "type": "Polygon", "coordinates": [[[26.86458261621391, 38.602559138679034], [26.86512160538436, 38.602559138679034], [26.86512160538436, 38.603098127849506], [26.86566059455484, 38.603098127849506], [26.86566059455484, 38.60363711701998], [26.86619958372532, 38.60363711701998], [26.86619958372532, 38.60417610619045], [26.86566059455484, 38.60417610619045], [26.86566059455484, 38.60633206287233], [26.86458261621391, 38.60633206287233], [26.86458261621391, 38.602559138679034]]]}, "id": "+383801+84226", "properties": {"area_ha": 3.929814951821186, "count": 14, "label": 1, "mean_dnbr": 0.2320438968702549}}, {"type": "Feature", "geometry": {"geodesic": false, "type": "Polygon", "coordinates": [[[26.86727756206625, 38.590162387758184], [26.869972507918618, 38.590162387758184], [26.869972507918618, 38.590701376928656], [26.86943351874814, 38.590701376928656], [26.86943351874814, 38.5917793552696], [26.869972507918618, 38.5917793552696], [26.869972507918618, 38.59339632278102], [26.86889452957766, 38.59339632278102], [26.86889452957766, 38.592857333610546], [26.868355540407208, 38.592857333610546], [26.868355540407208, 38.59339632278102], [26.866738572895798, 38.59339632278102], [26.866738572895798, 38.592857333610546], [26.86619958372532, 38.592857333610546], [26.86619958372532, 38.59393531195148], [26.86566059455484, 38.59393531195148], [26.86566059455484, 38.59339632278102], [26.86512160538436, 38.59339632278102], [26.86512160538436, 38.59393531195148], [26.86458261621391, 38.59393531195148], [26.86458261621391, 38.592857333610546], [26.86404362704343, 38.592857333610546], [26.86404362704343, 38.59339632278102], [26.86296564870247, 38.59339632278102], [26.86296564870247, 38.5917793552696], [26.86242665953202, 38.5917793552696], [26.86242665953202, 38.590701376928656], [26.86350463787295, 38.590701376928656], [26.86350463787295, 38.59124036609913], [26.86296564870247, 38.59124036609913], [26.86296564870247, 38.5917793552696], [26.86404362704343, 38.5917793552696], [26.86404362704343, 38.59231834444007], [26.86512160538436, 38.59231834444007], [26.86512160538436, 38.592857333610546], [26.86619958372532, 38.592857333610546], [26.86619958372532, 38.59231834444007], [26.86566059455484, 38.59231834444007], [26.86566059455484, 38.59124036609913], [26.86512160538436, 38.59124036609913], [26.86512160538436, 38.5917793552696], [26.86458261621391, 38.5917793552696], [26.86458261621391, 38.59124036609913], [26.86404362704343, 38.59124036609913], [26.86404362704343, 38.590162387758184], [26.86512160538436, 38.590162387758184], [26.86512160538436, 38.590701376928656], [26.866738572895798, 38.590701376928656], [26.866738572895798, 38.59124036609913], [26.86727756206625, 38.59124036609913], [26.86727756206625, 38.590162387758184]], [[26.86727756206625, 38.59231834444007], [26.86727756206625, 38.592857333610546], [26.866738572895798, 38.592857333610546], [26.866738572895798, 38.59231834444007], [26.86727756206625, 38.59231834444007]], [[26.86889452957766, 38.590701376928656], [26.86889452957766, 38.59124036609913], [26.868355540407208, 38.59124036609913], [26.868355540407208, 38.590701376928656], [26.86889452957766, 38.590701376928656]]]}, "id": "+383810+84249", "properties": {"area_ha": 16.283503530193347, "count": 58, "label": 1, "mean_dnbr": 0.15724973003575438}}, {"type": "Feature", "geometry": {"geodesic": false, "type": "Polygon", "coordinates": [[[26.871589475430028, 38.61872881379318], [26.872667453770987, 38.61872881379318], [26.872667453770987, 38.61980679213413], [26.873745432111917, 38.61980679213413], [26.873745432111917, 38.62088477047507], [26.874284421282397, 38.62088477047507], [26.874284421282397, 38.62196274881602], [26.873206442941438, 38.62196274881602], [26.873206442941438, 38.621423759645545], [26.872667453770987, 38.621423759645545], [26.872667453770987, 38.62088477047507], [26.872128464600507, 38.62088477047507], [26.872128464600507, 38.61980679213413], [26.871589475430028, 38.61980679213413], [26.871589475430028, 38.61872881379318]]]}, "id": "+383815+84196", "properties": {"area_ha": 4.209582958134057, "count": 15, "label": 1, "mean_dnbr": 0.26758796047710426}}, {"type": "Feature", "geometry": {"geodesic": false, "type": "Polygon", "coordinates": [[[26.879135323816627, 38.59609126863337], [26.882369258839475, 38.59609126863337], [26.882369258839475, 38.59716924697432], [26.876979367134737, 38.59716924697432], [26.876979367134737, 38.596630257803845], [26.879135323816627, 38.596630257803845], [26.879135323816627, 38.59609126863337]]]}, "id": "+383833+84238", "properties": {"area_ha": 4.49178329375948, "count": 16, "label": 1, "mean_dnbr": 0.1495122235727269}}, {"type": "Feature", "geometry": {"geodesic": false, "type": "Polygon", "coordinates": [[[26.886142183032774, 38.606871052042806], [26.887220161373705, 38.606871052042806], [26.887220161373705, 38.609027008724695], [26.886681172203254, 38.609027008724695], [26.886681172203254, 38.60848801955422], [26.885064204691815, 38.60848801955422], [26.885064204691815, 38.60794903038375], [26.884525215521364, 38.60794903038375], [26.884525215521364, 38.60741004121328], [26.885603193862295, 38.60741004121328], [26.885603193862295, 38.60794903038375], [26.886142183032774, 38.60794903038375], [26.886142183032774, 38.606871052042806]]]}, "id": "+383842+84218", "properties": {"area_ha": 3.087568256760172, "count": 11, "label": 1, "mean_dnbr": 0.32993622905274583}}, {"type": "Feature", "geometry": {"geodesic": false, "type": "Polygon", "coordinates": [[[26.895304998930783, 38.6451392831463], [26.895843988101262, 38.6451392831463], [26.895843988101262, 38.646217261487244], [26.89638297727174, 38.646217261487244], [26.89638297727174, 38.64729523982819], [26.894227020589852, 38.64729523982819], [26.894227020589852, 38.64675625065772], [26.893688031419373, 38.64675625065772], [26.893688031419373, 38.64567827231677], [26.895304998930783, 38.64567827231677], [26.895304998930783, 38.6451392831463]]]}, "id": "+383858+84147", "properties": {"area_ha": 3.9275232912615325, "count": 14, "label": 1, "mean_dnbr": 0.2109165819099144}}, {"type": "Feature", "geometry": {"geodesic": false, "type": "Polygon", "coordinates": [[[26.894227020589852, 38.61765083545224], [26.89638297727174, 38.61765083545224], [26.89638297727174, 38.61980679213413], [26.894766009760303, 38.61980679213413], [26.894766009760303, 38.61872881379318], [26.894227020589852, 38.61872881379318], [26.894227020589852, 38.61765083545224]]]}, "id": "+383859+84198", "properties": {"area_ha": 3.929036581111759, "count": 14, "label": 1, "mean_dnbr": 0.25465896775558267}}, {"type": "Feature", "geometry": {"geodesic": false, "type": "Polygon", "coordinates": [[[26.895304998930783, 38.63867141310064], [26.897460955612672, 38.63867141310064], [26.897460955612672, 38.63974939144158], [26.89799994478315, 38.63974939144158], [26.89799994478315, 38.64082736978253], [26.89853893395363, 38.64082736978253], [26.89853893395363, 38.641905348123466], [26.897460955612672, 38.641905348123466], [26.897460955612672, 38.64244433729394], [26.89638297727174, 38.64244433729394], [26.89638297727174, 38.640288380612056], [26.895843988101262, 38.640288380612056], [26.895843988101262, 38.63921040227111], [26.895304998930783, 38.63921040227111], [26.895304998930783, 38.63867141310064]]]}, "id": "+383861+84159", "properties": {"area_ha": 6.733443570867474, "count": 24, "label": 1, "mean_dnbr": 0.16516238567951982}}, {"type": "Feature", "geometry": {"geodesic": false, "type": "Polygon", "coordinates": [[[26.899077923124082, 38.6165728571113], [26.89961691229456, 38.6165728571113], [26.89961691229456, 38.61818982462271], [26.899077923124082, 38.61818982462271], [26.899077923124082, 38.61872881379318], [26.89799994478315, 38.61872881379318], [26.89799994478315, 38.61765083545224], [26.897460955612672, 38.61765083545224], [26.897460955612672, 38.61711184628177], [26.896921966442193, 38.61711184628177], [26.896921966442193, 38.6165728571113], [26.89799994478315, 38.6165728571113], [26.89799994478315, 38.61765083545224], [26.89853893395363, 38.61765083545224], [26.89853893395363, 38.61711184628177], [26.899077923124082, 38.61711184628177], [26.899077923124082, 38.6165728571113]]]}, "id": "+383865+84200", "properties": {"area_ha": 3.087149451248355, "count": 11, "label": 1, "mean_dnbr": 0.29957814970157004}}, {"type": "Feature", "geometry": {"geodesic": false, "type": "Polygon", "coordinates": [[[26.899077923124082, 38.61333892208847], [26.90338983648786, 38.61333892208847], [26.90338983648786, 38.61387791125894], [26.90392882565834, 38.61387791125894], [26.90392882565834, 38.61441690042941], [26.90015590146504, 38.61441690042941], [26.90015590146504, 38.61387791125894], [26.899077923124082, 38.61387791125894], [26.899077923124082, 38.61333892208847]]]}, "id": "+383872+84206", "properties": {"area_ha": 4.209950037349279, "count": 15, "label": 1, "mean_dnbr": 0.22340129926372979}}, {"type": "Feature", "geometry": {"geodesic": false, "type": "Polygon", "coordinates": [[[26.90392882565834, 38.64082736978253], [26.90500680399927, 38.64082736978253], [26.90500680399927, 38.64244433729394], [26.90446781482882, 38.64244433729394], [26.90446781482882, 38.64298332646441], [26.90554579316975, 38.64298332646441], [26.90554579316975, 38.64352231563488], [26.90500680399927, 38.64352231563488], [26.90500680399927, 38.644061304805355], [26.90338983648786, 38.644061304805355], [26.90338983648786, 38.64298332646441], [26.90231185814693, 38.64298332646441], [26.90231185814693, 38.641366358953], [26.90392882565834, 38.641366358953], [26.90392882565834, 38.64082736978253]]]}, "id": "+383875+84155", "properties": {"area_ha": 6.4527087149472555, "count": 23, "label": 1, "mean_dnbr": 0.4018312886516481}}, {"type": "Feature", "geometry": {"geodesic": false, "type": "Polygon", "coordinates": [[[26.91039669570401, 38.5632129292346], [26.91147467404494, 38.5632129292346], [26.91147467404494, 38.56375191840507], [26.91309164155635, 38.56375191840507], [26.91309164155635, 38.56482989674601], [26.91363063072683, 38.56482989674601], [26.91363063072683, 38.56590787508696], [26.914169619897308, 38.56590787508696], [26.914169619897308, 38.5669858534279], [26.91363063072683, 38.5669858534279], [26.91363063072683, 38.567524842598374], [26.91309164155635, 38.567524842598374], [26.91309164155635, 38.568063831768846], [26.91093568487446, 38.568063831768846], [26.91093568487446, 38.567524842598374], [26.90985770653353, 38.567524842598374], [26.90985770653353, 38.5669858534279], [26.90931871736305, 38.5669858534279], [26.90931871736305, 38.56644686425743], [26.90824073902212, 38.56644686425743], [26.90824073902212, 38.56590787508696], [26.90770174985164, 38.56590787508696], [26.90770174985164, 38.565368885916484], [26.90824073902212, 38.565368885916484], [26.90824073902212, 38.56429090757554], [26.90877972819257, 38.56429090757554], [26.90877972819257, 38.565368885916484], [26.90931871736305, 38.565368885916484], [26.90931871736305, 38.56429090757554], [26.90985770653353, 38.56429090757554], [26.90985770653353, 38.56375191840507], [26.91039669570401, 38.56375191840507], [26.91039669570401, 38.5632129292346]]]}, "id": "+383887+84299", "properties": {"area_ha": 18.817127663680626, "count": 67, "label": 1, "mean_dnbr": 0.3053088050548539}}, {"type": "Feature", "geometry": {"geodesic": false, "type": "Polygon", "coordinates": [[[26.91255265238587, 38.555667080847996], [26.91309164155635, 38.555667080847996], [26.91309164155635, 38.55620607001847], [26.91363063072683, 38.55620607001847], [26.91363063072683, 38.55674505918894], [26.91524759823824, 38.55674505918894], [26.91524759823824, 38.55728404835941], [26.91363063072683, 38.55728404835941], [26.91363063072683, 38.55890101587082], [26.91255265238587, 38.55890101587082], [26.91255265238587, 38.555667080847996]]]}, "id": "+383890+84313", "properties": {"area_ha": 3.9323983927010806, "count": 14, "label": 1, "mean_dnbr": 0.2600943092847307}}, {"type": "Feature", "geometry": {"geodesic": false, "type": "Polygon", "coordinates": [[[26.924949403306726, 38.54758224329092], [26.925488392477206, 38.54758224329092], [26.925488392477206, 38.54812123246139], [26.926566370818136, 38.54812123246139], [26.926566370818136, 38.54866022163186], [26.926027381647685, 38.54866022163186], [26.926027381647685, 38.549199210802335], [26.924949403306726, 38.549199210802335], [26.924949403306726, 38.55027718914328], [26.923871424965796, 38.55027718914328], [26.923871424965796, 38.55081617831375], [26.923332435795317, 38.55081617831375], [26.923332435795317, 38.55135516748422], [26.921715468283907, 38.55135516748422], [26.921715468283907, 38.55027718914328], [26.922254457454386, 38.55027718914328], [26.922254457454386, 38.54973819997281], [26.922793446624837, 38.54973819997281], [26.922793446624837, 38.549199210802335], [26.923871424965796, 38.549199210802335], [26.923871424965796, 38.54866022163186], [26.924410414136247, 38.54866022163186], [26.924410414136247, 38.54812123246139], [26.924949403306726, 38.54812123246139], [26.924949403306726, 38.54758224329092]]]}, "id": "+383913+84328", "properties": {"area_ha": 7.022893836695637, "count": 25, "label": 1, "mean_dnbr": 0.5886487846925754}}, {"type": "Feature", "geometry": {"geodesic": false, "type": "Polygon", "coordinates": [[[26.929261316670505, 38.63112556471403], [26.930878284181915, 38.63112556471403], [26.930878284181915, 38.631664553884505], [26.930339295011436, 38.631664553884505], [26.930339295011436, 38.63274253222545], [26.929800305840985, 38.63274253222545], [26.929800305840985, 38.63328152139592], [26.928722327500026, 38.63328152139592], [26.928722327500026, 38.633820510566395], [26.927644349159095, 38.633820510566395], [26.927644349159095, 38.63274253222545], [26.928183338329575, 38.63274253222545], [26.928183338329575, 38.63220354305498], [26.928722327500026, 38.63220354305498], [26.928722327500026, 38.631664553884505], [26.929261316670505, 38.631664553884505], [26.929261316670505, 38.63112556471403]]]}, "id": "+383923+84173", "properties": {"area_ha": 4.489467354849613, "count": 16, "label": 1, "mean_dnbr": 0.34457802559184286}}, {"type": "Feature", "geometry": {"geodesic": false, "type": "Polygon", "coordinates": [[[26.934651208375215, 38.63058657554356], [26.935729186716173, 38.63058657554356], [26.935729186716173, 38.63112556471403], [26.936268175886624, 38.63112556471403], [26.936268175886624, 38.63220354305498], [26.936807165057104, 38.63220354305498], [26.936807165057104, 38.63328152139592], [26.935190197545694, 38.63328152139592], [26.935190197545694, 38.63220354305498], [26.934651208375215, 38.63220354305498], [26.934651208375215, 38.63058657554356]]]}, "id": "+383932+84174", "properties": {"area_ha": 3.9283104618996387, "count": 14, "label": 1, "mean_dnbr": 0.32781533517021877}}, {"type": "Feature", "geometry": {"geodesic": false, "type": "Polygon", "coordinates": [[[26.95243785100078, 38.6241187054979], [26.95297684017126, 38.6241187054979], [26.95297684017126, 38.625196683838844], [26.95459380768267, 38.625196683838844], [26.95459380768267, 38.625735673009316], [26.95567178602363, 38.625735673009316], [26.95567178602363, 38.62627466217979], [26.95459380768267, 38.62627466217979], [26.95459380768267, 38.625735673009316], [26.95135987265985, 38.625735673009316], [26.95135987265985, 38.62465769466837], [26.95243785100078, 38.62465769466837], [26.95243785100078, 38.6241187054979]]]}, "id": "+383964+84186", "properties": {"area_ha": 3.3674546082464585, "count": 12, "label": 1, "mean_dnbr": 0.1780608268927319}}, {"type": "Feature", "geometry": {"geodesic": false, "type": "Polygon", "coordinates": [[[26.970763482796826, 38.64352231563488], [26.971302471967306, 38.64352231563488], [26.971302471967306, 38.644061304805355], [26.971841461137757, 38.644061304805355], [26.971841461137757, 38.646217261487244], [26.971302471967306, 38.646217261487244], [26.971302471967306, 38.64729523982819], [26.971841461137757, 38.64729523982819], [26.971841461137757, 38.647834228998654], [26.969685504455896, 38.647834228998654], [26.969685504455896, 38.64837321816913], [26.969146515285416, 38.64837321816913], [26.969146515285416, 38.647834228998654], [26.968607526114937, 38.647834228998654], [26.968607526114937, 38.64729523982819], [26.966990558603527, 38.64729523982819], [26.966990558603527, 38.64675625065772], [26.966451569433048, 38.64675625065772], [26.966451569433048, 38.64460029397583], [26.966990558603527, 38.64460029397583], [26.966990558603527, 38.646217261487244], [26.971302471967306, 38.646217261487244], [26.971302471967306, 38.6451392831463], [26.970763482796826, 38.6451392831463], [26.970763482796826, 38.64352231563488]], [[26.969146515285416, 38.64675625065772], [26.969146515285416, 38.64729523982819], [26.968607526114937, 38.64729523982819], [26.968607526114937, 38.64675625065772], [26.969146515285416, 38.64675625065772]]]}, "id": "+383998+84150", "properties": {"area_ha": 9.257682029416133, "count": 33, "label": 1, "mean_dnbr": 0.3428588796994966}}, {"type": "Feature", "geometry": {"geodesic": false, "type": "Polygon", "coordinates": [[[26.969146515285416, 38.5098530013579], [26.971302471967306, 38.5098530013579], [26.971302471967306, 38.51254794721026], [26.969146515285416, 38.51254794721026], [26.969146515285416, 38.512008958039786], [26.968607526114937, 38.512008958039786], [26.968607526114937, 38.51093097969884], [26.969146515285416, 38.51093097969884], [26.969146515285416, 38.5098530013579]]]}, "id": "+383998+84398", "properties": {"area_ha": 6.183442953198002, "count": 22, "label": 1, "mean_dnbr": 0.49660011791038744}}, {"type": "Feature", "geometry": {"geodesic": false, "type": "Polygon", "coordinates": [[[26.980465287865314, 38.652685131532905], [26.985855179570024, 38.652685131532905], [26.985855179570024, 38.65376310987385], [26.983160233717683, 38.65376310987385], [26.983160233717683, 38.65322412070338], [26.980465287865314, 38.65322412070338], [26.980465287865314, 38.652685131532905]]]}, "id": "+384025+84133", "properties": {"area_ha": 4.207581141264619, "count": 15, "label": 1, "mean_dnbr": 0.33617625131052253}}, {"type": "Feature", "geometry": {"geodesic": false, "type": "Polygon", "coordinates": [[[26.990167092933802, 38.71359090779621], [26.992323049615692, 38.71359090779621], [26.992323049615692, 38.714129896966675], [26.993940017127102, 38.714129896966675], [26.993940017127102, 38.71520787530762], [26.99286203878617, 38.71520787530762], [26.99286203878617, 38.71574686447809], [26.991784060445212, 38.71574686447809], [26.991784060445212, 38.716285853648564], [26.990706082104282, 38.716285853648564], [26.990706082104282, 38.71574686447809], [26.989628103763323, 38.71574686447809], [26.989628103763323, 38.71466888613715], [26.990167092933802, 38.71466888613715], [26.990167092933802, 38.71359090779621]]]}, "id": "+384037+84020", "properties": {"area_ha": 7.56725636134457, "count": 27, "label": 1, "mean_dnbr": 0.5015563543521362}}, {"type": "Feature", "geometry": {"geodesic": false, "type": "Polygon", "coordinates": [[[26.99555698463851, 38.46565588937922], [26.99609597380899, 38.46565588937922], [26.99609597380899, 38.46619487854969], [26.99663496297947, 38.46619487854969], [26.99663496297947, 38.466733867720166], [26.99609597380899, 38.466733867720166], [26.99609597380899, 38.468350835231576], [26.99555698463851, 38.468350835231576], [26.99555698463851, 38.46888982440205], [26.99447900629758, 38.46888982440205], [26.99447900629758, 38.46942881357252], [26.993940017127102, 38.46942881357252], [26.993940017127102, 38.46888982440205], [26.99447900629758, 38.46888982440205], [26.99447900629758, 38.468350835231576], [26.993940017127102, 38.468350835231576], [26.993940017127102, 38.4678118460611], [26.99447900629758, 38.4678118460611], [26.99447900629758, 38.466733867720166], [26.99555698463851, 38.466733867720166], [26.99555698463851, 38.46565588937922]], [[26.99555698463851, 38.46727285689063], [26.99555698463851, 38.4678118460611], [26.99501799546806, 38.4678118460611], [26.99501799546806, 38.46727285689063], [26.99555698463851, 38.46727285689063]]]}, "id": "+384044+84480", "properties": {"area_ha": 4.2185383232306615, "count": 15, "label": 1, "mean_dnbr": 0.8268297438482687}}, {"type": "Feature", "geometry": {"geodesic": false, "type": "Polygon", "coordinates": [[[26.99609597380899, 38.71466888613715], [26.9977129413204, 38.71466888613715], [26.9977129413204, 38.71520787530762], [26.99717395214995, 38.71520787530762], [26.99717395214995, 38.71682484281904], [26.99501799546806, 38.71682484281904], [26.99501799546806, 38.71574686447809], [26.99609597380899, 38.71574686447809], [26.99609597380899, 38.71466888613715]]]}, "id": "+384047+84018", "properties": {"area_ha": 3.643448535103044, "count": 13, "label": 1, "mean_dnbr": 0.4507539925531005}}, {"type": "Feature", "geometry": {"geodesic": false, "type": "Polygon", "coordinates": [[[26.9977129413204, 38.70550607023913], [26.99825193049088, 38.70550607023913], [26.99825193049088, 38.706045059409604], [26.9977129413204, 38.706045059409604], [26.9977129413204, 38.706584048580076], [26.99825193049088, 38.706584048580076], [26.99825193049088, 38.70712303775055], [26.99932990883184, 38.70712303775055], [26.99932990883184, 38.708201016091486], [26.99717395214995, 38.708201016091486], [26.99717395214995, 38.706045059409604], [26.9977129413204, 38.706045059409604], [26.9977129413204, 38.70550607023913]]]}, "id": "+384048+84035", "properties": {"area_ha": 3.363590360906845, "count": 12, "label": 1, "mean_dnbr": 0.46166514611130305}}, {"type": "Feature", "geometry": {"geodesic": false, "type": "Polygon", "coordinates": [[[26.99986889800229, 38.50823603384649], [27.00094687634325, 38.50823603384649], [27.00094687634325, 38.509314012187424], [27.00148586551373, 38.509314012187424], [27.00148586551373, 38.51039199052837], [26.99932990883184, 38.51039199052837], [26.99932990883184, 38.51093097969884], [26.99825193049088, 38.51093097969884], [26.99825193049088, 38.511469968869314], [26.99663496297947, 38.511469968869314], [26.99663496297947, 38.512008958039786], [26.99555698463851, 38.512008958039786], [26.99555698463851, 38.511469968869314], [26.99501799546806, 38.511469968869314], [26.99501799546806, 38.51039199052837], [26.99447900629758, 38.51039199052837], [26.99447900629758, 38.509314012187424], [26.99879091966136, 38.509314012187424], [26.99879091966136, 38.50877502301696], [26.99986889800229, 38.50877502301696], [26.99986889800229, 38.50823603384649]]]}, "id": "+384053+84401", "properties": {"area_ha": 13.491311942136385, "count": 48, "label": 1, "mean_dnbr": 0.19026212682512358}}, {"type": "Feature", "geometry": {"geodesic": false, "type": "Polygon", "coordinates": [[[27.005258789707028, 38.65484108821479], [27.00633676804796, 38.65484108821479], [27.00633676804796, 38.65538007738526], [27.006875757218438, 38.65538007738526], [27.006875757218438, 38.65591906655573], [27.007414746388918, 38.65591906655573], [27.007414746388918, 38.656458055726205], [27.00633676804796, 38.656458055726205], [27.00633676804796, 38.65699704489668], [27.00579777887748, 38.65699704489668], [27.00579777887748, 38.65753603406715], [27.005258789707028, 38.65753603406715], [27.005258789707028, 38.65807502323762], [27.00418081136607, 38.65807502323762], [27.00418081136607, 38.65699704489668], [27.00471980053655, 38.65699704489668], [27.00471980053655, 38.65538007738526], [27.005258789707028, 38.65538007738526], [27.005258789707028, 38.65484108821479]]]}, "id": "+384063+84129", "properties": {"area_ha": 5.329463305156387, "count": 19, "label": 1, "mean_dnbr": 0.26738306970341513}}, {"type": "Feature", "geometry": {"geodesic": false, "type": "Polygon", "coordinates": [[[27.00579777887748, 38.65160715319196], [27.00633676804796, 38.65160715319196], [27.00633676804796, 38.652685131532905], [27.005258789707028, 38.652685131532905], [27.005258789707028, 38.65322412070338], [27.00471980053655, 38.65322412070338], [27.00471980053655, 38.65376310987385], [27.00418081136607, 38.65376310987385], [27.00418081136607, 38.65484108821479], [27.00364182219559, 38.65484108821479], [27.00364182219559, 38.65538007738526], [27.00310283302514, 38.65538007738526], [27.00310283302514, 38.65484108821479], [27.00256384385466, 38.65484108821479], [27.00256384385466, 38.65322412070338], [27.00310283302514, 38.65322412070338], [27.00310283302514, 38.652685131532905], [27.00418081136607, 38.652685131532905], [27.00418081136607, 38.65214614236243], [27.00579777887748, 38.65214614236243], [27.00579777887748, 38.65160715319196]]]}, "id": "+384063+84135", "properties": {"area_ha": 5.6101910677330515, "count": 20, "label": 1, "mean_dnbr": 0.40389655780869615}}, {"type": "Feature", "geometry": {"geodesic": false, "type": "Polygon", "coordinates": [[[27.018194529798336, 38.611182965406584], [27.018733518968816, 38.611182965406584], [27.018733518968816, 38.61226094374752], [27.018194529798336, 38.61226094374752], [27.018194529798336, 38.612799932917994], [27.017655540627857, 38.612799932917994], [27.017655540627857, 38.61387791125894], [27.017116551457406, 38.61387791125894], [27.017116551457406, 38.61441690042941], [27.015499583945967, 38.61441690042941], [27.015499583945967, 38.61387791125894], [27.016038573116447, 38.61387791125894], [27.016038573116447, 38.61333892208847], [27.016577562286926, 38.61333892208847], [27.016577562286926, 38.61226094374752], [27.017655540627857, 38.61226094374752], [27.017655540627857, 38.61172195457705], [27.018194529798336, 38.61172195457705], [27.018194529798336, 38.611182965406584]]]}, "id": "+384086+84210", "properties": {"area_ha": 3.9293502621432213, "count": 14, "label": 1, "mean_dnbr": 0.14930800563510147}}, {"type": "Feature", "geometry": {"geodesic": false, "type": "Polygon", "coordinates": [[[27.017655540627857, 38.542731340756674], [27.019272508139295, 38.542731340756674], [27.019272508139295, 38.54434830826809], [27.016577562286926, 38.54434830826809], [27.016577562286926, 38.54327032992715], [27.017655540627857, 38.54327032992715], [27.017655540627857, 38.542731340756674]]]}, "id": "+384087+84337", "properties": {"area_ha": 3.652217674157358, "count": 13, "label": 1, "mean_dnbr": 0.39792088089133865}}, {"type": "Feature", "geometry": {"geodesic": false, "type": "Polygon", "coordinates": [[[27.018733518968816, 38.61980679213413], [27.020350486480226, 38.61980679213413], [27.020350486480226, 38.62250173798649], [27.018194529798336, 38.62250173798649], [27.018194529798336, 38.6203457813046], [27.018733518968816, 38.6203457813046], [27.018733518968816, 38.61980679213413]]]}, "id": "+384089+84194", "properties": {"area_ha": 5.3320827724731465, "count": 19, "label": 1, "mean_dnbr": 0.23546084015211213}}, {"type": "Feature", "geometry": {"geodesic": false, "type": "Polygon", "coordinates": [[[27.019811497309746, 38.60417610619045], [27.020350486480226, 38.60417610619045], [27.020350486480226, 38.60471509536092], [27.021428464821156, 38.60471509536092], [27.021428464821156, 38.605254084531396], [27.020889475650705, 38.605254084531396], [27.020889475650705, 38.60579307370186], [27.021428464821156, 38.60579307370186], [27.021428464821156, 38.60633206287233], [27.020889475650705, 38.60633206287233], [27.020889475650705, 38.60741004121328], [27.020350486480226, 38.60741004121328], [27.020350486480226, 38.60794903038375], [27.019811497309746, 38.60794903038375], [27.019811497309746, 38.60741004121328], [27.019272508139295, 38.60741004121328], [27.019272508139295, 38.606871052042806], [27.018733518968816, 38.606871052042806], [27.018733518968816, 38.60633206287233], [27.018194529798336, 38.60633206287233], [27.018194529798336, 38.60579307370186], [27.018733518968816, 38.60579307370186], [27.018733518968816, 38.605254084531396], [27.019272508139295, 38.605254084531396], [27.019272508139295, 38.60471509536092], [27.019811497309746, 38.60471509536092], [27.019811497309746, 38.60417610619045]]]}, "id": "+384089+84223", "properties": {"area_ha": 6.455988531797158, "count": 23, "label": 1, "mean_dnbr": 0.21927445481116578}}, {"type": "Feature", "geometry": {"geodesic": false, "type": "Polygon", "coordinates": [[[27.017655540627857, 38.575609680155445], [27.020889475650705, 38.575609680155445], [27.020889475650705, 38.57830462600781], [27.020350486480226, 38.57830462600781], [27.020350486480226, 38.58099957186017], [27.019811497309746, 38.58099957186017], [27.019811497309746, 38.582077550201106], [27.019272508139295, 38.582077550201106], [27.019272508139295, 38.58261653937158], [27.018733518968816, 38.58261653937158], [27.018733518968816, 38.582077550201106], [27.017116551457406, 38.582077550201106], [27.017116551457406, 38.581538561030634], [27.016577562286926, 38.581538561030634], [27.016577562286926, 38.582077550201106], [27.016038573116447, 38.582077550201106], [27.016038573116447, 38.58099957186017], [27.016577562286926, 38.58099957186017], [27.016577562286926, 38.580460582689696], [27.017116551457406, 38.580460582689696], [27.017116551457406, 38.57830462600781], [27.018733518968816, 38.57830462600781], [27.018733518968816, 38.57884361517828], [27.019811497309746, 38.57884361517828], [27.019811497309746, 38.57830462600781], [27.019272508139295, 38.57830462600781], [27.019272508139295, 38.577765636837334], [27.017655540627857, 38.577765636837334], [27.017655540627857, 38.575609680155445]]]}, "id": "+384090+84276", "properties": {"area_ha": 19.656037987997667, "count": 70, "label": 1, "mean_dnbr": 0.41146828089496224}}, {"type": "Feature", "geometry": {"geodesic": false, "type": "Polygon", "coordinates": [[[27.021428464821156, 38.66130895826045], [27.021967453991635, 38.66130895826045], [27.021967453991635, 38.66184794743092], [27.022506443162115, 38.66184794743092], [27.022506443162115, 38.66238693660139], [27.021967453991635, 38.66238693660139], [27.021967453991635, 38.66346491494234], [27.020889475650705, 38.66346491494234], [27.020889475650705, 38.66238693660139], [27.019811497309746, 38.66238693660139], [27.019811497309746, 38.66130895826045], [27.020350486480226, 38.66130895826045], [27.020350486480226, 38.66184794743092], [27.021428464821156, 38.66184794743092], [27.021428464821156, 38.66130895826045]]]}, "id": "+384092+84117", "properties": {"area_ha": 3.08522372805881, "count": 11, "label": 1, "mean_dnbr": 0.3587902784382634}}, {"type": "Feature", "geometry": {"geodesic": false, "type": "Polygon", "coordinates": [[[27.023045432332594, 38.61010498706564], [27.024123410673525, 38.61010498706564], [27.024123410673525, 38.611182965406584], [27.025201389014484, 38.611182965406584], [27.025201389014484, 38.61226094374752], [27.025740378184935, 38.61226094374752], [27.025740378184935, 38.61333892208847], [27.024662399844004, 38.61333892208847], [27.024662399844004, 38.61387791125894], [27.023045432332594, 38.61387791125894], [27.023045432332594, 38.612799932917994], [27.022506443162115, 38.612799932917994], [27.022506443162115, 38.61226094374752], [27.021967453991635, 38.61226094374752], [27.021967453991635, 38.611182965406584], [27.022506443162115, 38.611182965406584], [27.022506443162115, 38.61064397623611], [27.023045432332594, 38.61064397623611], [27.023045432332594, 38.61010498706564]]]}, "id": "+384096+84212", "properties": {"area_ha": 8.700813228375008, "count": 31, "label": 1, "mean_dnbr": 0.2591158379154557}}, {"type": "Feature", "geometry": {"geodesic": false, "type": "Polygon", "coordinates": [[[27.025740378184935, 38.807375023458285], [27.026279367355414, 38.807375023458285], [27.026279367355414, 38.80791401262876], [27.026818356525894, 38.80791401262876], [27.026818356525894, 38.80845300179923], [27.028435324037304, 38.80845300179923], [27.028435324037304, 38.8089919909697], [27.026818356525894, 38.8089919909697], [27.026818356525894, 38.809530980140174], [27.024662399844004, 38.809530980140174], [27.024662399844004, 38.80845300179923], [27.025740378184935, 38.80845300179923], [27.025740378184935, 38.807375023458285]]]}, "id": "+384100+83846", "properties": {"area_ha": 3.9186127449045247, "count": 14, "label": 1, "mean_dnbr": 0.40535111139623276}}, {"type": "Feature", "geometry": {"geodesic": false, "type": "Polygon", "coordinates": [[[27.026279367355414, 38.79659524004885], [27.026818356525894, 38.79659524004885], [27.026818356525894, 38.797134229219324], [27.027896334866824, 38.797134229219324], [27.027896334866824, 38.7976732183898], [27.028435324037304, 38.7976732183898], [27.028435324037304, 38.79821220756027], [27.029513302378234, 38.79821220756027], [27.029513302378234, 38.798751196730734], [27.030052291548714, 38.798751196730734], [27.030052291548714, 38.79929018590121], [27.030591280719193, 38.79929018590121], [27.030591280719193, 38.80090715341262], [27.029513302378234, 38.80090715341262], [27.029513302378234, 38.80036816424215], [27.030052291548714, 38.80036816424215], [27.030052291548714, 38.79982917507168], [27.029513302378234, 38.79982917507168], [27.029513302378234, 38.798751196730734], [27.028435324037304, 38.798751196730734], [27.028435324037304, 38.79821220756027], [27.027896334866824, 38.79821220756027], [27.027896334866824, 38.798751196730734], [27.027357345696345, 38.798751196730734], [27.027357345696345, 38.79821220756027], [27.026818356525894, 38.79821220756027], [27.026818356525894, 38.7976732183898], [27.026279367355414, 38.7976732183898], [27.026279367355414, 38.79659524004885]]]}, "id": "+384101+83866", "properties": {"area_ha": 4.479043190817134, "count": 16, "label": 1, "mean_dnbr": 0.3533760639742035}}, {"type": "Feature", "geometry": {"geodesic": false, "type": "Polygon", "coordinates": [[[27.025201389014484, 38.641366358953], [27.026818356525894, 38.641366358953], [27.026818356525894, 38.641905348123466], [27.027357345696345, 38.641905348123466], [27.027357345696345, 38.64352231563488], [27.026279367355414, 38.64352231563488], [27.026279367355414, 38.644061304805355], [27.025201389014484, 38.644061304805355], [27.025201389014484, 38.641366358953]]]}, "id": "+384101+84154", "properties": {"area_ha": 4.7693796510873065, "count": 17, "label": 1, "mean_dnbr": 0.4015142631633275}}, {"type": "Feature", "geometry": {"geodesic": false, "type": "Polygon", "coordinates": [[[27.029513302378234, 38.57237574513262], [27.030052291548714, 38.57237574513262], [27.030052291548714, 38.57345372347356], [27.030591280719193, 38.57345372347356], [27.030591280719193, 38.57291473430309], [27.032208248230603, 38.57291473430309], [27.032208248230603, 38.573992712644035], [27.031669259060124, 38.573992712644035], [27.031669259060124, 38.57453170181451], [27.030052291548714, 38.57453170181451], [27.030052291548714, 38.573992712644035], [27.029513302378234, 38.573992712644035], [27.029513302378234, 38.57345372347356], [27.028974313207783, 38.57345372347356], [27.028974313207783, 38.57291473430309], [27.029513302378234, 38.57291473430309], [27.029513302378234, 38.57237574513262]]]}, "id": "+384107+84282", "properties": {"area_ha": 3.931508807106113, "count": 14, "label": 1, "mean_dnbr": 0.2177135269620509}}, {"type": "Feature", "geometry": {"geodesic": false, "type": "Polygon", "coordinates": [[[27.028974313207783, 38.58854542024677], [27.030591280719193, 38.58854542024677], [27.030591280719193, 38.58908440941724], [27.032208248230603, 38.58908440941724], [27.032208248230603, 38.58962339858771], [27.032747237401082, 38.58962339858771], [27.032747237401082, 38.590701376928656], [27.030052291548714, 38.590701376928656], [27.030052291548714, 38.590162387758184], [27.030591280719193, 38.590162387758184], [27.030591280719193, 38.58908440941724], [27.030052291548714, 38.58908440941724], [27.030052291548714, 38.58962339858771], [27.029513302378234, 38.58962339858771], [27.029513302378234, 38.58908440941724], [27.028974313207783, 38.58908440941724], [27.028974313207783, 38.58854542024677]]]}, "id": "+384108+84252", "properties": {"area_ha": 4.492150074047569, "count": 16, "label": 1, "mean_dnbr": 0.23471021141821172}}, {"type": "Feature", "geometry": {"geodesic": false, "type": "Polygon", "coordinates": [[[27.032747237401082, 38.80198513175357], [27.033825215742013, 38.80198513175357], [27.033825215742013, 38.805219066776395], [27.03652016159438, 38.805219066776395], [27.03652016159438, 38.80629704511734], [27.035981172423902, 38.80629704511734], [27.035981172423902, 38.80683603428781], [27.034903194082972, 38.80683603428781], [27.034903194082972, 38.807375023458285], [27.034364204912492, 38.807375023458285], [27.034364204912492, 38.80575805594687], [27.033825215742013, 38.80575805594687], [27.033825215742013, 38.805219066776395], [27.032747237401082, 38.805219066776395], [27.032747237401082, 38.80468007760592], [27.033286226571533, 38.80468007760592], [27.033286226571533, 38.80306311009451], [27.032747237401082, 38.80306311009451], [27.032747237401082, 38.80198513175357]]]}, "id": "+384114+83856", "properties": {"area_ha": 6.158120593162611, "count": 22, "label": 1, "mean_dnbr": 0.2887902536214261}}, {"type": "Feature", "geometry": {"geodesic": false, "type": "Polygon", "coordinates": [[[27.04891691251524, 38.612799932917994], [27.04999489085617, 38.612799932917994], [27.04999489085617, 38.61333892208847], [27.05161185836758, 38.61333892208847], [27.05161185836758, 38.61387791125894], [27.0510728691971, 38.61387791125894], [27.0510728691971, 38.61441690042941], [27.05053388002665, 38.61441690042941], [27.05053388002665, 38.61387791125894], [27.04999489085617, 38.61387791125894], [27.04999489085617, 38.61333892208847], [27.04945590168569, 38.61333892208847], [27.04945590168569, 38.61441690042941], [27.04891691251524, 38.61441690042941], [27.04891691251524, 38.614955889599884], [27.04783893417428, 38.614955889599884], [27.04783893417428, 38.61441690042941], [27.0472999450038, 38.61441690042941], [27.0472999450038, 38.61333892208847], [27.04783893417428, 38.61333892208847], [27.04783893417428, 38.612799932917994], [27.04837792334476, 38.612799932917994], [27.04837792334476, 38.61333892208847], [27.04891691251524, 38.61333892208847], [27.04891691251524, 38.612799932917994]]]}, "id": "+384144+84207", "properties": {"area_ha": 4.771297909273204, "count": 17, "label": 1, "mean_dnbr": 0.33688514899259503}}, {"type": "Feature", "geometry": {"geodesic": false, "type": "Polygon", "coordinates": [[[27.05538478256088, 38.57453170181451], [27.057540739242768, 38.57453170181451], [27.057540739242768, 38.57507069098498], [27.056462760901837, 38.57507069098498], [27.056462760901837, 38.57614866932592], [27.05700175007229, 38.57614866932592], [27.05700175007229, 38.57668765849639], [27.05538478256088, 38.57668765849639], [27.05538478256088, 38.575609680155445], [27.054845793390427, 38.575609680155445], [27.054845793390427, 38.57507069098498], [27.05538478256088, 38.57507069098498], [27.05538478256088, 38.57453170181451]]]}, "id": "+384158+84278", "properties": {"area_ha": 3.3697699719132164, "count": 12, "label": 1, "mean_dnbr": 0.30160863920512365}}, {"type": "Feature", "geometry": {"geodesic": false, "type": "Polygon", "coordinates": [[[27.058079728413247, 38.61441690042941], [27.058618717583727, 38.61441690042941], [27.058618717583727, 38.614955889599884], [27.058079728413247, 38.614955889599884], [27.058079728413247, 38.615494878770356], [27.057540739242768, 38.615494878770356], [27.057540739242768, 38.61603386794083], [27.058079728413247, 38.61603386794083], [27.058079728413247, 38.6165728571113], [27.058618717583727, 38.6165728571113], [27.058618717583727, 38.61765083545224], [27.058079728413247, 38.61765083545224], [27.058079728413247, 38.61711184628177], [27.057540739242768, 38.61711184628177], [27.057540739242768, 38.6165728571113], [27.056462760901837, 38.6165728571113], [27.056462760901837, 38.61711184628177], [27.05700175007229, 38.61711184628177], [27.05700175007229, 38.61765083545224], [27.056462760901837, 38.61765083545224], [27.056462760901837, 38.61818982462271], [27.055923771731358, 38.61818982462271], [27.055923771731358, 38.61765083545224], [27.05538478256088, 38.61765083545224], [27.05538478256088, 38.61711184628177], [27.055923771731358, 38.61711184628177], [27.055923771731358, 38.6165728571113], [27.056462760901837, 38.6165728571113], [27.056462760901837, 38.615494878770356], [27.057540739242768, 38.615494878770356], [27.057540739242768, 38.614955889599884], [27.058079728413247, 38.614955889599884], [27.058079728413247, 38.61441690042941]]]}, "id": "+384160+84204", "properties": {"area_ha": 4.209809241888112, "count": 15, "label": 1, "mean_dnbr": 0.27782863735738905}}, {"type": "Feature", "geometry": {"geodesic": false, "type": "Polygon", "coordinates": [[[27.08610716527778, 38.63867141310064], [27.086646154448232, 38.63867141310064], [27.086646154448232, 38.63921040227111], [27.08718514361871, 38.63921040227111], [27.08718514361871, 38.63974939144158], [27.08772413278919, 38.63974939144158], [27.08772413278919, 38.641366358953], [27.086646154448232, 38.641366358953], [27.086646154448232, 38.64082736978253], [27.085029186936822, 38.64082736978253], [27.085029186936822, 38.640288380612056], [27.08449019776637, 38.640288380612056], [27.08449019776637, 38.63974939144158], [27.085029186936822, 38.63974939144158], [27.085029186936822, 38.640288380612056], [27.08610716527778, 38.640288380612056], [27.08610716527778, 38.63974939144158], [27.0855681761073, 38.63974939144158], [27.0855681761073, 38.63921040227111], [27.08610716527778, 38.63921040227111], [27.08610716527778, 38.63867141310064]]]}, "id": "+384212+84159", "properties": {"area_ha": 4.2084259594861, "count": 15, "label": 1, "mean_dnbr": 0.49391138254767847}}]}