{"type": "FeatureCollection", "columns": {"area_ha": "Number", "count": "Long<0, 4294967295>", "label": "Byte<0, 1>", "mean_dnbr": "Object", "system:index": "String"}, "features": [{"type": "Feature", "geometry": {"geodesic": false, "type": "Polygon", "coordinates": [[[26.010823770186704, 39.284919428496224], [26.011901748527663, 39.284919428496224], [26.011901748527663, 39.28599740683717], [26.013518716039073, 39.28599740683717], [26.013518716039073, 39.287075385178106], [26.011362759357183, 39.287075385178106], [26.011362759357183, 39.28653639600764], [26.010823770186704, 39.28653639600764], [26.010823770186704, 39.284919428496224]]]}, "id": "+382218+82960", "properties": {"area_ha": 3.6141962167541197, "count": 13, "label": 1, "mean_dnbr": 0.27985175252590355}}, {"type": "Feature", "geometry": {"geodesic": false, "type": "Polygon", "coordinates": [[[26.140181171099925, 39.56465480797104], [26.140720160270376, 39.56465480797104], [26.140720160270376, 39.56519379714151], [26.141259149440856, 39.56519379714151], [26.141259149440856, 39.56573278631198], [26.141798138611335, 39.56573278631198], [26.141798138611335, 39.566271775482456], [26.142337127781815, 39.566271775482456], [26.142337127781815, 39.5673497538234], [26.141259149440856, 39.5673497538234], [26.141259149440856, 39.56681076465293], [26.140720160270376, 39.56681076465293], [26.140720160270376, 39.566271775482456], [26.140181171099925, 39.566271775482456], [26.140181171099925, 39.56465480797104]]]}, "id": "+382457+82441", "properties": {"area_ha": 3.0459026849385316, "count": 11, "label": 1, "mean_dnbr": 0.17573713123176163}}, {"type": "Feature", "geometry": {"geodesic": false, "type": "Polygon", "coordinates": [[[26.150421965338893, 39.62124867087057], [26.150960954509344, 39.62124867087057], [26.150960954509344, 39.62178766004104], [26.150421965338893, 39.62178766004104], [26.150421965338893, 39.622326649211516], [26.152038932850303, 39.622326649211516], [26.152038932850303, 39.62286563838199], [26.151499943679823, 39.62286563838199], [26.151499943679823, 39.62340462755246], [26.152577922020754, 39.62340462755246], [26.152577922020754, 39.62286563838199], [26.153655900361713, 39.62286563838199], [26.153655900361713, 39.62340462755246], [26.153116911191233, 39.62340462755246], [26.153116911191233, 39.62394361672293], [26.152577922020754, 39.62394361672293], [26.152577922020754, 39.6244826058934], [26.152038932850303, 39.6244826058934], [26.152038932850303, 39.62394361672293], [26.151499943679823, 39.62394361672293], [26.151499943679823, 39.62340462755246], [26.150960954509344, 39.62340462755246], [26.150960954509344, 39.62286563838199], [26.150421965338893, 39.62286563838199], [26.150421965338893, 39.622326649211516], [26.149882976168414, 39.622326649211516], [26.149882976168414, 39.62178766004104], [26.150421965338893, 39.62178766004104], [26.150421965338893, 39.62124867087057]]]}, "id": "+382476+82336", "properties": {"area_ha": 3.3200725127130055, "count": 12, "label": 1, "mean_dnbr": 0.2578769131220872}}, {"type": "Feature", "geometry": {"geodesic": false, "type": "Polygon", "coordinates": [[[26.182222326396698, 39.19975913956169], [26.184917272249066, 39.19975913956169], [26.184917272249066, 39.20083711790264], [26.184378283078587, 39.20083711790264], [26.184378283078587, 39.20137610707311], [26.183839293908136, 39.20137610707311], [26.183839293908136, 39.20083711790264], [26.182222326396698, 39.20083711790264], [26.182222326396698, 39.19975913956169]]]}, "id": "+382539+83118", "properties": {"area_ha": 3.061896662421422, "count": 11, "label": 1, "mean_dnbr": 0.3062404494241677}}, {"type": "Feature", "geometry": {"geodesic": false, "type": "Polygon", "coordinates": [[[26.187612218101435, 39.20191509624358], [26.189768174783325, 39.20191509624358], [26.189768174783325, 39.20245408541405], [26.190307163953776, 39.20245408541405], [26.190307163953776, 39.20299307458452], [26.191385142294735, 39.20299307458452], [26.191385142294735, 39.204071052925464], [26.189768174783325, 39.204071052925464], [26.189768174783325, 39.20299307458452], [26.187612218101435, 39.20299307458452], [26.187612218101435, 39.20353206375499], [26.185995250590025, 39.20353206375499], [26.185995250590025, 39.20299307458452], [26.187073228930956, 39.20299307458452], [26.187073228930956, 39.20245408541405], [26.187612218101435, 39.20245408541405], [26.187612218101435, 39.20191509624358]]]}, "id": "+382548+83114", "properties": {"area_ha": 5.288558013340001, "count": 19, "label": 1, "mean_dnbr": 0.2880475433066254}}, {"type": "Feature", "geometry": {"geodesic": false, "type": "Polygon", "coordinates": [[[26.21402268745453, 39.55926491626632], [26.21563965496597, 39.55926491626632], [26.21563965496597, 39.559803905436794], [26.2167176333069, 39.559803905436794], [26.2167176333069, 39.56142087294821], [26.21725662247738, 39.56142087294821], [26.21725662247738, 39.561959862118684], [26.21779561164783, 39.561959862118684], [26.21779561164783, 39.562498851289156], [26.21833460081831, 39.562498851289156], [26.21833460081831, 39.56303784045963], [26.2167176333069, 39.56303784045963], [26.2167176333069, 39.5635768296301], [26.21563965496597, 39.5635768296301], [26.21563965496597, 39.562498851289156], [26.21456167662501, 39.562498851289156], [26.21456167662501, 39.561959862118684], [26.21402268745453, 39.561959862118684], [26.21402268745453, 39.56142087294821], [26.21456167662501, 39.56142087294821], [26.21456167662501, 39.56088188377774], [26.21402268745453, 39.56088188377774], [26.21402268745453, 39.55926491626632]]]}, "id": "+382596+82451", "properties": {"area_ha": 9.969089191711682, "count": 36, "label": 1, "mean_dnbr": 0.3494986281359023}}, {"type": "Feature", "geometry": {"geodesic": false, "type": "Polygon", "coordinates": [[[26.2167176333069, 39.21323386882349], [26.21779561164783, 39.21323386882349], [26.21779561164783, 39.21431184716443], [26.21995156832972, 39.21431184716443], [26.21995156832972, 39.21377285799396], [26.221568535841158, 39.21377285799396], [26.221568535841158, 39.2148508363349], [26.22210752501161, 39.2148508363349], [26.22210752501161, 39.21592881467584], [26.21995156832972, 39.21592881467584], [26.21995156832972, 39.216467803846314], [26.21887358998879, 39.216467803846314], [26.21887358998879, 39.21754578218726], [26.21941257915927, 39.21754578218726], [26.21941257915927, 39.21808477135773], [26.21995156832972, 39.21808477135773], [26.21995156832972, 39.2186237605282], [26.2204905575002, 39.2186237605282], [26.2204905575002, 39.217006793016786], [26.221568535841158, 39.217006793016786], [26.221568535841158, 39.21754578218726], [26.22210752501161, 39.21754578218726], [26.22210752501161, 39.217006793016786], [26.222646514182088, 39.217006793016786], [26.222646514182088, 39.2186237605282], [26.22210752501161, 39.2186237605282], [26.22210752501161, 39.219162749698675], [26.21941257915927, 39.219162749698675], [26.21941257915927, 39.2186237605282], [26.21887358998879, 39.2186237605282], [26.21887358998879, 39.21808477135773], [26.21833460081831, 39.21808477135773], [26.21833460081831, 39.21754578218726], [26.21617864413642, 39.21754578218726], [26.21617864413642, 39.21808477135773], [26.21563965496597, 39.21808477135773], [26.21563965496597, 39.219162749698675], [26.21456167662501, 39.219162749698675], [26.21456167662501, 39.2186237605282], [26.2129447091136, 39.2186237605282], [26.2129447091136, 39.219162749698675], [26.21132774160219, 39.219162749698675], [26.21132774160219, 39.2186237605282], [26.21078875243171, 39.2186237605282], [26.21078875243171, 39.219162749698675], [26.20971077409078, 39.219162749698675], [26.20971077409078, 39.2186237605282], [26.21078875243171, 39.2186237605282], [26.21078875243171, 39.21808477135773], [26.21240571994312, 39.21808477135773], [26.21240571994312, 39.21754578218726], [26.21402268745453, 39.21754578218726], [26.21402268745453, 39.21808477135773], [26.21456167662501, 39.21808477135773], [26.21456167662501, 39.21754578218726], [26.21510066579549, 39.21754578218726], [26.21510066579549, 39.217006793016786], [26.21563965496597, 39.217006793016786], [26.21563965496597, 39.216467803846314], [26.2167176333069, 39.216467803846314], [26.2167176333069, 39.21538982550537], [26.21563965496597, 39.21538982550537], [26.21563965496597, 39.21431184716443], [26.21725662247738, 39.21431184716443], [26.21725662247738, 39.21377285799396], [26.2167176333069, 39.21377285799396], [26.2167176333069, 39.21323386882349]], [[26.21887358998879, 39.2148508363349], [26.21887358998879, 39.21592881467584], [26.21833460081831, 39.21592881467584], [26.21833460081831, 39.21538982550537], [26.21779561164783, 39.21538982550537], [26.21779561164783, 39.2148508363349], [26.21887358998879, 39.2148508363349]], [[26.2204905575002, 39.21431184716443], [26.2204905575002, 39.2148508363349], [26.21995156832972, 39.2148508363349], [26.21995156832972, 39.21431184716443], [26.2204905575002, 39.21431184716443]]]}, "id": "+382600+83093", "properties": {"area_ha": 26.715883078903733, "count": 96, "label": 1, "mean_dnbr": 0.4175525488127903}}, {"type": "Feature", "geometry": {"geodesic": false, "type": "Polygon", "coordinates": [[[26.222646514182088, 39.23425444647188], [26.224263481693498, 39.23425444647188], [26.224263481693498, 39.235332424812825], [26.222646514182088, 39.235332424812825], [26.222646514182088, 39.2358714139833], [26.221029546670678, 39.2358714139833], [26.221029546670678, 39.235332424812825], [26.2204905575002, 39.235332424812825], [26.2204905575002, 39.23479343564235], [26.221029546670678, 39.23479343564235], [26.221029546670678, 39.23425444647188], [26.22210752501161, 39.23425444647188], [26.22210752501161, 39.23479343564235], [26.222646514182088, 39.23479343564235], [26.222646514182088, 39.23425444647188]]]}, "id": "+382612+83054", "properties": {"area_ha": 4.1732711860955805, "count": 15, "label": 1, "mean_dnbr": 0.26686053545232974}}, {"type": "Feature", "geometry": {"geodesic": false, "type": "Polygon", "coordinates": [[[26.224263481693498, 39.21377285799396], [26.225880449204908, 39.21377285799396], [26.225880449204908, 39.21538982550537], [26.227497416716346, 39.21538982550537], [26.227497416716346, 39.217006793016786], [26.226958427545867, 39.217006793016786], [26.226958427545867, 39.216467803846314], [26.226419438375387, 39.216467803846314], [26.226419438375387, 39.21808477135773], [26.225341460034457, 39.21808477135773], [26.225341460034457, 39.216467803846314], [26.224802470863978, 39.216467803846314], [26.224802470863978, 39.21538982550537], [26.225341460034457, 39.21538982550537], [26.225341460034457, 39.2148508363349], [26.224263481693498, 39.2148508363349], [26.224263481693498, 39.21377285799396]]]}, "id": "+382615+83092", "properties": {"area_ha": 6.679047089788713, "count": 24, "label": 1, "mean_dnbr": 0.37377371371062645}}, {"type": "Feature", "geometry": {"geodesic": false, "type": "Polygon", "coordinates": [[[26.229653373398236, 39.210538922971125], [26.230192362568687, 39.210538922971125], [26.230192362568687, 39.21161690131207], [26.230731351739166, 39.21161690131207], [26.230731351739166, 39.21215589048254], [26.231270340909646, 39.21215589048254], [26.231270340909646, 39.21161690131207], [26.232887308421056, 39.21161690131207], [26.232887308421056, 39.212694879653014], [26.231809330080097, 39.212694879653014], [26.231809330080097, 39.21323386882349], [26.230731351739166, 39.21323386882349], [26.230731351739166, 39.212694879653014], [26.230192362568687, 39.212694879653014], [26.230192362568687, 39.21161690131207], [26.229653373398236, 39.21161690131207], [26.229653373398236, 39.210538922971125]]]}, "id": "+382623+83098", "properties": {"area_ha": 3.618009972592091, "count": 13, "label": 1, "mean_dnbr": 0.3519937792145253}}, {"type": "Feature", "geometry": {"geodesic": false, "type": "Polygon", "coordinates": [[[26.229114384227756, 39.2148508363349], [26.231270340909646, 39.2148508363349], [26.231270340909646, 39.21592881467584], [26.231809330080097, 39.21592881467584], [26.231809330080097, 39.21808477135773], [26.230192362568687, 39.21808477135773], [26.230192362568687, 39.21754578218726], [26.229653373398236, 39.21754578218726], [26.229653373398236, 39.216467803846314], [26.229114384227756, 39.216467803846314], [26.229114384227756, 39.217006793016786], [26.228036405886797, 39.217006793016786], [26.228036405886797, 39.21592881467584], [26.229114384227756, 39.21592881467584], [26.229114384227756, 39.2148508363349]]]}, "id": "+382625+83090", "properties": {"area_ha": 7.792161393595774, "count": 28, "label": 1, "mean_dnbr": 0.41179571937769754}}, {"type": "Feature", "geometry": {"geodesic": false, "type": "Polygon", "coordinates": [[[26.325593445742186, 39.11082592643386], [26.326671424083116, 39.11082592643386], [26.326671424083116, 39.111903904774806], [26.327210413253596, 39.111903904774806], [26.327210413253596, 39.11244289394527], [26.326132434912665, 39.11244289394527], [26.326132434912665, 39.111903904774806], [26.325593445742186, 39.111903904774806], [26.325593445742186, 39.112981883115744], [26.323976478230776, 39.112981883115744], [26.323976478230776, 39.111903904774806], [26.324515467401255, 39.111903904774806], [26.324515467401255, 39.111364915604334], [26.325593445742186, 39.111364915604334], [26.325593445742186, 39.11082592643386]]]}, "id": "+382802+83283", "properties": {"area_ha": 3.901872979544167, "count": 14, "label": 1, "mean_dnbr": 0.277487074873349}}, {"type": "Feature", "geometry": {"geodesic": false, "type": "Polygon", "coordinates": [[[26.327210413253596, 39.107053002240555], [26.327749402424075, 39.107053002240555], [26.327749402424075, 39.10759199141103], [26.329366369935485, 39.10759199141103], [26.329366369935485, 39.1081309805815], [26.328827380765006, 39.1081309805815], [26.328827380765006, 39.10866996975197], [26.329366369935485, 39.10866996975197], [26.329366369935485, 39.109208958922444], [26.329905359105965, 39.109208958922444], [26.329905359105965, 39.10974794809292], [26.327749402424075, 39.10974794809292], [26.327749402424075, 39.10866996975197], [26.326132434912665, 39.10866996975197], [26.326132434912665, 39.10759199141103], [26.327210413253596, 39.10759199141103], [26.327210413253596, 39.107053002240555]]]}, "id": "+382804+83290", "properties": {"area_ha": 5.295664840218933, "count": 19, "label": 1, "mean_dnbr": 0.2724091850359103}}, {"type": "Feature", "geometry": {"geodesic": false, "type": "Polygon", "coordinates": [[[26.406980810483418, 39.55764794875491], [26.410753734676717, 39.55764794875491], [26.410753734676717, 39.55872592709585], [26.407519799653898, 39.55872592709585], [26.407519799653898, 39.55818693792538], [26.406980810483418, 39.55818693792538], [26.406980810483418, 39.55764794875491]]]}, "id": "+382958+82454", "properties": {"area_ha": 3.600103370404482, "count": 13, "label": 1, "mean_dnbr": 0.3889664712537865}}, {"type": "Feature", "geometry": {"geodesic": false, "type": "Polygon", "coordinates": [[[26.410753734676717, 39.665984772019726], [26.412909691358607, 39.665984772019726], [26.412909691358607, 39.6665237611902], [26.413987669699537, 39.6665237611902], [26.413987669699537, 39.667601739531136], [26.413448680529086, 39.667601739531136], [26.413448680529086, 39.66814072870161], [26.412909691358607, 39.66814072870161], [26.412909691358607, 39.66867971787208], [26.412370702188127, 39.66867971787208], [26.412370702188127, 39.66814072870161], [26.411831713017648, 39.66814072870161], [26.411831713017648, 39.66867971787208], [26.411292723847197, 39.66867971787208], [26.411292723847197, 39.66921870704255], [26.410753734676717, 39.66921870704255], [26.410753734676717, 39.665984772019726]]]}, "id": "+382962+82253", "properties": {"area_ha": 6.91238560942373, "count": 25, "label": 1, "mean_dnbr": 0.3141282740995936}}, {"type": "Feature", "geometry": {"geodesic": false, "type": "Polygon", "coordinates": [[[26.410214745506238, 39.57381762386906], [26.413448680529086, 39.57381762386906], [26.413448680529086, 39.574895602210006], [26.410214745506238, 39.574895602210006], [26.410214745506238, 39.57381762386906]]]}, "id": "+382963+82424", "properties": {"area_ha": 3.3224089100488796, "count": 12, "label": 1, "mean_dnbr": 0.2971366379564978}}, {"type": "Feature", "geometry": {"geodesic": false, "type": "Polygon", "coordinates": [[[26.415065648040496, 39.58028549391472], [26.416143626381427, 39.58028549391472], [26.416143626381427, 39.58136347225567], [26.415604637210976, 39.58136347225567], [26.415604637210976, 39.58298043976708], [26.416143626381427, 39.58298043976708], [26.416143626381427, 39.58351942893755], [26.415604637210976, 39.58351942893755], [26.415604637210976, 39.58405841810802], [26.414526658870017, 39.58405841810802], [26.414526658870017, 39.580824483085195], [26.415065648040496, 39.580824483085195], [26.415065648040496, 39.58028549391472]]]}, "id": "+382968+82412", "properties": {"area_ha": 4.429379080624655, "count": 16, "label": 1, "mean_dnbr": 0.2952657622593866}}, {"type": "Feature", "geometry": {"geodesic": false, "type": "Polygon", "coordinates": [[[26.423150485597574, 39.584597407278494], [26.424767453108984, 39.584597407278494], [26.424767453108984, 39.58621437478991], [26.424228463938505, 39.58621437478991], [26.424228463938505, 39.58675336396038], [26.422611496427095, 39.58675336396038], [26.422611496427095, 39.585136396448966], [26.423150485597574, 39.585136396448966], [26.423150485597574, 39.584597407278494]]]}, "id": "+382984+82404", "properties": {"area_ha": 3.8755107615308044, "count": 14, "label": 1, "mean_dnbr": 0.4403960837593049}}, {"type": "Feature", "geometry": {"geodesic": false, "type": "Polygon", "coordinates": [[[26.431235323154652, 39.59160426649463], [26.433391279836542, 39.59160426649463], [26.433391279836542, 39.59268224483557], [26.433930269006993, 39.59268224483557], [26.433930269006993, 39.593221234006045], [26.435547236518403, 39.593221234006045], [26.435547236518403, 39.59376022317652], [26.433391279836542, 39.59376022317652], [26.433391279836542, 39.593221234006045], [26.432852290666062, 39.593221234006045], [26.432852290666062, 39.59268224483557], [26.432313301495583, 39.59268224483557], [26.432313301495583, 39.5921432556651], [26.431235323154652, 39.5921432556651], [26.431235323154652, 39.59160426649463]]]}, "id": "+383000+82391", "properties": {"area_ha": 3.321528523758753, "count": 12, "label": 1, "mean_dnbr": 0.33821889350761214}}, {"type": "Feature", "geometry": {"geodesic": false, "type": "Polygon", "coordinates": [[[26.471659510940015, 39.6568219561217], [26.472737489280973, 39.6568219561217], [26.472737489280973, 39.657360945292176], [26.473276478451425, 39.657360945292176], [26.473276478451425, 39.65843892363312], [26.473815467621904, 39.65843892363312], [26.473815467621904, 39.65897791280359], [26.472737489280973, 39.65897791280359], [26.472737489280973, 39.65843892363312], [26.471120521769535, 39.65843892363312], [26.471120521769535, 39.657360945292176], [26.471659510940015, 39.657360945292176], [26.471659510940015, 39.6568219561217]]]}, "id": "+383073+82270", "properties": {"area_ha": 3.3184039301894357, "count": 12, "label": 1, "mean_dnbr": 0.3221672034251891}}, {"type": "Feature", "geometry": {"geodesic": false, "type": "Polygon", "coordinates": [[[26.511544709554926, 39.62394361672293], [26.512622687895885, 39.62394361672293], [26.512622687895885, 39.6244826058934], [26.513161677066336, 39.6244826058934], [26.513161677066336, 39.62556058423434], [26.512622687895885, 39.62556058423434], [26.512622687895885, 39.626099573404815], [26.511005720384446, 39.626099573404815], [26.511005720384446, 39.62556058423434], [26.511544709554926, 39.62556058423434], [26.511544709554926, 39.62502159506387], [26.511005720384446, 39.62502159506387], [26.511005720384446, 39.6244826058934], [26.511544709554926, 39.6244826058934], [26.511544709554926, 39.62394361672293]]]}, "id": "+383147+82331", "properties": {"area_ha": 3.3199791384136135, "count": 12, "label": 1, "mean_dnbr": 0.25742027205039014}}]}