{"type": "FeatureCollection", "columns": {"area_ha": "Number", "count": "Long<0, 4294967295>", "label": "Byte<0, 1>", "mean_dnbr": "Object", "system:index": "String"}, "features": [{"type": "Feature", "geometry": {"geodesic": false, "type": "Polygon", "coordinates": [[[26.16874759713491, 39.59376022317652], [26.16982557547587, 39.59376022317652], [26.16982557547587, 39.59429921234699], [26.17036456464632, 39.59429921234699], [26.17036456464632, 39.59537719068793], [26.16928658630539, 39.59537719068793], [26.16928658630539, 39.5959161798584], [26.16820860796446, 39.5959161798584], [26.16820860796446, 39.59429921234699], [26.16874759713491, 39.59429921234699], [26.16874759713491, 39.59376022317652]]]}, "id": "+382511+82387", "properties": {"area_ha": 3.321427709983864, "count": 12, "label": 1, "mean_dnbr": 0.2715206796825697}}, {"type": "Feature", "geometry": {"geodesic": false, "type": "Polygon", "coordinates": [[[26.181683337226247, 39.20245408541405], [26.182222326396698, 39.20245408541405], [26.182222326396698, 39.20299307458452], [26.183300304737656, 39.20299307458452], [26.183300304737656, 39.204071052925464], [26.183839293908136, 39.204071052925464], [26.183839293908136, 39.204610042095936], [26.184378283078587, 39.204610042095936], [26.184378283078587, 39.20514903126641], [26.184917272249066, 39.20514903126641], [26.184917272249066, 39.20568802043688], [26.184378283078587, 39.20568802043688], [26.184378283078587, 39.20514903126641], [26.183839293908136, 39.20514903126641], [26.183839293908136, 39.204610042095936], [26.182761315567177, 39.204610042095936], [26.182761315567177, 39.204071052925464], [26.182222326396698, 39.204071052925464], [26.182222326396698, 39.20514903126641], [26.181683337226247, 39.20514903126641], [26.181683337226247, 39.204071052925464], [26.182222326396698, 39.204071052925464], [26.182222326396698, 39.20353206375499], [26.181683337226247, 39.20353206375499], [26.181683337226247, 39.20245408541405]]]}, "id": "+382534+83113", "properties": {"area_ha": 3.3400883265418235, "count": 12, "label": 1, "mean_dnbr": 0.3068673183921331}}, {"type": "Feature", "geometry": {"geodesic": false, "type": "Polygon", "coordinates": [[[26.21725662247738, 39.241800294858486], [26.21887358998879, 39.241800294858486], [26.21887358998879, 39.2434172623699], [26.21833460081831, 39.2434172623699], [26.21833460081831, 39.243956251540375], [26.21725662247738, 39.243956251540375], [26.21725662247738, 39.241800294858486]]]}, "id": "+382602+83040", "properties": {"area_ha": 3.060054691156975, "count": 11, "label": 1, "mean_dnbr": 0.33430720008849163}}, {"type": "Feature", "geometry": {"geodesic": false, "type": "Polygon", "coordinates": [[[26.21941257915927, 39.20892195545971], [26.21995156832972, 39.20892195545971], [26.21995156832972, 39.20946094463018], [26.2204905575002, 39.20946094463018], [26.2204905575002, 39.21215589048254], [26.21941257915927, 39.21215589048254], [26.21941257915927, 39.2110779121416], [26.21887358998879, 39.2110779121416], [26.21887358998879, 39.210538922971125], [26.21941257915927, 39.210538922971125], [26.21941257915927, 39.20892195545971]]]}, "id": "+382604+83101", "properties": {"area_ha": 3.3397728450468436, "count": 12, "label": 1, "mean_dnbr": 0.32321518964263873}}, {"type": "Feature", "geometry": {"geodesic": false, "type": "Polygon", "coordinates": [[[26.223724492523047, 39.2073049879483], [26.225880449204908, 39.2073049879483], [26.225880449204908, 39.20784397711877], [26.225341460034457, 39.20784397711877], [26.225341460034457, 39.20838296628924], [26.226419438375387, 39.20838296628924], [26.226419438375387, 39.20946094463018], [26.225880449204908, 39.20946094463018], [26.225880449204908, 39.20999993380065], [26.226419438375387, 39.20999993380065], [26.226419438375387, 39.210538922971125], [26.225880449204908, 39.210538922971125], [26.225880449204908, 39.2110779121416], [26.225341460034457, 39.2110779121416], [26.225341460034457, 39.21161690131207], [26.224263481693498, 39.21161690131207], [26.224263481693498, 39.2110779121416], [26.223724492523047, 39.2110779121416], [26.223724492523047, 39.210538922971125], [26.223185503352568, 39.210538922971125], [26.223185503352568, 39.20999993380065], [26.223724492523047, 39.20999993380065], [26.223724492523047, 39.2073049879483]]]}, "id": "+382615+83104", "properties": {"area_ha": 9.184533139823232, "count": 33, "label": 1, "mean_dnbr": 0.44013892756110307}}, {"type": "Feature", "geometry": {"geodesic": false, "type": "Polygon", "coordinates": [[[26.228575395057277, 39.210538922971125], [26.229653373398236, 39.210538922971125], [26.229653373398236, 39.21161690131207], [26.230192362568687, 39.21161690131207], [26.230192362568687, 39.212694879653014], [26.229653373398236, 39.212694879653014], [26.229653373398236, 39.21323386882349], [26.229114384227756, 39.21323386882349], [26.229114384227756, 39.212694879653014], [26.228575395057277, 39.212694879653014], [26.228575395057277, 39.21215589048254], [26.228036405886797, 39.21215589048254], [26.228036405886797, 39.21161690131207], [26.227497416716346, 39.21161690131207], [26.227497416716346, 39.2110779121416], [26.228575395057277, 39.2110779121416], [26.228575395057277, 39.210538922971125]]]}, "id": "+382622+83098", "properties": {"area_ha": 3.896338742249395, "count": 14, "label": 1, "mean_dnbr": 0.2949357015055404}}, {"type": "Feature", "geometry": {"geodesic": false, "type": "Polygon", "coordinates": [[[26.406980810483418, 39.55764794875491], [26.410753734676717, 39.55764794875491], [26.410753734676717, 39.55872592709585], [26.407519799653898, 39.55872592709585], [26.407519799653898, 39.55818693792538], [26.406980810483418, 39.55818693792538], [26.406980810483418, 39.55764794875491]]]}, "id": "+382958+82454", "properties": {"area_ha": 3.600103370404482, "count": 13, "label": 1, "mean_dnbr": 0.26766716513522104}}, {"type": "Feature", "geometry": {"geodesic": false, "type": "Polygon", "coordinates": [[[26.419377561404275, 39.582441450596605], [26.420455539745205, 39.582441450596605], [26.420455539745205, 39.58298043976708], [26.420994528915685, 39.58298043976708], [26.420994528915685, 39.58351942893755], [26.421533518086164, 39.58351942893755], [26.421533518086164, 39.58405841810802], [26.420994528915685, 39.58405841810802], [26.420994528915685, 39.584597407278494], [26.419377561404275, 39.584597407278494], [26.419377561404275, 39.58351942893755], [26.418838572233796, 39.58351942893755], [26.418838572233796, 39.58298043976708], [26.419377561404275, 39.58298043976708], [26.419377561404275, 39.582441450596605]]]}, "id": "+382976+82408", "properties": {"area_ha": 3.598799217116113, "count": 13, "label": 1, "mean_dnbr": 0.32347156676905514}}]}