{"type": "FeatureCollection", "columns": {"area_ha": "Number", "count": "Long<0, 4294967295>", "label": "Byte<0, 1>", "mean_dnbr": "Object", "system:index": "String"}, "features": [{"type": "Feature", "geometry": {"geodesic": false, "type": "Polygon", "coordinates": [[[27.103893807903347, 35.59392158910593], [27.104971786244278, 35.59392158910593], [27.104971786244278, 35.594460578276404], [27.105510775414757, 35.594460578276404], [27.105510775414757, 35.59499956744688], [27.103893807903347, 35.59499956744688], [27.103893807903347, 35.594460578276404], [27.103354818732868, 35.594460578276404], [27.103354818732868, 35.59284361076499], [27.102815829562388, 35.59284361076499], [27.102815829562388, 35.59176563242404], [27.103893807903347, 35.59176563242404], [27.103893807903347, 35.592304621594515], [27.104432797073798, 35.592304621594515], [27.104432797073798, 35.59122664325357], [27.103893807903347, 35.59122664325357], [27.103893807903347, 35.59014866491263], [27.104432797073798, 35.59014866491263], [27.104432797073798, 35.58960967574216], [27.107127742926167, 35.58960967574216], [27.107127742926167, 35.59014866491263], [27.106588753755688, 35.59014866491263], [27.106588753755688, 35.590687654083105], [27.106049764585237, 35.590687654083105], [27.106049764585237, 35.59122664325357], [27.107127742926167, 35.59122664325357], [27.107127742926167, 35.59176563242404], [27.105510775414757, 35.59176563242404], [27.105510775414757, 35.59284361076499], [27.104971786244278, 35.59284361076499], [27.104971786244278, 35.592304621594515], [27.104432797073798, 35.592304621594515], [27.104432797073798, 35.59284361076499], [27.103893807903347, 35.59284361076499], [27.103893807903347, 35.59392158910593]]]}, "id": "+384250+89816", "properties": {"area_ha": 10.223208522003693, "count": 35, "label": 1, "mean_dnbr": 0.23730403137823863}}]}