{"type": "FeatureCollection", "columns": {"area_ha": "Number", "count": "Long<0, 4294967295>", "label": "Byte<0, 1>", "mean_dnbr": "Object", "system:index": "String"}, "features": [{"type": "Feature", "geometry": {"geodesic": false, "type": "Polygon", "coordinates": [[[27.803501751175617, 38.7594049872863], [27.804040740346096, 38.7594049872863], [27.804040740346096, 38.759943976456775], [27.804579729516576, 38.759943976456775], [27.804579729516576, 38.76102195479772], [27.805118718687027, 38.76102195479772], [27.805118718687027, 38.762099933138664], [27.805657707857506, 38.762099933138664], [27.805657707857506, 38.763716900650074], [27.805118718687027, 38.763716900650074], [27.805118718687027, 38.76263892230913], [27.804579729516576, 38.76263892230913], [27.804579729516576, 38.76156094396819], [27.804040740346096, 38.76156094396819], [27.804040740346096, 38.76048296562725], [27.803501751175617, 38.76048296562725], [27.803501751175617, 38.7594049872863]]]}, "id": "+385543+83935", "properties": {"area_ha": 3.0809458793602187, "count": 11, "label": 1, "mean_dnbr": 0.22906443776290242}}, {"type": "Feature", "geometry": {"geodesic": false, "type": "Polygon", "coordinates": [[[27.806735686198465, 38.77072375986621], [27.807813664539395, 38.77072375986621], [27.807813664539395, 38.77126274903668], [27.808352653709875, 38.77126274903668], [27.808352653709875, 38.77180173820715], [27.808891642880354, 38.77180173820715], [27.808891642880354, 38.77395769488904], [27.807274675368916, 38.77395769488904], [27.807274675368916, 38.772340727377625], [27.806735686198465, 38.772340727377625], [27.806735686198465, 38.77072375986621]]]}, "id": "+385550+83914", "properties": {"area_ha": 5.040778628277141, "count": 18, "label": 1, "mean_dnbr": 0.5431683571061244}}, {"type": "Feature", "geometry": {"geodesic": false, "type": "Polygon", "coordinates": [[[27.808891642880354, 38.77826960825281], [27.810508610391764, 38.77826960825281], [27.810508610391764, 38.78096455410517], [27.807274675368916, 38.78096455410517], [27.807274675368916, 38.77988657576423], [27.806735686198465, 38.77988657576423], [27.806735686198465, 38.778808597423286], [27.808891642880354, 38.778808597423286], [27.808891642880354, 38.77826960825281]]]}, "id": "+385555+83900", "properties": {"area_ha": 8.12043260064312, "count": 29, "label": 1, "mean_dnbr": 0.33088217586062524}}, {"type": "Feature", "geometry": {"geodesic": false, "type": "Polygon", "coordinates": [[[27.811586588732695, 38.77773061908234], [27.813203556244105, 38.77773061908234], [27.813203556244105, 38.77826960825281], [27.813742545414584, 38.77826960825281], [27.813742545414584, 38.778808597423286], [27.816437491266953, 38.778808597423286], [27.816437491266953, 38.780425564934696], [27.816976480437404, 38.780425564934696], [27.816976480437404, 38.78204253244611], [27.814820523755543, 38.78204253244611], [27.814820523755543, 38.78096455410517], [27.814281534585064, 38.78096455410517], [27.814281534585064, 38.780425564934696], [27.813742545414584, 38.780425564934696], [27.813742545414584, 38.78204253244611], [27.812125577903174, 38.78204253244611], [27.812125577903174, 38.77988657576423], [27.811586588732695, 38.77988657576423], [27.811586588732695, 38.77773061908234]]]}, "id": "+385560+83901", "properties": {"area_ha": 15.400709004865918, "count": 55, "label": 1, "mean_dnbr": 0.6331268725696821}}, {"type": "Feature", "geometry": {"geodesic": false, "type": "Polygon", "coordinates": [[[27.814281534585064, 38.76102195479772], [27.817515469607883, 38.76102195479772], [27.817515469607883, 38.76156094396819], [27.818054458778363, 38.76156094396819], [27.818054458778363, 38.7631779114796], [27.818593447948842, 38.7631779114796], [27.818593447948842, 38.763716900650074], [27.818054458778363, 38.763716900650074], [27.818054458778363, 38.76425588982055], [27.816976480437404, 38.76425588982055], [27.816976480437404, 38.76533386816149], [27.817515469607883, 38.76533386816149], [27.817515469607883, 38.766411846502436], [27.816976480437404, 38.766411846502436], [27.816976480437404, 38.76533386816149], [27.816437491266953, 38.76533386816149], [27.816437491266953, 38.76425588982055], [27.815898502096474, 38.76425588982055], [27.815898502096474, 38.763716900650074], [27.815359512925994, 38.763716900650074], [27.815359512925994, 38.7631779114796], [27.815898502096474, 38.7631779114796], [27.815898502096474, 38.762099933138664], [27.814820523755543, 38.762099933138664], [27.814820523755543, 38.76263892230913], [27.813203556244105, 38.76263892230913], [27.813203556244105, 38.762099933138664], [27.813742545414584, 38.762099933138664], [27.813742545414584, 38.76156094396819], [27.814281534585064, 38.76156094396819], [27.814281534585064, 38.76102195479772]]]}, "id": "+385568+83932", "properties": {"area_ha": 10.923136443239619, "count": 39, "label": 1, "mean_dnbr": 0.35289293899493435}}, {"type": "Feature", "geometry": {"geodesic": false, "type": "Polygon", "coordinates": [[[27.821288393801183, 38.76910679235479], [27.821827382971662, 38.76910679235479], [27.821827382971662, 38.76964578152526], [27.82236637214214, 38.76964578152526], [27.82236637214214, 38.77180173820715], [27.82074940463073, 38.77180173820715], [27.82074940463073, 38.77072375986621], [27.821288393801183, 38.77072375986621], [27.821288393801183, 38.76910679235479]]]}, "id": "+385576+83917", "properties": {"area_ha": 3.080550693724513, "count": 11, "label": 1, "mean_dnbr": 0.2692587564487572}}, {"type": "Feature", "geometry": {"geodesic": false, "type": "Polygon", "coordinates": [[[27.825061317994482, 38.76695083567291], [27.82613929633544, 38.76695083567291], [27.82613929633544, 38.76748982484338], [27.82721727467637, 38.76748982484338], [27.82721727467637, 38.76856780318432], [27.82829525301733, 38.76856780318432], [27.82829525301733, 38.76910679235479], [27.82775626384685, 38.76910679235479], [27.82775626384685, 38.76964578152526], [27.82560030716496, 38.76964578152526], [27.82560030716496, 38.76802881401385], [27.825061317994482, 38.76802881401385], [27.825061317994482, 38.76695083567291]]]}, "id": "+385584+83921", "properties": {"area_ha": 5.04106050444973, "count": 18, "label": 1, "mean_dnbr": 0.40940607501153703}}, {"type": "Feature", "geometry": {"geodesic": false, "type": "Polygon", "coordinates": [[[27.82721727467637, 38.76479487899102], [27.82829525301733, 38.76479487899102], [27.82829525301733, 38.76587285733196], [27.82991222052874, 38.76587285733196], [27.82991222052874, 38.76533386816149], [27.83099019886967, 38.76533386816149], [27.83099019886967, 38.766411846502436], [27.83045120969922, 38.766411846502436], [27.83045120969922, 38.76695083567291], [27.82991222052874, 38.76695083567291], [27.82991222052874, 38.76748982484338], [27.82937323135826, 38.76748982484338], [27.82937323135826, 38.76802881401385], [27.82829525301733, 38.76802881401385], [27.82829525301733, 38.76748982484338], [27.82775626384685, 38.76748982484338], [27.82775626384685, 38.766411846502436], [27.82667828550592, 38.766411846502436], [27.82667828550592, 38.76533386816149], [27.82613929633544, 38.76533386816149], [27.82613929633544, 38.76479487899102], [27.82667828550592, 38.76479487899102], [27.82667828550592, 38.76533386816149], [27.82721727467637, 38.76533386816149], [27.82721727467637, 38.76479487899102]]]}, "id": "+385588+83925", "properties": {"area_ha": 7.561808879452245, "count": 27, "label": 1, "mean_dnbr": 0.2749424794707705}}, {"type": "Feature", "geometry": {"geodesic": false, "type": "Polygon", "coordinates": [[[27.83045120969922, 38.76048296562725], [27.83099019886967, 38.76048296562725], [27.83099019886967, 38.7631779114796], [27.83045120969922, 38.7631779114796], [27.83045120969922, 38.762099933138664], [27.82829525301733, 38.762099933138664], [27.82829525301733, 38.763716900650074], [27.82613929633544, 38.763716900650074], [27.82613929633544, 38.76263892230913], [27.82667828550592, 38.76263892230913], [27.82667828550592, 38.762099933138664], [27.82829525301733, 38.762099933138664], [27.82829525301733, 38.76156094396819], [27.82883424218778, 38.76156094396819], [27.82883424218778, 38.76102195479772], [27.83045120969922, 38.76102195479772], [27.83045120969922, 38.76048296562725]]]}, "id": "+385593+83933", "properties": {"area_ha": 6.441912191286559, "count": 23, "label": 1, "mean_dnbr": 0.30604243436871675}}, {"type": "Feature", "geometry": {"geodesic": false, "type": "Polygon", "coordinates": [[[27.83099019886967, 38.7879714133213], [27.83206817721063, 38.7879714133213], [27.83206817721063, 38.788510402491774], [27.83422413389252, 38.788510402491774], [27.83422413389252, 38.79066635917366], [27.83476312306297, 38.79066635917366], [27.83476312306297, 38.791205348344135], [27.83368514472204, 38.791205348344135], [27.83368514472204, 38.79174433751461], [27.83206817721063, 38.79174433751461], [27.83206817721063, 38.79228332668508], [27.82937323135826, 38.79228332668508], [27.82937323135826, 38.79174433751461], [27.82991222052874, 38.79174433751461], [27.82991222052874, 38.791205348344135], [27.82937323135826, 38.791205348344135], [27.82937323135826, 38.788510402491774], [27.82991222052874, 38.788510402491774], [27.82991222052874, 38.7879714133213], [27.83045120969922, 38.7879714133213], [27.83045120969922, 38.788510402491774], [27.83099019886967, 38.788510402491774], [27.83099019886967, 38.7879714133213]], [[27.83045120969922, 38.79066635917366], [27.83045120969922, 38.791205348344135], [27.82991222052874, 38.791205348344135], [27.82991222052874, 38.79066635917366], [27.83045120969922, 38.79066635917366]], [[27.83099019886967, 38.78958838083272], [27.83099019886967, 38.79012737000319], [27.82991222052874, 38.79012737000319], [27.82991222052874, 38.78958838083272], [27.83099019886967, 38.78958838083272]]]}, "id": "+385595+83882", "properties": {"area_ha": 16.238468131619985, "count": 58, "label": 1, "mean_dnbr": 0.42060218608467487}}, {"type": "Feature", "geometry": {"geodesic": false, "type": "Polygon", "coordinates": [[[27.83260716638111, 38.82462267691338], [27.83422413389252, 38.82462267691338], [27.83422413389252, 38.82570065525432], [27.83314615555156, 38.82570065525432], [27.83314615555156, 38.826239644424795], [27.83045120969922, 38.826239644424795], [27.83045120969922, 38.82677863359527], [27.82883424218778, 38.82677863359527], [27.82883424218778, 38.826239644424795], [27.82829525301733, 38.826239644424795], [27.82829525301733, 38.82570065525432], [27.82991222052874, 38.82570065525432], [27.82991222052874, 38.82516166608385], [27.83260716638111, 38.82516166608385], [27.83260716638111, 38.82462267691338]]]}, "id": "+385599+83814", "properties": {"area_ha": 6.436173889994647, "count": 23, "label": 1, "mean_dnbr": 0.31616002544680716}}, {"type": "Feature", "geometry": {"geodesic": false, "type": "Polygon", "coordinates": [[[27.83368514472204, 38.762099933138664], [27.83584110140393, 38.762099933138664], [27.83584110140393, 38.763716900650074], [27.83638009057441, 38.763716900650074], [27.83638009057441, 38.76425588982055], [27.83745806891534, 38.76425588982055], [27.83745806891534, 38.7631779114796], [27.83799705808582, 38.7631779114796], [27.83799705808582, 38.76263892230913], [27.83907503642675, 38.76263892230913], [27.83907503642675, 38.76425588982055], [27.83799705808582, 38.76425588982055], [27.83799705808582, 38.76479487899102], [27.83745806891534, 38.76479487899102], [27.83745806891534, 38.76533386816149], [27.83476312306297, 38.76533386816149], [27.83476312306297, 38.76587285733196], [27.83422413389252, 38.76587285733196], [27.83422413389252, 38.76533386816149], [27.83368514472204, 38.76533386816149], [27.83368514472204, 38.76425588982055], [27.83314615555156, 38.76425588982055], [27.83314615555156, 38.7631779114796], [27.83368514472204, 38.7631779114796], [27.83368514472204, 38.762099933138664]]]}, "id": "+385602+83930", "properties": {"area_ha": 12.043296356798038, "count": 43, "label": 1, "mean_dnbr": 0.3873379144441636}}, {"type": "Feature", "geometry": {"geodesic": false, "type": "Polygon", "coordinates": [[[27.84284796062005, 38.813842893503946], [27.844464928131487, 38.813842893503946], [27.844464928131487, 38.81438188267442], [27.845003917301938, 38.81438188267442], [27.845003917301938, 38.81545986101536], [27.845542906472417, 38.81545986101536], [27.845542906472417, 38.815998850185835], [27.846081895642897, 38.815998850185835], [27.846081895642897, 38.81653783935631], [27.845542906472417, 38.81653783935631], [27.845542906472417, 38.81707682852677], [27.845003917301938, 38.81707682852677], [27.845003917301938, 38.815998850185835], [27.844464928131487, 38.815998850185835], [27.844464928131487, 38.81545986101536], [27.843925938961007, 38.81545986101536], [27.843925938961007, 38.81492087184489], [27.843386949790528, 38.81492087184489], [27.843386949790528, 38.81438188267442], [27.84284796062005, 38.81438188267442], [27.84284796062005, 38.813842893503946]]]}, "id": "+385618+83834", "properties": {"area_ha": 3.6383735054859963, "count": 13, "label": 1, "mean_dnbr": 0.21094447130095054}}, {"type": "Feature", "geometry": {"geodesic": false, "type": "Polygon", "coordinates": [[[27.845542906472417, 38.77126274903668], [27.846620884813348, 38.77126274903668], [27.846620884813348, 38.772340727377625], [27.845003917301938, 38.772340727377625], [27.845003917301938, 38.7728797165481], [27.844464928131487, 38.7728797165481], [27.844464928131487, 38.77341870571857], [27.843386949790528, 38.77341870571857], [27.843386949790528, 38.77395769488904], [27.84284796062005, 38.77395769488904], [27.84284796062005, 38.77449668405951], [27.84123099310864, 38.77449668405951], [27.84123099310864, 38.77395769488904], [27.84284796062005, 38.77395769488904], [27.84284796062005, 38.7728797165481], [27.843925938961007, 38.7728797165481], [27.843925938961007, 38.772340727377625], [27.845003917301938, 38.772340727377625], [27.845003917301938, 38.77180173820715], [27.845542906472417, 38.77180173820715], [27.845542906472417, 38.77126274903668]]]}, "id": "+385622+83913", "properties": {"area_ha": 3.920579052404215, "count": 14, "label": 1, "mean_dnbr": 0.28747238776540385}}, {"type": "Feature", "geometry": {"geodesic": false, "type": "Polygon", "coordinates": [[[27.850393809006675, 38.7594049872863], [27.850932798177126, 38.7594049872863], [27.850932798177126, 38.759943976456775], [27.853627744029495, 38.759943976456775], [27.853627744029495, 38.76048296562725], [27.852010776518085, 38.76048296562725], [27.852010776518085, 38.76102195479772], [27.850393809006675, 38.76102195479772], [27.850393809006675, 38.76048296562725], [27.848776841495237, 38.76048296562725], [27.848776841495237, 38.759943976456775], [27.849315830665716, 38.759943976456775], [27.849315830665716, 38.7594049872863], [27.849854819836196, 38.7594049872863], [27.849854819836196, 38.759943976456775], [27.850393809006675, 38.759943976456775], [27.850393809006675, 38.7594049872863]], [[27.850932798177126, 38.759943976456775], [27.850932798177126, 38.76048296562725], [27.850393809006675, 38.76048296562725], [27.850393809006675, 38.759943976456775], [27.850932798177126, 38.759943976456775]]]}, "id": "+385630+83935", "properties": {"area_ha": 3.641175600812475, "count": 13, "label": 1, "mean_dnbr": 0.29977704125454485}}, {"type": "Feature", "geometry": {"geodesic": false, "type": "Polygon", "coordinates": [[[27.855244711540905, 38.82677863359527], [27.856322689881864, 38.82677863359527], [27.856322689881864, 38.82731762276574], [27.857400668222795, 38.82731762276574], [27.857400668222795, 38.82785661193621], [27.857939657393274, 38.82785661193621], [27.857939657393274, 38.82893459027715], [27.855783700711385, 38.82893459027715], [27.855783700711385, 38.82785661193621], [27.855244711540905, 38.82785661193621], [27.855244711540905, 38.82677863359527]]]}, "id": "+385640+83810", "properties": {"area_ha": 3.917553031978185, "count": 14, "label": 1, "mean_dnbr": 0.4699957850528947}}, {"type": "Feature", "geometry": {"geodesic": false, "type": "Polygon", "coordinates": [[[27.859556624904684, 38.823544698572434], [27.861173592416094, 38.823544698572434], [27.861173592416094, 38.824083687742906], [27.861712581586573, 38.824083687742906], [27.861712581586573, 38.82570065525432], [27.860095614075163, 38.82570065525432], [27.860095614075163, 38.82462267691338], [27.859556624904684, 38.82462267691338], [27.859556624904684, 38.823544698572434]]]}, "id": "+385649+83816", "properties": {"area_ha": 3.637895243819547, "count": 13, "label": 1, "mean_dnbr": 0.35430463210403335}}, {"type": "Feature", "geometry": {"geodesic": false, "type": "Polygon", "coordinates": [[[27.862790559927504, 38.75886599811583], [27.863868538268463, 38.75886599811583], [27.863868538268463, 38.759943976456775], [27.864407527438914, 38.759943976456775], [27.864407527438914, 38.76048296562725], [27.864946516609393, 38.76048296562725], [27.864946516609393, 38.762099933138664], [27.864407527438914, 38.762099933138664], [27.864407527438914, 38.76156094396819], [27.863868538268463, 38.76156094396819], [27.863868538268463, 38.76102195479772], [27.863329549097983, 38.76102195479772], [27.863329549097983, 38.759943976456775], [27.862790559927504, 38.759943976456775], [27.862790559927504, 38.75886599811583]]]}, "id": "+385654+83936", "properties": {"area_ha": 3.3610827668519714, "count": 12, "label": 1, "mean_dnbr": 0.3440155242327651}}, {"type": "Feature", "geometry": {"geodesic": false, "type": "Polygon", "coordinates": [[[27.867102473291283, 38.79174433751461], [27.86818045163224, 38.79174433751461], [27.86818045163224, 38.792822315855545], [27.867641462461762, 38.792822315855545], [27.867641462461762, 38.79336130502602], [27.868719440802693, 38.79336130502602], [27.868719440802693, 38.79390029419649], [27.867641462461762, 38.79390029419649], [27.867641462461762, 38.79336130502602], [27.867102473291283, 38.79336130502602], [27.867102473291283, 38.792822315855545], [27.865485505779873, 38.792822315855545], [27.865485505779873, 38.79174433751461], [27.866563484120803, 38.79174433751461], [27.866563484120803, 38.79228332668508], [27.867102473291283, 38.79228332668508], [27.867102473291283, 38.79174433751461]], [[27.867641462461762, 38.79228332668508], [27.867641462461762, 38.792822315855545], [27.867102473291283, 38.792822315855545], [27.867102473291283, 38.79228332668508], [27.867641462461762, 38.79228332668508]]]}, "id": "+385662+83875", "properties": {"area_ha": 3.079603353393322, "count": 11, "label": 1, "mean_dnbr": 0.16626857143041354}}, {"type": "Feature", "geometry": {"geodesic": false, "type": "Polygon", "coordinates": [[[27.87195337582554, 38.78635444580989], [27.87303135416647, 38.78635444580989], [27.87303135416647, 38.78743242415083], [27.872492364995992, 38.78743242415083], [27.872492364995992, 38.788510402491774], [27.87141438665506, 38.788510402491774], [27.87141438665506, 38.789049391662246], [27.870875397484582, 38.789049391662246], [27.870875397484582, 38.78958838083272], [27.86979741914365, 38.78958838083272], [27.86979741914365, 38.79012737000319], [27.86818045163224, 38.79012737000319], [27.86818045163224, 38.78958838083272], [27.869258429973172, 38.78958838083272], [27.869258429973172, 38.789049391662246], [27.86979741914365, 38.789049391662246], [27.86979741914365, 38.788510402491774], [27.870336408314103, 38.788510402491774], [27.870336408314103, 38.7879714133213], [27.870875397484582, 38.7879714133213], [27.870875397484582, 38.78689343498036], [27.87195337582554, 38.78689343498036], [27.87195337582554, 38.78635444580989]]]}, "id": "+385671+83885", "properties": {"area_ha": 6.15958074660325, "count": 22, "label": 1, "mean_dnbr": 0.43809897492748157}}, {"type": "Feature", "geometry": {"geodesic": false, "type": "Polygon", "coordinates": [[[27.87734326753025, 38.7594049872863], [27.87842124587118, 38.7594049872863], [27.87842124587118, 38.76048296562725], [27.87949922421214, 38.76048296562725], [27.87949922421214, 38.76263892230913], [27.87896023504166, 38.76263892230913], [27.87896023504166, 38.762099933138664], [27.87842124587118, 38.762099933138664], [27.87842124587118, 38.76048296562725], [27.87734326753025, 38.76048296562725], [27.87734326753025, 38.7594049872863]]]}, "id": "+385681+83935", "properties": {"area_ha": 3.080970622636685, "count": 11, "label": 1, "mean_dnbr": 0.40813644538276816}}, {"type": "Feature", "geometry": {"geodesic": false, "type": "Polygon", "coordinates": [[[27.87572630001884, 38.76533386816149], [27.87949922421214, 38.76533386816149], [27.87949922421214, 38.76587285733196], [27.87896023504166, 38.76587285733196], [27.87896023504166, 38.766411846502436], [27.87572630001884, 38.766411846502436], [27.87572630001884, 38.76533386816149]]]}, "id": "+385683+83924", "properties": {"area_ha": 3.640881634635818, "count": 13, "label": 1, "mean_dnbr": 0.33687884512765576}}, {"type": "Feature", "geometry": {"geodesic": false, "type": "Polygon", "coordinates": [[[27.902136769371936, 38.75886599811583], [27.903753736883374, 38.75886599811583], [27.903753736883374, 38.76102195479772], [27.902136769371936, 38.76102195479772], [27.902136769371936, 38.75886599811583]]]}, "id": "+385728+83936", "properties": {"area_ha": 3.3611045648249025, "count": 12, "label": 1, "mean_dnbr": 0.46311913311578173}}, {"type": "Feature", "geometry": {"geodesic": false, "type": "Polygon", "coordinates": [[[27.909143628588083, 38.757788019774885], [27.909682617758563, 38.757788019774885], [27.909682617758563, 38.75886599811583], [27.910760596099493, 38.75886599811583], [27.910760596099493, 38.759943976456775], [27.908065650247124, 38.759943976456775], [27.908065650247124, 38.76048296562725], [27.907526661076673, 38.76048296562725], [27.907526661076673, 38.759943976456775], [27.908065650247124, 38.759943976456775], [27.908065650247124, 38.7594049872863], [27.908604639417604, 38.7594049872863], [27.908604639417604, 38.75886599811583], [27.909143628588083, 38.75886599811583], [27.909143628588083, 38.757788019774885]]]}, "id": "+385739+83938", "properties": {"area_ha": 3.3611464008615344, "count": 12, "label": 1, "mean_dnbr": 0.3700292635725541}}, {"type": "Feature", "geometry": {"geodesic": false, "type": "Polygon", "coordinates": [[[28.040656986183166, 39.524769609356134], [28.041734964524125, 39.524769609356134], [28.041734964524125, 39.52638657686755], [28.042273953694604, 39.52638657686755], [28.042273953694604, 39.526925566038024], [28.043351932035534, 39.526925566038024], [28.043351932035534, 39.52800354437896], [28.043890921206014, 39.52800354437896], [28.043890921206014, 39.528542533549434], [28.044429910376493, 39.528542533549434], [28.044429910376493, 39.53015950106085], [28.044968899546944, 39.53015950106085], [28.044968899546944, 39.53285444691321], [28.044429910376493, 39.53285444691321], [28.044429910376493, 39.533393436083685], [28.044968899546944, 39.533393436083685], [28.044968899546944, 39.53447141442462], [28.044429910376493, 39.53447141442462], [28.044429910376493, 39.53662737110651], [28.044968899546944, 39.53662737110651], [28.044968899546944, 39.53770534944746], [28.044429910376493, 39.53770534944746], [28.044429910376493, 39.5387833277884], [28.043890921206014, 39.5387833277884], [28.043890921206014, 39.53824433861793], [28.043351932035534, 39.53824433861793], [28.043351932035534, 39.539322316958874], [28.041734964524125, 39.539322316958874], [28.041734964524125, 39.54040029529981], [28.042273953694604, 39.54040029529981], [28.042273953694604, 39.541478273640756], [28.040656986183166, 39.541478273640756], [28.040656986183166, 39.54201726281123], [28.041734964524125, 39.54201726281123], [28.041734964524125, 39.543634230322645], [28.039579007842235, 39.543634230322645], [28.039579007842235, 39.5425562519817], [28.039040018671756, 39.5425562519817], [28.039040018671756, 39.541478273640756], [28.039579007842235, 39.541478273640756], [28.039579007842235, 39.54040029529981], [28.039040018671756, 39.54040029529981], [28.039040018671756, 39.539322316958874], [28.040117997012715, 39.539322316958874], [28.040117997012715, 39.539861306129346], [28.040656986183166, 39.539861306129346], [28.040656986183166, 39.539322316958874], [28.041195975353645, 39.539322316958874], [28.041195975353645, 39.53824433861793], [28.040117997012715, 39.53824433861793], [28.040117997012715, 39.53770534944746], [28.040656986183166, 39.53770534944746], [28.040656986183166, 39.537166360276984], [28.039579007842235, 39.537166360276984], [28.039579007842235, 39.53554939276557], [28.040117997012715, 39.53554939276557], [28.040117997012715, 39.533393436083685], [28.039579007842235, 39.533393436083685], [28.039579007842235, 39.53285444691321], [28.039040018671756, 39.53285444691321], [28.039040018671756, 39.528542533549434], [28.039579007842235, 39.528542533549434], [28.039579007842235, 39.52800354437896], [28.040117997012715, 39.52800354437896], [28.040117997012715, 39.52638657686755], [28.040656986183166, 39.52638657686755], [28.040656986183166, 39.524769609356134]], [[28.042273953694604, 39.53770534944746], [28.042273953694604, 39.53824433861793], [28.041195975353645, 39.53824433861793], [28.041195975353645, 39.53770534944746], [28.042273953694604, 39.53770534944746]], [[28.043351932035534, 39.533393436083685], [28.043351932035534, 39.53447141442462], [28.042273953694604, 39.53447141442462], [28.042273953694604, 39.535010403595095], [28.041734964524125, 39.535010403595095], [28.041734964524125, 39.53447141442462], [28.041195975353645, 39.53447141442462], [28.041195975353645, 39.533393436083685], [28.043351932035534, 39.533393436083685]]]}, "id": "+385984+82515", "properties": {"area_ha": 65.1019314106381, "count": 235, "label": 1, "mean_dnbr": 0.3125700844458668}}, {"type": "Feature", "geometry": {"geodesic": false, "type": "Polygon", "coordinates": [[[28.094016914059864, 39.61478080082491], [28.095094892400823, 39.61478080082491], [28.095094892400823, 39.61639776833633], [28.094555903230344, 39.61639776833633], [28.094555903230344, 39.61747574667727], [28.094016914059864, 39.61747574667727], [28.094016914059864, 39.618014735847744], [28.091860957378003, 39.618014735847744], [28.091860957378003, 39.6169367575068], [28.092399946548454, 39.6169367575068], [28.092399946548454, 39.61639776833633], [28.092938935718934, 39.61639776833633], [28.092938935718934, 39.615858779165855], [28.094016914059864, 39.615858779165855], [28.094016914059864, 39.61478080082491]]]}, "id": "+386083+82348", "properties": {"area_ha": 5.8106725645183, "count": 21, "label": 1, "mean_dnbr": 0.17431497320746295}}, {"type": "Feature", "geometry": {"geodesic": false, "type": "Polygon", "coordinates": [[[28.132285145163365, 39.67892051211104], [28.133902112674775, 39.67892051211104], [28.133902112674775, 39.68053747962246], [28.132285145163365, 39.68053747962246], [28.132285145163365, 39.68107646879293], [28.131746155992886, 39.68107646879293], [28.131746155992886, 39.68053747962246], [28.131207166822435, 39.68053747962246], [28.131207166822435, 39.679998490451986], [28.132285145163365, 39.679998490451986], [28.132285145163365, 39.67892051211104]]]}, "id": "+386155+82229", "properties": {"area_ha": 3.317343811660375, "count": 12, "label": 1, "mean_dnbr": 0.15952358429150681}}, {"type": "Feature", "geometry": {"geodesic": false, "type": "Polygon", "coordinates": [[[28.1452208852547, 39.70802592731652], [28.14845482027752, 39.70802592731652], [28.14845482027752, 39.70910390565746], [28.147915831107042, 39.70910390565746], [28.147915831107042, 39.70856491648699], [28.147376841936563, 39.70856491648699], [28.147376841936563, 39.70910390565746], [28.1452208852547, 39.70910390565746], [28.1452208852547, 39.70802592731652]]]}, "id": "+386182+82175", "properties": {"area_ha": 3.039622038849984, "count": 11, "label": 1, "mean_dnbr": 0.2995302379696315}}, {"type": "Feature", "geometry": {"geodesic": false, "type": "Polygon", "coordinates": [[[28.25517467603092, 38.86181292967593], [28.255713665201398, 38.86181292967593], [28.255713665201398, 38.8623519188464], [28.25625265437185, 38.8623519188464], [28.25625265437185, 38.86289090801687], [28.25679164354233, 38.86289090801687], [28.25679164354233, 38.863429897187345], [28.255713665201398, 38.863429897187345], [28.255713665201398, 38.86396888635782], [28.25517467603092, 38.86396888635782], [28.25517467603092, 38.86450787552829], [28.25355770851951, 38.86450787552829], [28.25355770851951, 38.8623519188464], [28.254096697689988, 38.8623519188464], [28.254096697689988, 38.86289090801687], [28.25463568686044, 38.86289090801687], [28.25463568686044, 38.8623519188464], [28.25517467603092, 38.8623519188464], [28.25517467603092, 38.86181292967593]]]}, "id": "+386381+83745", "properties": {"area_ha": 5.034351433921972, "count": 18, "label": 1, "mean_dnbr": 0.3041205212024249}}, {"type": "Feature", "geometry": {"geodesic": false, "type": "Polygon", "coordinates": [[[28.260025578565177, 38.863429897187345], [28.261642546076587, 38.863429897187345], [28.261642546076587, 38.86396888635782], [28.262181535247038, 38.86396888635782], [28.262181535247038, 38.865046864698755], [28.261642546076587, 38.865046864698755], [28.261642546076587, 38.86558585386923], [28.261103556906107, 38.86558585386923], [28.261103556906107, 38.865046864698755], [28.260025578565177, 38.865046864698755], [28.260025578565177, 38.863429897187345]]]}, "id": "+386392+83742", "properties": {"area_ha": 3.356178626510537, "count": 12, "label": 1, "mean_dnbr": 0.4925020926750709}}]}