{"type": "FeatureCollection", "columns": {"area_ha": "Number", "count": "Long<0, 4294967295>", "label": "Byte<0, 1>", "mean_dnbr": "Object", "system:index": "String"}, "features": [{"type": "Feature", "geometry": {"geodesic": false, "type": "Polygon", "coordinates": [[[27.147551930711558, 35.69417357481367], [27.14809091988201, 35.69417357481367], [27.14809091988201, 35.69471256398414], [27.148629909052488, 35.69471256398414], [27.148629909052488, 35.69525155315461], [27.14809091988201, 35.69525155315461], [27.14809091988201, 35.69632953149556], [27.147551930711558, 35.69632953149556], [27.147551930711558, 35.695790542325085], [27.1464739523706, 35.695790542325085], [27.1464739523706, 35.69686852066603], [27.147012941541078, 35.69686852066603], [27.147012941541078, 35.6974075098365], [27.1464739523706, 35.6974075098365], [27.1464739523706, 35.69686852066603], [27.145395974029668, 35.69686852066603], [27.145395974029668, 35.6974075098365], [27.14485698485919, 35.6974075098365], [27.14485698485919, 35.69632953149556], [27.145934963200148, 35.69632953149556], [27.145934963200148, 35.69525155315461], [27.147551930711558, 35.69525155315461], [27.147551930711558, 35.69417357481367]]]}, "id": "+384326+89622", "properties": {"area_ha": 4.083963249916923, "count": 14, "label": 1, "mean_dnbr": 0.19956714176255402}}]}