{"type": "FeatureCollection", "columns": {"area_ha": "Number", "count": "Long<0, 4294967295>", "label": "Byte<0, 1>", "mean_dnbr": "Object", "system:index": "String"}, "features": [{"type": "Feature", "geometry": {"geodesic": false, "type": "Polygon", "coordinates": [[[27.534546155110235, 36.74035155469927], [27.535085144280714, 36.74035155469927], [27.535085144280714, 36.74089054386974], [27.536163122621645, 36.74089054386974], [27.536163122621645, 36.74142953304021], [27.535624133451194, 36.74142953304021], [27.535624133451194, 36.74196852221068], [27.538319079303534, 36.74196852221068], [27.538319079303534, 36.742507511381156], [27.536163122621645, 36.742507511381156], [27.536163122621645, 36.74304650055162], [27.534546155110235, 36.74304650055162], [27.534546155110235, 36.74142953304021], [27.534007165939755, 36.74142953304021], [27.534007165939755, 36.74196852221068], [27.533468176769304, 36.74196852221068], [27.533468176769304, 36.74089054386974], [27.534546155110235, 36.74089054386974], [27.534546155110235, 36.74035155469927]]]}, "id": "+385044+87681", "properties": {"area_ha": 5.4689041929301885, "count": 19, "label": 1, "mean_dnbr": 0.3867826212637739}}, {"type": "Feature", "geometry": {"geodesic": false, "type": "Polygon", "coordinates": [[[27.541014025155903, 36.74142953304021], [27.541553014326382, 36.74142953304021], [27.541553014326382, 36.74196852221068], [27.542630992667313, 36.74196852221068], [27.542630992667313, 36.744124478892566], [27.541553014326382, 36.744124478892566], [27.541553014326382, 36.74358548972209], [27.541014025155903, 36.74358548972209], [27.541014025155903, 36.742507511381156], [27.539936046814944, 36.742507511381156], [27.539936046814944, 36.74196852221068], [27.541014025155903, 36.74196852221068], [27.541014025155903, 36.74142953304021]]]}, "id": "+385056+87679", "properties": {"area_ha": 4.02967500418817, "count": 14, "label": 1, "mean_dnbr": 0.2739568655331306}}, {"type": "Feature", "geometry": {"geodesic": false, "type": "Polygon", "coordinates": [[[27.56041763529288, 36.731727727971716], [27.56095662446336, 36.731727727971716], [27.56095662446336, 36.73226671714219], [27.561495613633838, 36.73226671714219], [27.561495613633838, 36.73280570631266], [27.56041763529288, 36.73280570631266], [27.56041763529288, 36.73334469548313], [27.56095662446336, 36.73334469548313], [27.56095662446336, 36.73442267382408], [27.561495613633838, 36.73442267382408], [27.561495613633838, 36.73550065216502], [27.56257359197477, 36.73550065216502], [27.56257359197477, 36.736039641335495], [27.563112581145248, 36.736039641335495], [27.563112581145248, 36.73657863050597], [27.56203460280429, 36.73657863050597], [27.56203460280429, 36.736039641335495], [27.561495613633838, 36.736039641335495], [27.561495613633838, 36.73550065216502], [27.56095662446336, 36.73550065216502], [27.56095662446336, 36.73496166299455], [27.55933965695195, 36.73496166299455], [27.55933965695195, 36.733883684653605], [27.5598786461224, 36.733883684653605], [27.5598786461224, 36.73280570631266], [27.56041763529288, 36.73280570631266], [27.56041763529288, 36.731727727971716]], [[27.56041763529288, 36.733883684653605], [27.56041763529288, 36.73442267382408], [27.5598786461224, 36.73442267382408], [27.5598786461224, 36.733883684653605], [27.56041763529288, 36.733883684653605]]]}, "id": "+385092+87697", "properties": {"area_ha": 4.893717720828538, "count": 17, "label": 1, "mean_dnbr": 0.19071451501135234}}, {"type": "Feature", "geometry": {"geodesic": false, "type": "Polygon", "coordinates": [[[27.862790559927504, 36.225077907728306], [27.863868538268463, 36.225077907728306], [27.863868538268463, 36.22669487523972], [27.864407527438914, 36.22669487523972], [27.864407527438914, 36.22831184275114], [27.865485505779873, 36.22831184275114], [27.865485505779873, 36.22885083192161], [27.866563484120803, 36.22885083192161], [27.866563484120803, 36.22992881026256], [27.865485505779873, 36.22992881026256], [27.865485505779873, 36.23046779943302], [27.864407527438914, 36.23046779943302], [27.864407527438914, 36.22992881026256], [27.863868538268463, 36.22992881026256], [27.863868538268463, 36.229389821092084], [27.863329549097983, 36.229389821092084], [27.863329549097983, 36.22992881026256], [27.862790559927504, 36.22992881026256], [27.862790559927504, 36.229389821092084], [27.863329549097983, 36.229389821092084], [27.863329549097983, 36.22885083192161], [27.863868538268463, 36.22885083192161], [27.863868538268463, 36.22831184275114], [27.863329549097983, 36.22831184275114], [27.863329549097983, 36.22777285358067], [27.862790559927504, 36.22777285358067], [27.862790559927504, 36.225077907728306]], [[27.864946516609393, 36.229389821092084], [27.864946516609393, 36.22992881026256], [27.864407527438914, 36.22992881026256], [27.864407527438914, 36.229389821092084], [27.864946516609393, 36.229389821092084]]]}, "id": "+385654+88637", "properties": {"area_ha": 8.692571141014694, "count": 30, "label": 1, "mean_dnbr": 0.5929082155464257}}, {"type": "Feature", "geometry": {"geodesic": false, "type": "Polygon", "coordinates": [[[27.93016420623647, 37.0330226742654], [27.93232016291836, 37.0330226742654], [27.93232016291836, 37.03410065260635], [27.93178117374788, 37.03410065260635], [27.93178117374788, 37.03463964177682], [27.93016420623647, 37.03463964177682], [27.93016420623647, 37.03410065260635], [27.929625217066018, 37.03410065260635], [27.929625217066018, 37.033561663435876], [27.93016420623647, 37.033561663435876], [27.93016420623647, 37.0330226742654]]]}, "id": "+385781+87138", "properties": {"area_ha": 3.440862153000643, "count": 12, "label": 1, "mean_dnbr": 0.35086039325424623}}, {"type": "Feature", "geometry": {"geodesic": false, "type": "Polygon", "coordinates": [[[27.939866011304957, 36.27897682477548], [27.942021967986847, 36.27897682477548], [27.942021967986847, 36.281132781457366], [27.940405000475437, 36.281132781457366], [27.940405000475437, 36.28005480311642], [27.939866011304957, 36.28005480311642], [27.939866011304957, 36.27897682477548]]]}, "id": "+385799+88537", "properties": {"area_ha": 4.053838656839176, "count": 14, "label": 1, "mean_dnbr": 0.31305795807935083}}]}