{"type": "FeatureCollection", "columns": {"area_ha": "Number", "count": "Long<0, 4294967295>", "label": "Byte<0, 1>", "mean_dnbr": "Object", "system:index": "String"}, "features": [{"type": "Feature", "geometry": {"geodesic": false, "type": "Polygon", "coordinates": [[[27.09473099200531, 35.590687654083105], [27.09580897034627, 35.590687654083105], [27.09580897034627, 35.59122664325357], [27.09742593785768, 35.59122664325357], [27.09742593785768, 35.59176563242404], [27.09796492702816, 35.59176563242404], [27.09796492702816, 35.59122664325357], [27.09850391619861, 35.59122664325357], [27.09850391619861, 35.59176563242404], [27.09796492702816, 35.59176563242404], [27.09796492702816, 35.59284361076499], [27.09580897034627, 35.59284361076499], [27.09580897034627, 35.59176563242404], [27.09526998117579, 35.59176563242404], [27.09526998117579, 35.59122664325357], [27.09473099200531, 35.59122664325357], [27.09473099200531, 35.590687654083105]]]}, "id": "+384229+89814", "properties": {"area_ha": 4.381382232421142, "count": 15, "label": 1, "mean_dnbr": 0.1869005061588008}}, {"type": "Feature", "geometry": {"geodesic": false, "type": "Polygon", "coordinates": [[[27.103893807903347, 35.59392158910593], [27.105510775414757, 35.59392158910593], [27.105510775414757, 35.59499956744688], [27.103354818732868, 35.59499956744688], [27.103354818732868, 35.59284361076499], [27.102815829562388, 35.59284361076499], [27.102815829562388, 35.592304621594515], [27.103354818732868, 35.592304621594515], [27.103354818732868, 35.59176563242404], [27.103893807903347, 35.59176563242404], [27.103893807903347, 35.58960967574216], [27.104432797073798, 35.58960967574216], [27.104432797073798, 35.58907068657169], [27.104971786244278, 35.58907068657169], [27.104971786244278, 35.588531697401216], [27.104432797073798, 35.588531697401216], [27.104432797073798, 35.58745371906027], [27.107127742926167, 35.58745371906027], [27.107127742926167, 35.58799270823074], [27.107666732096646, 35.58799270823074], [27.107666732096646, 35.588531697401216], [27.105510775414757, 35.588531697401216], [27.105510775414757, 35.58960967574216], [27.106588753755688, 35.58960967574216], [27.106588753755688, 35.58907068657169], [27.107127742926167, 35.58907068657169], [27.107127742926167, 35.59014866491263], [27.106588753755688, 35.59014866491263], [27.106588753755688, 35.59122664325357], [27.107127742926167, 35.59122664325357], [27.107127742926167, 35.59176563242404], [27.105510775414757, 35.59176563242404], [27.105510775414757, 35.59284361076499], [27.104971786244278, 35.59284361076499], [27.104971786244278, 35.59338259993546], [27.104432797073798, 35.59338259993546], [27.104432797073798, 35.59284361076499], [27.104971786244278, 35.59284361076499], [27.104971786244278, 35.592304621594515], [27.104432797073798, 35.592304621594515], [27.104432797073798, 35.59176563242404], [27.103893807903347, 35.59176563242404], [27.103893807903347, 35.59392158910593]], [[27.106049764585237, 35.590687654083105], [27.106049764585237, 35.59122664325357], [27.105510775414757, 35.59122664325357], [27.105510775414757, 35.590687654083105], [27.106049764585237, 35.590687654083105]]]}, "id": "+384250+89820", "properties": {"area_ha": 15.481053321092398, "count": 53, "label": 1, "mean_dnbr": 0.22649684040959708}}]}