{"type": "FeatureCollection", "columns": {"area_ha": "Number", "count": "Long<0, 4294967295>", "label": "Byte<0, 1>", "mean_dnbr": "Object", "system:index": "String"}, "features": [{"type": "Feature", "geometry": {"geodesic": false, "type": "Polygon", "coordinates": [[[27.79218297859572, 38.76802881401385], [27.79541691361854, 38.76802881401385], [27.79541691361854, 38.76910679235479], [27.796494891959497, 38.76910679235479], [27.796494891959497, 38.770184770695735], [27.797572870300428, 38.770184770695735], [27.797572870300428, 38.76964578152526], [27.798650848641387, 38.76964578152526], [27.798650848641387, 38.77072375986621], [27.798111859470907, 38.77072375986621], [27.798111859470907, 38.77126274903668], [27.795955902789018, 38.77126274903668], [27.795955902789018, 38.77180173820715], [27.79326095693665, 38.77180173820715], [27.79326095693665, 38.77072375986621], [27.792721967766198, 38.77072375986621], [27.792721967766198, 38.76964578152526], [27.79218297859572, 38.76964578152526], [27.79218297859572, 38.76802881401385]]]}, "id": "+385527+83919", "properties": {"area_ha": 15.122839132056345, "count": 54, "label": 1, "mean_dnbr": 0.3661766643961433}}, {"type": "Feature", "geometry": {"geodesic": false, "type": "Polygon", "coordinates": [[[27.797572870300428, 38.763716900650074], [27.799189837811838, 38.763716900650074], [27.799189837811838, 38.76479487899102], [27.799728826982317, 38.76479487899102], [27.799728826982317, 38.76695083567291], [27.799189837811838, 38.76695083567291], [27.799189837811838, 38.766411846502436], [27.798650848641387, 38.766411846502436], [27.798650848641387, 38.76479487899102], [27.797572870300428, 38.76479487899102], [27.797572870300428, 38.763716900650074]]]}, "id": "+385534+83927", "properties": {"area_ha": 3.640933409136917, "count": 13, "label": 1, "mean_dnbr": 0.1935236818302819}}, {"type": "Feature", "geometry": {"geodesic": false, "type": "Polygon", "coordinates": [[[27.799189837811838, 38.7594049872863], [27.800267816152797, 38.7594049872863], [27.800267816152797, 38.76156094396819], [27.799728826982317, 38.76156094396819], [27.799728826982317, 38.76263892230913], [27.799189837811838, 38.76263892230913], [27.799189837811838, 38.7631779114796], [27.798111859470907, 38.7631779114796], [27.798111859470907, 38.76263892230913], [27.796494891959497, 38.76263892230913], [27.796494891959497, 38.759943976456775], [27.799189837811838, 38.759943976456775], [27.799189837811838, 38.7594049872863]]]}, "id": "+385536+83935", "properties": {"area_ha": 10.363206114479736, "count": 37, "label": 1, "mean_dnbr": 0.5782372818271865}}, {"type": "Feature", "geometry": {"geodesic": false, "type": "Polygon", "coordinates": [[[27.807274675368916, 38.76695083567291], [27.808891642880354, 38.76695083567291], [27.808891642880354, 38.76856780318432], [27.808352653709875, 38.76856780318432], [27.808352653709875, 38.76910679235479], [27.806735686198465, 38.76910679235479], [27.806735686198465, 38.770184770695735], [27.808352653709875, 38.770184770695735], [27.808352653709875, 38.77072375986621], [27.808891642880354, 38.77072375986621], [27.808891642880354, 38.77126274903668], [27.809430632050805, 38.77126274903668], [27.809430632050805, 38.772340727377625], [27.808352653709875, 38.772340727377625], [27.808352653709875, 38.77341870571857], [27.807274675368916, 38.77341870571857], [27.807274675368916, 38.772340727377625], [27.806735686198465, 38.772340727377625], [27.806735686198465, 38.77126274903668], [27.806196697027985, 38.77126274903668], [27.806196697027985, 38.77180173820715], [27.805118718687027, 38.77180173820715], [27.805118718687027, 38.77126274903668], [27.804579729516576, 38.77126274903668], [27.804579729516576, 38.77072375986621], [27.805657707857506, 38.77072375986621], [27.805657707857506, 38.770184770695735], [27.806196697027985, 38.770184770695735], [27.806196697027985, 38.76910679235479], [27.805657707857506, 38.76910679235479], [27.805657707857506, 38.76802881401385], [27.806196697027985, 38.76802881401385], [27.806196697027985, 38.76748982484338], [27.807274675368916, 38.76748982484338], [27.807274675368916, 38.76695083567291]], [[27.806735686198465, 38.76856780318432], [27.806735686198465, 38.76910679235479], [27.806196697027985, 38.76910679235479], [27.806196697027985, 38.76856780318432], [27.806735686198465, 38.76856780318432]]]}, "id": "+385552+83921", "properties": {"area_ha": 13.722543954309884, "count": 49, "label": 1, "mean_dnbr": 0.270989410258725}}, {"type": "Feature", "geometry": {"geodesic": false, "type": "Polygon", "coordinates": [[[27.809430632050805, 38.77826960825281], [27.810508610391764, 38.77826960825281], [27.810508610391764, 38.78096455410517], [27.807274675368916, 38.78096455410517], [27.807274675368916, 38.780425564934696], [27.806735686198465, 38.780425564934696], [27.806735686198465, 38.778808597423286], [27.809430632050805, 38.778808597423286], [27.809430632050805, 38.77826960825281]]]}, "id": "+385555+83900", "properties": {"area_ha": 8.12042175008028, "count": 29, "label": 1, "mean_dnbr": 0.3748643067974825}}, {"type": "Feature", "geometry": {"geodesic": false, "type": "Polygon", "coordinates": [[[27.811586588732695, 38.77773061908234], [27.813203556244105, 38.77773061908234], [27.813203556244105, 38.77826960825281], [27.813742545414584, 38.77826960825281], [27.813742545414584, 38.778808597423286], [27.815359512925994, 38.778808597423286], [27.815359512925994, 38.77934758659376], [27.815898502096474, 38.77934758659376], [27.815898502096474, 38.77988657576423], [27.816437491266953, 38.77988657576423], [27.816437491266953, 38.780425564934696], [27.816976480437404, 38.780425564934696], [27.816976480437404, 38.78204253244611], [27.814820523755543, 38.78204253244611], [27.814820523755543, 38.780425564934696], [27.813742545414584, 38.780425564934696], [27.813742545414584, 38.78204253244611], [27.812125577903174, 38.78204253244611], [27.812125577903174, 38.77988657576423], [27.811586588732695, 38.77988657576423], [27.811586588732695, 38.77773061908234]]]}, "id": "+385560+83901", "properties": {"area_ha": 14.280660671155019, "count": 51, "label": 1, "mean_dnbr": 0.40894921002206475}}, {"type": "Feature", "geometry": {"geodesic": false, "type": "Polygon", "coordinates": [[[27.813742545414584, 38.76479487899102], [27.814820523755543, 38.76479487899102], [27.814820523755543, 38.76587285733196], [27.815359512925994, 38.76587285733196], [27.815359512925994, 38.76695083567291], [27.815898502096474, 38.76695083567291], [27.815898502096474, 38.76748982484338], [27.814820523755543, 38.76748982484338], [27.814820523755543, 38.76802881401385], [27.814281534585064, 38.76802881401385], [27.814281534585064, 38.76856780318432], [27.813742545414584, 38.76856780318432], [27.813742545414584, 38.76802881401385], [27.813203556244105, 38.76802881401385], [27.813203556244105, 38.76748982484338], [27.813742545414584, 38.76748982484338], [27.813742545414584, 38.76695083567291], [27.814820523755543, 38.76695083567291], [27.814820523755543, 38.766411846502436], [27.814281534585064, 38.766411846502436], [27.814281534585064, 38.76533386816149], [27.813742545414584, 38.76533386816149], [27.813742545414584, 38.76479487899102]]]}, "id": "+385563+83925", "properties": {"area_ha": 3.920911348251617, "count": 14, "label": 1, "mean_dnbr": 0.22149078714737364}}, {"type": "Feature", "geometry": {"geodesic": false, "type": "Polygon", "coordinates": [[[27.814281534585064, 38.76102195479772], [27.815898502096474, 38.76102195479772], [27.815898502096474, 38.7631779114796], [27.816437491266953, 38.7631779114796], [27.816437491266953, 38.76425588982055], [27.816976480437404, 38.76425588982055], [27.816976480437404, 38.76533386816149], [27.817515469607883, 38.76533386816149], [27.817515469607883, 38.766411846502436], [27.816976480437404, 38.766411846502436], [27.816976480437404, 38.76533386816149], [27.816437491266953, 38.76533386816149], [27.816437491266953, 38.76425588982055], [27.815359512925994, 38.76425588982055], [27.815359512925994, 38.76263892230913], [27.814820523755543, 38.76263892230913], [27.814820523755543, 38.7631779114796], [27.812664567073654, 38.7631779114796], [27.812664567073654, 38.762099933138664], [27.813203556244105, 38.762099933138664], [27.813203556244105, 38.76156094396819], [27.814281534585064, 38.76156094396819], [27.814281534585064, 38.76102195479772]]]}, "id": "+385565+83932", "properties": {"area_ha": 7.562177088724609, "count": 27, "label": 1, "mean_dnbr": 0.21995204777366084}}, {"type": "Feature", "geometry": {"geodesic": false, "type": "Polygon", "coordinates": [[[27.815359512925994, 38.834324481981874], [27.816437491266953, 38.834324481981874], [27.816437491266953, 38.83540246032281], [27.815359512925994, 38.83540246032281], [27.815359512925994, 38.83594144949328], [27.814820523755543, 38.83594144949328], [27.814820523755543, 38.83701942783423], [27.811586588732695, 38.83701942783423], [27.811586588732695, 38.83540246032281], [27.813742545414584, 38.83540246032281], [27.813742545414584, 38.83486347115234], [27.815359512925994, 38.83486347115234], [27.815359512925994, 38.834324481981874]]]}, "id": "+385566+83796", "properties": {"area_ha": 7.274653558102361, "count": 26, "label": 1, "mean_dnbr": 0.3190248976936735}}, {"type": "Feature", "geometry": {"geodesic": false, "type": "Polygon", "coordinates": [[[27.823444350483072, 38.76856780318432], [27.82452232882403, 38.76856780318432], [27.82452232882403, 38.76964578152526], [27.825061317994482, 38.76964578152526], [27.825061317994482, 38.77180173820715], [27.82560030716496, 38.77180173820715], [27.82560030716496, 38.77341870571857], [27.82452232882403, 38.77341870571857], [27.82452232882403, 38.7728797165481], [27.823444350483072, 38.7728797165481], [27.823444350483072, 38.77180173820715], [27.822905361312593, 38.77180173820715], [27.822905361312593, 38.77126274903668], [27.823444350483072, 38.77126274903668], [27.823444350483072, 38.77072375986621], [27.82398333965355, 38.77072375986621], [27.82398333965355, 38.76964578152526], [27.823444350483072, 38.76964578152526], [27.823444350483072, 38.76856780318432]]]}, "id": "+385581+83918", "properties": {"area_ha": 7.001192126502547, "count": 25, "label": 1, "mean_dnbr": 0.3442134404478811}}, {"type": "Feature", "geometry": {"geodesic": false, "type": "Polygon", "coordinates": [[[27.82721727467637, 38.76479487899102], [27.82829525301733, 38.76479487899102], [27.82829525301733, 38.766411846502436], [27.82937323135826, 38.766411846502436], [27.82937323135826, 38.76695083567291], [27.82883424218778, 38.76695083567291], [27.82883424218778, 38.76802881401385], [27.82829525301733, 38.76802881401385], [27.82829525301733, 38.76748982484338], [27.82775626384685, 38.76748982484338], [27.82775626384685, 38.766411846502436], [27.82667828550592, 38.766411846502436], [27.82667828550592, 38.76587285733196], [27.82613929633544, 38.76587285733196], [27.82613929633544, 38.76479487899102], [27.82667828550592, 38.76479487899102], [27.82667828550592, 38.76533386816149], [27.82721727467637, 38.76533386816149], [27.82721727467637, 38.76479487899102]]]}, "id": "+385588+83925", "properties": {"area_ha": 4.481082840014134, "count": 16, "label": 1, "mean_dnbr": 0.29775284438740895}}, {"type": "Feature", "geometry": {"geodesic": false, "type": "Polygon", "coordinates": [[[27.83045120969922, 38.76048296562725], [27.83099019886967, 38.76048296562725], [27.83099019886967, 38.76102195479772], [27.83152918804015, 38.76102195479772], [27.83152918804015, 38.76156094396819], [27.83099019886967, 38.76156094396819], [27.83099019886967, 38.7631779114796], [27.83045120969922, 38.7631779114796], [27.83045120969922, 38.762099933138664], [27.82883424218778, 38.762099933138664], [27.82883424218778, 38.763716900650074], [27.82829525301733, 38.763716900650074], [27.82829525301733, 38.7631779114796], [27.82775626384685, 38.7631779114796], [27.82775626384685, 38.763716900650074], [27.82613929633544, 38.763716900650074], [27.82613929633544, 38.76263892230913], [27.82667828550592, 38.76263892230913], [27.82667828550592, 38.762099933138664], [27.82775626384685, 38.762099933138664], [27.82775626384685, 38.76156094396819], [27.82883424218778, 38.76156094396819], [27.82883424218778, 38.76102195479772], [27.83045120969922, 38.76102195479772], [27.83045120969922, 38.76048296562725]]]}, "id": "+385593+83933", "properties": {"area_ha": 7.562240100088768, "count": 27, "label": 1, "mean_dnbr": 0.3844804995253098}}, {"type": "Feature", "geometry": {"geodesic": false, "type": "Polygon", "coordinates": [[[27.82937323135826, 38.7879714133213], [27.83206817721063, 38.7879714133213], [27.83206817721063, 38.788510402491774], [27.83422413389252, 38.788510402491774], [27.83422413389252, 38.791205348344135], [27.83368514472204, 38.791205348344135], [27.83368514472204, 38.79174433751461], [27.83206817721063, 38.79174433751461], [27.83206817721063, 38.79228332668508], [27.82937323135826, 38.79228332668508], [27.82937323135826, 38.7879714133213]]]}, "id": "+385595+83882", "properties": {"area_ha": 17.638334627176977, "count": 63, "label": 1, "mean_dnbr": 0.4461252187995308}}, {"type": "Feature", "geometry": {"geodesic": false, "type": "Polygon", "coordinates": [[[27.83422413389252, 38.762099933138664], [27.83584110140393, 38.762099933138664], [27.83584110140393, 38.76425588982055], [27.83745806891534, 38.76425588982055], [27.83745806891534, 38.7631779114796], [27.83799705808582, 38.7631779114796], [27.83799705808582, 38.76263892230913], [27.83907503642675, 38.76263892230913], [27.83907503642675, 38.76425588982055], [27.83799705808582, 38.76425588982055], [27.83799705808582, 38.76479487899102], [27.83745806891534, 38.76479487899102], [27.83745806891534, 38.76533386816149], [27.83476312306297, 38.76533386816149], [27.83476312306297, 38.76425588982055], [27.83422413389252, 38.76425588982055], [27.83422413389252, 38.762099933138664]]]}, "id": "+385602+83930", "properties": {"area_ha": 8.682388352169221, "count": 31, "label": 1, "mean_dnbr": 0.29817483650551957}}, {"type": "Feature", "geometry": {"geodesic": false, "type": "Polygon", "coordinates": [[[27.841769982279118, 38.763716900650074], [27.844464928131487, 38.763716900650074], [27.844464928131487, 38.76479487899102], [27.843925938961007, 38.76479487899102], [27.843925938961007, 38.76695083567291], [27.84284796062005, 38.76695083567291], [27.84284796062005, 38.766411846502436], [27.842308971449597, 38.766411846502436], [27.842308971449597, 38.76533386816149], [27.841769982279118, 38.76533386816149], [27.841769982279118, 38.763716900650074]]]}, "id": "+385618+83927", "properties": {"area_ha": 6.161570661080839, "count": 22, "label": 1, "mean_dnbr": 0.3847727596669453}}, {"type": "Feature", "geometry": {"geodesic": false, "type": "Polygon", "coordinates": [[[27.845003917301938, 38.77126274903668], [27.846620884813348, 38.77126274903668], [27.846620884813348, 38.77180173820715], [27.847159873983827, 38.77180173820715], [27.847159873983827, 38.772340727377625], [27.845003917301938, 38.772340727377625], [27.845003917301938, 38.7728797165481], [27.844464928131487, 38.7728797165481], [27.844464928131487, 38.77341870571857], [27.843386949790528, 38.77341870571857], [27.843386949790528, 38.77395769488904], [27.84284796062005, 38.77395769488904], [27.84284796062005, 38.77449668405951], [27.84123099310864, 38.77449668405951], [27.84123099310864, 38.77395769488904], [27.842308971449597, 38.77395769488904], [27.842308971449597, 38.77341870571857], [27.84284796062005, 38.77341870571857], [27.84284796062005, 38.7728797165481], [27.843925938961007, 38.7728797165481], [27.843925938961007, 38.772340727377625], [27.845003917301938, 38.772340727377625], [27.845003917301938, 38.77126274903668]]]}, "id": "+385622+83913", "properties": {"area_ha": 4.760712008114576, "count": 17, "label": 1, "mean_dnbr": 0.2940383993662403}}, {"type": "Feature", "geometry": {"geodesic": false, "type": "Polygon", "coordinates": [[[27.849854819836196, 38.75886599811583], [27.850932798177126, 38.75886599811583], [27.850932798177126, 38.7594049872863], [27.851471787347606, 38.7594049872863], [27.851471787347606, 38.759943976456775], [27.853627744029495, 38.759943976456775], [27.853627744029495, 38.76048296562725], [27.852010776518085, 38.76048296562725], [27.852010776518085, 38.76102195479772], [27.851471787347606, 38.76102195479772], [27.851471787347606, 38.76156094396819], [27.849854819836196, 38.76156094396819], [27.849854819836196, 38.76102195479772], [27.848776841495237, 38.76102195479772], [27.848776841495237, 38.7594049872863], [27.849854819836196, 38.7594049872863], [27.849854819836196, 38.75886599811583]]]}, "id": "+385630+83936", "properties": {"area_ha": 7.002266457548053, "count": 25, "label": 1, "mean_dnbr": 0.39859014063971376}}, {"type": "Feature", "geometry": {"geodesic": false, "type": "Polygon", "coordinates": [[[27.855244711540905, 38.82677863359527], [27.856322689881864, 38.82677863359527], [27.856322689881864, 38.82731762276574], [27.857400668222795, 38.82731762276574], [27.857400668222795, 38.82785661193621], [27.857939657393274, 38.82785661193621], [27.857939657393274, 38.82893459027715], [27.855783700711385, 38.82893459027715], [27.855783700711385, 38.82785661193621], [27.855244711540905, 38.82785661193621], [27.855244711540905, 38.82677863359527]]]}, "id": "+385640+83810", "properties": {"area_ha": 3.917553031978185, "count": 14, "label": 1, "mean_dnbr": 0.4186643051581863}}, {"type": "Feature", "geometry": {"geodesic": false, "type": "Polygon", "coordinates": [[[27.859017635734205, 38.757788019774885], [27.861173592416094, 38.757788019774885], [27.861173592416094, 38.75832700894536], [27.861712581586573, 38.75832700894536], [27.861712581586573, 38.75886599811583], [27.861173592416094, 38.75886599811583], [27.861173592416094, 38.759943976456775], [27.860095614075163, 38.759943976456775], [27.860095614075163, 38.7594049872863], [27.859556624904684, 38.7594049872863], [27.859556624904684, 38.75832700894536], [27.859017635734205, 38.75832700894536], [27.859017635734205, 38.757788019774885]]]}, "id": "+385649+83938", "properties": {"area_ha": 3.64125322851205, "count": 13, "label": 1, "mean_dnbr": 0.2976252997667448}}, {"type": "Feature", "geometry": {"geodesic": false, "type": "Polygon", "coordinates": [[[27.862790559927504, 38.75886599811583], [27.863868538268463, 38.75886599811583], [27.863868538268463, 38.7594049872863], [27.864407527438914, 38.7594049872863], [27.864407527438914, 38.759943976456775], [27.864946516609393, 38.759943976456775], [27.864946516609393, 38.76048296562725], [27.865485505779873, 38.76048296562725], [27.865485505779873, 38.762099933138664], [27.864407527438914, 38.762099933138664], [27.864407527438914, 38.76156094396819], [27.863868538268463, 38.76156094396819], [27.863868538268463, 38.76102195479772], [27.863329549097983, 38.76102195479772], [27.863329549097983, 38.759943976456775], [27.862790559927504, 38.759943976456775], [27.862790559927504, 38.75886599811583]]]}, "id": "+385654+83936", "properties": {"area_ha": 4.761527779243022, "count": 17, "label": 1, "mean_dnbr": 0.3145444998143076}}, {"type": "Feature", "geometry": {"geodesic": false, "type": "Polygon", "coordinates": [[[27.87195337582554, 38.78635444580989], [27.87303135416647, 38.78635444580989], [27.87303135416647, 38.78743242415083], [27.872492364995992, 38.78743242415083], [27.872492364995992, 38.788510402491774], [27.87141438665506, 38.788510402491774], [27.87141438665506, 38.789049391662246], [27.870875397484582, 38.789049391662246], [27.870875397484582, 38.78958838083272], [27.86979741914365, 38.78958838083272], [27.86979741914365, 38.788510402491774], [27.870336408314103, 38.788510402491774], [27.870336408314103, 38.78743242415083], [27.870875397484582, 38.78743242415083], [27.870875397484582, 38.78635444580989], [27.87141438665506, 38.78635444580989], [27.87141438665506, 38.78689343498036], [27.87195337582554, 38.78689343498036], [27.87195337582554, 38.78635444580989]]]}, "id": "+385671+83885", "properties": {"area_ha": 5.599649308933944, "count": 20, "label": 1, "mean_dnbr": 0.40208806575008726}}, {"type": "Feature", "geometry": {"geodesic": false, "type": "Polygon", "coordinates": [[[27.87626528918929, 38.78958838083272], [27.87734326753025, 38.78958838083272], [27.87734326753025, 38.79012737000319], [27.87788225670073, 38.79012737000319], [27.87788225670073, 38.791205348344135], [27.87626528918929, 38.791205348344135], [27.87626528918929, 38.79174433751461], [27.87572630001884, 38.79174433751461], [27.87572630001884, 38.79228332668508], [27.87518731084836, 38.79228332668508], [27.87518731084836, 38.791205348344135], [27.87464832167788, 38.791205348344135], [27.87464832167788, 38.79012737000319], [27.87626528918929, 38.79012737000319], [27.87626528918929, 38.78958838083272]]]}, "id": "+385679+83879", "properties": {"area_ha": 4.759508305847387, "count": 17, "label": 1, "mean_dnbr": 0.38817591674797525}}, {"type": "Feature", "geometry": {"geodesic": false, "type": "Polygon", "coordinates": [[[27.87572630001884, 38.76533386816149], [27.87949922421214, 38.76533386816149], [27.87949922421214, 38.766411846502436], [27.87842124587118, 38.766411846502436], [27.87842124587118, 38.76695083567291], [27.87788225670073, 38.76695083567291], [27.87788225670073, 38.76748982484338], [27.87626528918929, 38.76748982484338], [27.87626528918929, 38.76695083567291], [27.87572630001884, 38.76695083567291], [27.87572630001884, 38.76533386816149]]]}, "id": "+385683+83924", "properties": {"area_ha": 6.161448527057007, "count": 22, "label": 1, "mean_dnbr": 0.4681300303569895}}, {"type": "Feature", "geometry": {"geodesic": false, "type": "Polygon", "coordinates": [[[27.88488911591685, 38.78365949995753], [27.885967094257808, 38.78365949995753], [27.885967094257808, 38.78527646746895], [27.88542810508733, 38.78527646746895], [27.88542810508733, 38.78581545663942], [27.88435012674637, 38.78581545663942], [27.88435012674637, 38.78527646746895], [27.88381113757592, 38.78527646746895], [27.88381113757592, 38.784737478298474], [27.88435012674637, 38.784737478298474], [27.88435012674637, 38.784198489128], [27.88488911591685, 38.784198489128], [27.88488911591685, 38.78365949995753]]]}, "id": "+385695+83890", "properties": {"area_ha": 3.079940751444678, "count": 11, "label": 1, "mean_dnbr": 0.23178590421587728}}, {"type": "Feature", "geometry": {"geodesic": false, "type": "Polygon", "coordinates": [[[27.910221606929014, 38.75832700894536], [27.910760596099493, 38.75832700894536], [27.910760596099493, 38.759943976456775], [27.908065650247124, 38.759943976456775], [27.908065650247124, 38.76048296562725], [27.907526661076673, 38.76048296562725], [27.907526661076673, 38.759943976456775], [27.908065650247124, 38.759943976456775], [27.908065650247124, 38.7594049872863], [27.908604639417604, 38.7594049872863], [27.908604639417604, 38.75886599811583], [27.910221606929014, 38.75886599811583], [27.910221606929014, 38.75832700894536]]]}, "id": "+385741+83937", "properties": {"area_ha": 3.0810450203766524, "count": 11, "label": 1, "mean_dnbr": 0.37598866524326546}}, {"type": "Feature", "geometry": {"geodesic": false, "type": "Polygon", "coordinates": [[[28.040656986183166, 39.524769609356134], [28.041195975353645, 39.524769609356134], [28.041195975353645, 39.52530859852661], [28.041734964524125, 39.52530859852661], [28.041734964524125, 39.526925566038024], [28.043351932035534, 39.526925566038024], [28.043351932035534, 39.52800354437896], [28.043890921206014, 39.52800354437896], [28.043890921206014, 39.528542533549434], [28.044429910376493, 39.528542533549434], [28.044429910376493, 39.53015950106085], [28.044968899546944, 39.53015950106085], [28.044968899546944, 39.53231545774274], [28.044429910376493, 39.53231545774274], [28.044429910376493, 39.533393436083685], [28.044968899546944, 39.533393436083685], [28.044968899546944, 39.53447141442462], [28.044429910376493, 39.53447141442462], [28.044429910376493, 39.53662737110651], [28.044968899546944, 39.53662737110651], [28.044968899546944, 39.537166360276984], [28.044429910376493, 39.537166360276984], [28.044429910376493, 39.53824433861793], [28.043351932035534, 39.53824433861793], [28.043351932035534, 39.539322316958874], [28.041734964524125, 39.539322316958874], [28.041734964524125, 39.54040029529981], [28.042273953694604, 39.54040029529981], [28.042273953694604, 39.541478273640756], [28.040656986183166, 39.541478273640756], [28.040656986183166, 39.54201726281123], [28.041734964524125, 39.54201726281123], [28.041734964524125, 39.543634230322645], [28.040117997012715, 39.543634230322645], [28.040117997012715, 39.54309524115217], [28.039579007842235, 39.54309524115217], [28.039579007842235, 39.5425562519817], [28.039040018671756, 39.5425562519817], [28.039040018671756, 39.541478273640756], [28.039579007842235, 39.541478273640756], [28.039579007842235, 39.54040029529981], [28.039040018671756, 39.54040029529981], [28.039040018671756, 39.539322316958874], [28.039579007842235, 39.539322316958874], [28.039579007842235, 39.539861306129346], [28.040656986183166, 39.539861306129346], [28.040656986183166, 39.539322316958874], [28.041195975353645, 39.539322316958874], [28.041195975353645, 39.53824433861793], [28.042273953694604, 39.53824433861793], [28.042273953694604, 39.53770534944746], [28.040656986183166, 39.53770534944746], [28.040656986183166, 39.53824433861793], [28.040117997012715, 39.53824433861793], [28.040117997012715, 39.53770534944746], [28.040656986183166, 39.53770534944746], [28.040656986183166, 39.537166360276984], [28.039579007842235, 39.537166360276984], [28.039579007842235, 39.53554939276557], [28.040117997012715, 39.53554939276557], [28.040117997012715, 39.53285444691321], [28.039040018671756, 39.53285444691321], [28.039040018671756, 39.528542533549434], [28.039579007842235, 39.528542533549434], [28.039579007842235, 39.52800354437896], [28.040117997012715, 39.52800354437896], [28.040117997012715, 39.52638657686755], [28.040656986183166, 39.52638657686755], [28.040656986183166, 39.526925566038024], [28.041195975353645, 39.526925566038024], [28.041195975353645, 39.52584758769708], [28.040656986183166, 39.52584758769708], [28.040656986183166, 39.524769609356134]], [[28.042812942865055, 39.537166360276984], [28.042812942865055, 39.53770534944746], [28.042273953694604, 39.53770534944746], [28.042273953694604, 39.537166360276984], [28.042812942865055, 39.537166360276984]], [[28.042812942865055, 39.53285444691321], [28.042812942865055, 39.533393436083685], [28.043351932035534, 39.533393436083685], [28.043351932035534, 39.53447141442462], [28.042273953694604, 39.53447141442462], [28.042273953694604, 39.535010403595095], [28.041734964524125, 39.535010403595095], [28.041734964524125, 39.53447141442462], [28.041195975353645, 39.53447141442462], [28.041195975353645, 39.533393436083685], [28.042273953694604, 39.533393436083685], [28.042273953694604, 39.53285444691321], [28.042812942865055, 39.53285444691321]]]}, "id": "+385983+82515", "properties": {"area_ha": 61.50053483510681, "count": 222, "label": 1, "mean_dnbr": 0.27206747083537564}}, {"type": "Feature", "geometry": {"geodesic": false, "type": "Polygon", "coordinates": [[[28.076230271434298, 39.09142231629688], [28.076769260604777, 39.09142231629688], [28.076769260604777, 39.09196130546735], [28.077847238945736, 39.09196130546735], [28.077847238945736, 39.09250029463782], [28.078925217286667, 39.09250029463782], [28.078925217286667, 39.09196130546735], [28.080003195627626, 39.09196130546735], [28.080003195627626, 39.093039283808295], [28.079464206457146, 39.093039283808295], [28.079464206457146, 39.09357827297877], [28.080003195627626, 39.09357827297877], [28.080003195627626, 39.09411726214923], [28.080542184798077, 39.09411726214923], [28.080542184798077, 39.094656251319705], [28.080003195627626, 39.094656251319705], [28.080003195627626, 39.09519524049018], [28.079464206457146, 39.09519524049018], [28.079464206457146, 39.09573422966065], [28.078925217286667, 39.09573422966065], [28.078925217286667, 39.096812208001595], [28.078386228116187, 39.096812208001595], [28.078386228116187, 39.09735119717207], [28.079464206457146, 39.09735119717207], [28.079464206457146, 39.09789018634254], [28.080542184798077, 39.09789018634254], [28.080542184798077, 39.09842917551301], [28.081081173968556, 39.09842917551301], [28.081081173968556, 39.098968164683484], [28.079464206457146, 39.098968164683484], [28.079464206457146, 39.099507153853956], [28.081081173968556, 39.099507153853956], [28.081081173968556, 39.100585132194894], [28.081620163139036, 39.100585132194894], [28.081620163139036, 39.101124121365366], [28.082698141479966, 39.101124121365366], [28.082698141479966, 39.10220209970631], [28.080542184798077, 39.10220209970631], [28.080542184798077, 39.10274108887678], [28.077847238945736, 39.10274108887678], [28.077847238945736, 39.103280078047256], [28.080003195627626, 39.103280078047256], [28.080003195627626, 39.10381906721773], [28.080542184798077, 39.10381906721773], [28.080542184798077, 39.10489704555867], [28.082159152309487, 39.10489704555867], [28.082159152309487, 39.10597502389961], [28.080542184798077, 39.10597502389961], [28.080542184798077, 39.10651401307008], [28.081081173968556, 39.10651401307008], [28.081081173968556, 39.10759199141103], [28.080542184798077, 39.10759199141103], [28.080542184798077, 39.107053002240555], [28.080003195627626, 39.107053002240555], [28.080003195627626, 39.10759199141103], [28.079464206457146, 39.10759199141103], [28.079464206457146, 39.107053002240555], [28.078386228116187, 39.107053002240555], [28.078386228116187, 39.10759199141103], [28.077308249775257, 39.10759199141103], [28.077308249775257, 39.10651401307008], [28.076230271434298, 39.10651401307008], [28.076230271434298, 39.10597502389961], [28.075691282263847, 39.10597502389961], [28.075691282263847, 39.105436034729145], [28.074613303922888, 39.105436034729145], [28.074613303922888, 39.10489704555867], [28.072457347241, 39.10489704555867], [28.072457347241, 39.1043580563882], [28.07084037972959, 39.1043580563882], [28.07084037972959, 39.10381906721773], [28.07030139055911, 39.10381906721773], [28.07030139055911, 39.10274108887678], [28.069762401388658, 39.10274108887678], [28.069762401388658, 39.101124121365366], [28.06922341221818, 39.101124121365366], [28.06922341221818, 39.10004614302442], [28.0686844230477, 39.10004614302442], [28.0686844230477, 39.099507153853956], [28.06814543387725, 39.099507153853956], [28.06814543387725, 39.098968164683484], [28.06922341221818, 39.098968164683484], [28.06922341221818, 39.099507153853956], [28.07030139055911, 39.099507153853956], [28.07030139055911, 39.10004614302442], [28.07084037972959, 39.10004614302442], [28.07084037972959, 39.099507153853956], [28.071379368900068, 39.099507153853956], [28.071379368900068, 39.098968164683484], [28.071918358070548, 39.098968164683484], [28.071918358070548, 39.09789018634254], [28.071379368900068, 39.09789018634254], [28.071379368900068, 39.09735119717207], [28.07084037972959, 39.09735119717207], [28.07084037972959, 39.096812208001595], [28.07030139055911, 39.096812208001595], [28.07030139055911, 39.09573422966065], [28.069762401388658, 39.09573422966065], [28.069762401388658, 39.094656251319705], [28.072457347241, 39.094656251319705], [28.072457347241, 39.09519524049018], [28.073535325581958, 39.09519524049018], [28.073535325581958, 39.09573422966065], [28.074074314752437, 39.09573422966065], [28.074074314752437, 39.09519524049018], [28.074613303922888, 39.09519524049018], [28.074613303922888, 39.09411726214923], [28.076230271434298, 39.09411726214923], [28.076230271434298, 39.09357827297877], [28.076769260604777, 39.09357827297877], [28.076769260604777, 39.093039283808295], [28.076230271434298, 39.093039283808295], [28.076230271434298, 39.09250029463782], [28.075691282263847, 39.09250029463782], [28.075691282263847, 39.093039283808295], [28.075152293093367, 39.093039283808295], [28.075152293093367, 39.09357827297877], [28.074613303922888, 39.09357827297877], [28.074613303922888, 39.093039283808295], [28.073535325581958, 39.093039283808295], [28.073535325581958, 39.09250029463782], [28.075691282263847, 39.09250029463782], [28.075691282263847, 39.09196130546735], [28.076230271434298, 39.09196130546735], [28.076230271434298, 39.09142231629688]], [[28.076769260604777, 39.10274108887678], [28.076769260604777, 39.103280078047256], [28.075691282263847, 39.103280078047256], [28.075691282263847, 39.10274108887678], [28.076769260604777, 39.10274108887678]], [[28.075152293093367, 39.10166311053584], [28.075152293093367, 39.10220209970631], [28.074613303922888, 39.10220209970631], [28.074613303922888, 39.10166311053584], [28.075152293093367, 39.10166311053584]], [[28.074613303922888, 39.10004614302442], [28.074613303922888, 39.10166311053584], [28.073535325581958, 39.10166311053584], [28.073535325581958, 39.10274108887678], [28.072457347241, 39.10274108887678], [28.072457347241, 39.10220209970631], [28.071918358070548, 39.10220209970631], [28.071918358070548, 39.10166311053584], [28.071379368900068, 39.10166311053584], [28.071379368900068, 39.101124121365366], [28.07084037972959, 39.101124121365366], [28.07084037972959, 39.100585132194894], [28.071379368900068, 39.100585132194894], [28.071379368900068, 39.10004614302442], [28.074613303922888, 39.10004614302442]], [[28.076769260604777, 39.09842917551301], [28.076769260604777, 39.099507153853956], [28.077847238945736, 39.099507153853956], [28.077847238945736, 39.100585132194894], [28.078386228116187, 39.100585132194894], [28.078386228116187, 39.101124121365366], [28.077847238945736, 39.101124121365366], [28.077847238945736, 39.10220209970631], [28.076230271434298, 39.10220209970631], [28.076230271434298, 39.09842917551301], [28.076769260604777, 39.09842917551301]], [[28.078925217286667, 39.09842917551301], [28.078925217286667, 39.098968164683484], [28.078386228116187, 39.098968164683484], [28.078386228116187, 39.099507153853956], [28.077847238945736, 39.099507153853956], [28.077847238945736, 39.098968164683484], [28.077308249775257, 39.098968164683484], [28.077308249775257, 39.09842917551301], [28.078925217286667, 39.09842917551301]], [[28.076769260604777, 39.09627321883112], [28.076769260604777, 39.096812208001595], [28.076230271434298, 39.096812208001595], [28.076230271434298, 39.09627321883112], [28.076769260604777, 39.09627321883112]], [[28.075691282263847, 39.09519524049018], [28.075691282263847, 39.09573422966065], [28.076230271434298, 39.09573422966065], [28.076230271434298, 39.09627321883112], [28.075152293093367, 39.09627321883112], [28.075152293093367, 39.096812208001595], [28.074613303922888, 39.096812208001595], [28.074613303922888, 39.09627321883112], [28.074074314752437, 39.09627321883112], [28.074074314752437, 39.09573422966065], [28.075152293093367, 39.09573422966065], [28.075152293093367, 39.09519524049018], [28.075691282263847, 39.09519524049018]], [[28.079464206457146, 39.09357827297877], [28.079464206457146, 39.09411726214923], [28.078925217286667, 39.09411726214923], [28.078925217286667, 39.09357827297877], [28.079464206457146, 39.09357827297877]]]}, "id": "+386049+83319", "properties": {"area_ha": 103.97481674469842, "count": 373, "label": 1, "mean_dnbr": 0.3442490064353666}}, {"type": "Feature", "geometry": {"geodesic": false, "type": "Polygon", "coordinates": [[[28.077847238945736, 39.082259500398855], [28.078925217286667, 39.082259500398855], [28.078925217286667, 39.084415457080745], [28.079464206457146, 39.084415457080745], [28.079464206457146, 39.086571413762634], [28.080542184798077, 39.086571413762634], [28.080542184798077, 39.08764939210358], [28.081620163139036, 39.08764939210358], [28.081620163139036, 39.088188381274044], [28.080542184798077, 39.088188381274044], [28.080542184798077, 39.09034433795593], [28.080003195627626, 39.09034433795593], [28.080003195627626, 39.090883327126406], [28.077308249775257, 39.090883327126406], [28.077308249775257, 39.08980534878546], [28.076769260604777, 39.08980534878546], [28.076769260604777, 39.08926635961499], [28.076230271434298, 39.08926635961499], [28.076230271434298, 39.088188381274044], [28.075691282263847, 39.088188381274044], [28.075691282263847, 39.08764939210358], [28.077308249775257, 39.08764939210358], [28.077308249775257, 39.08711040293311], [28.076769260604777, 39.08711040293311], [28.076769260604777, 39.086571413762634], [28.076230271434298, 39.086571413762634], [28.076230271434298, 39.08603242459216], [28.076769260604777, 39.08603242459216], [28.076769260604777, 39.08549343542169], [28.077308249775257, 39.08549343542169], [28.077308249775257, 39.08495444625122], [28.076769260604777, 39.08495444625122], [28.076769260604777, 39.084415457080745], [28.076230271434298, 39.084415457080745], [28.076230271434298, 39.082259500398855], [28.076769260604777, 39.082259500398855], [28.076769260604777, 39.08279848956933], [28.077847238945736, 39.08279848956933], [28.077847238945736, 39.082259500398855]], [[28.080003195627626, 39.08980534878546], [28.080003195627626, 39.09034433795593], [28.078925217286667, 39.09034433795593], [28.078925217286667, 39.08980534878546], [28.080003195627626, 39.08980534878546]], [[28.079464206457146, 39.086571413762634], [28.079464206457146, 39.08711040293311], [28.078925217286667, 39.08711040293311], [28.078925217286667, 39.086571413762634], [28.079464206457146, 39.086571413762634]]]}, "id": "+386053+83336", "properties": {"area_ha": 25.92879018258194, "count": 93, "label": 1, "mean_dnbr": 0.3463595151925053}}, {"type": "Feature", "geometry": {"geodesic": false, "type": "Polygon", "coordinates": [[[28.11018658917402, 39.67083567455397], [28.1107255783445, 39.67083567455397], [28.1107255783445, 39.67137466372444], [28.11126456751498, 39.67137466372444], [28.11126456751498, 39.671913652894915], [28.11234254585591, 39.671913652894915], [28.11234254585591, 39.67245264206539], [28.1107255783445, 39.67245264206539], [28.1107255783445, 39.671913652894915], [28.11018658917402, 39.671913652894915], [28.11018658917402, 39.67245264206539], [28.10964760000357, 39.67245264206539], [28.10964760000357, 39.671913652894915], [28.10749164332168, 39.671913652894915], [28.10749164332168, 39.67083567455397], [28.10910861083309, 39.67083567455397], [28.10910861083309, 39.67137466372444], [28.10964760000357, 39.67137466372444], [28.10964760000357, 39.671913652894915], [28.11018658917402, 39.671913652894915], [28.11018658917402, 39.67083567455397]]]}, "id": "+386112+82244", "properties": {"area_ha": 3.8707040435129247, "count": 14, "label": 1, "mean_dnbr": 0.3358803828693664}}, {"type": "Feature", "geometry": {"geodesic": false, "type": "Polygon", "coordinates": [[[28.25463568686044, 38.8623519188464], [28.25625265437185, 38.8623519188464], [28.25625265437185, 38.86289090801687], [28.25679164354233, 38.86289090801687], [28.25679164354233, 38.863429897187345], [28.255713665201398, 38.863429897187345], [28.255713665201398, 38.86396888635782], [28.25463568686044, 38.86396888635782], [28.25463568686044, 38.86450787552829], [28.25355770851951, 38.86450787552829], [28.25355770851951, 38.86289090801687], [28.25463568686044, 38.86289090801687], [28.25463568686044, 38.8623519188464]]]}, "id": "+386382+83744", "properties": {"area_ha": 4.195285364496825, "count": 15, "label": 1, "mean_dnbr": 0.28674938888684964}}]}