{"type": "FeatureCollection", "columns": {"area_ha": "Number", "count": "Long<0, 4294967295>", "label": "Byte<0, 1>", "mean_dnbr": "Object", "system:index": "String"}, "features": [{"type": "Feature", "geometry": {"geodesic": false, "type": "Polygon", "coordinates": [[[27.936632076282137, 37.033561663435876], [27.937710054623068, 37.033561663435876], [27.937710054623068, 37.03410065260635], [27.938249043793547, 37.03410065260635], [27.938249043793547, 37.03517863094729], [27.938788032964027, 37.03517863094729], [27.938788032964027, 37.03625660928824], [27.937171065452617, 37.03625660928824], [27.937171065452617, 37.03463964177682], [27.936632076282137, 37.03463964177682], [27.936632076282137, 37.033561663435876]]]}, "id": "+385791+87137", "properties": {"area_ha": 3.727547636673934, "count": 13, "label": 1, "mean_dnbr": 0.2552116827302051}}]}