{"type": "FeatureCollection", "columns": {"area_ha": "Number", "count": "Long<0, 4294967295>", "label": "Byte<0, 1>", "mean_dnbr": "Object", "system:index": "String"}, "features": [{"type": "Feature", "geometry": {"geodesic": false, "type": "Polygon", "coordinates": [[[28.15923460368694, 38.88552845317668], [28.15977359285742, 38.88552845317668], [28.15977359285742, 38.886067442347155], [28.15923460368694, 38.886067442347155], [28.15923460368694, 38.88660643151763], [28.15869561451649, 38.88660643151763], [28.15869561451649, 38.8871454206881], [28.15815662534601, 38.8871454206881], [28.15815662534601, 38.888223399029044], [28.15761763617553, 38.888223399029044], [28.15761763617553, 38.88768440985857], [28.15600066866412, 38.88768440985857], [28.15600066866412, 38.88660643151763], [28.15761763617553, 38.88660643151763], [28.15761763617553, 38.8871454206881], [28.15815662534601, 38.8871454206881], [28.15815662534601, 38.886067442347155], [28.15923460368694, 38.886067442347155], [28.15923460368694, 38.88552845317668]]]}, "id": "+386203+83701", "properties": {"area_ha": 3.3551131640631064, "count": 12, "label": 1, "mean_dnbr": 0.2933300322176981}}, {"type": "Feature", "geometry": {"geodesic": false, "type": "Polygon", "coordinates": [[[28.191034964744773, 39.653049031928404], [28.193190921426662, 39.653049031928404], [28.193190921426662, 39.65358802109888], [28.19265193225621, 39.65358802109888], [28.19265193225621, 39.65412701026935], [28.192112943085732, 39.65412701026935], [28.192112943085732, 39.654665999439814], [28.19265193225621, 39.654665999439814], [28.19265193225621, 39.65574397778076], [28.192112943085732, 39.65574397778076], [28.192112943085732, 39.65628296695123], [28.191573953915253, 39.65628296695123], [28.191573953915253, 39.655204988610286], [28.191034964744773, 39.655204988610286], [28.191034964744773, 39.653049031928404]]]}, "id": "+386265+82277", "properties": {"area_ha": 4.148207732205334, "count": 15, "label": 1, "mean_dnbr": 0.34059275329089167}}, {"type": "Feature", "geometry": {"geodesic": false, "type": "Polygon", "coordinates": [[[28.1985808131314, 38.91678982506404], [28.20073676981329, 38.91678982506404], [28.20073676981329, 38.917328814234516], [28.20127575898374, 38.917328814234516], [28.20127575898374, 38.91786780340499], [28.20073676981329, 38.91786780340499], [28.20073676981329, 38.917328814234516], [28.20019778064281, 38.917328814234516], [28.20019778064281, 38.91786780340499], [28.1985808131314, 38.91786780340499], [28.1985808131314, 38.91840679257546], [28.19804182396092, 38.91840679257546], [28.19804182396092, 38.91786780340499], [28.196963845619962, 38.91786780340499], [28.196963845619962, 38.917328814234516], [28.19750283479044, 38.917328814234516], [28.19750283479044, 38.91678982506404], [28.19804182396092, 38.91678982506404], [28.19804182396092, 38.91786780340499], [28.1985808131314, 38.91786780340499], [28.1985808131314, 38.91678982506404]]]}, "id": "+386279+83643", "properties": {"area_ha": 3.3536718858515124, "count": 12, "label": 1, "mean_dnbr": 0.35473186270763657}}, {"type": "Feature", "geometry": {"geodesic": false, "type": "Polygon", "coordinates": [[[28.25463568686044, 39.09411726214923], [28.25517467603092, 39.09411726214923], [28.25517467603092, 39.094656251319705], [28.25463568686044, 39.094656251319705], [28.25463568686044, 39.09573422966065], [28.25355770851951, 39.09573422966065], [28.25355770851951, 39.09627321883112], [28.25247973017855, 39.09627321883112], [28.25247973017855, 39.096812208001595], [28.2519407410081, 39.096812208001595], [28.2519407410081, 39.09735119717207], [28.25086276266714, 39.09735119717207], [28.25086276266714, 39.09789018634254], [28.24924579515573, 39.09789018634254], [28.24924579515573, 39.09735119717207], [28.25086276266714, 39.09735119717207], [28.25086276266714, 39.096812208001595], [28.2519407410081, 39.096812208001595], [28.2519407410081, 39.09573422966065], [28.25355770851951, 39.09573422966065], [28.25355770851951, 39.094656251319705], [28.25463568686044, 39.094656251319705], [28.25463568686044, 39.09411726214923]]]}, "id": "+386380+83314", "properties": {"area_ha": 3.9027429380365595, "count": 14, "label": 1, "mean_dnbr": 0.35571147602896125}}, {"type": "Feature", "geometry": {"geodesic": false, "type": "Polygon", "coordinates": [[[28.260564567735628, 39.09842917551301], [28.262181535247038, 39.09842917551301], [28.262181535247038, 39.098968164683484], [28.263798502758476, 39.098968164683484], [28.263798502758476, 39.10004614302442], [28.263259513587997, 39.10004614302442], [28.263259513587997, 39.099507153853956], [28.260025578565177, 39.099507153853956], [28.260025578565177, 39.098968164683484], [28.260564567735628, 39.098968164683484], [28.260564567735628, 39.09842917551301]]]}, "id": "+386393+83306", "properties": {"area_ha": 3.0663317101896386, "count": 11, "label": 1, "mean_dnbr": 0.3145465580320404}}, {"type": "Feature", "geometry": {"geodesic": false, "type": "Polygon", "coordinates": [[[28.267571426951775, 39.074174662841784], [28.268649405292706, 39.074174662841784], [28.268649405292706, 39.07471365201226], [28.270266372804116, 39.07471365201226], [28.270266372804116, 39.07525264118273], [28.265954459440366, 39.07525264118273], [28.265954459440366, 39.0757916303532], [28.265415470269886, 39.0757916303532], [28.265415470269886, 39.07471365201226], [28.267571426951775, 39.07471365201226], [28.267571426951775, 39.074174662841784]]]}, "id": "+386405+83351", "properties": {"area_ha": 3.346262453945234, "count": 12, "label": 1, "mean_dnbr": 0.3791076858422843}}, {"type": "Feature", "geometry": {"geodesic": false, "type": "Polygon", "coordinates": [[[28.266493448610817, 38.869897767233006], [28.268649405292706, 38.869897767233006], [28.268649405292706, 38.87097574557394], [28.268110416122227, 38.87097574557394], [28.268110416122227, 38.87205372391489], [28.266493448610817, 38.87205372391489], [28.266493448610817, 38.871514734744416], [28.265954459440366, 38.871514734744416], [28.265954459440366, 38.87205372391489], [28.265415470269886, 38.87205372391489], [28.265415470269886, 38.87259271308536], [28.264876481099407, 38.87259271308536], [28.264876481099407, 38.87205372391489], [28.265415470269886, 38.87205372391489], [28.265415470269886, 38.871514734744416], [28.264337491928927, 38.871514734744416], [28.264337491928927, 38.87097574557394], [28.266493448610817, 38.87097574557394], [28.266493448610817, 38.869897767233006]]]}, "id": "+386405+83730", "properties": {"area_ha": 5.593096635985271, "count": 20, "label": 1, "mean_dnbr": 0.3098497693557077}}, {"type": "Feature", "geometry": {"geodesic": false, "type": "Polygon", "coordinates": [[[28.271344351145075, 39.08549343542169], [28.273500307826964, 39.08549343542169], [28.273500307826964, 39.08603242459216], [28.271883340315554, 39.08603242459216], [28.271883340315554, 39.08711040293311], [28.271344351145075, 39.08711040293311], [28.271344351145075, 39.088188381274044], [28.270805361974595, 39.088188381274044], [28.270805361974595, 39.088727370444516], [28.270266372804116, 39.088727370444516], [28.270266372804116, 39.08926635961499], [28.269727383633665, 39.08926635961499], [28.269727383633665, 39.088188381274044], [28.270805361974595, 39.088188381274044], [28.270805361974595, 39.08764939210358], [28.270266372804116, 39.08764939210358], [28.270266372804116, 39.086571413762634], [28.271344351145075, 39.086571413762634], [28.271344351145075, 39.08549343542169]]]}, "id": "+386414+83330", "properties": {"area_ha": 3.9032468286954143, "count": 14, "label": 1, "mean_dnbr": 0.2718569050778699}}, {"type": "Feature", "geometry": {"geodesic": false, "type": "Polygon", "coordinates": [[[28.29290391796394, 39.0051840490214], [28.29344290713442, 39.0051840490214], [28.29344290713442, 39.005723038191874], [28.29398189630487, 39.005723038191874], [28.29398189630487, 39.007878994873764], [28.29344290713442, 39.007878994873764], [28.29344290713442, 39.008417984044236], [28.29236492879346, 39.008417984044236], [28.29236492879346, 39.007878994873764], [28.29128695045253, 39.007878994873764], [28.29128695045253, 39.00734000570329], [28.29290391796394, 39.00734000570329], [28.29290391796394, 39.00680101653282], [28.29344290713442, 39.00680101653282], [28.29344290713442, 39.00626202736235], [28.29290391796394, 39.00626202736235], [28.29290391796394, 39.0051840490214]], [[28.29344290713442, 39.00734000570329], [28.29344290713442, 39.007878994873764], [28.29290391796394, 39.007878994873764], [28.29290391796394, 39.00734000570329], [28.29344290713442, 39.00734000570329]]]}, "id": "+386451+83479", "properties": {"area_ha": 3.3494328256066814, "count": 12, "label": 1, "mean_dnbr": 0.18432130511112887}}, {"type": "Feature", "geometry": {"geodesic": false, "type": "Polygon", "coordinates": [[[28.33602305160167, 39.21538982550537], [28.33764001911308, 39.21538982550537], [28.33764001911308, 39.21592881467584], [28.33656204077215, 39.21592881467584], [28.33656204077215, 39.216467803846314], [28.33602305160167, 39.216467803846314], [28.33602305160167, 39.217006793016786], [28.33278911657885, 39.217006793016786], [28.33278911657885, 39.216467803846314], [28.33332810574933, 39.216467803846314], [28.33332810574933, 39.21592881467584], [28.333867094919782, 39.21592881467584], [28.333867094919782, 39.21538982550537], [28.33440608409026, 39.21538982550537], [28.33440608409026, 39.21592881467584], [28.33602305160167, 39.21592881467584], [28.33602305160167, 39.21538982550537]]]}, "id": "+386533+83089", "properties": {"area_ha": 4.452692942190306, "count": 16, "label": 1, "mean_dnbr": 0.38048302757267777}}, {"type": "Feature", "geometry": {"geodesic": false, "type": "Polygon", "coordinates": [[[28.34680283501112, 38.812764915163], [28.34788081335205, 38.812764915163], [28.34788081335205, 38.813842893503946], [28.34572485667016, 38.813842893503946], [28.34572485667016, 38.81330390433347], [28.34518586749971, 38.81330390433347], [28.34518586749971, 38.813842893503946], [28.34464687832923, 38.813842893503946], [28.34464687832923, 38.81330390433347], [28.34302991081782, 38.81330390433347], [28.34302991081782, 38.812764915163], [28.34626384584064, 38.812764915163], [28.34626384584064, 38.81330390433347], [28.34680283501112, 38.81330390433347], [28.34680283501112, 38.812764915163]]]}, "id": "+386552+83836", "properties": {"area_ha": 3.638461476496574, "count": 13, "label": 1, "mean_dnbr": 0.2548853374479932}}, {"type": "Feature", "geometry": {"geodesic": false, "type": "Polygon", "coordinates": [[[28.352731715886307, 39.16256888679914], [28.353270705056758, 39.16256888679914], [28.353270705056758, 39.163107875969615], [28.353809694227238, 39.163107875969615], [28.353809694227238, 39.16364686514009], [28.354887672568196, 39.16364686514009], [28.354887672568196, 39.163107875969615], [28.355426661738647, 39.163107875969615], [28.355426661738647, 39.16418585431056], [28.353270705056758, 39.16418585431056], [28.353270705056758, 39.16364686514009], [28.351114748374897, 39.16364686514009], [28.351114748374897, 39.163107875969615], [28.352731715886307, 39.163107875969615], [28.352731715886307, 39.16256888679914]]]}, "id": "+386562+83187", "properties": {"area_ha": 3.063521915829426, "count": 11, "label": 1, "mean_dnbr": 0.2529586235984772}}, {"type": "Feature", "geometry": {"geodesic": false, "type": "Polygon", "coordinates": [[[28.358660596761496, 39.100585132194894], [28.359738575102426, 39.100585132194894], [28.359738575102426, 39.101124121365366], [28.360277564272906, 39.101124121365366], [28.360277564272906, 39.10166311053584], [28.360816553443385, 39.10166311053584], [28.360816553443385, 39.10220209970631], [28.361894531784316, 39.10220209970631], [28.361894531784316, 39.10166311053584], [28.362433520954795, 39.10166311053584], [28.362433520954795, 39.10220209970631], [28.361894531784316, 39.10220209970631], [28.361894531784316, 39.10274108887678], [28.360277564272906, 39.10274108887678], [28.360277564272906, 39.10166311053584], [28.359199585931947, 39.10166311053584], [28.359199585931947, 39.10274108887678], [28.358121607591016, 39.10274108887678], [28.358121607591016, 39.10220209970631], [28.358660596761496, 39.10220209970631], [28.358660596761496, 39.100585132194894]]]}, "id": "+386574+83302", "properties": {"area_ha": 3.6236893617825006, "count": 13, "label": 1, "mean_dnbr": 0.32489867723568244}}, {"type": "Feature", "geometry": {"geodesic": false, "type": "Polygon", "coordinates": [[[28.371596336852804, 38.805219066776395], [28.372135326023283, 38.805219066776395], [28.372135326023283, 38.80683603428781], [28.372674315193763, 38.80683603428781], [28.372674315193763, 38.80791401262876], [28.372135326023283, 38.80791401262876], [28.372135326023283, 38.80845300179923], [28.371057347682324, 38.80845300179923], [28.371057347682324, 38.80791401262876], [28.369979369341394, 38.80791401262876], [28.369979369341394, 38.807375023458285], [28.369440380170914, 38.807375023458285], [28.369440380170914, 38.80575805594687], [28.370518358511873, 38.80575805594687], [28.370518358511873, 38.805219066776395], [28.371057347682324, 38.805219066776395], [28.371057347682324, 38.80575805594687], [28.371596336852804, 38.80575805594687], [28.371596336852804, 38.805219066776395]], [[28.370518358511873, 38.80629704511734], [28.370518358511873, 38.80683603428781], [28.369979369341394, 38.80683603428781], [28.369979369341394, 38.80629704511734], [28.370518358511873, 38.80629704511734]]]}, "id": "+386597+83850", "properties": {"area_ha": 6.7177883363665325, "count": 24, "label": 1, "mean_dnbr": 0.18356364009606776}}, {"type": "Feature", "geometry": {"geodesic": false, "type": "Polygon", "coordinates": [[[28.373752293534693, 38.96152592621319], [28.375908250216582, 38.96152592621319], [28.375908250216582, 38.962064915383664], [28.374291282705173, 38.962064915383664], [28.374291282705173, 38.962603904554136], [28.373752293534693, 38.962603904554136], [28.373752293534693, 38.96368188289508], [28.373213304364214, 38.96368188289508], [28.373213304364214, 38.96422087206555], [28.372674315193763, 38.96422087206555], [28.372674315193763, 38.964759861236026], [28.372135326023283, 38.964759861236026], [28.372135326023283, 38.96422087206555], [28.371596336852804, 38.96422087206555], [28.371596336852804, 38.96368188289508], [28.372674315193763, 38.96368188289508], [28.372674315193763, 38.96314289372461], [28.373213304364214, 38.96314289372461], [28.373213304364214, 38.962603904554136], [28.373752293534693, 38.962603904554136], [28.373752293534693, 38.96152592621319]]]}, "id": "+386604+83560", "properties": {"area_ha": 3.351517137232044, "count": 12, "label": 1, "mean_dnbr": 0.3694577977383346}}, {"type": "Feature", "geometry": {"geodesic": false, "type": "Polygon", "coordinates": [[[28.38776601196696, 38.93188152183725], [28.38884399030789, 38.93188152183725], [28.38884399030789, 38.93295950017819], [28.38938297947837, 38.93295950017819], [28.38938297947837, 38.933498489348665], [28.38884399030789, 38.933498489348665], [28.38884399030789, 38.93295950017819], [28.38561005528507, 38.93295950017819], [28.38561005528507, 38.93188152183725], [28.38722702279648, 38.93188152183725], [28.38722702279648, 38.93242051100772], [28.38776601196696, 38.93242051100772], [28.38776601196696, 38.93188152183725]]]}, "id": "+386628+83615", "properties": {"area_ha": 3.352981032021054, "count": 12, "label": 1, "mean_dnbr": 0.28242972324060084}}, {"type": "Feature", "geometry": {"geodesic": false, "type": "Polygon", "coordinates": [[[28.400162762887817, 39.09789018634254], [28.401240741228747, 39.09789018634254], [28.401240741228747, 39.09842917551301], [28.402318719569706, 39.09842917551301], [28.402318719569706, 39.098968164683484], [28.403935687081116, 39.098968164683484], [28.403935687081116, 39.09842917551301], [28.404474676251596, 39.09842917551301], [28.404474676251596, 39.098968164683484], [28.403935687081116, 39.098968164683484], [28.403935687081116, 39.099507153853956], [28.403396697910637, 39.099507153853956], [28.403396697910637, 39.10004614302442], [28.402318719569706, 39.10004614302442], [28.402318719569706, 39.100585132194894], [28.401779730399227, 39.100585132194894], [28.401779730399227, 39.10004614302442], [28.402318719569706, 39.10004614302442], [28.402318719569706, 39.098968164683484], [28.401240741228747, 39.098968164683484], [28.401240741228747, 39.09842917551301], [28.400162762887817, 39.09842917551301], [28.400162762887817, 39.09789018634254]]]}, "id": "+386651+83307", "properties": {"area_ha": 3.0663145896430453, "count": 11, "label": 1, "mean_dnbr": 0.33561599551972865}}, {"type": "Feature", "geometry": {"geodesic": false, "type": "Polygon", "coordinates": [[[28.406091643763006, 39.12430065569565], [28.406630632933457, 39.12430065569565], [28.406630632933457, 39.12483964486612], [28.406091643763006, 39.12483964486612], [28.406091643763006, 39.12537863403659], [28.405013665422047, 39.12537863403659], [28.405013665422047, 39.125917623207066], [28.403396697910637, 39.125917623207066], [28.403396697910637, 39.12645661237754], [28.400162762887817, 39.12645661237754], [28.400162762887817, 39.125917623207066], [28.400701752058268, 39.125917623207066], [28.400701752058268, 39.12537863403659], [28.405013665422047, 39.12537863403659], [28.405013665422047, 39.12483964486612], [28.406091643763006, 39.12483964486612], [28.406091643763006, 39.12430065569565]]]}, "id": "+386661+83258", "properties": {"area_ha": 4.73703413619828, "count": 17, "label": 1, "mean_dnbr": 0.32220616171525074}}, {"type": "Feature", "geometry": {"geodesic": false, "type": "Polygon", "coordinates": [[[28.43789200482084, 39.16849776767433], [28.43843099399129, 39.16849776767433], [28.43843099399129, 39.169575746015276], [28.43789200482084, 39.169575746015276], [28.43789200482084, 39.17011473518575], [28.43681402647988, 39.17011473518575], [28.43681402647988, 39.17065372435622], [28.43465806979799, 39.17065372435622], [28.43465806979799, 39.17011473518575], [28.43411908062754, 39.17011473518575], [28.43411908062754, 39.169575746015276], [28.43573604813895, 39.169575746015276], [28.43573604813895, 39.17011473518575], [28.43681402647988, 39.17011473518575], [28.43681402647988, 39.169575746015276], [28.43789200482084, 39.169575746015276], [28.43789200482084, 39.16849776767433]]]}, "id": "+386720+83176", "properties": {"area_ha": 3.0632380675372826, "count": 11, "label": 1, "mean_dnbr": 0.39940376395029853}}, {"type": "Feature", "geometry": {"geodesic": false, "type": "Polygon", "coordinates": [[[28.454600669105446, 38.822466720231496], [28.455678647446405, 38.822466720231496], [28.455678647446405, 38.824083687742906], [28.455139658275925, 38.824083687742906], [28.455139658275925, 38.82462267691338], [28.454061679934995, 38.82462267691338], [28.454061679934995, 38.82516166608385], [28.453522690764515, 38.82516166608385], [28.453522690764515, 38.82462267691338], [28.454061679934995, 38.82462267691338], [28.454061679934995, 38.824083687742906], [28.453522690764515, 38.824083687742906], [28.453522690764515, 38.823544698572434], [28.454061679934995, 38.823544698572434], [28.454061679934995, 38.82300570940196], [28.454600669105446, 38.82300570940196], [28.454600669105446, 38.822466720231496]], [[28.455139658275925, 38.82300570940196], [28.455139658275925, 38.823544698572434], [28.454600669105446, 38.823544698572434], [28.454600669105446, 38.82300570940196], [28.455139658275925, 38.82300570940196]]]}, "id": "+386752+83818", "properties": {"area_ha": 3.078257346694273, "count": 11, "label": 1, "mean_dnbr": 0.28325760044626963}}, {"type": "Feature", "geometry": {"geodesic": false, "type": "Polygon", "coordinates": [[[28.456217636616856, 38.819771774379134], [28.457834604128294, 38.819771774379134], [28.457834604128294, 38.82084975272008], [28.456756625787335, 38.82084975272008], [28.456756625787335, 38.82300570940196], [28.456217636616856, 38.82300570940196], [28.456217636616856, 38.82138874189055], [28.455678647446405, 38.82138874189055], [28.455678647446405, 38.821927731061024], [28.454600669105446, 38.821927731061024], [28.454600669105446, 38.82084975272008], [28.456217636616856, 38.82084975272008], [28.456217636616856, 38.819771774379134]]]}, "id": "+386756+83823", "properties": {"area_ha": 4.197775012520491, "count": 15, "label": 1, "mean_dnbr": 0.3012618640195701}}, {"type": "Feature", "geometry": {"geodesic": false, "type": "Polygon", "coordinates": [[[28.52089633707348, 39.19652520453886], [28.52143532624393, 39.19652520453886], [28.52143532624393, 39.19706419370933], [28.52089633707348, 39.19706419370933], [28.52089633707348, 39.1976031828798], [28.520357347903, 39.1976031828798], [28.520357347903, 39.198142172050275], [28.518201391221112, 39.198142172050275], [28.518201391221112, 39.1976031828798], [28.517662402050632, 39.1976031828798], [28.517662402050632, 39.198142172050275], [28.51712341288018, 39.198142172050275], [28.51712341288018, 39.1976031828798], [28.517662402050632, 39.1976031828798], [28.517662402050632, 39.19706419370933], [28.51874038039159, 39.19706419370933], [28.51874038039159, 39.1976031828798], [28.51927936956207, 39.1976031828798], [28.51927936956207, 39.19706419370933], [28.52089633707348, 39.19706419370933], [28.52089633707348, 39.19652520453886]]]}, "id": "+386874+83124", "properties": {"area_ha": 3.062033992618754, "count": 11, "label": 1, "mean_dnbr": 0.4239488855346432}}, {"type": "Feature", "geometry": {"geodesic": false, "type": "Polygon", "coordinates": [[[28.53329308799431, 39.226708598085274], [28.535988033846678, 39.226708598085274], [28.535988033846678, 39.22724758725575], [28.534371066335268, 39.22724758725575], [28.534371066335268, 39.22778657642622], [28.53383207716479, 39.22778657642622], [28.53383207716479, 39.22832556559669], [28.53329308799431, 39.22832556559669], [28.53329308799431, 39.22886455476716], [28.532754098823858, 39.22886455476716], [28.532754098823858, 39.22832556559669], [28.53005915297149, 39.22832556559669], [28.53005915297149, 39.22778657642622], [28.53383207716479, 39.22778657642622], [28.53383207716479, 39.22724758725575], [28.53329308799431, 39.22724758725575], [28.53329308799431, 39.226708598085274]]]}, "id": "+386901+83068", "properties": {"area_ha": 3.8954242988536354, "count": 14, "label": 1, "mean_dnbr": 0.302176410922267}}, {"type": "Feature", "geometry": {"geodesic": false, "type": "Polygon", "coordinates": [[[28.534910055505748, 38.931342532666775], [28.536527023017157, 38.931342532666775], [28.536527023017157, 38.93188152183725], [28.5354490446762, 38.93188152183725], [28.5354490446762, 38.93242051100772], [28.534910055505748, 38.93242051100772], [28.534910055505748, 38.93295950017819], [28.532754098823858, 38.93295950017819], [28.532754098823858, 38.93242051100772], [28.53221510965338, 38.93242051100772], [28.53221510965338, 38.93295950017819], [28.531137131312448, 38.93295950017819], [28.531137131312448, 38.933498489348665], [28.53005915297149, 38.933498489348665], [28.53005915297149, 38.93295950017819], [28.52898117463056, 38.93295950017819], [28.52898117463056, 38.93242051100772], [28.52952016380101, 38.93242051100772], [28.52952016380101, 38.93188152183725], [28.53005915297149, 38.93188152183725], [28.53005915297149, 38.93295950017819], [28.531137131312448, 38.93295950017819], [28.531137131312448, 38.93242051100772], [28.53221510965338, 38.93242051100772], [28.53221510965338, 38.93188152183725], [28.534910055505748, 38.93188152183725], [28.534910055505748, 38.931342532666775]]]}, "id": "+386902+83616", "properties": {"area_ha": 5.588271090248898, "count": 20, "label": 1, "mean_dnbr": 0.2993274072634377}}, {"type": "Feature", "geometry": {"geodesic": false, "type": "Polygon", "coordinates": [[[28.542455903892346, 39.17011473518575], [28.543533882233277, 39.17011473518575], [28.543533882233277, 39.17119271352669], [28.544072871403756, 39.17119271352669], [28.544072871403756, 39.171731702697166], [28.546228828085646, 39.171731702697166], [28.546228828085646, 39.1728096810381], [28.544611860574236, 39.1728096810381], [28.544611860574236, 39.17227069186764], [28.544072871403756, 39.17227069186764], [28.544072871403756, 39.171731702697166], [28.543533882233277, 39.171731702697166], [28.543533882233277, 39.17119271352669], [28.542455903892346, 39.17119271352669], [28.542455903892346, 39.17011473518575]]]}, "id": "+386915+83173", "properties": {"area_ha": 3.341623865104708, "count": 12, "label": 1, "mean_dnbr": 0.21597922376671702}}, {"type": "Feature", "geometry": {"geodesic": false, "type": "Polygon", "coordinates": [[[28.545689838915166, 39.17496563771999], [28.546767817256125, 39.17496563771999], [28.546767817256125, 39.17604361606094], [28.545689838915166, 39.17604361606094], [28.545689838915166, 39.17658260523141], [28.545150849744687, 39.17658260523141], [28.545150849744687, 39.17712159440188], [28.544611860574236, 39.17712159440188], [28.544611860574236, 39.177660583572354], [28.543533882233277, 39.177660583572354], [28.543533882233277, 39.17819957274283], [28.542994893062826, 39.17819957274283], [28.542994893062826, 39.177660583572354], [28.543533882233277, 39.177660583572354], [28.543533882233277, 39.17658260523141], [28.545150849744687, 39.17658260523141], [28.545150849744687, 39.17604361606094], [28.545689838915166, 39.17604361606094], [28.545689838915166, 39.17496563771999]]]}, "id": "+386921+83164", "properties": {"area_ha": 3.0629447918423574, "count": 11, "label": 1, "mean_dnbr": 0.24991919445082028}}, {"type": "Feature", "geometry": {"geodesic": false, "type": "Polygon", "coordinates": [[[28.547845795597055, 39.15017213587829], [28.548923773938014, 39.15017213587829], [28.548923773938014, 39.15125011421924], [28.547845795597055, 39.15125011421924], [28.547845795597055, 39.15178910338971], [28.547306806426576, 39.15178910338971], [28.547306806426576, 39.15232809256018], [28.546767817256125, 39.15232809256018], [28.546767817256125, 39.152867081730655], [28.544611860574236, 39.152867081730655], [28.544611860574236, 39.15340607090113], [28.543533882233277, 39.15340607090113], [28.543533882233277, 39.1539450600716], [28.542994893062826, 39.1539450600716], [28.542994893062826, 39.152867081730655], [28.543533882233277, 39.152867081730655], [28.543533882233277, 39.15232809256018], [28.544072871403756, 39.15232809256018], [28.544072871403756, 39.15178910338971], [28.546767817256125, 39.15178910338971], [28.546767817256125, 39.15125011421924], [28.547306806426576, 39.15125011421924], [28.547306806426576, 39.150711125048765], [28.547845795597055, 39.150711125048765], [28.547845795597055, 39.15017213587829]], [[28.544611860574236, 39.15232809256018], [28.544611860574236, 39.152867081730655], [28.544072871403756, 39.152867081730655], [28.544072871403756, 39.15232809256018], [28.544611860574236, 39.15232809256018]]]}, "id": "+386925+83210", "properties": {"area_ha": 6.128017385860597, "count": 22, "label": 1, "mean_dnbr": 0.305508212944086}}, {"type": "Feature", "geometry": {"geodesic": false, "type": "Polygon", "coordinates": [[[28.554852654813203, 39.41966672111415], [28.557547600665544, 39.41966672111415], [28.557547600665544, 39.42020571028462], [28.558086589836023, 39.42020571028462], [28.558086589836023, 39.42074469945509], [28.559164568176953, 39.42074469945509], [28.559164568176953, 39.421283688625564], [28.557547600665544, 39.421283688625564], [28.557547600665544, 39.42074469945509], [28.557008611495064, 39.42074469945509], [28.557008611495064, 39.421283688625564], [28.556469622324613, 39.421283688625564], [28.556469622324613, 39.42182267779604], [28.554313665642724, 39.42182267779604], [28.554313665642724, 39.421283688625564], [28.555391643983654, 39.421283688625564], [28.555391643983654, 39.42074469945509], [28.555930633154134, 39.42074469945509], [28.555930633154134, 39.42020571028462], [28.554852654813203, 39.42020571028462], [28.554852654813203, 39.41966672111415]]]}, "id": "+386941+82710", "properties": {"area_ha": 5.272115268567175, "count": 19, "label": 1, "mean_dnbr": 0.22390148524146464}}, {"type": "Feature", "geometry": {"geodesic": false, "type": "Polygon", "coordinates": [[[28.565093449052142, 39.38193747918113], [28.56563243822262, 39.38193747918113], [28.56563243822262, 39.382476468351605], [28.5661714273931, 39.382476468351605], [28.5661714273931, 39.38301545752208], [28.565093449052142, 39.38301545752208], [28.565093449052142, 39.38355444669254], [28.56293749237028, 39.38355444669254], [28.56293749237028, 39.384093435863015], [28.561859514029322, 39.384093435863015], [28.561859514029322, 39.38355444669254], [28.56293749237028, 39.38355444669254], [28.56293749237028, 39.382476468351605], [28.563476481540732, 39.382476468351605], [28.563476481540732, 39.38301545752208], [28.56455445988169, 39.38301545752208], [28.56455445988169, 39.382476468351605], [28.565093449052142, 39.382476468351605], [28.565093449052142, 39.38193747918113]]]}, "id": "+386956+82780", "properties": {"area_ha": 3.0539339502183336, "count": 11, "label": 1, "mean_dnbr": 0.2504021503264522}}, {"type": "Feature", "geometry": {"geodesic": false, "type": "Polygon", "coordinates": [[[28.577490199973, 39.28653639600764], [28.57802918914348, 39.28653639600764], [28.57802918914348, 39.287075385178106], [28.578568178313958, 39.287075385178106], [28.578568178313958, 39.28815336351905], [28.57533424329111, 39.28815336351905], [28.57533424329111, 39.28761437434858], [28.57587323246159, 39.28761437434858], [28.57587323246159, 39.287075385178106], [28.577490199973, 39.287075385178106], [28.577490199973, 39.28653639600764]]]}, "id": "+386979+82957", "properties": {"area_ha": 3.3361320337730613, "count": 12, "label": 1, "mean_dnbr": 0.20179274886120202}}, {"type": "Feature", "geometry": {"geodesic": false, "type": "Polygon", "coordinates": [[[28.590425940064335, 39.28869235268952], [28.591503918405266, 39.28869235268952], [28.591503918405266, 39.28977033103047], [28.592042907575745, 39.28977033103047], [28.592042907575745, 39.29030932020094], [28.592581896746225, 39.29030932020094], [28.592581896746225, 39.29084830937141], [28.592042907575745, 39.29084830937141], [28.592042907575745, 39.29192628771236], [28.592581896746225, 39.29192628771236], [28.592581896746225, 39.29246527688283], [28.593120885916676, 39.29246527688283], [28.593120885916676, 39.29354325522377], [28.594737853428086, 39.29354325522377], [28.594737853428086, 39.29408224439424], [28.593120885916676, 39.29408224439424], [28.593120885916676, 39.295160222735184], [28.592042907575745, 39.295160222735184], [28.592042907575745, 39.29408224439424], [28.590964929234786, 39.29408224439424], [28.590964929234786, 39.293004266053295], [28.590425940064335, 39.293004266053295], [28.590425940064335, 39.29084830937141], [28.590964929234786, 39.29084830937141], [28.590964929234786, 39.29030932020094], [28.591503918405266, 39.29030932020094], [28.591503918405266, 39.28977033103047], [28.589886950893856, 39.28977033103047], [28.589886950893856, 39.289231341859995], [28.590425940064335, 39.289231341859995], [28.590425940064335, 39.28869235268952]], [[28.592581896746225, 39.29246527688283], [28.592581896746225, 39.293004266053295], [28.592042907575745, 39.293004266053295], [28.592042907575745, 39.29246527688283], [28.592581896746225, 39.29246527688283]]]}, "id": "+387004+82953", "properties": {"area_ha": 10.563656206337795, "count": 38, "label": 1, "mean_dnbr": 0.28623458126956636}}, {"type": "Feature", "geometry": {"geodesic": false, "type": "Polygon", "coordinates": [[[28.591503918405266, 39.07471365201226], [28.592042907575745, 39.07471365201226], [28.592042907575745, 39.07633061952367], [28.591503918405266, 39.07633061952367], [28.591503918405266, 39.0757916303532], [28.590964929234786, 39.0757916303532], [28.590964929234786, 39.07633061952367], [28.589886950893856, 39.07633061952367], [28.589886950893856, 39.07686960869414], [28.589347961723377, 39.07686960869414], [28.589347961723377, 39.07633061952367], [28.588808972552897, 39.07633061952367], [28.588808972552897, 39.0757916303532], [28.590425940064335, 39.0757916303532], [28.590425940064335, 39.07525264118273], [28.589886950893856, 39.07525264118273], [28.589886950893856, 39.07471365201226], [28.590425940064335, 39.07471365201226], [28.590425940064335, 39.07525264118273], [28.591503918405266, 39.07525264118273], [28.591503918405266, 39.07471365201226]]]}, "id": "+387005+83350", "properties": {"area_ha": 3.067328055722192, "count": 11, "label": 1, "mean_dnbr": 0.23026398960638644}}, {"type": "Feature", "geometry": {"geodesic": false, "type": "Polygon", "coordinates": [[[28.61899236609932, 39.3787035441583], [28.62060933361073, 39.3787035441583], [28.62060933361073, 39.37978152249924], [28.61845337692884, 39.37978152249924], [28.61845337692884, 39.380320511669716], [28.61737539858791, 39.380320511669716], [28.61737539858791, 39.38139849001066], [28.61629742024698, 39.38139849001066], [28.61629742024698, 39.38193747918113], [28.6157584310765, 39.38193747918113], [28.6157584310765, 39.380320511669716], [28.61360247439461, 39.380320511669716], [28.61360247439461, 39.37924253332877], [28.61737539858791, 39.37924253332877], [28.61737539858791, 39.37978152249924], [28.61791438775839, 39.37978152249924], [28.61791438775839, 39.37924253332877], [28.61899236609932, 39.37924253332877], [28.61899236609932, 39.3787035441583]], [[28.61683640941743, 39.37978152249924], [28.61683640941743, 39.38085950084019], [28.61629742024698, 39.38085950084019], [28.61629742024698, 39.37978152249924], [28.61683640941743, 39.37978152249924]]]}, "id": "+387058+82786", "properties": {"area_ha": 8.05160399302886, "count": 29, "label": 1, "mean_dnbr": 0.33888063493552373}}, {"type": "Feature", "geometry": {"geodesic": false, "type": "Polygon", "coordinates": [[[28.6195313552698, 39.37546960913547], [28.62114832278121, 39.37546960913547], [28.62114832278121, 39.376547587476416], [28.62222630112217, 39.376547587476416], [28.62222630112217, 39.37708657664689], [28.62007034444028, 39.37708657664689], [28.62007034444028, 39.377625565817354], [28.6195313552698, 39.377625565817354], [28.6195313552698, 39.37708657664689], [28.61845337692884, 39.37708657664689], [28.61845337692884, 39.376547587476416], [28.61899236609932, 39.376547587476416], [28.61899236609932, 39.376008598305944], [28.6195313552698, 39.376008598305944], [28.6195313552698, 39.37546960913547]]]}, "id": "+387059+82792", "properties": {"area_ha": 4.164843987497491, "count": 15, "label": 1, "mean_dnbr": 0.34313325446874987}}, {"type": "Feature", "geometry": {"geodesic": false, "type": "Polygon", "coordinates": [[[28.631928106190657, 39.107053002240555], [28.632467095361108, 39.107053002240555], [28.632467095361108, 39.1081309805815], [28.634084062872546, 39.1081309805815], [28.634084062872546, 39.10866996975197], [28.631928106190657, 39.10866996975197], [28.631928106190657, 39.109208958922444], [28.630311138679218, 39.109208958922444], [28.630311138679218, 39.10974794809292], [28.629233160338288, 39.10974794809292], [28.629233160338288, 39.109208958922444], [28.630311138679218, 39.109208958922444], [28.630311138679218, 39.10866996975197], [28.631389117020177, 39.10866996975197], [28.631389117020177, 39.1081309805815], [28.631928106190657, 39.1081309805815], [28.631928106190657, 39.107053002240555]]]}, "id": "+387080+83290", "properties": {"area_ha": 3.344628065866467, "count": 12, "label": 1, "mean_dnbr": 0.25425765250396687}}, {"type": "Feature", "geometry": {"geodesic": false, "type": "Polygon", "coordinates": [[[28.637317997895366, 38.93834939188291], [28.637856987065845, 38.93834939188291], [28.637856987065845, 38.93888838105338], [28.637317997895366, 38.93888838105338], [28.637317997895366, 38.939966359394326], [28.635162041213476, 38.939966359394326], [28.635162041213476, 38.9405053485648], [28.634623052042997, 38.9405053485648], [28.634623052042997, 38.94104433773527], [28.634084062872546, 38.94104433773527], [28.634084062872546, 38.939966359394326], [28.634623052042997, 38.939966359394326], [28.634623052042997, 38.939427370223854], [28.635162041213476, 38.939427370223854], [28.635162041213476, 38.93888838105338], [28.635701030383956, 38.93888838105338], [28.635701030383956, 38.939427370223854], [28.636779008724886, 38.939427370223854], [28.636779008724886, 38.93888838105338], [28.637317997895366, 38.93888838105338], [28.637317997895366, 38.93834939188291]]]}, "id": "+387090+83603", "properties": {"area_ha": 3.0732426074434165, "count": 11, "label": 1, "mean_dnbr": 0.23904339722250856}}, {"type": "Feature", "geometry": {"geodesic": false, "type": "Polygon", "coordinates": [[[28.644324857111485, 39.58190246142614], [28.644863846281964, 39.58190246142614], [28.644863846281964, 39.58351942893755], [28.644324857111485, 39.58351942893755], [28.644324857111485, 39.584597407278494], [28.642707889600075, 39.584597407278494], [28.642707889600075, 39.58298043976708], [28.643246878770555, 39.58298043976708], [28.643246878770555, 39.582441450596605], [28.644324857111485, 39.582441450596605], [28.644324857111485, 39.58190246142614]]]}, "id": "+387103+82409", "properties": {"area_ha": 3.8756397159030143, "count": 14, "label": 1, "mean_dnbr": 0.49691977703599816}}, {"type": "Feature", "geometry": {"geodesic": false, "type": "Polygon", "coordinates": [[[28.643246878770555, 39.53770534944746], [28.644863846281964, 39.53770534944746], [28.644863846281964, 39.53824433861793], [28.644324857111485, 39.53824433861793], [28.644324857111485, 39.539861306129346], [28.643246878770555, 39.539861306129346], [28.643246878770555, 39.540939284470284], [28.642707889600075, 39.540939284470284], [28.642707889600075, 39.5425562519817], [28.642168900429596, 39.5425562519817], [28.642168900429596, 39.54309524115217], [28.641090922088665, 39.54309524115217], [28.641090922088665, 39.54201726281123], [28.638934965406776, 39.54201726281123], [28.638934965406776, 39.5425562519817], [28.638395976236296, 39.5425562519817], [28.638395976236296, 39.54309524115217], [28.637317997895366, 39.54309524115217], [28.637317997895366, 39.543634230322645], [28.636240019554407, 39.543634230322645], [28.636240019554407, 39.5425562519817], [28.636779008724886, 39.5425562519817], [28.636779008724886, 39.541478273640756], [28.637856987065845, 39.541478273640756], [28.637856987065845, 39.540939284470284], [28.639473954577255, 39.540939284470284], [28.639473954577255, 39.54040029529981], [28.641090922088665, 39.54040029529981], [28.641090922088665, 39.539322316958874], [28.641629911259145, 39.539322316958874], [28.641629911259145, 39.5387833277884], [28.642707889600075, 39.5387833277884], [28.642707889600075, 39.53824433861793], [28.643246878770555, 39.53824433861793], [28.643246878770555, 39.53770534944746]], [[28.643246878770555, 39.539322316958874], [28.643246878770555, 39.539861306129346], [28.642707889600075, 39.539861306129346], [28.642707889600075, 39.539322316958874], [28.643246878770555, 39.539322316958874]]]}, "id": "+387103+82491", "properties": {"area_ha": 17.174053540344538, "count": 62, "label": 1, "mean_dnbr": 0.3950802432124951}}, {"type": "Feature", "geometry": {"geodesic": false, "type": "Polygon", "coordinates": [[[28.651331716327633, 39.05908296606857], [28.651870705498112, 39.05908296606857], [28.651870705498112, 39.059621955239045], [28.652409694668563, 39.059621955239045], [28.652409694668563, 39.06016094440952], [28.651870705498112, 39.06016094440952], [28.651870705498112, 39.059621955239045], [28.651331716327633, 39.059621955239045], [28.651331716327633, 39.06123892275046], [28.650792727157153, 39.06123892275046], [28.650792727157153, 39.061777911920935], [28.651331716327633, 39.061777911920935], [28.651331716327633, 39.06231690109141], [28.650253737986674, 39.06231690109141], [28.650253737986674, 39.059621955239045], [28.651331716327633, 39.059621955239045], [28.651331716327633, 39.05908296606857]]]}, "id": "+387116+83379", "properties": {"area_ha": 3.06798653952594, "count": 11, "label": 1, "mean_dnbr": 0.17647763102528327}}, {"type": "Feature", "geometry": {"geodesic": false, "type": "Polygon", "coordinates": [[[28.651870705498112, 39.297855168587546], [28.654026662179973, 39.297855168587546], [28.654026662179973, 39.29893314692848], [28.654565651350453, 39.29893314692848], [28.654565651350453, 39.30001112526943], [28.654026662179973, 39.30001112526943], [28.654026662179973, 39.3005501144399], [28.654565651350453, 39.3005501144399], [28.654565651350453, 39.30108910361037], [28.653487673009522, 39.30108910361037], [28.653487673009522, 39.301628092780845], [28.654026662179973, 39.301628092780845], [28.654026662179973, 39.30216708195132], [28.652948683839043, 39.30216708195132], [28.652948683839043, 39.30324506029226], [28.652409694668563, 39.30324506029226], [28.652409694668563, 39.30270607112179], [28.651331716327633, 39.30270607112179], [28.651331716327633, 39.301628092780845], [28.651870705498112, 39.301628092780845], [28.651870705498112, 39.30108910361037], [28.652409694668563, 39.30108910361037], [28.652409694668563, 39.3005501144399], [28.651870705498112, 39.3005501144399], [28.651870705498112, 39.299472136098956], [28.652409694668563, 39.299472136098956], [28.652409694668563, 39.29893314692848], [28.651870705498112, 39.29893314692848], [28.651870705498112, 39.297855168587546]], [[28.654026662179973, 39.299472136098956], [28.654026662179973, 39.30001112526943], [28.653487673009522, 39.30001112526943], [28.653487673009522, 39.299472136098956], [28.654026662179973, 39.299472136098956]], [[28.653487673009522, 39.29893314692848], [28.653487673009522, 39.299472136098956], [28.652948683839043, 39.299472136098956], [28.652948683839043, 39.29893314692848], [28.653487673009522, 39.29893314692848]]]}, "id": "+387120+82936", "properties": {"area_ha": 9.728547780760964, "count": 35, "label": 1, "mean_dnbr": 0.2444417163696124}}, {"type": "Feature", "geometry": {"geodesic": false, "type": "Polygon", "coordinates": [[[28.675047239828388, 39.04453025846584], [28.678281174851207, 39.04453025846584], [28.678281174851207, 39.04506924763631], [28.679898142362617, 39.04506924763631], [28.679898142362617, 39.045608236806785], [28.677742185680728, 39.045608236806785], [28.677742185680728, 39.04506924763631], [28.675586228998867, 39.04506924763631], [28.675586228998867, 39.045608236806785], [28.675047239828388, 39.045608236806785], [28.675047239828388, 39.04453025846584]]]}, "id": "+387165+83406", "properties": {"area_ha": 3.0686534605882176, "count": 11, "label": 1, "mean_dnbr": 0.2921430204182315}}, {"type": "Feature", "geometry": {"geodesic": false, "type": "Polygon", "coordinates": [[[28.682593088214986, 39.14100931998028], [28.683132077385466, 39.14100931998028], [28.683132077385466, 39.14154830915075], [28.684210055726396, 39.14154830915075], [28.684210055726396, 39.14208729832122], [28.684749044896876, 39.14208729832122], [28.684749044896876, 39.14154830915075], [28.685288034067355, 39.14154830915075], [28.685288034067355, 39.14208729832122], [28.684749044896876, 39.14208729832122], [28.684749044896876, 39.14262628749169], [28.684210055726396, 39.14262628749169], [28.684210055726396, 39.14316527666216], [28.683671066555917, 39.14316527666216], [28.683671066555917, 39.14262628749169], [28.683132077385466, 39.14262628749169], [28.683132077385466, 39.14208729832122], [28.681515109874056, 39.14208729832122], [28.681515109874056, 39.14154830915075], [28.682593088214986, 39.14154830915075], [28.682593088214986, 39.14100931998028]]]}, "id": "+387174+83227", "properties": {"area_ha": 3.0644501702946707, "count": 11, "label": 1, "mean_dnbr": 0.2528733569367994}}, {"type": "Feature", "geometry": {"geodesic": false, "type": "Polygon", "coordinates": [[[28.691755904112995, 39.022431702476496], [28.692294893283474, 39.022431702476496], [28.692294893283474, 39.02297069164697], [28.692833882453954, 39.02297069164697], [28.692833882453954, 39.02350968081744], [28.693911860794884, 39.02350968081744], [28.693911860794884, 39.02404866998791], [28.694989839135843, 39.02404866998791], [28.694989839135843, 39.024587659158385], [28.697145795817733, 39.024587659158385], [28.697145795817733, 39.02404866998791], [28.697684784988184, 39.02404866998791], [28.697684784988184, 39.02512664832886], [28.694450849965364, 39.02512664832886], [28.694450849965364, 39.024587659158385], [28.693372871624433, 39.024587659158385], [28.693372871624433, 39.02404866998791], [28.692294893283474, 39.02404866998791], [28.692294893283474, 39.02350968081744], [28.690677925772064, 39.02350968081744], [28.690677925772064, 39.02404866998791], [28.690138936601585, 39.02404866998791], [28.690138936601585, 39.02350968081744], [28.690677925772064, 39.02350968081744], [28.690677925772064, 39.02297069164697], [28.691755904112995, 39.02297069164697], [28.691755904112995, 39.022431702476496]]]}, "id": "+387191+83447", "properties": {"area_ha": 5.302014465639704, "count": 19, "label": 1, "mean_dnbr": 0.34990423970885753}}, {"type": "Feature", "geometry": {"geodesic": false, "type": "Polygon", "coordinates": [[[28.694989839135843, 38.974461666304514], [28.699301752499622, 38.974461666304514], [28.699301752499622, 38.975000655474986], [28.695528828306323, 38.975000655474986], [28.695528828306323, 38.97553964464546], [28.694450849965364, 38.97553964464546], [28.694450849965364, 38.9766176229864], [28.693911860794884, 38.9766176229864], [28.693911860794884, 38.977156612156875], [28.693372871624433, 38.977156612156875], [28.693372871624433, 38.9766176229864], [28.693911860794884, 38.9766176229864], [28.693911860794884, 38.97553964464546], [28.694450849965364, 38.97553964464546], [28.694450849965364, 38.975000655474986], [28.694989839135843, 38.975000655474986], [28.694989839135843, 38.974461666304514]]]}, "id": "+387204+83536", "properties": {"area_ha": 3.6301712243759967, "count": 13, "label": 1, "mean_dnbr": 0.42273187983804217}}, {"type": "Feature", "geometry": {"geodesic": false, "type": "Polygon", "coordinates": [[[28.727868178534607, 39.26874975338207], [28.728407167705086, 39.26874975338207], [28.728407167705086, 39.26982773172301], [28.727329189364127, 39.26982773172301], [28.727329189364127, 39.270366720893485], [28.726790200193676, 39.270366720893485], [28.726790200193676, 39.27090571006396], [28.726251211023197, 39.27090571006396], [28.726251211023197, 39.272522677575374], [28.725712221852717, 39.272522677575374], [28.725712221852717, 39.273061666745846], [28.724634243511787, 39.273061666745846], [28.724634243511787, 39.27360065591632], [28.724095254341307, 39.27360065591632], [28.724095254341307, 39.27413964508679], [28.723556265170828, 39.27413964508679], [28.723556265170828, 39.27360065591632], [28.724095254341307, 39.27360065591632], [28.724095254341307, 39.2719836884049], [28.725173232682266, 39.2719836884049], [28.725173232682266, 39.27144469923443], [28.724634243511787, 39.27144469923443], [28.724634243511787, 39.27090571006396], [28.725173232682266, 39.27090571006396], [28.725173232682266, 39.270366720893485], [28.726251211023197, 39.270366720893485], [28.726251211023197, 39.26982773172301], [28.725173232682266, 39.26982773172301], [28.725173232682266, 39.26928874255254], [28.726251211023197, 39.26928874255254], [28.726251211023197, 39.26874975338207], [28.727329189364127, 39.26874975338207], [28.727329189364127, 39.26928874255254], [28.727868178534607, 39.26928874255254], [28.727868178534607, 39.26874975338207]], [[28.725712221852717, 39.27090571006396], [28.725712221852717, 39.27144469923443], [28.725173232682266, 39.27144469923443], [28.725173232682266, 39.27090571006396], [28.725712221852717, 39.27090571006396]]]}, "id": "+387258+82990", "properties": {"area_ha": 7.508027844622284, "count": 27, "label": 1, "mean_dnbr": 0.3062727470826525}}, {"type": "Feature", "geometry": {"geodesic": false, "type": "Polygon", "coordinates": [[[28.730024135216496, 39.401341089318116], [28.731102113557455, 39.401341089318116], [28.731102113557455, 39.402419067659054], [28.726251211023197, 39.402419067659054], [28.726251211023197, 39.40188007848858], [28.726790200193676, 39.40188007848858], [28.726790200193676, 39.401341089318116], [28.729485146046017, 39.401341089318116], [28.729485146046017, 39.40188007848858], [28.730024135216496, 39.40188007848858], [28.730024135216496, 39.401341089318116]]]}, "id": "+387263+82744", "properties": {"area_ha": 4.440941485293504, "count": 16, "label": 1, "mean_dnbr": 0.3122064257785739}}, {"type": "Feature", "geometry": {"geodesic": false, "type": "Polygon", "coordinates": [[[28.747810777842062, 39.06447285777329], [28.74834976701254, 39.06447285777329], [28.74834976701254, 39.065550836114234], [28.749427745353472, 39.065550836114234], [28.749427745353472, 39.066089825284706], [28.74834976701254, 39.066089825284706], [28.74834976701254, 39.06662881445518], [28.746193810330652, 39.06662881445518], [28.746193810330652, 39.06716780362565], [28.745654821160173, 39.06716780362565], [28.745654821160173, 39.06662881445518], [28.746193810330652, 39.06662881445518], [28.746193810330652, 39.066089825284706], [28.74673279950113, 39.066089825284706], [28.74673279950113, 39.065550836114234], [28.747810777842062, 39.065550836114234], [28.747810777842062, 39.06447285777329]]]}, "id": "+387295+83369", "properties": {"area_ha": 3.346649885323547, "count": 12, "label": 1, "mean_dnbr": 0.2995723359403179}}, {"type": "Feature", "geometry": {"geodesic": false, "type": "Polygon", "coordinates": [[[28.75805157208103, 39.0757916303532], [28.76128550710385, 39.0757916303532], [28.76128550710385, 39.07633061952367], [28.75859056125151, 39.07633061952367], [28.75859056125151, 39.07686960869414], [28.75805157208103, 39.07686960869414], [28.75805157208103, 39.077947587035084], [28.75643460456962, 39.077947587035084], [28.75643460456962, 39.07740859786461], [28.75751258291055, 39.07740859786461], [28.75751258291055, 39.07686960869414], [28.75805157208103, 39.07686960869414], [28.75805157208103, 39.0757916303532]]]}, "id": "+387319+83348", "properties": {"area_ha": 3.0672845815895298, "count": 11, "label": 1, "mean_dnbr": 0.3239711310863968}}, {"type": "Feature", "geometry": {"geodesic": false, "type": "Polygon", "coordinates": [[[28.76344146378574, 39.0547710527048], [28.764519442126698, 39.0547710527048], [28.764519442126698, 39.05531004187527], [28.76398045295622, 39.05531004187527], [28.76398045295622, 39.055849031045746], [28.764519442126698, 39.055849031045746], [28.764519442126698, 39.05638802021622], [28.76398045295622, 39.05638802021622], [28.76398045295622, 39.05692700938669], [28.76128550710385, 39.05692700938669], [28.76128550710385, 39.05746599855716], [28.7607465179334, 39.05746599855716], [28.7607465179334, 39.05692700938669], [28.76128550710385, 39.05692700938669], [28.76128550710385, 39.055849031045746], [28.75966853959244, 39.055849031045746], [28.75966853959244, 39.05531004187527], [28.76128550710385, 39.05531004187527], [28.76128550710385, 39.055849031045746], [28.76290247461526, 39.055849031045746], [28.76290247461526, 39.05638802021622], [28.76398045295622, 39.05638802021622], [28.76398045295622, 39.055849031045746], [28.76344146378574, 39.055849031045746], [28.76344146378574, 39.0547710527048]]]}, "id": "+387325+83387", "properties": {"area_ha": 4.462825007465229, "count": 16, "label": 1, "mean_dnbr": 0.23615387279698855}}, {"type": "Feature", "geometry": {"geodesic": false, "type": "Polygon", "coordinates": [[[28.766675398808587, 39.26389885084782], [28.76721438797904, 39.26389885084782], [28.76721438797904, 39.264437840018296], [28.766675398808587, 39.264437840018296], [28.766675398808587, 39.26497682918877], [28.766136409638108, 39.26497682918877], [28.766136409638108, 39.26605480752971], [28.76559742046763, 39.26605480752971], [28.76559742046763, 39.26713278587066], [28.764519442126698, 39.26713278587066], [28.764519442126698, 39.26551581835924], [28.76505843129715, 39.26551581835924], [28.76505843129715, 39.26497682918877], [28.764519442126698, 39.26497682918877], [28.764519442126698, 39.264437840018296], [28.76505843129715, 39.264437840018296], [28.76505843129715, 39.26389885084782], [28.766136409638108, 39.26389885084782], [28.766136409638108, 39.264437840018296], [28.766675398808587, 39.264437840018296], [28.766675398808587, 39.26389885084782]]]}, "id": "+387330+82999", "properties": {"area_ha": 4.4495606621453385, "count": 16, "label": 1, "mean_dnbr": 0.31425209592997505}}, {"type": "Feature", "geometry": {"geodesic": false, "type": "Polygon", "coordinates": [[[28.76721438797904, 39.27090571006396], [28.769909333831407, 39.27090571006396], [28.769909333831407, 39.2719836884049], [28.76883135549045, 39.2719836884049], [28.76883135549045, 39.272522677575374], [28.768292366319997, 39.272522677575374], [28.768292366319997, 39.273061666745846], [28.767753377149518, 39.273061666745846], [28.767753377149518, 39.272522677575374], [28.766675398808587, 39.272522677575374], [28.766675398808587, 39.27144469923443], [28.76721438797904, 39.27144469923443], [28.76721438797904, 39.27090571006396]], [[28.768292366319997, 39.27144469923443], [28.768292366319997, 39.2719836884049], [28.76721438797904, 39.2719836884049], [28.76721438797904, 39.27144469923443], [28.768292366319997, 39.27144469923443]]]}, "id": "+387335+82986", "properties": {"area_ha": 3.892998206703722, "count": 14, "label": 1, "mean_dnbr": 0.505149938447212}}, {"type": "Feature", "geometry": {"geodesic": false, "type": "Polygon", "coordinates": [[[28.772065290513297, 39.25850895914311], [28.772604279683776, 39.25850895914311], [28.772604279683776, 39.25904794831358], [28.774221247195186, 39.25904794831358], [28.774221247195186, 39.25958693748405], [28.772604279683776, 39.25958693748405], [28.772604279683776, 39.260125926654524], [28.773143268854227, 39.260125926654524], [28.773143268854227, 39.260664915825], [28.772604279683776, 39.260664915825], [28.772604279683776, 39.26120390499547], [28.772065290513297, 39.26120390499547], [28.772065290513297, 39.262281883336414], [28.771526301342817, 39.262281883336414], [28.771526301342817, 39.26120390499547], [28.772065290513297, 39.26120390499547], [28.772065290513297, 39.260664915825], [28.771526301342817, 39.260664915825], [28.771526301342817, 39.25958693748405], [28.772065290513297, 39.25958693748405], [28.772065290513297, 39.25850895914311]]]}, "id": "+387340+83009", "properties": {"area_ha": 3.6155384237696655, "count": 13, "label": 1, "mean_dnbr": 0.24023865441841272}}, {"type": "Feature", "geometry": {"geodesic": false, "type": "Polygon", "coordinates": [[[28.798475759866392, 39.35229307480519], [28.79955373820735, 39.35229307480519], [28.79955373820735, 39.35283206397566], [28.798475759866392, 39.35283206397566], [28.798475759866392, 39.35337105314613], [28.79739778152546, 39.35337105314613], [28.79739778152546, 39.3539100423166], [28.796858792354982, 39.3539100423166], [28.796858792354982, 39.35337105314613], [28.79578081401405, 39.35337105314613], [28.79578081401405, 39.35283206397566], [28.79416384650264, 39.35283206397566], [28.79416384650264, 39.35229307480519], [28.796858792354982, 39.35229307480519], [28.796858792354982, 39.35337105314613], [28.79739778152546, 39.35337105314613], [28.79739778152546, 39.35283206397566], [28.798475759866392, 39.35283206397566], [28.798475759866392, 39.35229307480519]]]}, "id": "+387390+82835", "properties": {"area_ha": 3.3329915160940726, "count": 12, "label": 1, "mean_dnbr": 0.36383978719149623}}, {"type": "Feature", "geometry": {"geodesic": false, "type": "Polygon", "coordinates": [[[28.80224868405972, 39.307556973656034], [28.80494362991206, 39.307556973656034], [28.80494362991206, 39.30863495199698], [28.80332666240065, 39.30863495199698], [28.80332666240065, 39.30917394116745], [28.80278767323017, 39.30917394116745], [28.80278767323017, 39.30971293033792], [28.80224868405972, 39.30971293033792], [28.80224868405972, 39.30917394116745], [28.80170969488924, 39.30917394116745], [28.80170969488924, 39.30863495199698], [28.80224868405972, 39.30863495199698], [28.80224868405972, 39.307556973656034]]]}, "id": "+387400+82918", "properties": {"area_ha": 3.890964597282352, "count": 14, "label": 1, "mean_dnbr": 0.389726946859919}}, {"type": "Feature", "geometry": {"geodesic": false, "type": "Polygon", "coordinates": [[[28.80602160825302, 39.30216708195132], [28.80709958659395, 39.30216708195132], [28.80709958659395, 39.30270607112179], [28.80763857576443, 39.30270607112179], [28.80763857576443, 39.30324506029226], [28.80709958659395, 39.30324506029226], [28.80709958659395, 39.30432303863321], [28.80763857576443, 39.30432303863321], [28.80763857576443, 39.305401016974145], [28.80656059742347, 39.305401016974145], [28.80656059742347, 39.30594000614462], [28.80602160825302, 39.30594000614462], [28.80602160825302, 39.30647899531509], [28.80548261908254, 39.30647899531509], [28.80548261908254, 39.30594000614462], [28.80440464074158, 39.30594000614462], [28.80440464074158, 39.305401016974145], [28.80332666240065, 39.305401016974145], [28.80332666240065, 39.30486202780368], [28.80440464074158, 39.30486202780368], [28.80440464074158, 39.305401016974145], [28.80548261908254, 39.305401016974145], [28.80548261908254, 39.30486202780368], [28.80709958659395, 39.30486202780368], [28.80709958659395, 39.30432303863321], [28.80656059742347, 39.30432303863321], [28.80656059742347, 39.303784049462735], [28.80602160825302, 39.303784049462735], [28.80602160825302, 39.30324506029226], [28.80656059742347, 39.30324506029226], [28.80656059742347, 39.30270607112179], [28.80602160825302, 39.30270607112179], [28.80602160825302, 39.30216708195132]]]}, "id": "+387404+82928", "properties": {"area_ha": 5.280895126510794, "count": 19, "label": 1, "mean_dnbr": 0.2756309018799586}}, {"type": "Feature", "geometry": {"geodesic": false, "type": "Polygon", "coordinates": [[[28.81033352161677, 39.30108910361037], [28.81087251078725, 39.30108910361037], [28.81087251078725, 39.301628092780845], [28.81033352161677, 39.301628092780845], [28.81033352161677, 39.30270607112179], [28.80979453244632, 39.30270607112179], [28.80979453244632, 39.303784049462735], [28.81033352161677, 39.303784049462735], [28.81033352161677, 39.30486202780368], [28.80979453244632, 39.30486202780368], [28.80979453244632, 39.30432303863321], [28.80871655410536, 39.30432303863321], [28.80871655410536, 39.30486202780368], [28.80817756493491, 39.30486202780368], [28.80817756493491, 39.303784049462735], [28.80925554327584, 39.303784049462735], [28.80925554327584, 39.301628092780845], [28.81033352161677, 39.301628092780845], [28.81033352161677, 39.30108910361037]]]}, "id": "+387411+82930", "properties": {"area_ha": 3.6133128503289185, "count": 13, "label": 1, "mean_dnbr": 0.3229571231489517}}, {"type": "Feature", "geometry": {"geodesic": false, "type": "Polygon", "coordinates": [[[28.811950489128208, 39.278990547621035], [28.814106445810097, 39.278990547621035], [28.814106445810097, 39.27952953679151], [28.813567456639618, 39.27952953679151], [28.813567456639618, 39.28006852596198], [28.813028467469138, 39.28006852596198], [28.813028467469138, 39.28060751513245], [28.813567456639618, 39.28060751513245], [28.813567456639618, 39.28168549347339], [28.813028467469138, 39.28168549347339], [28.813028467469138, 39.28114650430292], [28.81248947829866, 39.28114650430292], [28.81248947829866, 39.28006852596198], [28.811950489128208, 39.28006852596198], [28.811950489128208, 39.278990547621035]]]}, "id": "+387417+82971", "properties": {"area_ha": 3.0584271347046403, "count": 11, "label": 1, "mean_dnbr": 0.2903365248417519}}, {"type": "Feature", "geometry": {"geodesic": false, "type": "Polygon", "coordinates": [[[28.821652294196696, 39.257969969972635], [28.822191283367175, 39.257969969972635], [28.822191283367175, 39.25904794831358], [28.821652294196696, 39.25904794831358], [28.821652294196696, 39.25958693748405], [28.821113305026216, 39.25958693748405], [28.821113305026216, 39.260125926654524], [28.819496337514806, 39.260125926654524], [28.819496337514806, 39.260664915825], [28.818418359173847, 39.260664915825], [28.818418359173847, 39.26120390499547], [28.816262402491958, 39.26120390499547], [28.816262402491958, 39.262281883336414], [28.815723413321507, 39.262281883336414], [28.815723413321507, 39.26282087250688], [28.816262402491958, 39.26282087250688], [28.816262402491958, 39.26335986167735], [28.815184424151028, 39.26335986167735], [28.815184424151028, 39.26282087250688], [28.814645434980548, 39.26282087250688], [28.814645434980548, 39.26335986167735], [28.813567456639618, 39.26335986167735], [28.813567456639618, 39.262281883336414], [28.815184424151028, 39.262281883336414], [28.815184424151028, 39.26120390499547], [28.816262402491958, 39.26120390499547], [28.816262402491958, 39.260664915825], [28.816801391662437, 39.260664915825], [28.816801391662437, 39.260125926654524], [28.819496337514806, 39.260125926654524], [28.819496337514806, 39.25904794831358], [28.821113305026216, 39.25904794831358], [28.821113305026216, 39.25850895914311], [28.821652294196696, 39.25850895914311], [28.821652294196696, 39.257969969972635]]]}, "id": "+387432+83010", "properties": {"area_ha": 8.621563147365823, "count": 31, "label": 1, "mean_dnbr": 0.36160468376564325}}, {"type": "Feature", "geometry": {"geodesic": false, "type": "Polygon", "coordinates": [[[28.822191283367175, 39.17065372435622], [28.822730272537626, 39.17065372435622], [28.822730272537626, 39.171731702697166], [28.822191283367175, 39.171731702697166], [28.822191283367175, 39.17227069186764], [28.821652294196696, 39.17227069186764], [28.821652294196696, 39.1728096810381], [28.821113305026216, 39.1728096810381], [28.821113305026216, 39.173348670208576], [28.820574315855737, 39.173348670208576], [28.820574315855737, 39.17388765937905], [28.820035326685286, 39.17388765937905], [28.820035326685286, 39.173348670208576], [28.820574315855737, 39.173348670208576], [28.820574315855737, 39.17227069186764], [28.820035326685286, 39.17227069186764], [28.820035326685286, 39.1728096810381], [28.819496337514806, 39.1728096810381], [28.819496337514806, 39.17227069186764], [28.820035326685286, 39.17227069186764], [28.820035326685286, 39.171731702697166], [28.820574315855737, 39.171731702697166], [28.820574315855737, 39.17227069186764], [28.821113305026216, 39.17227069186764], [28.821113305026216, 39.171731702697166], [28.821652294196696, 39.171731702697166], [28.821652294196696, 39.17119271352669], [28.822191283367175, 39.17119271352669], [28.822191283367175, 39.17065372435622]]]}, "id": "+387433+83172", "properties": {"area_ha": 3.0631345481342627, "count": 11, "label": 1, "mean_dnbr": 0.2510048227221508}}, {"type": "Feature", "geometry": {"geodesic": false, "type": "Polygon", "coordinates": [[[28.824347240049036, 39.27413964508679], [28.827042185901405, 39.27413964508679], [28.827042185901405, 39.27467863425726], [28.826503196730926, 39.27467863425726], [28.826503196730926, 39.27521762342773], [28.824347240049036, 39.27521762342773], [28.824347240049036, 39.2757566125982], [28.823808250878585, 39.2757566125982], [28.823808250878585, 39.27629560176867], [28.822730272537626, 39.27629560176867], [28.822730272537626, 39.27521762342773], [28.824347240049036, 39.27521762342773], [28.824347240049036, 39.27413964508679]]]}, "id": "+387441+82980", "properties": {"area_ha": 3.8928195981910214, "count": 14, "label": 1, "mean_dnbr": 0.25439576010838216}}, {"type": "Feature", "geometry": {"geodesic": false, "type": "Polygon", "coordinates": [[[28.829737131753774, 39.14586022251452], [28.830276120924225, 39.14586022251452], [28.830276120924225, 39.146399211684994], [28.829737131753774, 39.146399211684994], [28.829737131753774, 39.146938200855466], [28.829198142583294, 39.146938200855466], [28.829198142583294, 39.14747719002594], [28.828659153412815, 39.14747719002594], [28.828659153412815, 39.14801617919641], [28.828120164242364, 39.14801617919641], [28.828120164242364, 39.14747719002594], [28.827042185901405, 39.14747719002594], [28.827042185901405, 39.14801617919641], [28.826503196730926, 39.14801617919641], [28.826503196730926, 39.14747719002594], [28.827042185901405, 39.14747719002594], [28.827042185901405, 39.146938200855466], [28.827581175071884, 39.146938200855466], [28.827581175071884, 39.146399211684994], [28.829737131753774, 39.146399211684994], [28.829737131753774, 39.14586022251452]]]}, "id": "+387447+83218", "properties": {"area_ha": 3.064225538363972, "count": 11, "label": 1, "mean_dnbr": 0.3541365128210142}}, {"type": "Feature", "geometry": {"geodesic": false, "type": "Polygon", "coordinates": [[[28.830815110094704, 39.27090571006396], [28.831354099265184, 39.27090571006396], [28.831354099265184, 39.27144469923443], [28.834588034288004, 39.27144469923443], [28.834588034288004, 39.2719836884049], [28.833510055947073, 39.2719836884049], [28.833510055947073, 39.272522677575374], [28.832971066776594, 39.272522677575374], [28.832971066776594, 39.273061666745846], [28.833510055947073, 39.273061666745846], [28.833510055947073, 39.27467863425726], [28.831893088435663, 39.27467863425726], [28.831893088435663, 39.27360065591632], [28.830815110094704, 39.27360065591632], [28.830815110094704, 39.27413964508679], [28.830276120924225, 39.27413964508679], [28.830276120924225, 39.27360065591632], [28.829737131753774, 39.27360065591632], [28.829737131753774, 39.273061666745846], [28.830276120924225, 39.273061666745846], [28.830276120924225, 39.272522677575374], [28.831354099265184, 39.272522677575374], [28.831354099265184, 39.27144469923443], [28.830815110094704, 39.27144469923443], [28.830815110094704, 39.27090571006396]]]}, "id": "+387449+82986", "properties": {"area_ha": 8.342010060315173, "count": 30, "label": 1, "mean_dnbr": 0.23300986350924674}}, {"type": "Feature", "geometry": {"geodesic": false, "type": "Polygon", "coordinates": [[[28.830815110094704, 39.163107875969615], [28.831354099265184, 39.163107875969615], [28.831354099265184, 39.16364686514009], [28.830815110094704, 39.16364686514009], [28.830815110094704, 39.16418585431056], [28.829737131753774, 39.16418585431056], [28.829737131753774, 39.16472484348103], [28.829198142583294, 39.16472484348103], [28.829198142583294, 39.16418585431056], [28.826503196730926, 39.16418585431056], [28.826503196730926, 39.165263832651505], [28.825425218389995, 39.165263832651505], [28.825425218389995, 39.16418585431056], [28.826503196730926, 39.16418585431056], [28.826503196730926, 39.16364686514009], [28.827042185901405, 39.16364686514009], [28.827042185901405, 39.163107875969615], [28.827581175071884, 39.163107875969615], [28.827581175071884, 39.16364686514009], [28.830815110094704, 39.16364686514009], [28.830815110094704, 39.163107875969615]]]}, "id": "+387449+83186", "properties": {"area_ha": 4.1774738355188585, "count": 15, "label": 1, "mean_dnbr": 0.2707049204585506}}, {"type": "Feature", "geometry": {"geodesic": false, "type": "Polygon", "coordinates": [[[28.836205001799414, 39.27737358010962], [28.836743990969893, 39.27737358010962], [28.836743990969893, 39.27791256928009], [28.837821969310852, 39.27791256928009], [28.837821969310852, 39.27845155845056], [28.838360958481303, 39.27845155845056], [28.838360958481303, 39.278990547621035], [28.839438936822262, 39.278990547621035], [28.839438936822262, 39.28006852596198], [28.838899947651782, 39.28006852596198], [28.838899947651782, 39.27952953679151], [28.838360958481303, 39.27952953679151], [28.838360958481303, 39.28006852596198], [28.837821969310852, 39.28006852596198], [28.837821969310852, 39.27952953679151], [28.838360958481303, 39.27952953679151], [28.838360958481303, 39.278990547621035], [28.836743990969893, 39.278990547621035], [28.836743990969893, 39.27952953679151], [28.837282980140373, 39.27952953679151], [28.837282980140373, 39.28006852596198], [28.836205001799414, 39.28006852596198], [28.836205001799414, 39.278990547621035], [28.836743990969893, 39.278990547621035], [28.836743990969893, 39.27845155845056], [28.836205001799414, 39.27845155845056], [28.836205001799414, 39.27737358010962]]]}, "id": "+387459+82974", "properties": {"area_ha": 3.8926116601240834, "count": 14, "label": 1, "mean_dnbr": 0.17696781345326387}}, {"type": "Feature", "geometry": {"geodesic": false, "type": "Polygon", "coordinates": [[[28.836205001799414, 39.49943711834396], [28.837282980140373, 39.49943711834396], [28.837282980140373, 39.499976107514435], [28.836743990969893, 39.499976107514435], [28.836743990969893, 39.502132064196324], [28.835127023458483, 39.502132064196324], [28.835127023458483, 39.50159307502585], [28.834588034288004, 39.50159307502585], [28.834588034288004, 39.50105408585538], [28.833510055947073, 39.50105408585538], [28.833510055947073, 39.50159307502585], [28.832971066776594, 39.50159307502585], [28.832971066776594, 39.502132064196324], [28.832432077606114, 39.502132064196324], [28.832432077606114, 39.50321004253727], [28.831893088435663, 39.50321004253727], [28.831893088435663, 39.50374903170774], [28.831354099265184, 39.50374903170774], [28.831354099265184, 39.50321004253727], [28.831893088435663, 39.50321004253727], [28.831893088435663, 39.5026710533668], [28.831354099265184, 39.5026710533668], [28.831354099265184, 39.502132064196324], [28.832432077606114, 39.502132064196324], [28.832432077606114, 39.50159307502585], [28.831893088435663, 39.50159307502585], [28.831893088435663, 39.50105408585538], [28.833510055947073, 39.50105408585538], [28.833510055947073, 39.50051509668491], [28.834588034288004, 39.50051509668491], [28.834588034288004, 39.50105408585538], [28.835127023458483, 39.50105408585538], [28.835127023458483, 39.50159307502585], [28.836205001799414, 39.50159307502585], [28.836205001799414, 39.49943711834396]]]}, "id": "+387460+82562", "properties": {"area_ha": 5.266008085368037, "count": 19, "label": 1, "mean_dnbr": 0.3189620414537628}}, {"type": "Feature", "geometry": {"geodesic": false, "type": "Polygon", "coordinates": [[[28.841055904333672, 39.48865733493453], [28.842133882674602, 39.48865733493453], [28.842133882674602, 39.489196324105], [28.841055904333672, 39.489196324105], [28.841055904333672, 39.489735313275474], [28.837821969310852, 39.489735313275474], [28.837821969310852, 39.489196324105], [28.838360958481303, 39.489196324105], [28.838360958481303, 39.48865733493453], [28.83997792599274, 39.48865733493453], [28.83997792599274, 39.489196324105], [28.841055904333672, 39.489196324105], [28.841055904333672, 39.48865733493453]]]}, "id": "+387469+82582", "properties": {"area_ha": 3.049297635738213, "count": 11, "label": 1, "mean_dnbr": 0.25842667314423085}}, {"type": "Feature", "geometry": {"geodesic": false, "type": "Polygon", "coordinates": [[[28.84482882852697, 39.49027430244595], [28.84536781769745, 39.49027430244595], [28.84536781769745, 39.49189126995736], [28.84482882852697, 39.49189126995736], [28.84482882852697, 39.4929692482983], [28.84375085018604, 39.4929692482983], [28.84375085018604, 39.49243025912783], [28.84321186101556, 39.49243025912783], [28.84321186101556, 39.4929692482983], [28.84267287184508, 39.4929692482983], [28.84267287184508, 39.493508237468774], [28.84159489350415, 39.493508237468774], [28.84159489350415, 39.4929692482983], [28.84267287184508, 39.4929692482983], [28.84267287184508, 39.49189126995736], [28.84482882852697, 39.49189126995736], [28.84482882852697, 39.49027430244595]]]}, "id": "+387475+82579", "properties": {"area_ha": 3.32633700679447, "count": 12, "label": 1, "mean_dnbr": 0.376190033485847}}, {"type": "Feature", "geometry": {"geodesic": false, "type": "Polygon", "coordinates": [[[28.84698478520886, 39.252041089097446], [28.84806276354979, 39.252041089097446], [28.84806276354979, 39.25258007826792], [28.84860175272027, 39.25258007826792], [28.84860175272027, 39.25311906743839], [28.84806276354979, 39.25311906743839], [28.84806276354979, 39.25365805660886], [28.84860175272027, 39.25365805660886], [28.84860175272027, 39.254197045779335], [28.84806276354979, 39.254197045779335], [28.84806276354979, 39.25365805660886], [28.84698478520886, 39.25365805660886], [28.84698478520886, 39.254197045779335], [28.84644579603838, 39.254197045779335], [28.84644579603838, 39.25473603494981], [28.84698478520886, 39.25473603494981], [28.84698478520886, 39.25527502412028], [28.84644579603838, 39.25527502412028], [28.84644579603838, 39.25581401329075], [28.84698478520886, 39.25581401329075], [28.84698478520886, 39.256353002461225], [28.84644579603838, 39.256353002461225], [28.84644579603838, 39.25689199163169], [28.84590680686793, 39.25689199163169], [28.84590680686793, 39.25581401329075], [28.84536781769745, 39.25581401329075], [28.84536781769745, 39.25365805660886], [28.84482882852697, 39.25365805660886], [28.84482882852697, 39.25311906743839], [28.84428983935649, 39.25311906743839], [28.84428983935649, 39.25258007826792], [28.84644579603838, 39.25258007826792], [28.84644579603838, 39.25311906743839], [28.84698478520886, 39.25311906743839], [28.84698478520886, 39.252041089097446]], [[28.84644579603838, 39.25473603494981], [28.84644579603838, 39.25527502412028], [28.84590680686793, 39.25527502412028], [28.84590680686793, 39.25473603494981], [28.84644579603838, 39.25473603494981]]]}, "id": "+387480+83021", "properties": {"area_ha": 7.787995463478896, "count": 28, "label": 1, "mean_dnbr": 0.23134334979575502}}, {"type": "Feature", "geometry": {"geodesic": false, "type": "Polygon", "coordinates": [[[28.85345265525453, 39.37708657664689], [28.85506962276594, 39.37708657664689], [28.85506962276594, 39.377625565817354], [28.85453063359546, 39.377625565817354], [28.85453063359546, 39.378164554987826], [28.85614760110687, 39.378164554987826], [28.85614760110687, 39.37924253332877], [28.85506962276594, 39.37924253332877], [28.85506962276594, 39.37978152249924], [28.85614760110687, 39.37978152249924], [28.85614760110687, 39.380320511669716], [28.85399164442498, 39.380320511669716], [28.85399164442498, 39.37978152249924], [28.85345265525453, 39.37978152249924], [28.85345265525453, 39.37924253332877], [28.85399164442498, 39.37924253332877], [28.85399164442498, 39.3787035441583], [28.85453063359546, 39.3787035441583], [28.85453063359546, 39.378164554987826], [28.85345265525453, 39.378164554987826], [28.85345265525453, 39.37708657664689]]]}, "id": "+387493+82789", "properties": {"area_ha": 5.275289460188224, "count": 19, "label": 1, "mean_dnbr": 0.3168250556122912}}, {"type": "Feature", "geometry": {"geodesic": false, "type": "Polygon", "coordinates": [[[28.85453063359546, 39.359299934021315], [28.85506962276594, 39.359299934021315], [28.85506962276594, 39.36037791236226], [28.85453063359546, 39.36037791236226], [28.85453063359546, 39.361455890703205], [28.85345265525453, 39.361455890703205], [28.85345265525453, 39.36199487987368], [28.85291366608405, 39.36199487987368], [28.85291366608405, 39.36253386904415], [28.85237467691357, 39.36253386904415], [28.85237467691357, 39.36199487987368], [28.85183568774312, 39.36199487987368], [28.85183568774312, 39.36091690153273], [28.85399164442498, 39.36091690153273], [28.85399164442498, 39.35983892319179], [28.85453063359546, 39.35983892319179], [28.85453063359546, 39.359299934021315]]]}, "id": "+387493+82822", "properties": {"area_ha": 3.610320108976439, "count": 13, "label": 1, "mean_dnbr": 0.229835982631633}}, {"type": "Feature", "geometry": {"geodesic": false, "type": "Polygon", "coordinates": [[[28.861537492811607, 39.568427732164345], [28.862076481982058, 39.568427732164345], [28.862076481982058, 39.57004469967576], [28.85992052530017, 39.57004469967576], [28.85992052530017, 39.57058368884623], [28.859381536129717, 39.57058368884623], [28.859381536129717, 39.5711226780167], [28.858842546959238, 39.5711226780167], [28.858842546959238, 39.57166166718717], [28.85830355778876, 39.57166166718717], [28.85830355778876, 39.5711226780167], [28.858842546959238, 39.5711226780167], [28.858842546959238, 39.57004469967576], [28.859381536129717, 39.57004469967576], [28.859381536129717, 39.56950571050529], [28.860459514470648, 39.56950571050529], [28.860459514470648, 39.56896672133482], [28.861537492811607, 39.56896672133482], [28.861537492811607, 39.568427732164345]]]}, "id": "+387506+82434", "properties": {"area_ha": 3.599514991135746, "count": 13, "label": 1, "mean_dnbr": 0.3044772697847339}}, {"type": "Feature", "geometry": {"geodesic": false, "type": "Polygon", "coordinates": [[[28.865310417004906, 39.37546960913547], [28.866927384516316, 39.37546960913547], [28.866927384516316, 39.376547587476416], [28.864771427834427, 39.376547587476416], [28.864771427834427, 39.377625565817354], [28.862615471152537, 39.377625565817354], [28.862615471152537, 39.376547587476416], [28.863693449493496, 39.376547587476416], [28.863693449493496, 39.37546960913547], [28.864771427834427, 39.37546960913547], [28.864771427834427, 39.376008598305944], [28.865310417004906, 39.376008598305944], [28.865310417004906, 39.37546960913547]]]}, "id": "+387515+82792", "properties": {"area_ha": 5.2754744357392935, "count": 19, "label": 1, "mean_dnbr": 0.5095419687335632}}, {"type": "Feature", "geometry": {"geodesic": false, "type": "Polygon", "coordinates": [[[28.868005362857247, 39.36900173908981], [28.869083341198206, 39.36900173908981], [28.869083341198206, 39.37061870660123], [28.868544352027726, 39.37061870660123], [28.868544352027726, 39.3711576957717], [28.868005362857247, 39.3711576957717], [28.868005362857247, 39.371696684942165], [28.866927384516316, 39.371696684942165], [28.866927384516316, 39.3711576957717], [28.866388395345837, 39.3711576957717], [28.866388395345837, 39.37061870660123], [28.866927384516316, 39.37061870660123], [28.866927384516316, 39.3711576957717], [28.867466373686796, 39.3711576957717], [28.867466373686796, 39.370079717430755], [28.868005362857247, 39.370079717430755], [28.868005362857247, 39.36900173908981]]]}, "id": "+387519+82804", "properties": {"area_ha": 3.3321632091468163, "count": 12, "label": 1, "mean_dnbr": 0.30462045372678903}}, {"type": "Feature", "geometry": {"geodesic": false, "type": "Polygon", "coordinates": [[[28.869622330368685, 39.37061870660123], [28.870161319539136, 39.37061870660123], [28.870161319539136, 39.371696684942165], [28.869622330368685, 39.371696684942165], [28.869622330368685, 39.37439163079453], [28.869083341198206, 39.37439163079453], [28.869083341198206, 39.374930619965], [28.868544352027726, 39.374930619965], [28.868544352027726, 39.37546960913547], [28.868005362857247, 39.37546960913547], [28.868005362857247, 39.373852641624055], [28.868544352027726, 39.373852641624055], [28.868544352027726, 39.37277466328311], [28.869083341198206, 39.37277466328311], [28.869083341198206, 39.37223567411264], [28.868544352027726, 39.37223567411264], [28.868544352027726, 39.371696684942165], [28.869083341198206, 39.371696684942165], [28.869083341198206, 39.3711576957717], [28.869622330368685, 39.3711576957717], [28.869622330368685, 39.37061870660123]]]}, "id": "+387521+82801", "properties": {"area_ha": 4.442709114140186, "count": 16, "label": 1, "mean_dnbr": 0.2634237149636101}}, {"type": "Feature", "geometry": {"geodesic": false, "type": "Polygon", "coordinates": [[[28.870161319539136, 39.36091690153273], [28.870700308709615, 39.36091690153273], [28.870700308709615, 39.36199487987368], [28.869083341198206, 39.36199487987368], [28.869083341198206, 39.363611847385094], [28.869622330368685, 39.363611847385094], [28.869622330368685, 39.36307285821462], [28.870700308709615, 39.36307285821462], [28.870700308709615, 39.363611847385094], [28.871778287050546, 39.363611847385094], [28.871778287050546, 39.36415083655557], [28.872856265391505, 39.36415083655557], [28.872856265391505, 39.365228814896504], [28.870700308709615, 39.365228814896504], [28.870700308709615, 39.36415083655557], [28.869083341198206, 39.36415083655557], [28.869083341198206, 39.363611847385094], [28.868005362857247, 39.363611847385094], [28.868005362857247, 39.36415083655557], [28.866927384516316, 39.36415083655557], [28.866927384516316, 39.36468982572604], [28.866388395345837, 39.36468982572604], [28.866388395345837, 39.36415083655557], [28.865849406175357, 39.36415083655557], [28.865849406175357, 39.36468982572604], [28.864232438663947, 39.36468982572604], [28.864232438663947, 39.36415083655557], [28.865849406175357, 39.36415083655557], [28.865849406175357, 39.363611847385094], [28.866927384516316, 39.363611847385094], [28.866927384516316, 39.36307285821462], [28.868544352027726, 39.36307285821462], [28.868544352027726, 39.36199487987368], [28.869083341198206, 39.36199487987368], [28.869083341198206, 39.361455890703205], [28.870161319539136, 39.361455890703205], [28.870161319539136, 39.36091690153273]]]}, "id": "+387522+82819", "properties": {"area_ha": 9.164336211166182, "count": 33, "label": 1, "mean_dnbr": 0.29908874593327084}}, {"type": "Feature", "geometry": {"geodesic": false, "type": "Polygon", "coordinates": [[[28.883636048800923, 39.262281883336414], [28.884175037971403, 39.262281883336414], [28.884175037971403, 39.26282087250688], [28.883636048800923, 39.26282087250688], [28.883636048800923, 39.26335986167735], [28.883097059630472, 39.26335986167735], [28.883097059630472, 39.26389885084782], [28.882558070459993, 39.26389885084782], [28.882558070459993, 39.264437840018296], [28.882019081289513, 39.264437840018296], [28.882019081289513, 39.26497682918877], [28.881480092119062, 39.26497682918877], [28.881480092119062, 39.26605480752971], [28.880402113778104, 39.26605480752971], [28.880402113778104, 39.26551581835924], [28.880941102948583, 39.26551581835924], [28.880941102948583, 39.26497682918877], [28.881480092119062, 39.26497682918877], [28.881480092119062, 39.26335986167735], [28.883097059630472, 39.26335986167735], [28.883097059630472, 39.26282087250688], [28.883636048800923, 39.26282087250688], [28.883636048800923, 39.262281883336414]]]}, "id": "+387547+83002", "properties": {"area_ha": 3.0591203533584337, "count": 11, "label": 1, "mean_dnbr": 0.40527678638116593}}, {"type": "Feature", "geometry": {"geodesic": false, "type": "Polygon", "coordinates": [[[28.886330994653292, 39.285458417666696], [28.88740897299425, 39.285458417666696], [28.88740897299425, 39.28599740683717], [28.88686998382377, 39.28599740683717], [28.88686998382377, 39.287075385178106], [28.886330994653292, 39.287075385178106], [28.886330994653292, 39.28761437434858], [28.884714027141882, 39.28761437434858], [28.884714027141882, 39.28815336351905], [28.883636048800923, 39.28815336351905], [28.883636048800923, 39.28869235268952], [28.882558070459993, 39.28869235268952], [28.882558070459993, 39.28815336351905], [28.883097059630472, 39.28815336351905], [28.883097059630472, 39.28761437434858], [28.884714027141882, 39.28761437434858], [28.884714027141882, 39.287075385178106], [28.886330994653292, 39.287075385178106], [28.886330994653292, 39.285458417666696]]]}, "id": "+387553+82959", "properties": {"area_ha": 3.3361252214854415, "count": 12, "label": 1, "mean_dnbr": 0.3003450449593059}}, {"type": "Feature", "geometry": {"geodesic": false, "type": "Polygon", "coordinates": [[[28.89010391884659, 39.28384145015528], [28.89441583221037, 39.28384145015528], [28.89441583221037, 39.284919428496224], [28.89279886469896, 39.284919428496224], [28.89279886469896, 39.28438043932575], [28.891720886358, 39.28438043932575], [28.891720886358, 39.284919428496224], [28.89118189718755, 39.284919428496224], [28.89118189718755, 39.285458417666696], [28.89064290801707, 39.285458417666696], [28.89064290801707, 39.28438043932575], [28.89010391884659, 39.28438043932575], [28.89010391884659, 39.28384145015528]]]}, "id": "+387566+82962", "properties": {"area_ha": 3.8922574585628493, "count": 14, "label": 1, "mean_dnbr": 0.33973153674779616}}, {"type": "Feature", "geometry": {"geodesic": false, "type": "Polygon", "coordinates": [[[28.90142269142649, 39.370079717430755], [28.90250066976745, 39.370079717430755], [28.90250066976745, 39.3711576957717], [28.90142269142649, 39.3711576957717], [28.90142269142649, 39.371696684942165], [28.90034471308556, 39.371696684942165], [28.90034471308556, 39.373852641624055], [28.89926673474463, 39.373852641624055], [28.89926673474463, 39.37331365245358], [28.89980572391508, 39.37331365245358], [28.89980572391508, 39.3711576957717], [28.90034471308556, 39.3711576957717], [28.90034471308556, 39.37061870660123], [28.90142269142649, 39.37061870660123], [28.90142269142649, 39.370079717430755]]]}, "id": "+387581+82802", "properties": {"area_ha": 3.8874540079843087, "count": 14, "label": 1, "mean_dnbr": 0.3281618153070475}}, {"type": "Feature", "geometry": {"geodesic": false, "type": "Polygon", "coordinates": [[[28.908968539813117, 39.55225805705019], [28.909507528983568, 39.55225805705019], [28.909507528983568, 39.55333603539113], [28.910585507324527, 39.55333603539113], [28.910585507324527, 39.553875024561606], [28.910046518154047, 39.553875024561606], [28.910046518154047, 39.55549199207302], [28.908968539813117, 39.55549199207302], [28.908968539813117, 39.55495300290255], [28.909507528983568, 39.55495300290255], [28.909507528983568, 39.55441401373208], [28.908968539813117, 39.55441401373208], [28.908968539813117, 39.553875024561606], [28.908429550642637, 39.553875024561606], [28.908429550642637, 39.55279704622066], [28.908968539813117, 39.55279704622066], [28.908968539813117, 39.55225805705019]], [[28.909507528983568, 39.55333603539113], [28.909507528983568, 39.553875024561606], [28.908968539813117, 39.553875024561606], [28.908968539813117, 39.55333603539113], [28.909507528983568, 39.55333603539113]]]}, "id": "+387594+82464", "properties": {"area_ha": 3.046440055180027, "count": 11, "label": 1, "mean_dnbr": 0.2593694621188984}}, {"type": "Feature", "geometry": {"geodesic": false, "type": "Polygon", "coordinates": [[[28.965023413542156, 39.44338224461491], [28.966640381053594, 39.44338224461491], [28.966640381053594, 39.44446022295585], [28.965023413542156, 39.44446022295585], [28.965023413542156, 39.446616179637736], [28.964484424371705, 39.446616179637736], [28.964484424371705, 39.443921233785375], [28.965023413542156, 39.443921233785375], [28.965023413542156, 39.44338224461491]]]}, "id": "+387700+82666", "properties": {"area_ha": 3.0512372333579556, "count": 11, "label": 1, "mean_dnbr": 0.3692284456418186}}, {"type": "Feature", "geometry": {"geodesic": false, "type": "Polygon", "coordinates": [[[28.976881175292533, 39.42936852618264], [28.977420164463012, 39.42936852618264], [28.977420164463012, 39.429907515353115], [28.976881175292533, 39.429907515353115], [28.976881175292533, 39.43044650452359], [28.977959153633492, 39.43044650452359], [28.977959153633492, 39.43098549369406], [28.976881175292533, 39.43098549369406], [28.976881175292533, 39.431524482864525], [28.976342186122082, 39.431524482864525], [28.976342186122082, 39.432063472035], [28.975264207781123, 39.432063472035], [28.975264207781123, 39.431524482864525], [28.975803196951603, 39.431524482864525], [28.975803196951603, 39.429907515353115], [28.976881175292533, 39.429907515353115], [28.976881175292533, 39.42936852618264]]]}, "id": "+387720+82692", "properties": {"area_ha": 3.0518382289959343, "count": 11, "label": 1, "mean_dnbr": 0.2522724077541558}}, {"type": "Feature", "geometry": {"geodesic": false, "type": "Polygon", "coordinates": [[[29.04209886491961, 39.57166166718717], [29.04263785409009, 39.57166166718717], [29.04263785409009, 39.572200656357644], [29.04209886491961, 39.572200656357644], [29.04209886491961, 39.57327863469859], [29.041559875749158, 39.57327863469859], [29.041559875749158, 39.574356613039534], [29.04102088657868, 39.574356613039534], [29.04102088657868, 39.57543459138048], [29.03994290823772, 39.57543459138048], [29.03994290823772, 39.574895602210006], [29.0404818974082, 39.574895602210006], [29.0404818974082, 39.57381762386906], [29.03940391906727, 39.57381762386906], [29.03940391906727, 39.57327863469859], [29.0404818974082, 39.57327863469859], [29.0404818974082, 39.57273964552812], [29.04102088657868, 39.57273964552812], [29.04102088657868, 39.572200656357644], [29.04209886491961, 39.572200656357644], [29.04209886491961, 39.57166166718717]], [[29.04102088657868, 39.57327863469859], [29.04102088657868, 39.57381762386906], [29.0404818974082, 39.57381762386906], [29.0404818974082, 39.57327863469859], [29.04102088657868, 39.57327863469859]]]}, "id": "+387841+82428", "properties": {"area_ha": 3.876188934190442, "count": 14, "label": 1, "mean_dnbr": 0.30020209411831716}}]}