{"type": "FeatureCollection", "columns": {"area_ha": "Number", "count": "Long<0, 4294967295>", "label": "Byte<0, 1>", "mean_dnbr": "Object", "system:index": "String"}, "features": [{"type": "Feature", "geometry": {"geodesic": false, "type": "Polygon", "coordinates": [[[28.33764001911308, 36.96888296297927], [28.33979597579497, 36.96888296297927], [28.33979597579497, 36.96996094132022], [28.33278911657885, 36.96996094132022], [28.33278911657885, 36.969421952149744], [28.33764001911308, 36.969421952149744], [28.33764001911308, 36.96888296297927]]]}, "id": "+386537+87257", "properties": {"area_ha": 4.878831246887377, "count": 17, "label": 1, "mean_dnbr": 0.14429985525672595}}, {"type": "Feature", "geometry": {"geodesic": false, "type": "Polygon", "coordinates": [[[28.66426745641894, 36.85515624800974], [28.66696240227131, 36.85515624800974], [28.66696240227131, 36.856234226350686], [28.66750139144179, 36.856234226350686], [28.66750139144179, 36.85677321552116], [28.66804038061224, 36.85677321552116], [28.66804038061224, 36.857312204691624], [28.6653454347599, 36.857312204691624], [28.6653454347599, 36.856234226350686], [28.66426745641894, 36.856234226350686], [28.66426745641894, 36.85515624800974]]]}, "id": "+387144+87468", "properties": {"area_ha": 5.460751062750208, "count": 19, "label": 1, "mean_dnbr": 0.2846420094429297}}, {"type": "Feature", "geometry": {"geodesic": false, "type": "Polygon", "coordinates": [[[28.684749044896876, 36.876176825658135], [28.685288034067355, 36.876176825658135], [28.685288034067355, 36.87725480399908], [28.686366012408286, 36.87725480399908], [28.686366012408286, 36.87779379316955], [28.686905001578765, 36.87779379316955], [28.686905001578765, 36.878332782340024], [28.684749044896876, 36.878332782340024], [28.684749044896876, 36.87779379316955], [28.684210055726396, 36.87779379316955], [28.684210055726396, 36.87671581482861], [28.684749044896876, 36.87671581482861], [28.684749044896876, 36.876176825658135]]]}, "id": "+387178+87429", "properties": {"area_ha": 3.1606114900952784, "count": 11, "label": 1, "mean_dnbr": 0.20665818727043894}}, {"type": "Feature", "geometry": {"geodesic": false, "type": "Polygon", "coordinates": [[[28.686366012408286, 36.853539280498325], [28.688521969090175, 36.853539280498325], [28.688521969090175, 36.8540782696688], [28.689060958260654, 36.8540782696688], [28.689060958260654, 36.85515624800974], [28.685288034067355, 36.85515624800974], [28.685288034067355, 36.8540782696688], [28.686366012408286, 36.8540782696688], [28.686366012408286, 36.853539280498325]]]}, "id": "+387184+87471", "properties": {"area_ha": 5.173492336261741, "count": 18, "label": 1, "mean_dnbr": 0.2204870999207015}}, {"type": "Feature", "geometry": {"geodesic": false, "type": "Polygon", "coordinates": [[[28.690138936601585, 36.86054613971446], [28.693911860794884, 36.86054613971446], [28.693911860794884, 36.86108512888493], [28.693372871624433, 36.86108512888493], [28.693372871624433, 36.8616241180554], [28.692833882453954, 36.8616241180554], [28.692833882453954, 36.862163107225875], [28.690138936601585, 36.862163107225875], [28.690138936601585, 36.86270209639635], [28.689060958260654, 36.86270209639635], [28.689060958260654, 36.862163107225875], [28.689599947431134, 36.862163107225875], [28.689599947431134, 36.8616241180554], [28.691216914942544, 36.8616241180554], [28.691216914942544, 36.86108512888493], [28.690138936601585, 36.86108512888493], [28.690138936601585, 36.86054613971446]]]}, "id": "+387194+87458", "properties": {"area_ha": 5.460352814478902, "count": 19, "label": 1, "mean_dnbr": 0.25999641888174274}}, {"type": "Feature", "geometry": {"geodesic": false, "type": "Polygon", "coordinates": [[[28.738647961944054, 36.71178512866427], [28.739725940284984, 36.71178512866427], [28.739725940284984, 36.71232411783474], [28.740264929455464, 36.71232411783474], [28.740264929455464, 36.71340209617568], [28.741342907796394, 36.71340209617568], [28.741342907796394, 36.71394108534615], [28.740264929455464, 36.71394108534615], [28.740264929455464, 36.71340209617568], [28.739725940284984, 36.71340209617568], [28.739725940284984, 36.71394108534615], [28.739186951114505, 36.71394108534615], [28.739186951114505, 36.71340209617568], [28.738108972773574, 36.71340209617568], [28.738108972773574, 36.712863107005205], [28.737030994432644, 36.712863107005205], [28.737030994432644, 36.71232411783474], [28.736492005262164, 36.71232411783474], [28.736492005262164, 36.712863107005205], [28.734336048580275, 36.712863107005205], [28.734336048580275, 36.71232411783474], [28.734875037750754, 36.71232411783474], [28.734875037750754, 36.71178512866427], [28.737030994432644, 36.71178512866427], [28.737030994432644, 36.71232411783474], [28.738647961944054, 36.71232411783474], [28.738647961944054, 36.71178512866427]]]}, "id": "+387279+87734", "properties": {"area_ha": 6.622773043001807, "count": 23, "label": 1, "mean_dnbr": 0.26635898727650176}}, {"type": "Feature", "geometry": {"geodesic": false, "type": "Polygon", "coordinates": [[[28.745654821160173, 36.7721519157571], [28.747810777842062, 36.7721519157571], [28.747810777842062, 36.77430787243898], [28.746193810330652, 36.77430787243898], [28.746193810330652, 36.774846861609454], [28.745115831989693, 36.774846861609454], [28.745115831989693, 36.77430787243898], [28.745654821160173, 36.77430787243898], [28.745654821160173, 36.77376888326851], [28.746193810330652, 36.77376888326851], [28.746193810330652, 36.77322989409804], [28.745115831989693, 36.77322989409804], [28.745115831989693, 36.77269090492757], [28.745654821160173, 36.77269090492757], [28.745654821160173, 36.7721519157571]]]}, "id": "+387294+87622", "properties": {"area_ha": 5.178943588042185, "count": 18, "label": 1, "mean_dnbr": 0.19373229510632461}}, {"type": "Feature", "geometry": {"geodesic": false, "type": "Polygon", "coordinates": [[[28.74888875618302, 36.71986996622134], [28.74996673452395, 36.71986996622134], [28.74996673452395, 36.72094794456228], [28.75050572369443, 36.72094794456228], [28.75050572369443, 36.721486933732756], [28.74888875618302, 36.721486933732756], [28.74888875618302, 36.72094794456228], [28.74673279950113, 36.72094794456228], [28.74673279950113, 36.72040895539181], [28.747271788671583, 36.72040895539181], [28.747271788671583, 36.71986996622134], [28.747810777842062, 36.71986996622134], [28.747810777842062, 36.72040895539181], [28.74888875618302, 36.72040895539181], [28.74888875618302, 36.71986996622134]]]}, "id": "+387298+87719", "properties": {"area_ha": 3.4550092225074773, "count": 12, "label": 1, "mean_dnbr": 0.279773341911499}}, {"type": "Feature", "geometry": {"geodesic": false, "type": "Polygon", "coordinates": [[[28.75373965871725, 36.903126284181724], [28.75427864788773, 36.903126284181724], [28.75427864788773, 36.903665273352196], [28.75535662622866, 36.903665273352196], [28.75535662622866, 36.90420426252267], [28.75589561539914, 36.90420426252267], [28.75589561539914, 36.90474325169314], [28.75266168037632, 36.90474325169314], [28.75266168037632, 36.903665273352196], [28.75373965871725, 36.903665273352196], [28.75373965871725, 36.903126284181724]]]}, "id": "+387306+87379", "properties": {"area_ha": 3.446752010341506, "count": 12, "label": 1, "mean_dnbr": 0.1880819912193483}}, {"type": "Feature", "geometry": {"geodesic": false, "type": "Polygon", "coordinates": [[[28.75266168037632, 36.86054613971446], [28.75481763705821, 36.86054613971446], [28.75481763705821, 36.8616241180554], [28.75427864788773, 36.8616241180554], [28.75427864788773, 36.862163107225875], [28.75320066954677, 36.862163107225875], [28.75320066954677, 36.8616241180554], [28.75212269120584, 36.8616241180554], [28.75212269120584, 36.862163107225875], [28.75158370203536, 36.862163107225875], [28.75158370203536, 36.8616241180554], [28.75212269120584, 36.8616241180554], [28.75212269120584, 36.86108512888493], [28.75266168037632, 36.86108512888493], [28.75266168037632, 36.86054613971446]]]}, "id": "+387307+87458", "properties": {"area_ha": 3.4486601311595404, "count": 12, "label": 1, "mean_dnbr": 0.18312545410184236}}, {"type": "Feature", "geometry": {"geodesic": false, "type": "Polygon", "coordinates": [[[28.75427864788773, 36.71825299870993], [28.75643460456962, 36.71825299870993], [28.75643460456962, 36.719330977050866], [28.75589561539914, 36.719330977050866], [28.75589561539914, 36.72094794456228], [28.75535662622866, 36.72094794456228], [28.75535662622866, 36.721486933732756], [28.75481763705821, 36.721486933732756], [28.75481763705821, 36.72094794456228], [28.75427864788773, 36.72094794456228], [28.75427864788773, 36.72040895539181], [28.75481763705821, 36.72040895539181], [28.75481763705821, 36.719330977050866], [28.75427864788773, 36.719330977050866], [28.75427864788773, 36.71825299870993]]]}, "id": "+387310+87722", "properties": {"area_ha": 4.606728780996542, "count": 16, "label": 1, "mean_dnbr": 0.35636883315398743}}, {"type": "Feature", "geometry": {"geodesic": false, "type": "Polygon", "coordinates": [[[28.76182449627433, 36.69831039940247], [28.76290247461526, 36.69831039940247], [28.76290247461526, 36.698849388572945], [28.76344146378574, 36.698849388572945], [28.76344146378574, 36.700466356084355], [28.76398045295622, 36.700466356084355], [28.76398045295622, 36.7015443344253], [28.764519442126698, 36.7015443344253], [28.764519442126698, 36.69992736691389], [28.76398045295622, 36.69992736691389], [28.76398045295622, 36.69938837774342], [28.771526301342817, 36.69938837774342], [28.771526301342817, 36.698849388572945], [28.772604279683776, 36.698849388572945], [28.772604279683776, 36.69938837774342], [28.772065290513297, 36.69938837774342], [28.772065290513297, 36.69992736691389], [28.770987312172338, 36.69992736691389], [28.770987312172338, 36.700466356084355], [28.773143268854227, 36.700466356084355], [28.773143268854227, 36.70100534525483], [28.772604279683776, 36.70100534525483], [28.772604279683776, 36.7015443344253], [28.770987312172338, 36.7015443344253], [28.770987312172338, 36.70208332359577], [28.771526301342817, 36.70208332359577], [28.771526301342817, 36.702622312766245], [28.770448323001887, 36.702622312766245], [28.770448323001887, 36.70316130193672], [28.770987312172338, 36.70316130193672], [28.770987312172338, 36.70370029110719], [28.773682258024706, 36.70370029110719], [28.773682258024706, 36.70316130193672], [28.775299225536116, 36.70316130193672], [28.775299225536116, 36.70423928027766], [28.775838214706596, 36.70423928027766], [28.775838214706596, 36.70531725861861], [28.774221247195186, 36.70531725861861], [28.774221247195186, 36.70585624778908], [28.76398045295622, 36.70585624778908], [28.76398045295622, 36.70639523695955], [28.76290247461526, 36.70639523695955], [28.76290247461526, 36.706934226130016], [28.76128550710385, 36.706934226130016], [28.76128550710385, 36.70747321530049], [28.75805157208103, 36.70747321530049], [28.75805157208103, 36.70801220447096], [28.75751258291055, 36.70801220447096], [28.75751258291055, 36.70855119364143], [28.75481763705821, 36.70855119364143], [28.75481763705821, 36.709090182811906], [28.75427864788773, 36.709090182811906], [28.75427864788773, 36.70962917198238], [28.75158370203536, 36.70962917198238], [28.75158370203536, 36.71016816115285], [28.74996673452395, 36.71016816115285], [28.74996673452395, 36.71070715032332], [28.74888875618302, 36.71070715032332], [28.74888875618302, 36.71016816115285], [28.74834976701254, 36.71016816115285], [28.74834976701254, 36.70962917198238], [28.747810777842062, 36.70962917198238], [28.747810777842062, 36.71016816115285], [28.747271788671583, 36.71016816115285], [28.747271788671583, 36.71178512866427], [28.746193810330652, 36.71178512866427], [28.746193810330652, 36.71232411783474], [28.743498864478283, 36.71232411783474], [28.743498864478283, 36.71178512866427], [28.742959875307832, 36.71178512866427], [28.742959875307832, 36.71340209617568], [28.741881896966873, 36.71340209617568], [28.741881896966873, 36.712863107005205], [28.742420886137353, 36.712863107005205], [28.742420886137353, 36.71232411783474], [28.741881896966873, 36.71232411783474], [28.741881896966873, 36.71178512866427], [28.740264929455464, 36.71178512866427], [28.740264929455464, 36.711246139493795], [28.739186951114505, 36.711246139493795], [28.739186951114505, 36.71070715032332], [28.740264929455464, 36.71070715032332], [28.740264929455464, 36.71016816115285], [28.738647961944054, 36.71016816115285], [28.738647961944054, 36.711246139493795], [28.737569983603095, 36.711246139493795], [28.737569983603095, 36.71070715032332], [28.736492005262164, 36.71070715032332], [28.736492005262164, 36.70962917198238], [28.739725940284984, 36.70962917198238], [28.739725940284984, 36.709090182811906], [28.740264929455464, 36.709090182811906], [28.740264929455464, 36.70962917198238], [28.741342907796394, 36.70962917198238], [28.741342907796394, 36.709090182811906], [28.745654821160173, 36.709090182811906], [28.745654821160173, 36.70855119364143], [28.747271788671583, 36.70855119364143], [28.747271788671583, 36.709090182811906], [28.747810777842062, 36.709090182811906], [28.747810777842062, 36.70801220447096], [28.74834976701254, 36.70801220447096], [28.74834976701254, 36.706934226130016], [28.74888875618302, 36.706934226130016], [28.74888875618302, 36.70639523695955], [28.749427745353472, 36.70639523695955], [28.749427745353472, 36.70585624778908], [28.74996673452395, 36.70585624778908], [28.74996673452395, 36.70531725861861], [28.75158370203536, 36.70531725861861], [28.75158370203536, 36.704778269448134], [28.75212269120584, 36.704778269448134], [28.75212269120584, 36.70423928027766], [28.75427864788773, 36.70423928027766], [28.75427864788773, 36.70370029110719], [28.75481763705821, 36.70370029110719], [28.75481763705821, 36.70316130193672], [28.75697359374007, 36.70316130193672], [28.75697359374007, 36.7015443344253], [28.75751258291055, 36.7015443344253], [28.75751258291055, 36.70100534525483], [28.75966853959244, 36.70100534525483], [28.75966853959244, 36.69992736691389], [28.76020752876292, 36.69992736691389], [28.76020752876292, 36.70100534525483], [28.7607465179334, 36.70100534525483], [28.7607465179334, 36.69938837774342], [28.76182449627433, 36.69938837774342], [28.76182449627433, 36.69831039940247]], [[28.741342907796394, 36.71070715032332], [28.741342907796394, 36.711246139493795], [28.740803918625943, 36.711246139493795], [28.740803918625943, 36.71070715032332], [28.741342907796394, 36.71070715032332]], [[28.738108972773574, 36.71016816115285], [28.738108972773574, 36.71070715032332], [28.737569983603095, 36.71070715032332], [28.737569983603095, 36.71016816115285], [28.738108972773574, 36.71016816115285]], [[28.74996673452395, 36.70962917198238], [28.74996673452395, 36.71016816115285], [28.74888875618302, 36.71016816115285], [28.74888875618302, 36.70962917198238], [28.74996673452395, 36.70962917198238]], [[28.75050572369443, 36.70855119364143], [28.75050572369443, 36.709090182811906], [28.74996673452395, 36.709090182811906], [28.74996673452395, 36.70855119364143], [28.75050572369443, 36.70855119364143]], [[28.75212269120584, 36.70801220447096], [28.75212269120584, 36.70855119364143], [28.75158370203536, 36.70855119364143], [28.75158370203536, 36.70801220447096], [28.75212269120584, 36.70801220447096]], [[28.75320066954677, 36.70801220447096], [28.75320066954677, 36.70855119364143], [28.75266168037632, 36.70855119364143], [28.75266168037632, 36.70801220447096], [28.75320066954677, 36.70801220447096]], [[28.75589561539914, 36.706934226130016], [28.75589561539914, 36.70747321530049], [28.75481763705821, 36.70747321530049], [28.75481763705821, 36.706934226130016], [28.75589561539914, 36.706934226130016]], [[28.75212269120584, 36.70639523695955], [28.75212269120584, 36.706934226130016], [28.75266168037632, 36.706934226130016], [28.75266168037632, 36.70747321530049], [28.75158370203536, 36.70747321530049], [28.75158370203536, 36.70639523695955], [28.75212269120584, 36.70639523695955]], [[28.75751258291055, 36.70423928027766], [28.75751258291055, 36.704778269448134], [28.75805157208103, 36.704778269448134], [28.75805157208103, 36.70531725861861], [28.75966853959244, 36.70531725861861], [28.75966853959244, 36.70639523695955], [28.75912955042196, 36.70639523695955], [28.75912955042196, 36.706934226130016], [28.75859056125151, 36.706934226130016], [28.75859056125151, 36.70585624778908], [28.75805157208103, 36.70585624778908], [28.75805157208103, 36.70639523695955], [28.75751258291055, 36.70639523695955], [28.75751258291055, 36.70585624778908], [28.75697359374007, 36.70585624778908], [28.75697359374007, 36.70531725861861], [28.75643460456962, 36.70531725861861], [28.75643460456962, 36.704778269448134], [28.75697359374007, 36.704778269448134], [28.75697359374007, 36.70423928027766], [28.75751258291055, 36.70423928027766]], [[28.76290247461526, 36.70423928027766], [28.76290247461526, 36.704778269448134], [28.76398045295622, 36.704778269448134], [28.76398045295622, 36.70531725861861], [28.76344146378574, 36.70531725861861], [28.76344146378574, 36.70585624778908], [28.76290247461526, 36.70585624778908], [28.76290247461526, 36.70639523695955], [28.76128550710385, 36.70639523695955], [28.76128550710385, 36.70531725861861], [28.76182449627433, 36.70531725861861], [28.76182449627433, 36.704778269448134], [28.76236348544481, 36.704778269448134], [28.76236348544481, 36.70423928027766], [28.76290247461526, 36.70423928027766]], [[28.75966853959244, 36.70370029110719], [28.75966853959244, 36.70423928027766], [28.75912955042196, 36.70423928027766], [28.75912955042196, 36.70370029110719], [28.75966853959244, 36.70370029110719]], [[28.764519442126698, 36.70370029110719], [28.764519442126698, 36.70423928027766], [28.76398045295622, 36.70423928027766], [28.76398045295622, 36.70370029110719], [28.764519442126698, 36.70370029110719]], [[28.767753377149518, 36.70316130193672], [28.767753377149518, 36.70370029110719], [28.766675398808587, 36.70370029110719], [28.766675398808587, 36.70316130193672], [28.767753377149518, 36.70316130193672]], [[28.76182449627433, 36.70208332359577], [28.76182449627433, 36.702622312766245], [28.76128550710385, 36.702622312766245], [28.76128550710385, 36.70208332359577], [28.76182449627433, 36.70208332359577]], [[28.764519442126698, 36.70208332359577], [28.764519442126698, 36.702622312766245], [28.76344146378574, 36.702622312766245], [28.76344146378574, 36.70208332359577], [28.764519442126698, 36.70208332359577]], [[28.770448323001887, 36.7015443344253], [28.770448323001887, 36.70208332359577], [28.769909333831407, 36.70208332359577], [28.769909333831407, 36.7015443344253], [28.770448323001887, 36.7015443344253]]]}, "id": "+387322+87759", "properties": {"area_ha": 165.29785706812615, "count": 574, "label": 1, "mean_dnbr": 0.28287726241209504}}, {"type": "Feature", "geometry": {"geodesic": false, "type": "Polygon", "coordinates": [[[28.76344146378574, 36.76352808902955], [28.764519442126698, 36.76352808902955], [28.764519442126698, 36.764606067370494], [28.76398045295622, 36.764606067370494], [28.76398045295622, 36.765145056540966], [28.76505843129715, 36.765145056540966], [28.76505843129715, 36.76622303488191], [28.764519442126698, 36.76622303488191], [28.764519442126698, 36.76568404571144], [28.76398045295622, 36.76568404571144], [28.76398045295622, 36.76622303488191], [28.76290247461526, 36.76622303488191], [28.76290247461526, 36.765145056540966], [28.76344146378574, 36.765145056540966], [28.76344146378574, 36.76352808902955]]]}, "id": "+387325+87638", "properties": {"area_ha": 3.4530036557530335, "count": 12, "label": 1, "mean_dnbr": 0.15326043441826867}}, {"type": "Feature", "geometry": {"geodesic": false, "type": "Polygon", "coordinates": [[[28.76398045295622, 36.71340209617568], [28.764519442126698, 36.71340209617568], [28.764519442126698, 36.71394108534615], [28.766136409638108, 36.71394108534615], [28.766136409638108, 36.71448007451662], [28.76559742046763, 36.71448007451662], [28.76559742046763, 36.715019063687095], [28.76505843129715, 36.715019063687095], [28.76505843129715, 36.71448007451662], [28.764519442126698, 36.71448007451662], [28.764519442126698, 36.715019063687095], [28.76344146378574, 36.715019063687095], [28.76344146378574, 36.71555805285757], [28.76505843129715, 36.71555805285757], [28.76505843129715, 36.71609704202804], [28.764519442126698, 36.71609704202804], [28.764519442126698, 36.71663603119851], [28.76344146378574, 36.71663603119851], [28.76344146378574, 36.71609704202804], [28.76236348544481, 36.71609704202804], [28.76236348544481, 36.71663603119851], [28.76128550710385, 36.71663603119851], [28.76128550710385, 36.71609704202804], [28.76236348544481, 36.71609704202804], [28.76236348544481, 36.71394108534615], [28.76398045295622, 36.71394108534615], [28.76398045295622, 36.71340209617568]]]}, "id": "+387325+87731", "properties": {"area_ha": 6.910500094792919, "count": 24, "label": 1, "mean_dnbr": 0.45710818972154993}}, {"type": "Feature", "geometry": {"geodesic": false, "type": "Polygon", "coordinates": [[[28.770987312172338, 36.7473584139154], [28.771526301342817, 36.7473584139154], [28.771526301342817, 36.748436392256345], [28.770987312172338, 36.748436392256345], [28.770987312172338, 36.75059234893823], [28.769909333831407, 36.75059234893823], [28.769909333831407, 36.75167032727917], [28.76883135549045, 36.75167032727917], [28.76883135549045, 36.752209316449644], [28.769909333831407, 36.752209316449644], [28.769909333831407, 36.75328729479059], [28.769370344660928, 36.75328729479059], [28.769370344660928, 36.75436527313153], [28.768292366319997, 36.75436527313153], [28.768292366319997, 36.75382628396106], [28.767753377149518, 36.75382628396106], [28.767753377149518, 36.75328729479059], [28.76721438797904, 36.75328729479059], [28.76721438797904, 36.75382628396106], [28.766675398808587, 36.75382628396106], [28.766675398808587, 36.754904262302], [28.769909333831407, 36.754904262302], [28.769909333831407, 36.75382628396106], [28.770448323001887, 36.75382628396106], [28.770448323001887, 36.754904262302], [28.769909333831407, 36.754904262302], [28.769909333831407, 36.75544325147247], [28.770448323001887, 36.75544325147247], [28.770448323001887, 36.75598224064294], [28.769370344660928, 36.75598224064294], [28.769370344660928, 36.756521229813416], [28.76721438797904, 36.756521229813416], [28.76721438797904, 36.75598224064294], [28.764519442126698, 36.75598224064294], [28.764519442126698, 36.754904262302], [28.76398045295622, 36.754904262302], [28.76398045295622, 36.75382628396106], [28.76290247461526, 36.75382628396106], [28.76290247461526, 36.75328729479059], [28.76236348544481, 36.75328729479059], [28.76236348544481, 36.75167032727917], [28.76344146378574, 36.75167032727917], [28.76344146378574, 36.75059234893823], [28.76398045295622, 36.75059234893823], [28.76398045295622, 36.750053359767755], [28.764519442126698, 36.750053359767755], [28.764519442126698, 36.74951437059728], [28.76559742046763, 36.74951437059728], [28.76559742046763, 36.748436392256345], [28.766136409638108, 36.748436392256345], [28.766136409638108, 36.74897538142681], [28.768292366319997, 36.74897538142681], [28.768292366319997, 36.74789740308587], [28.770987312172338, 36.74789740308587], [28.770987312172338, 36.7473584139154]], [[28.76559742046763, 36.75059234893823], [28.76559742046763, 36.7511313381087], [28.76505843129715, 36.7511313381087], [28.76505843129715, 36.75059234893823], [28.76559742046763, 36.75059234893823]], [[28.768292366319997, 36.75059234893823], [28.768292366319997, 36.7511313381087], [28.767753377149518, 36.7511313381087], [28.767753377149518, 36.75059234893823], [28.768292366319997, 36.75059234893823]], [[28.766136409638108, 36.74951437059728], [28.766136409638108, 36.750053359767755], [28.76559742046763, 36.750053359767755], [28.76559742046763, 36.74951437059728], [28.766136409638108, 36.74951437059728]]]}, "id": "+387338+87668", "properties": {"area_ha": 45.75999805346997, "count": 159, "label": 1, "mean_dnbr": 0.27185812704270873}}, {"type": "Feature", "geometry": {"geodesic": false, "type": "Polygon", "coordinates": [[[28.777455182218006, 36.81365408188342], [28.778533160558965, 36.81365408188342], [28.778533160558965, 36.81419307105389], [28.779072149729416, 36.81419307105389], [28.779072149729416, 36.814732060224365], [28.780150128070375, 36.814732060224365], [28.780150128070375, 36.81527104939483], [28.780689117240826, 36.81527104939483], [28.780689117240826, 36.8158100385653], [28.781228106411305, 36.8158100385653], [28.781228106411305, 36.816349027735775], [28.780689117240826, 36.816349027735775], [28.780689117240826, 36.81796599524719], [28.779611138899895, 36.81796599524719], [28.779611138899895, 36.818504984417665], [28.779072149729416, 36.818504984417665], [28.779072149729416, 36.81796599524719], [28.778533160558965, 36.81796599524719], [28.778533160558965, 36.81742700607672], [28.779611138899895, 36.81742700607672], [28.779611138899895, 36.81527104939483], [28.778533160558965, 36.81527104939483], [28.778533160558965, 36.814732060224365], [28.777455182218006, 36.814732060224365], [28.777455182218006, 36.81527104939483], [28.776916193047526, 36.81527104939483], [28.776916193047526, 36.81419307105389], [28.777455182218006, 36.81419307105389], [28.777455182218006, 36.81365408188342]]]}, "id": "+387351+87545", "properties": {"area_ha": 6.901427060023672, "count": 24, "label": 1, "mean_dnbr": 0.4008107942840535}}, {"type": "Feature", "geometry": {"geodesic": false, "type": "Polygon", "coordinates": [[[28.777994171388485, 36.750053359767755], [28.778533160558965, 36.750053359767755], [28.778533160558965, 36.75059234893823], [28.779072149729416, 36.75059234893823], [28.779072149729416, 36.7511313381087], [28.779611138899895, 36.7511313381087], [28.779611138899895, 36.75167032727917], [28.780150128070375, 36.75167032727917], [28.780150128070375, 36.752209316449644], [28.780689117240826, 36.752209316449644], [28.780689117240826, 36.75167032727917], [28.781228106411305, 36.75167032727917], [28.781228106411305, 36.752209316449644], [28.781767095581785, 36.752209316449644], [28.781767095581785, 36.752748305620116], [28.780689117240826, 36.752748305620116], [28.780689117240826, 36.75328729479059], [28.780150128070375, 36.75328729479059], [28.780150128070375, 36.752209316449644], [28.779611138899895, 36.752209316449644], [28.779611138899895, 36.752748305620116], [28.779072149729416, 36.752748305620116], [28.779072149729416, 36.7511313381087], [28.777994171388485, 36.7511313381087], [28.777994171388485, 36.750053359767755]]]}, "id": "+387351+87663", "properties": {"area_ha": 3.4536001115745805, "count": 12, "label": 1, "mean_dnbr": 0.17416412168118212}}, {"type": "Feature", "geometry": {"geodesic": false, "type": "Polygon", "coordinates": [[[28.778533160558965, 36.704778269448134], [28.780150128070375, 36.704778269448134], [28.780150128070375, 36.70531725861861], [28.780689117240826, 36.70531725861861], [28.780689117240826, 36.70639523695955], [28.781228106411305, 36.70639523695955], [28.781228106411305, 36.70855119364143], [28.780689117240826, 36.70855119364143], [28.780689117240826, 36.70747321530049], [28.780150128070375, 36.70747321530049], [28.780150128070375, 36.70639523695955], [28.777994171388485, 36.70639523695955], [28.777994171388485, 36.70585624778908], [28.777455182218006, 36.70585624778908], [28.777455182218006, 36.70531725861861], [28.778533160558965, 36.70531725861861], [28.778533160558965, 36.704778269448134]]]}, "id": "+387354+87747", "properties": {"area_ha": 5.759427781810521, "count": 20, "label": 1, "mean_dnbr": 0.2326656167054437}}, {"type": "Feature", "geometry": {"geodesic": false, "type": "Polygon", "coordinates": [[[28.781228106411305, 36.781314731655115], [28.781767095581785, 36.781314731655115], [28.781767095581785, 36.783470688337005], [28.781228106411305, 36.783470688337005], [28.781228106411305, 36.785087655848415], [28.780689117240826, 36.785087655848415], [28.780689117240826, 36.78562664501889], [28.781228106411305, 36.78562664501889], [28.781228106411305, 36.78616563418936], [28.780150128070375, 36.78616563418936], [28.780150128070375, 36.785087655848415], [28.780689117240826, 36.785087655848415], [28.780689117240826, 36.78185372082559], [28.781228106411305, 36.78185372082559], [28.781228106411305, 36.781314731655115]]]}, "id": "+387357+87605", "properties": {"area_ha": 3.7398477080076367, "count": 13, "label": 1, "mean_dnbr": 0.18097028079664132}}, {"type": "Feature", "geometry": {"geodesic": false, "type": "Polygon", "coordinates": [[[28.781228106411305, 36.697771410232], [28.781767095581785, 36.697771410232], [28.781767095581785, 36.698849388572945], [28.779072149729416, 36.698849388572945], [28.779072149729416, 36.69938837774342], [28.777994171388485, 36.69938837774342], [28.777994171388485, 36.698849388572945], [28.779072149729416, 36.698849388572945], [28.779072149729416, 36.69831039940247], [28.778533160558965, 36.69831039940247], [28.778533160558965, 36.697771410232], [28.780150128070375, 36.697771410232], [28.780150128070375, 36.69831039940247], [28.781228106411305, 36.69831039940247], [28.781228106411305, 36.697771410232]]]}, "id": "+387357+87760", "properties": {"area_ha": 3.1680093820318693, "count": 11, "label": 1, "mean_dnbr": 0.27942212839687297}}, {"type": "Feature", "geometry": {"geodesic": false, "type": "Polygon", "coordinates": [[[28.781228106411305, 36.766762024052376], [28.782845073922715, 36.766762024052376], [28.782845073922715, 36.76837899156379], [28.782306084752264, 36.76837899156379], [28.782306084752264, 36.768917980734265], [28.782845073922715, 36.768917980734265], [28.782845073922715, 36.77161292658663], [28.781767095581785, 36.77161292658663], [28.781767095581785, 36.77053494824568], [28.782306084752264, 36.77053494824568], [28.782306084752264, 36.76999595907521], [28.781767095581785, 36.76999595907521], [28.781767095581785, 36.76730101322285], [28.781228106411305, 36.76730101322285], [28.781228106411305, 36.766762024052376]]]}, "id": "+387359+87632", "properties": {"area_ha": 4.8915006578302895, "count": 17, "label": 1, "mean_dnbr": 0.15836105378014087}}, {"type": "Feature", "geometry": {"geodesic": false, "type": "Polygon", "coordinates": [[[28.782306084752264, 36.80718621183776], [28.783923052263674, 36.80718621183776], [28.783923052263674, 36.80772520100823], [28.785001030604604, 36.80772520100823], [28.785001030604604, 36.80880317934918], [28.784462041434153, 36.80880317934918], [28.784462041434153, 36.809881157690114], [28.783384063093195, 36.809881157690114], [28.783384063093195, 36.80934216851964], [28.782306084752264, 36.80934216851964], [28.782306084752264, 36.80718621183776]]]}, "id": "+387361+87557", "properties": {"area_ha": 5.464159625362129, "count": 19, "label": 1, "mean_dnbr": 0.46311059607354904}}, {"type": "Feature", "geometry": {"geodesic": false, "type": "Polygon", "coordinates": [[[28.783923052263674, 36.766762024052376], [28.784462041434153, 36.766762024052376], [28.784462041434153, 36.76730101322285], [28.785001030604604, 36.76730101322285], [28.785001030604604, 36.77053494824568], [28.783923052263674, 36.77053494824568], [28.783923052263674, 36.771073937416155], [28.785001030604604, 36.771073937416155], [28.785001030604604, 36.77161292658663], [28.783384063093195, 36.77161292658663], [28.783384063093195, 36.76730101322285], [28.783923052263674, 36.76730101322285], [28.783923052263674, 36.766762024052376]]]}, "id": "+387362+87632", "properties": {"area_ha": 6.617900157305952, "count": 23, "label": 1, "mean_dnbr": 0.16573916825157833}}, {"type": "Feature", "geometry": {"geodesic": false, "type": "Polygon", "coordinates": [[[28.785540019775084, 36.79532845008738], [28.786617998116014, 36.79532845008738], [28.786617998116014, 36.79640642842833], [28.787156987286494, 36.79640642842833], [28.787156987286494, 36.79802339593974], [28.786617998116014, 36.79802339593974], [28.786617998116014, 36.797484406769264], [28.785540019775084, 36.797484406769264], [28.785540019775084, 36.79694541759879], [28.785001030604604, 36.79694541759879], [28.785001030604604, 36.79640642842833], [28.784462041434153, 36.79640642842833], [28.784462041434153, 36.795867439257854], [28.785540019775084, 36.795867439257854], [28.785540019775084, 36.79532845008738]]]}, "id": "+387366+87579", "properties": {"area_ha": 4.0268487251689455, "count": 14, "label": 1, "mean_dnbr": 0.20169659321673555}}, {"type": "Feature", "geometry": {"geodesic": false, "type": "Polygon", "coordinates": [[[28.785001030604604, 36.74089054386974], [28.787695976456973, 36.74089054386974], [28.787695976456973, 36.74304650055162], [28.785001030604604, 36.74304650055162], [28.785001030604604, 36.74358548972209], [28.783923052263674, 36.74358548972209], [28.783923052263674, 36.742507511381156], [28.784462041434153, 36.742507511381156], [28.784462041434153, 36.74142953304021], [28.783923052263674, 36.74142953304021], [28.783923052263674, 36.74089054386974], [28.784462041434153, 36.74089054386974], [28.784462041434153, 36.74142953304021], [28.785001030604604, 36.74142953304021], [28.785001030604604, 36.74089054386974]]]}, "id": "+387368+87680", "properties": {"area_ha": 7.77158552973243, "count": 27, "label": 1, "mean_dnbr": 0.1678637162425069}}, {"type": "Feature", "geometry": {"geodesic": false, "type": "Polygon", "coordinates": [[[28.787695976456973, 36.78832159087125], [28.788234965627453, 36.78832159087125], [28.788234965627453, 36.78886058004172], [28.788773954797904, 36.78886058004172], [28.788773954797904, 36.789938558382666], [28.789312943968383, 36.789938558382666], [28.789312943968383, 36.7910165367236], [28.789851933138863, 36.7910165367236], [28.789851933138863, 36.79209451506455], [28.789312943968383, 36.79209451506455], [28.789312943968383, 36.79317249340549], [28.786617998116014, 36.79317249340549], [28.786617998116014, 36.79209451506455], [28.786079008945563, 36.79209451506455], [28.786079008945563, 36.7910165367236], [28.785540019775084, 36.7910165367236], [28.785540019775084, 36.789938558382666], [28.785001030604604, 36.789938558382666], [28.785001030604604, 36.78886058004172], [28.787695976456973, 36.78886058004172], [28.787695976456973, 36.78832159087125]], [[28.787695976456973, 36.78939956921219], [28.787695976456973, 36.789938558382666], [28.787156987286494, 36.789938558382666], [28.787156987286494, 36.78939956921219], [28.787695976456973, 36.78939956921219]]]}, "id": "+387369+87592", "properties": {"area_ha": 14.957979880922899, "count": 52, "label": 1, "mean_dnbr": 0.263665304442962}}, {"type": "Feature", "geometry": {"geodesic": false, "type": "Polygon", "coordinates": [[[28.79739778152546, 36.77053494824568], [28.79793677069594, 36.77053494824568], [28.79793677069594, 36.771073937416155], [28.79739778152546, 36.771073937416155], [28.79739778152546, 36.7721519157571], [28.79793677069594, 36.7721519157571], [28.79793677069594, 36.77269090492757], [28.798475759866392, 36.77269090492757], [28.798475759866392, 36.77322989409804], [28.79578081401405, 36.77322989409804], [28.79578081401405, 36.7721519157571], [28.795241824843572, 36.7721519157571], [28.795241824843572, 36.771073937416155], [28.79739778152546, 36.771073937416155], [28.79739778152546, 36.77053494824568]]]}, "id": "+387387+87625", "properties": {"area_ha": 5.1790356086724945, "count": 18, "label": 1, "mean_dnbr": 0.18251335950223793}}, {"type": "Feature", "geometry": {"geodesic": false, "type": "Polygon", "coordinates": [[[28.80170969488924, 36.719330977050866], [28.80386565157113, 36.719330977050866], [28.80386565157113, 36.71986996622134], [28.80440464074158, 36.71986996622134], [28.80440464074158, 36.72310390124417], [28.80386565157113, 36.72310390124417], [28.80386565157113, 36.723642890414645], [28.80494362991206, 36.723642890414645], [28.80494362991206, 36.72472086875558], [28.80440464074158, 36.72472086875558], [28.80440464074158, 36.72418187958512], [28.80332666240065, 36.72418187958512], [28.80332666240065, 36.726337836267], [28.80278767323017, 36.726337836267], [28.80278767323017, 36.72687682543747], [28.80224868405972, 36.72687682543747], [28.80224868405972, 36.727415814607944], [28.80170969488924, 36.727415814607944], [28.80170969488924, 36.72687682543747], [28.80117070571876, 36.72687682543747], [28.80117070571876, 36.727415814607944], [28.80063171654828, 36.727415814607944], [28.80063171654828, 36.72687682543747], [28.80009272737783, 36.72687682543747], [28.80009272737783, 36.726337836267], [28.79955373820735, 36.726337836267], [28.79955373820735, 36.725259857926055], [28.80009272737783, 36.725259857926055], [28.80009272737783, 36.723642890414645], [28.79955373820735, 36.723642890414645], [28.79955373820735, 36.72310390124417], [28.79901474903687, 36.72310390124417], [28.79901474903687, 36.72202592290323], [28.798475759866392, 36.72202592290323], [28.798475759866392, 36.72040895539181], [28.79955373820735, 36.72040895539181], [28.79955373820735, 36.71986996622134], [28.80170969488924, 36.71986996622134], [28.80170969488924, 36.719330977050866]], [[28.80117070571876, 36.72472086875558], [28.80117070571876, 36.725259857926055], [28.80063171654828, 36.725259857926055], [28.80063171654828, 36.72472086875558], [28.80117070571876, 36.72472086875558]], [[28.80332666240065, 36.72310390124417], [28.80332666240065, 36.723642890414645], [28.80278767323017, 36.723642890414645], [28.80278767323017, 36.72310390124417], [28.80332666240065, 36.72310390124417]], [[28.79955373820735, 36.72094794456228], [28.79955373820735, 36.721486933732756], [28.79901474903687, 36.721486933732756], [28.79901474903687, 36.72094794456228], [28.79955373820735, 36.72094794456228]]]}, "id": "+387398+87720", "properties": {"area_ha": 32.82154043880633, "count": 114, "label": 1, "mean_dnbr": 0.2666558878650586}}, {"type": "Feature", "geometry": {"geodesic": false, "type": "Polygon", "coordinates": [[[28.80817756493491, 36.80556924432634], [28.80925554327584, 36.80556924432634], [28.80925554327584, 36.806108233496815], [28.80979453244632, 36.806108233496815], [28.80979453244632, 36.809881157690114], [28.81033352161677, 36.809881157690114], [28.81033352161677, 36.81042014686059], [28.80871655410536, 36.81042014686059], [28.80871655410536, 36.80772520100823], [28.80817756493491, 36.80772520100823], [28.80817756493491, 36.80556924432634]]]}, "id": "+387408+87560", "properties": {"area_ha": 6.326967425969891, "count": 22, "label": 1, "mean_dnbr": 0.2181338576028697}}, {"type": "Feature", "geometry": {"geodesic": false, "type": "Polygon", "coordinates": [[[28.80871655410536, 36.812576103542476], [28.80979453244632, 36.812576103542476], [28.80979453244632, 36.81311509271295], [28.80925554327584, 36.81311509271295], [28.80925554327584, 36.814732060224365], [28.80763857576443, 36.814732060224365], [28.80763857576443, 36.81419307105389], [28.80709958659395, 36.81419307105389], [28.80709958659395, 36.81311509271295], [28.80871655410536, 36.81311509271295], [28.80871655410536, 36.812576103542476]]]}, "id": "+387409+87547", "properties": {"area_ha": 3.7383789823410893, "count": 13, "label": 1, "mean_dnbr": 0.40813096034048824}}, {"type": "Feature", "geometry": {"geodesic": false, "type": "Polygon", "coordinates": [[[29.284643991631896, 36.47355191531577], [29.285721969972826, 36.47355191531577], [29.285721969972826, 36.47409090448624], [29.286260959143306, 36.47409090448624], [29.286260959143306, 36.475168882827184], [29.286799948313785, 36.475168882827184], [29.286799948313785, 36.475707871997656], [29.286260959143306, 36.475707871997656], [29.286260959143306, 36.475168882827184], [29.285721969972826, 36.475168882827184], [29.285721969972826, 36.47462989365671], [29.285182980802375, 36.47462989365671], [29.285182980802375, 36.475168882827184], [29.284643991631896, 36.475168882827184], [29.284643991631896, 36.475707871997656], [29.284105002461416, 36.475707871997656], [29.284105002461416, 36.47624686116813], [29.283027024120486, 36.47624686116813], [29.283027024120486, 36.475168882827184], [29.284105002461416, 36.475168882827184], [29.284105002461416, 36.47409090448624], [29.284643991631896, 36.47409090448624], [29.284643991631896, 36.47355191531577]]]}, "id": "+388292+88176", "properties": {"area_ha": 4.332530608110723, "count": 15, "label": 1, "mean_dnbr": 0.2932741798815496}}, {"type": "Feature", "geometry": {"geodesic": false, "type": "Polygon", "coordinates": [[[29.296501753382273, 36.919834948466345], [29.297579731723204, 36.919834948466345], [29.297579731723204, 36.92037393763682], [29.296501753382273, 36.92037393763682], [29.296501753382273, 36.92145191597776], [29.297040742552753, 36.92145191597776], [29.297040742552753, 36.92091292680729], [29.297579731723204, 36.92091292680729], [29.297579731723204, 36.921990905148235], [29.297040742552753, 36.921990905148235], [29.297040742552753, 36.923607872659645], [29.296501753382273, 36.923607872659645], [29.296501753382273, 36.92252989431871], [29.295962764211794, 36.92252989431871], [29.295962764211794, 36.92037393763682], [29.296501753382273, 36.92037393763682], [29.296501753382273, 36.919834948466345]]]}, "id": "+388314+87348", "properties": {"area_ha": 3.4459431847145323, "count": 12, "label": 1, "mean_dnbr": 0.19318774436197186}}, {"type": "Feature", "geometry": {"geodesic": false, "type": "Polygon", "coordinates": [[[29.30997648264406, 36.458999207713035], [29.31213243932595, 36.458999207713035], [29.31213243932595, 36.4595381968835], [29.31159345015547, 36.4595381968835], [29.31159345015547, 36.460616175224445], [29.31213243932595, 36.460616175224445], [29.31213243932595, 36.46115516439492], [29.31159345015547, 36.46115516439492], [29.31159345015547, 36.46169415356539], [29.31105446098499, 36.46169415356539], [29.31105446098499, 36.46007718605397], [29.30997648264406, 36.46007718605397], [29.30997648264406, 36.46115516439492], [29.30943749347358, 36.46115516439492], [29.30943749347358, 36.46223314273586], [29.30997648264406, 36.46223314273586], [29.30997648264406, 36.462772131906334], [29.31159345015547, 36.462772131906334], [29.31159345015547, 36.463311121076806], [29.31267142849643, 36.463311121076806], [29.31267142849643, 36.46385011024728], [29.31321041766688, 36.46385011024728], [29.31321041766688, 36.46438909941775], [29.31159345015547, 36.46438909941775], [29.31159345015547, 36.46385011024728], [29.31051547181454, 36.46385011024728], [29.31051547181454, 36.463311121076806], [29.30997648264406, 36.463311121076806], [29.30997648264406, 36.462772131906334], [29.30943749347358, 36.462772131906334], [29.30943749347358, 36.46223314273586], [29.30835951513265, 36.46223314273586], [29.30835951513265, 36.46169415356539], [29.30889850430313, 36.46169415356539], [29.30889850430313, 36.46115516439492], [29.30943749347358, 36.46115516439492], [29.30943749347358, 36.46007718605397], [29.30997648264406, 36.46007718605397], [29.30997648264406, 36.458999207713035]]]}, "id": "+388341+88203", "properties": {"area_ha": 7.799882636427034, "count": 27, "label": 1, "mean_dnbr": 0.29272492538097833}}]}