{"type": "FeatureCollection", "columns": {"area_ha": "Number", "count": "Long<0, 4294967295>", "label": "Byte<0, 1>", "mean_dnbr": "Object", "system:index": "String"}, "features": [{"type": "Feature", "geometry": {"geodesic": false, "type": "Polygon", "coordinates": [[[28.254096697689988, 38.8623519188464], [28.25625265437185, 38.8623519188464], [28.25625265437185, 38.863429897187345], [28.25517467603092, 38.863429897187345], [28.25517467603092, 38.86450787552829], [28.25463568686044, 38.86450787552829], [28.25463568686044, 38.865046864698755], [28.254096697689988, 38.865046864698755], [28.254096697689988, 38.86450787552829], [28.25355770851951, 38.86450787552829], [28.25355770851951, 38.86396888635782], [28.25301871934903, 38.86396888635782], [28.25301871934903, 38.863429897187345], [28.25355770851951, 38.863429897187345], [28.25355770851951, 38.86289090801687], [28.254096697689988, 38.86289090801687], [28.254096697689988, 38.8623519188464]]]}, "id": "+386382+83744", "properties": {"area_ha": 4.754645351222831, "count": 17, "label": 1, "mean_dnbr": 0.2960988827490439}}, {"type": "Feature", "geometry": {"geodesic": false, "type": "Polygon", "coordinates": [[[28.260025578565177, 38.863429897187345], [28.261642546076587, 38.863429897187345], [28.261642546076587, 38.86396888635782], [28.262181535247038, 38.86396888635782], [28.262181535247038, 38.865046864698755], [28.261642546076587, 38.865046864698755], [28.261642546076587, 38.86558585386923], [28.261103556906107, 38.86558585386923], [28.261103556906107, 38.865046864698755], [28.260025578565177, 38.865046864698755], [28.260025578565177, 38.86450787552829], [28.259486589394697, 38.86450787552829], [28.259486589394697, 38.86396888635782], [28.260025578565177, 38.86396888635782], [28.260025578565177, 38.863429897187345]]]}, "id": "+386392+83742", "properties": {"area_ha": 3.6358608694856476, "count": 13, "label": 1, "mean_dnbr": 0.46385588075722844}}, {"type": "Feature", "geometry": {"geodesic": false, "type": "Polygon", "coordinates": [[[28.266493448610817, 38.869897767233006], [28.268649405292706, 38.869897767233006], [28.268649405292706, 38.87097574557394], [28.268110416122227, 38.87097574557394], [28.268110416122227, 38.871514734744416], [28.267571426951775, 38.871514734744416], [28.267571426951775, 38.87205372391489], [28.266493448610817, 38.87205372391489], [28.266493448610817, 38.871514734744416], [28.265954459440366, 38.871514734744416], [28.265954459440366, 38.87097574557394], [28.266493448610817, 38.87097574557394], [28.266493448610817, 38.869897767233006]]]}, "id": "+386405+83730", "properties": {"area_ha": 3.9151809084889524, "count": 14, "label": 1, "mean_dnbr": 0.42743944010627755}}, {"type": "Feature", "geometry": {"geodesic": false, "type": "Polygon", "coordinates": [[[28.28966998294112, 38.85804000548263], [28.29128695045253, 38.85804000548263], [28.29128695045253, 38.85965697299404], [28.29074796128205, 38.85965697299404], [28.29074796128205, 38.86019596216451], [28.28966998294112, 38.86019596216451], [28.28966998294112, 38.85804000548263]]]}, "id": "+386447+83752", "properties": {"area_ha": 3.0767274776700004, "count": 11, "label": 1, "mean_dnbr": 0.2088968603491481}}, {"type": "Feature", "geometry": {"geodesic": false, "type": "Polygon", "coordinates": [[[28.335484062431192, 39.21538982550537], [28.33710102994263, 39.21538982550537], [28.33710102994263, 39.21592881467584], [28.33602305160167, 39.21592881467584], [28.33602305160167, 39.217006793016786], [28.33332810574933, 39.217006793016786], [28.33332810574933, 39.21592881467584], [28.335484062431192, 39.21592881467584], [28.335484062431192, 39.21538982550537]]]}, "id": "+386532+83089", "properties": {"area_ha": 3.617802115696399, "count": 13, "label": 1, "mean_dnbr": 0.30183827428683985}}, {"type": "Feature", "geometry": {"geodesic": false, "type": "Polygon", "coordinates": [[[28.34841980252253, 39.582441450596605], [28.348958791693008, 39.582441450596605], [28.348958791693008, 39.58298043976708], [28.350036770033938, 39.58298043976708], [28.350036770033938, 39.584597407278494], [28.34949778086346, 39.584597407278494], [28.34949778086346, 39.58405841810802], [28.34841980252253, 39.58405841810802], [28.34841980252253, 39.584597407278494], [28.348958791693008, 39.584597407278494], [28.348958791693008, 39.585136396448966], [28.34841980252253, 39.585136396448966], [28.34841980252253, 39.584597407278494], [28.34788081335205, 39.584597407278494], [28.34788081335205, 39.58298043976708], [28.34841980252253, 39.58298043976708], [28.34841980252253, 39.582441450596605]]]}, "id": "+386554+82408", "properties": {"area_ha": 3.3219611061487138, "count": 12, "label": 1, "mean_dnbr": 0.19509632130420168}}, {"type": "Feature", "geometry": {"geodesic": false, "type": "Polygon", "coordinates": [[[28.373213304364214, 38.80683603428781], [28.373752293534693, 38.80683603428781], [28.373752293534693, 38.80845300179923], [28.374830271875652, 38.80845300179923], [28.374830271875652, 38.8089919909697], [28.374291282705173, 38.8089919909697], [28.374291282705173, 38.809530980140174], [28.373213304364214, 38.809530980140174], [28.373213304364214, 38.810069969310646], [28.372674315193763, 38.810069969310646], [28.372674315193763, 38.81060895848111], [28.371596336852804, 38.81060895848111], [28.371596336852804, 38.810069969310646], [28.372135326023283, 38.810069969310646], [28.372135326023283, 38.809530980140174], [28.372674315193763, 38.809530980140174], [28.372674315193763, 38.8089919909697], [28.373213304364214, 38.8089919909697], [28.373213304364214, 38.80845300179923], [28.372674315193763, 38.80845300179923], [28.372674315193763, 38.80791401262876], [28.371057347682324, 38.80791401262876], [28.371057347682324, 38.807375023458285], [28.373213304364214, 38.807375023458285], [28.373213304364214, 38.80683603428781]]]}, "id": "+386600+83847", "properties": {"area_ha": 5.038209966427553, "count": 18, "label": 1, "mean_dnbr": 0.1963231840477274}}, {"type": "Feature", "geometry": {"geodesic": false, "type": "Polygon", "coordinates": [[[28.398545795376407, 39.00302809233952], [28.399084784546858, 39.00302809233952], [28.399084784546858, 39.003567081509985], [28.400701752058268, 39.003567081509985], [28.400701752058268, 39.00464505985093], [28.401240741228747, 39.00464505985093], [28.401240741228747, 39.0051840490214], [28.401779730399227, 39.0051840490214], [28.401779730399227, 39.00464505985093], [28.402318719569706, 39.00464505985093], [28.402318719569706, 39.005723038191874], [28.402857708740157, 39.005723038191874], [28.402857708740157, 39.00680101653282], [28.402318719569706, 39.00680101653282], [28.402318719569706, 39.00626202736235], [28.401779730399227, 39.00626202736235], [28.401779730399227, 39.005723038191874], [28.401240741228747, 39.005723038191874], [28.401240741228747, 39.0051840490214], [28.400701752058268, 39.0051840490214], [28.400701752058268, 39.00464505985093], [28.399084784546858, 39.00464505985093], [28.399084784546858, 39.00410607068046], [28.398545795376407, 39.00410607068046], [28.398545795376407, 39.00302809233952]]]}, "id": "+386647+83483", "properties": {"area_ha": 4.186930875630213, "count": 15, "label": 1, "mean_dnbr": 0.304789303679721}}, {"type": "Feature", "geometry": {"geodesic": false, "type": "Polygon", "coordinates": [[[28.404474676251596, 38.98524144971395], [28.405552654592526, 38.98524144971395], [28.405552654592526, 38.98578043888442], [28.406091643763006, 38.98578043888442], [28.406091643763006, 38.987397406395836], [28.405552654592526, 38.987397406395836], [28.405552654592526, 38.98793639556631], [28.404474676251596, 38.98793639556631], [28.404474676251596, 38.98847538473678], [28.403935687081116, 38.98847538473678], [28.403935687081116, 38.98901437390725], [28.402857708740157, 38.98901437390725], [28.402857708740157, 38.98847538473678], [28.402318719569706, 38.98847538473678], [28.402318719569706, 38.98793639556631], [28.402857708740157, 38.98793639556631], [28.402857708740157, 38.987397406395836], [28.403935687081116, 38.987397406395836], [28.403935687081116, 38.98578043888442], [28.404474676251596, 38.98578043888442], [28.404474676251596, 38.98524144971395]]]}, "id": "+386659+83516", "properties": {"area_ha": 6.979952468924591, "count": 25, "label": 1, "mean_dnbr": 0.29587953689519164}}, {"type": "Feature", "geometry": {"geodesic": false, "type": "Polygon", "coordinates": [[[28.531137131312448, 38.962064915383664], [28.53221510965338, 38.962064915383664], [28.53221510965338, 38.962603904554136], [28.5316761204829, 38.962603904554136], [28.5316761204829, 38.96314289372461], [28.53059814214197, 38.96314289372461], [28.53059814214197, 38.96368188289508], [28.532754098823858, 38.96368188289508], [28.532754098823858, 38.96422087206555], [28.5316761204829, 38.96422087206555], [28.5316761204829, 38.964759861236026], [28.53059814214197, 38.964759861236026], [28.53059814214197, 38.96368188289508], [28.53005915297149, 38.96368188289508], [28.53005915297149, 38.962603904554136], [28.531137131312448, 38.962603904554136], [28.531137131312448, 38.962064915383664]]]}, "id": "+386894+83559", "properties": {"area_ha": 3.351492480193009, "count": 12, "label": 1, "mean_dnbr": 0.23173468215089907}}, {"type": "Feature", "geometry": {"geodesic": false, "type": "Polygon", "coordinates": [[[28.56455445988169, 38.99117033058914], [28.565093449052142, 38.99117033058914], [28.565093449052142, 38.99170931975961], [28.5661714273931, 38.99170931975961], [28.5661714273931, 38.993326287271024], [28.56563243822262, 38.993326287271024], [28.56563243822262, 38.9938652764415], [28.56401547071121, 38.9938652764415], [28.56401547071121, 38.993326287271024], [28.56293749237028, 38.993326287271024], [28.56293749237028, 38.99278729810055], [28.56401547071121, 38.99278729810055], [28.56401547071121, 38.99224830893008], [28.565093449052142, 38.99224830893008], [28.565093449052142, 38.99170931975961], [28.56455445988169, 38.99170931975961], [28.56455445988169, 38.99117033058914]], [[28.565093449052142, 38.99278729810055], [28.565093449052142, 38.993326287271024], [28.56455445988169, 38.993326287271024], [28.56455445988169, 38.99278729810055], [28.565093449052142, 38.99278729810055]]]}, "id": "+386955+83505", "properties": {"area_ha": 4.187640257355472, "count": 15, "label": 1, "mean_dnbr": 0.2324986262302255}}, {"type": "Feature", "geometry": {"geodesic": false, "type": "Polygon", "coordinates": [[[28.637317997895366, 39.061777911920935], [28.638934965406776, 39.061777911920935], [28.638934965406776, 39.06231690109141], [28.640012943747735, 39.06231690109141], [28.640012943747735, 39.06285589026188], [28.639473954577255, 39.06285589026188], [28.639473954577255, 39.06339487943235], [28.638934965406776, 39.06339487943235], [28.638934965406776, 39.06393386860282], [28.637856987065845, 39.06393386860282], [28.637856987065845, 39.06447285777329], [28.637317997895366, 39.06447285777329], [28.637317997895366, 39.06393386860282], [28.636240019554407, 39.06393386860282], [28.636240019554407, 39.06285589026188], [28.637317997895366, 39.06285589026188], [28.637317997895366, 39.061777911920935]]]}, "id": "+387092+83374", "properties": {"area_ha": 5.577969721144636, "count": 20, "label": 1, "mean_dnbr": 0.20298510099517497}}, {"type": "Feature", "geometry": {"geodesic": false, "type": "Polygon", "coordinates": [[[28.643785867941034, 39.582441450596605], [28.644863846281964, 39.582441450596605], [28.644863846281964, 39.58351942893755], [28.644324857111485, 39.58351942893755], [28.644324857111485, 39.584597407278494], [28.642707889600075, 39.584597407278494], [28.642707889600075, 39.58298043976708], [28.643785867941034, 39.58298043976708], [28.643785867941034, 39.582441450596605]]]}, "id": "+387103+82408", "properties": {"area_ha": 3.3219688443397004, "count": 12, "label": 1, "mean_dnbr": 0.48745745610578134}}, {"type": "Feature", "geometry": {"geodesic": false, "type": "Polygon", "coordinates": [[[28.643246878770555, 39.53770534944746], [28.644863846281964, 39.53770534944746], [28.644863846281964, 39.53824433861793], [28.644324857111485, 39.53824433861793], [28.644324857111485, 39.539861306129346], [28.643785867941034, 39.539861306129346], [28.643785867941034, 39.539322316958874], [28.642707889600075, 39.539322316958874], [28.642707889600075, 39.539861306129346], [28.643246878770555, 39.539861306129346], [28.643246878770555, 39.540939284470284], [28.642707889600075, 39.540939284470284], [28.642707889600075, 39.54201726281123], [28.642168900429596, 39.54201726281123], [28.642168900429596, 39.5425562519817], [28.641629911259145, 39.5425562519817], [28.641629911259145, 39.54309524115217], [28.641090922088665, 39.54309524115217], [28.641090922088665, 39.54201726281123], [28.638934965406776, 39.54201726281123], [28.638934965406776, 39.5425562519817], [28.638395976236296, 39.5425562519817], [28.638395976236296, 39.54309524115217], [28.636779008724886, 39.54309524115217], [28.636779008724886, 39.541478273640756], [28.638395976236296, 39.541478273640756], [28.638395976236296, 39.540939284470284], [28.639473954577255, 39.540939284470284], [28.639473954577255, 39.54040029529981], [28.641090922088665, 39.54040029529981], [28.641090922088665, 39.539861306129346], [28.641629911259145, 39.539861306129346], [28.641629911259145, 39.5387833277884], [28.642707889600075, 39.5387833277884], [28.642707889600075, 39.53824433861793], [28.643246878770555, 39.53824433861793], [28.643246878770555, 39.53770534944746]]]}, "id": "+387103+82491", "properties": {"area_ha": 14.958077665853873, "count": 54, "label": 1, "mean_dnbr": 0.36560507390822183}}, {"type": "Feature", "geometry": {"geodesic": false, "type": "Polygon", "coordinates": [[[28.648636770475264, 39.05800498772763], [28.649714748816223, 39.05800498772763], [28.649714748816223, 39.06016094440952], [28.649175759645743, 39.06016094440952], [28.649175759645743, 39.06069993357999], [28.648097781304784, 39.06069993357999], [28.648097781304784, 39.059621955239045], [28.647558792134333, 39.059621955239045], [28.647558792134333, 39.05908296606857], [28.648097781304784, 39.05908296606857], [28.648097781304784, 39.0585439768981], [28.648636770475264, 39.0585439768981], [28.648636770475264, 39.05800498772763]]]}, "id": "+387112+83381", "properties": {"area_ha": 3.904783309293239, "count": 14, "label": 1, "mean_dnbr": 0.19141407176276878}}, {"type": "Feature", "geometry": {"geodesic": false, "type": "Polygon", "coordinates": [[[28.651331716327633, 39.0585439768981], [28.651870705498112, 39.0585439768981], [28.651870705498112, 39.059621955239045], [28.651331716327633, 39.059621955239045], [28.651331716327633, 39.06123892275046], [28.650792727157153, 39.06123892275046], [28.650792727157153, 39.06231690109141], [28.650253737986674, 39.06231690109141], [28.650253737986674, 39.059621955239045], [28.650792727157153, 39.059621955239045], [28.650792727157153, 39.05908296606857], [28.651331716327633, 39.05908296606857], [28.651331716327633, 39.0585439768981]]]}, "id": "+387116+83380", "properties": {"area_ha": 3.068001444226061, "count": 11, "label": 1, "mean_dnbr": 0.18619175554603773}}, {"type": "Feature", "geometry": {"geodesic": false, "type": "Polygon", "coordinates": [[[28.66049453222564, 39.35876094485085], [28.66103352139612, 39.35876094485085], [28.66103352139612, 39.35983892319179], [28.66265048890753, 39.35983892319179], [28.66265048890753, 39.36037791236226], [28.66211149973705, 39.36037791236226], [28.66211149973705, 39.36091690153273], [28.66318947807801, 39.36091690153273], [28.66318947807801, 39.36199487987368], [28.66211149973705, 39.36199487987368], [28.66211149973705, 39.36091690153273], [28.66103352139612, 39.36091690153273], [28.66103352139612, 39.35983892319179], [28.66049453222564, 39.35983892319179], [28.66049453222564, 39.35876094485085]]]}, "id": "+387133+82823", "properties": {"area_ha": 3.0549116209739258, "count": 11, "label": 1, "mean_dnbr": 0.1874337129148087}}, {"type": "Feature", "geometry": {"geodesic": false, "type": "Polygon", "coordinates": [[[28.915975399029236, 39.22401365223292], [28.917592366540646, 39.22401365223292], [28.917592366540646, 39.22455264140339], [28.918131355711125, 39.22455264140339], [28.918131355711125, 39.22563061974434], [28.918670344881605, 39.22563061974434], [28.918670344881605, 39.22616960891481], [28.919748323222535, 39.22616960891481], [28.919748323222535, 39.226708598085274], [28.919209334052056, 39.226708598085274], [28.919209334052056, 39.22724758725575], [28.918670344881605, 39.22724758725575], [28.918670344881605, 39.226708598085274], [28.918131355711125, 39.226708598085274], [28.918131355711125, 39.22616960891481], [28.917053377370195, 39.22616960891481], [28.917053377370195, 39.225091630573864], [28.916514388199715, 39.225091630573864], [28.916514388199715, 39.22455264140339], [28.915975399029236, 39.22455264140339], [28.915975399029236, 39.22401365223292]], [[28.917592366540646, 39.22455264140339], [28.917592366540646, 39.225091630573864], [28.917053377370195, 39.225091630573864], [28.917053377370195, 39.22455264140339], [28.917592366540646, 39.22455264140339]]]}, "id": "+387609+83073", "properties": {"area_ha": 3.895574736441467, "count": 14, "label": 1, "mean_dnbr": 0.18040049136588224}}, {"type": "Feature", "geometry": {"geodesic": false, "type": "Polygon", "coordinates": [[[28.921904279904425, 39.22563061974434], [28.922443269074904, 39.22563061974434], [28.922443269074904, 39.22616960891481], [28.922982258245383, 39.22616960891481], [28.922982258245383, 39.226708598085274], [28.923521247415835, 39.226708598085274], [28.923521247415835, 39.22616960891481], [28.924060236586314, 39.22616960891481], [28.924060236586314, 39.226708598085274], [28.923521247415835, 39.226708598085274], [28.923521247415835, 39.22724758725575], [28.924599225756793, 39.22724758725575], [28.924599225756793, 39.22778657642622], [28.924060236586314, 39.22778657642622], [28.924060236586314, 39.22832556559669], [28.923521247415835, 39.22832556559669], [28.923521247415835, 39.22778657642622], [28.922443269074904, 39.22778657642622], [28.922443269074904, 39.22724758725575], [28.921904279904425, 39.22724758725575], [28.921904279904425, 39.22778657642622], [28.921365290733945, 39.22778657642622], [28.921365290733945, 39.22724758725575], [28.920826301563494, 39.22724758725575], [28.920826301563494, 39.226708598085274], [28.922443269074904, 39.226708598085274], [28.922443269074904, 39.22616960891481], [28.921904279904425, 39.22616960891481], [28.921904279904425, 39.22563061974434]]]}, "id": "+387618+83070", "properties": {"area_ha": 3.895487126773478, "count": 14, "label": 1, "mean_dnbr": 0.19510106559480772}}, {"type": "Feature", "geometry": {"geodesic": false, "type": "Polygon", "coordinates": [[[28.924599225756793, 39.13723639578697], [28.925677204097724, 39.13723639578697], [28.925677204097724, 39.13885336329839], [28.926216193268203, 39.13885336329839], [28.926216193268203, 39.13939235246886], [28.925677204097724, 39.13939235246886], [28.925677204097724, 39.13993134163933], [28.926216193268203, 39.13993134163933], [28.926216193268203, 39.140470330809805], [28.925138214927244, 39.140470330809805], [28.925138214927244, 39.13993134163933], [28.924599225756793, 39.13993134163933], [28.924599225756793, 39.13885336329839], [28.925138214927244, 39.13885336329839], [28.925138214927244, 39.13777538495744], [28.924599225756793, 39.13777538495744], [28.924599225756793, 39.13723639578697]]]}, "id": "+387624+83234", "properties": {"area_ha": 3.06458112718924, "count": 11, "label": 1, "mean_dnbr": 0.19208132020161814}}, {"type": "Feature", "geometry": {"geodesic": false, "type": "Polygon", "coordinates": [[[28.925138214927244, 39.12322267735471], [28.926216193268203, 39.12322267735471], [28.926216193268203, 39.12430065569565], [28.925677204097724, 39.12430065569565], [28.925677204097724, 39.12483964486612], [28.925138214927244, 39.12483964486612], [28.925138214927244, 39.125917623207066], [28.924599225756793, 39.125917623207066], [28.924599225756793, 39.12645661237754], [28.925138214927244, 39.12645661237754], [28.925138214927244, 39.12699560154801], [28.924599225756793, 39.12699560154801], [28.924599225756793, 39.12753459071848], [28.924060236586314, 39.12753459071848], [28.924060236586314, 39.128073579888955], [28.923521247415835, 39.128073579888955], [28.923521247415835, 39.12753459071848], [28.922982258245383, 39.12753459071848], [28.922982258245383, 39.12699560154801], [28.920826301563494, 39.12699560154801], [28.920826301563494, 39.12753459071848], [28.919748323222535, 39.12753459071848], [28.919748323222535, 39.12699560154801], [28.920287312393015, 39.12699560154801], [28.920287312393015, 39.12645661237754], [28.920826301563494, 39.12645661237754], [28.920826301563494, 39.12537863403659], [28.921904279904425, 39.12537863403659], [28.921904279904425, 39.12483964486612], [28.922443269074904, 39.12483964486612], [28.922443269074904, 39.12430065569565], [28.922982258245383, 39.12430065569565], [28.922982258245383, 39.12376166652518], [28.924599225756793, 39.12376166652518], [28.924599225756793, 39.12430065569565], [28.925138214927244, 39.12430065569565], [28.925138214927244, 39.12322267735471]], [[28.924060236586314, 39.12483964486612], [28.924060236586314, 39.12537863403659], [28.923521247415835, 39.12537863403659], [28.923521247415835, 39.12483964486612], [28.924060236586314, 39.12483964486612]]]}, "id": "+387625+83260", "properties": {"area_ha": 13.375243446986232, "count": 48, "label": 1, "mean_dnbr": 0.19598009511583858}}, {"type": "Feature", "geometry": {"geodesic": false, "type": "Polygon", "coordinates": [[[28.926216193268203, 38.923257695109704], [28.926755182438683, 38.923257695109704], [28.926755182438683, 38.92433567345065], [28.927833160779613, 38.92433567345065], [28.927833160779613, 38.92487466262112], [28.927294171609134, 38.92487466262112], [28.927294171609134, 38.92541365179159], [28.927833160779613, 38.92541365179159], [28.927833160779613, 38.92649163013253], [28.926755182438683, 38.92649163013253], [28.926755182438683, 38.92595264096206], [28.925138214927244, 38.92595264096206], [28.925138214927244, 38.92541365179159], [28.924060236586314, 38.92541365179159], [28.924060236586314, 38.92433567345065], [28.926216193268203, 38.92433567345065], [28.926216193268203, 38.923257695109704]]]}, "id": "+387626+83631", "properties": {"area_ha": 6.14773809340344, "count": 22, "label": 1, "mean_dnbr": 0.18087592884871978}}, {"type": "Feature", "geometry": {"geodesic": false, "type": "Polygon", "coordinates": [[[28.926216193268203, 39.17819957274283], [28.927294171609134, 39.17819957274283], [28.927294171609134, 39.17873856191329], [28.927833160779613, 39.17873856191329], [28.927833160779613, 39.179277551083764], [28.927294171609134, 39.179277551083764], [28.927294171609134, 39.17981654025424], [28.926755182438683, 39.17981654025424], [28.926755182438683, 39.18035552942471], [28.926216193268203, 39.18035552942471], [28.926216193268203, 39.181433507765654], [28.925677204097724, 39.181433507765654], [28.925677204097724, 39.17981654025424], [28.926216193268203, 39.17981654025424], [28.926216193268203, 39.17819957274283]]]}, "id": "+387627+83158", "properties": {"area_ha": 3.0628137279462853, "count": 11, "label": 1, "mean_dnbr": 0.17813361684483772}}, {"type": "Feature", "geometry": {"geodesic": false, "type": "Polygon", "coordinates": [[[28.927294171609134, 39.11459885062716], [28.928372149950093, 39.11459885062716], [28.928372149950093, 39.115676828968105], [28.927833160779613, 39.115676828968105], [28.927833160779613, 39.11621581813858], [28.927294171609134, 39.11621581813858], [28.927294171609134, 39.117832785649995], [28.926755182438683, 39.117832785649995], [28.926755182438683, 39.11729379647952], [28.926216193268203, 39.11729379647952], [28.926216193268203, 39.11675480730905], [28.925138214927244, 39.11675480730905], [28.925138214927244, 39.11729379647952], [28.923521247415835, 39.11729379647952], [28.923521247415835, 39.11675480730905], [28.925138214927244, 39.11675480730905], [28.925138214927244, 39.11621581813858], [28.924599225756793, 39.11621581813858], [28.924599225756793, 39.115676828968105], [28.925677204097724, 39.115676828968105], [28.925677204097724, 39.11621581813858], [28.926216193268203, 39.11621581813858], [28.926216193268203, 39.115676828968105], [28.926755182438683, 39.115676828968105], [28.926755182438683, 39.11621581813858], [28.927294171609134, 39.11621581813858], [28.927294171609134, 39.11459885062716]]]}, "id": "+387629+83276", "properties": {"area_ha": 5.016384967179103, "count": 18, "label": 1, "mean_dnbr": 0.16061426005214197}}, {"type": "Feature", "geometry": {"geodesic": false, "type": "Polygon", "coordinates": [[[28.928372149950093, 38.993326287271024], [28.928911139120572, 38.993326287271024], [28.928911139120572, 38.99494325478244], [28.927833160779613, 38.99494325478244], [28.927833160779613, 38.995482243952914], [28.926755182438683, 38.995482243952914], [28.926755182438683, 38.996021233123386], [28.926216193268203, 38.996021233123386], [28.926216193268203, 38.99494325478244], [28.926755182438683, 38.99494325478244], [28.926755182438683, 38.99440426561197], [28.927294171609134, 38.99440426561197], [28.927294171609134, 38.9938652764415], [28.928372149950093, 38.9938652764415], [28.928372149950093, 38.993326287271024]]]}, "id": "+387630+83501", "properties": {"area_ha": 3.350021670290546, "count": 12, "label": 1, "mean_dnbr": 0.17563197595215346}}, {"type": "Feature", "geometry": {"geodesic": false, "type": "Polygon", "coordinates": [[[28.928911139120572, 39.12322267735471], [28.929450128291023, 39.12322267735471], [28.929450128291023, 39.12376166652518], [28.929989117461503, 39.12376166652518], [28.929989117461503, 39.12430065569565], [28.931067095802433, 39.12430065569565], [28.931067095802433, 39.12537863403659], [28.929450128291023, 39.12537863403659], [28.929450128291023, 39.12645661237754], [28.928372149950093, 39.12645661237754], [28.928372149950093, 39.125917623207066], [28.927833160779613, 39.125917623207066], [28.927833160779613, 39.12537863403659], [28.927294171609134, 39.12537863403659], [28.927294171609134, 39.12430065569565], [28.927833160779613, 39.12430065569565], [28.927833160779613, 39.12483964486612], [28.928911139120572, 39.12483964486612], [28.928911139120572, 39.12430065569565], [28.929450128291023, 39.12430065569565], [28.929450128291023, 39.12376166652518], [28.928911139120572, 39.12376166652518], [28.928911139120572, 39.12322267735471]]]}, "id": "+387631+83260", "properties": {"area_ha": 5.294418138140943, "count": 19, "label": 1, "mean_dnbr": 0.1879233985118352}}, {"type": "Feature", "geometry": {"geodesic": false, "type": "Polygon", "coordinates": [[[28.929450128291023, 38.983624482202536], [28.929989117461503, 38.983624482202536], [28.929989117461503, 38.98685841722536], [28.928911139120572, 38.98685841722536], [28.928911139120572, 38.98578043888442], [28.928372149950093, 38.98578043888442], [28.928372149950093, 38.98631942805489], [28.927833160779613, 38.98631942805489], [28.927833160779613, 38.98578043888442], [28.927294171609134, 38.98578043888442], [28.927294171609134, 38.98524144971395], [28.927833160779613, 38.98524144971395], [28.927833160779613, 38.98416347137301], [28.929450128291023, 38.98416347137301], [28.929450128291023, 38.983624482202536]]]}, "id": "+387632+83519", "properties": {"area_ha": 5.304901745412893, "count": 19, "label": 1, "mean_dnbr": 0.24239589110847717}}, {"type": "Feature", "geometry": {"geodesic": false, "type": "Polygon", "coordinates": [[[28.932145074143392, 39.17442664854952], [28.93268406331387, 39.17442664854952], [28.93268406331387, 39.17496563771999], [28.933223052484323, 39.17496563771999], [28.933223052484323, 39.175504626890465], [28.933762041654802, 39.175504626890465], [28.933762041654802, 39.17604361606094], [28.932145074143392, 39.17604361606094], [28.932145074143392, 39.17712159440188], [28.93268406331387, 39.17712159440188], [28.93268406331387, 39.177660583572354], [28.932145074143392, 39.177660583572354], [28.932145074143392, 39.17712159440188], [28.931606084972913, 39.17712159440188], [28.931606084972913, 39.177660583572354], [28.931067095802433, 39.177660583572354], [28.931067095802433, 39.17873856191329], [28.929989117461503, 39.17873856191329], [28.929989117461503, 39.17819957274283], [28.930528106631982, 39.17819957274283], [28.930528106631982, 39.177660583572354], [28.931067095802433, 39.177660583572354], [28.931067095802433, 39.17658260523141], [28.930528106631982, 39.17658260523141], [28.930528106631982, 39.17604361606094], [28.929989117461503, 39.17604361606094], [28.929989117461503, 39.17496563771999], [28.930528106631982, 39.17496563771999], [28.930528106631982, 39.17604361606094], [28.932145074143392, 39.17604361606094], [28.932145074143392, 39.175504626890465], [28.93268406331387, 39.175504626890465], [28.93268406331387, 39.17496563771999], [28.932145074143392, 39.17496563771999], [28.932145074143392, 39.17442664854952]]]}, "id": "+387637+83165", "properties": {"area_ha": 4.7336459537650475, "count": 17, "label": 1, "mean_dnbr": 0.15202513581129976}}, {"type": "Feature", "geometry": {"geodesic": false, "type": "Polygon", "coordinates": [[[28.94939272759848, 39.10166311053584], [28.94993171676896, 39.10166311053584], [28.94993171676896, 39.103280078047256], [28.94939272759848, 39.103280078047256], [28.94939272759848, 39.10381906721773], [28.94777576008707, 39.10381906721773], [28.94777576008707, 39.10220209970631], [28.948853738428, 39.10220209970631], [28.948853738428, 39.10274108887678], [28.94939272759848, 39.10274108887678], [28.94939272759848, 39.10166311053584]]]}, "id": "+387669+83300", "properties": {"area_ha": 3.066152214127314, "count": 11, "label": 1, "mean_dnbr": 0.16451471730363254}}, {"type": "Feature", "geometry": {"geodesic": false, "type": "Polygon", "coordinates": [[[28.970952294417344, 39.12753459071848], [28.973108251099234, 39.12753459071848], [28.973108251099234, 39.128073579888955], [28.974725218610644, 39.128073579888955], [28.974725218610644, 39.12861256905943], [28.973108251099234, 39.12861256905943], [28.973108251099234, 39.12969054740037], [28.972030272758303, 39.12969054740037], [28.972030272758303, 39.1291515582299], [28.971491283587824, 39.1291515582299], [28.971491283587824, 39.12969054740037], [28.970952294417344, 39.12969054740037], [28.970952294417344, 39.1291515582299], [28.971491283587824, 39.1291515582299], [28.971491283587824, 39.12861256905943], [28.970952294417344, 39.12861256905943], [28.970952294417344, 39.12753459071848]], [[28.972569261928783, 39.12861256905943], [28.972569261928783, 39.1291515582299], [28.972030272758303, 39.1291515582299], [28.972030272758303, 39.12861256905943], [28.972569261928783, 39.12861256905943]]]}, "id": "+387712+83252", "properties": {"area_ha": 4.458231369729844, "count": 16, "label": 1, "mean_dnbr": 0.17730724198662906}}, {"type": "Feature", "geometry": {"geodesic": false, "type": "Polygon", "coordinates": [[[28.981193088656312, 39.12268368818424], [28.98227106699727, 39.12268368818424], [28.98227106699727, 39.12376166652518], [28.98173207782679, 39.12376166652518], [28.98173207782679, 39.12483964486612], [28.98227106699727, 39.12483964486612], [28.98227106699727, 39.12537863403659], [28.981193088656312, 39.12537863403659], [28.981193088656312, 39.125917623207066], [28.980654099485832, 39.125917623207066], [28.980654099485832, 39.12699560154801], [28.979576121144902, 39.12699560154801], [28.979576121144902, 39.12645661237754], [28.979037131974422, 39.12645661237754], [28.979037131974422, 39.12699560154801], [28.977959153633492, 39.12699560154801], [28.977959153633492, 39.12645661237754], [28.977420164463012, 39.12645661237754], [28.977420164463012, 39.12537863403659], [28.976881175292533, 39.12537863403659], [28.976881175292533, 39.12645661237754], [28.975803196951603, 39.12645661237754], [28.975803196951603, 39.125917623207066], [28.976342186122082, 39.125917623207066], [28.976342186122082, 39.12430065569565], [28.976881175292533, 39.12430065569565], [28.976881175292533, 39.12376166652518], [28.97849814280397, 39.12376166652518], [28.97849814280397, 39.12483964486612], [28.979037131974422, 39.12483964486612], [28.979037131974422, 39.12430065569565], [28.979576121144902, 39.12430065569565], [28.979576121144902, 39.12376166652518], [28.98011511031538, 39.12376166652518], [28.98011511031538, 39.12268368818424], [28.980654099485832, 39.12268368818424], [28.980654099485832, 39.12322267735471], [28.981193088656312, 39.12322267735471], [28.981193088656312, 39.12268368818424]], [[28.977959153633492, 39.12430065569565], [28.977959153633492, 39.12537863403659], [28.977420164463012, 39.12537863403659], [28.977420164463012, 39.12430065569565], [28.977959153633492, 39.12430065569565]]]}, "id": "+387729+83261", "properties": {"area_ha": 14.489984440774084, "count": 52, "label": 1, "mean_dnbr": 0.20561060348173263}}, {"type": "Feature", "geometry": {"geodesic": false, "type": "Polygon", "coordinates": [[[28.98604399119057, 39.198142172050275], [28.98658298036102, 39.198142172050275], [28.98658298036102, 39.19868116122075], [28.98873893704291, 39.19868116122075], [28.98873893704291, 39.200298128732165], [28.98766095870198, 39.200298128732165], [28.98766095870198, 39.19975913956169], [28.9871219695315, 39.19975913956169], [28.9871219695315, 39.20083711790264], [28.98658298036102, 39.20083711790264], [28.98658298036102, 39.19975913956169], [28.98604399119057, 39.19975913956169], [28.98604399119057, 39.198142172050275]]]}, "id": "+387737+83121", "properties": {"area_ha": 4.175378541333721, "count": 15, "label": 1, "mean_dnbr": 0.1876256813952127}}, {"type": "Feature", "geometry": {"geodesic": false, "type": "Polygon", "coordinates": [[[29.003291644645657, 38.97122773128169], [29.004908612157067, 38.97122773128169], [29.004908612157067, 38.97176672045216], [29.005447601327546, 38.97176672045216], [29.005447601327546, 38.97230570962263], [29.006525579668477, 38.97230570962263], [29.006525579668477, 38.97338368796357], [29.005986590498026, 38.97338368796357], [29.005986590498026, 38.97392267713404], [29.005447601327546, 38.97392267713404], [29.005447601327546, 38.974461666304514], [29.004369622986587, 38.974461666304514], [29.004369622986587, 38.972844698793104], [29.004908612157067, 38.972844698793104], [29.004908612157067, 38.97230570962263], [29.003830633816136, 38.97230570962263], [29.003830633816136, 38.97176672045216], [29.003291644645657, 38.97176672045216], [29.003291644645657, 38.97122773128169]]]}, "id": "+387771+83542", "properties": {"area_ha": 5.026583522819556, "count": 18, "label": 1, "mean_dnbr": 0.1536169522553574}}, {"type": "Feature", "geometry": {"geodesic": false, "type": "Polygon", "coordinates": [[[29.13049308887699, 38.751320149729224], [29.13103207804744, 38.751320149729224], [29.13103207804744, 38.7518591388997], [29.13318803472933, 38.7518591388997], [29.13318803472933, 38.75239812807017], [29.134266013070288, 38.75239812807017], [29.134266013070288, 38.7518591388997], [29.134805002240768, 38.7518591388997], [29.134805002240768, 38.75239812807017], [29.134266013070288, 38.75239812807017], [29.134266013070288, 38.75293711724064], [29.1321100563884, 38.75293711724064], [29.1321100563884, 38.75239812807017], [29.13049308887699, 38.75239812807017], [29.13049308887699, 38.751320149729224]]]}, "id": "+388005+83950", "properties": {"area_ha": 3.0813454882653173, "count": 11, "label": 1, "mean_dnbr": 0.20080330371894708}}, {"type": "Feature", "geometry": {"geodesic": false, "type": "Polygon", "coordinates": [[[29.136421969752178, 39.67137466372444], [29.138038937263588, 39.67137466372444], [29.138038937263588, 39.671913652894915], [29.13696095892263, 39.671913652894915], [29.13696095892263, 39.67245264206539], [29.134805002240768, 39.67245264206539], [29.134805002240768, 39.673530620406325], [29.134266013070288, 39.673530620406325], [29.134266013070288, 39.671913652894915], [29.134805002240768, 39.671913652894915], [29.134805002240768, 39.67137466372444], [29.13534399141122, 39.67137466372444], [29.13534399141122, 39.671913652894915], [29.136421969752178, 39.671913652894915], [29.136421969752178, 39.67137466372444]]]}, "id": "+388018+82243", "properties": {"area_ha": 3.0412452068489833, "count": 11, "label": 1, "mean_dnbr": 0.1895966040728894}}, {"type": "Feature", "geometry": {"geodesic": false, "type": "Polygon", "coordinates": [[[29.16930030915094, 38.955597045338], [29.1703782874919, 38.955597045338], [29.1703782874919, 38.95667502367895], [29.16983929832142, 38.95667502367895], [29.16983929832142, 38.95721401284942], [29.1703782874919, 38.95721401284942], [29.1703782874919, 38.95883098036084], [29.16983929832142, 38.95883098036084], [29.16983929832142, 38.958291991190364], [29.16930030915094, 38.958291991190364], [29.16930030915094, 38.95721401284942], [29.16876131998046, 38.95721401284942], [29.16876131998046, 38.956136034508475], [29.16930030915094, 38.956136034508475], [29.16930030915094, 38.955597045338]]]}, "id": "+388078+83571", "properties": {"area_ha": 3.351801443831358, "count": 12, "label": 1, "mean_dnbr": 0.17535409004127872}}, {"type": "Feature", "geometry": {"geodesic": false, "type": "Polygon", "coordinates": [[[29.18439200592414, 38.93242051100772], [29.186008973435577, 38.93242051100772], [29.186008973435577, 38.93295950017819], [29.186547962606028, 38.93295950017819], [29.186547962606028, 38.933498489348665], [29.187086951776507, 38.933498489348665], [29.187086951776507, 38.93403747851914], [29.188703919287917, 38.93403747851914], [29.188703919287917, 38.93511545686008], [29.187086951776507, 38.93511545686008], [29.187086951776507, 38.93457646768961], [29.186547962606028, 38.93457646768961], [29.186547962606028, 38.93403747851914], [29.185469984265097, 38.93403747851914], [29.185469984265097, 38.933498489348665], [29.184930995094618, 38.933498489348665], [29.184930995094618, 38.93295950017819], [29.18439200592414, 38.93295950017819], [29.18439200592414, 38.933498489348665], [29.183853016753687, 38.933498489348665], [29.183853016753687, 38.93295950017819], [29.18439200592414, 38.93295950017819], [29.18439200592414, 38.93242051100772]]]}, "id": "+388107+83614", "properties": {"area_ha": 4.749943002416889, "count": 17, "label": 1, "mean_dnbr": 0.19955026339437126}}, {"type": "Feature", "geometry": {"geodesic": false, "type": "Polygon", "coordinates": [[[29.208646518595373, 38.88175552898338], [29.20972449693633, 38.88175552898338], [29.20972449693633, 38.882294518153856], [29.210263486106783, 38.882294518153856], [29.210263486106783, 38.88283350732433], [29.21188045361822, 38.88283350732433], [29.21188045361822, 38.88337249649479], [29.212419442788672, 38.88337249649479], [29.212419442788672, 38.88283350732433], [29.21403641030011, 38.88283350732433], [29.21403641030011, 38.883911485665266], [29.21457539947056, 38.883911485665266], [29.21457539947056, 38.88445047483574], [29.21511438864104, 38.88445047483574], [29.21511438864104, 38.88552845317668], [29.21403641030011, 38.88552845317668], [29.21403641030011, 38.886067442347155], [29.210802475277262, 38.886067442347155], [29.210802475277262, 38.88552845317668], [29.210263486106783, 38.88552845317668], [29.210263486106783, 38.88498946400621], [29.209185507765852, 38.88498946400621], [29.209185507765852, 38.883911485665266], [29.208646518595373, 38.883911485665266], [29.208646518595373, 38.88175552898338]]]}, "id": "+388151+83708", "properties": {"area_ha": 16.776240363177273, "count": 60, "label": 1, "mean_dnbr": 0.3717918672319294}}, {"type": "Feature", "geometry": {"geodesic": false, "type": "Polygon", "coordinates": [[[29.21457539947056, 39.28599740683717], [29.21511438864104, 39.28599740683717], [29.21511438864104, 39.28653639600764], [29.21673135615245, 39.28653639600764], [29.21673135615245, 39.287075385178106], [29.21834832366386, 39.287075385178106], [29.21834832366386, 39.28653639600764], [29.21942630200482, 39.28653639600764], [29.21942630200482, 39.287075385178106], [29.2199652911753, 39.287075385178106], [29.2199652911753, 39.28761437434858], [29.21673135615245, 39.28761437434858], [29.21673135615245, 39.28815336351905], [29.21565337781152, 39.28815336351905], [29.21565337781152, 39.287075385178106], [29.21457539947056, 39.287075385178106], [29.21457539947056, 39.28761437434858], [29.21511438864104, 39.28761437434858], [29.21511438864104, 39.28815336351905], [29.21403641030011, 39.28815336351905], [29.21403641030011, 39.287075385178106], [29.21457539947056, 39.287075385178106], [29.21457539947056, 39.28599740683717]]]}, "id": "+388161+82958", "properties": {"area_ha": 5.5602319187402, "count": 20, "label": 1, "mean_dnbr": 0.23901230673961535}}, {"type": "Feature", "geometry": {"geodesic": false, "type": "Polygon", "coordinates": [[[29.21511438864104, 39.260125926654524], [29.21565337781152, 39.260125926654524], [29.21565337781152, 39.26120390499547], [29.21619236698197, 39.26120390499547], [29.21619236698197, 39.26282087250688], [29.21457539947056, 39.26282087250688], [29.21457539947056, 39.262281883336414], [29.21403641030011, 39.262281883336414], [29.21403641030011, 39.26120390499547], [29.21511438864104, 39.26120390499547], [29.21511438864104, 39.260125926654524]], [[29.21565337781152, 39.26120390499547], [29.21565337781152, 39.262281883336414], [29.21511438864104, 39.262281883336414], [29.21511438864104, 39.26120390499547], [29.21565337781152, 39.26120390499547]]]}, "id": "+388162+83006", "properties": {"area_ha": 3.0592311247456836, "count": 11, "label": 1, "mean_dnbr": 0.16085402535842605}}, {"type": "Feature", "geometry": {"geodesic": false, "type": "Polygon", "coordinates": [[[29.21942630200482, 39.28384145015528], [29.22050428034575, 39.28384145015528], [29.22050428034575, 39.284919428496224], [29.21942630200482, 39.284919428496224], [29.21942630200482, 39.28599740683717], [29.21727034532293, 39.28599740683717], [29.21727034532293, 39.284919428496224], [29.21673135615245, 39.284919428496224], [29.21673135615245, 39.28438043932575], [29.21619236698197, 39.28438043932575], [29.21619236698197, 39.284919428496224], [29.21403641030011, 39.284919428496224], [29.21403641030011, 39.28438043932575], [29.21565337781152, 39.28438043932575], [29.21565337781152, 39.28384145015528], [29.21834832366386, 39.28384145015528], [29.21834832366386, 39.28438043932575], [29.21942630200482, 39.28438043932575], [29.21942630200482, 39.28384145015528]]]}, "id": "+388171+82962", "properties": {"area_ha": 7.228530448019765, "count": 26, "label": 1, "mean_dnbr": 0.23863846147974468}}, {"type": "Feature", "geometry": {"geodesic": false, "type": "Polygon", "coordinates": [[[29.22104326951623, 39.322648670429245], [29.22319922619812, 39.322648670429245], [29.22319922619812, 39.32372664877018], [29.22104326951623, 39.32372664877018], [29.22104326951623, 39.32480462711113], [29.22050428034575, 39.32480462711113], [29.22050428034575, 39.324265637940655], [29.2199652911753, 39.324265637940655], [29.2199652911753, 39.32372664877018], [29.22104326951623, 39.32372664877018], [29.22104326951623, 39.322648670429245]]]}, "id": "+388176+82890", "properties": {"area_ha": 3.05653448025981, "count": 11, "label": 1, "mean_dnbr": 0.2613031220450889}}, {"type": "Feature", "geometry": {"geodesic": false, "type": "Polygon", "coordinates": [[[29.22158225868671, 39.320492713747356], [29.22481619370953, 39.320492713747356], [29.22481619370953, 39.3215706920883], [29.22427720453905, 39.3215706920883], [29.22427720453905, 39.32103170291783], [29.2237382153686, 39.32103170291783], [29.2237382153686, 39.3215706920883], [29.22158225868671, 39.3215706920883], [29.22158225868671, 39.320492713747356]]]}, "id": "+388179+82894", "properties": {"area_ha": 3.056626163799686, "count": 11, "label": 1, "mean_dnbr": 0.2818892243457472}}, {"type": "Feature", "geometry": {"geodesic": false, "type": "Polygon", "coordinates": [[[29.231284063755197, 39.26282087250688], [29.231823052925677, 39.26282087250688], [29.231823052925677, 39.26497682918877], [29.231284063755197, 39.26497682918877], [29.231284063755197, 39.264437840018296], [29.230745074584718, 39.264437840018296], [29.230745074584718, 39.26551581835924], [29.229667096243787, 39.26551581835924], [29.229667096243787, 39.264437840018296], [29.23020608541424, 39.264437840018296], [29.23020608541424, 39.26389885084782], [29.230745074584718, 39.26389885084782], [29.230745074584718, 39.26335986167735], [29.231284063755197, 39.26335986167735], [29.231284063755197, 39.26282087250688]]]}, "id": "+388192+83001", "properties": {"area_ha": 3.059118640444291, "count": 11, "label": 1, "mean_dnbr": 0.1987496465757627}}, {"type": "Feature", "geometry": {"geodesic": false, "type": "Polygon", "coordinates": [[[29.242602836335095, 38.841331341198], [29.245297782187464, 38.841331341198], [29.245297782187464, 38.842409319538945], [29.243680814676054, 38.842409319538945], [29.243680814676054, 38.84294830870942], [29.242602836335095, 38.84294830870942], [29.242602836335095, 38.841331341198]]]}, "id": "+388217+83783", "properties": {"area_ha": 3.357226542536643, "count": 12, "label": 1, "mean_dnbr": 0.2405091183874605}}, {"type": "Feature", "geometry": {"geodesic": false, "type": "Polygon", "coordinates": [[[29.244219803846505, 38.8909183448814], [29.245836771357915, 38.8909183448814], [29.245836771357915, 38.89145733405187], [29.247992728039804, 38.89145733405187], [29.247992728039804, 38.892535312392816], [29.247453738869353, 38.892535312392816], [29.247453738869353, 38.891996323222344], [29.246914749698874, 38.891996323222344], [29.246914749698874, 38.892535312392816], [29.246375760528394, 38.892535312392816], [29.246375760528394, 38.89307430156329], [29.245297782187464, 38.89307430156329], [29.245297782187464, 38.891996323222344], [29.244758793016985, 38.891996323222344], [29.244758793016985, 38.89145733405187], [29.244219803846505, 38.89145733405187], [29.244219803846505, 38.8909183448814]]]}, "id": "+388218+83691", "properties": {"area_ha": 4.193592211499957, "count": 15, "label": 1, "mean_dnbr": 0.22842958654974646}}, {"type": "Feature", "geometry": {"geodesic": false, "type": "Polygon", "coordinates": [[[29.26847431651774, 39.160951919287726], [29.26955229485867, 39.160951919287726], [29.26955229485867, 39.16202989762867], [29.26901330568822, 39.16202989762867], [29.26901330568822, 39.16256888679914], [29.26847431651774, 39.16256888679914], [29.26847431651774, 39.163107875969615], [29.26901330568822, 39.163107875969615], [29.26901330568822, 39.16364686514009], [29.27009128402915, 39.16364686514009], [29.27009128402915, 39.165263832651505], [29.26793532734726, 39.165263832651505], [29.26793532734726, 39.16580282182198], [29.26631835983585, 39.16580282182198], [29.26631835983585, 39.165263832651505], [29.26470139232444, 39.165263832651505], [29.26470139232444, 39.16634181099244], [29.26308442481303, 39.16634181099244], [29.26308442481303, 39.16580282182198], [29.26416240315396, 39.16580282182198], [29.26416240315396, 39.165263832651505], [29.26470139232444, 39.165263832651505], [29.26470139232444, 39.16472484348103], [29.26416240315396, 39.16472484348103], [29.26416240315396, 39.16418585431056], [29.26470139232444, 39.16418585431056], [29.26470139232444, 39.16364686514009], [29.26577937066537, 39.16364686514009], [29.26577937066537, 39.16418585431056], [29.26631835983585, 39.16418585431056], [29.26631835983585, 39.165263832651505], [29.26793532734726, 39.165263832651505], [29.26793532734726, 39.16472484348103], [29.26955229485867, 39.16472484348103], [29.26955229485867, 39.16418585431056], [29.26793532734726, 39.16418585431056], [29.26793532734726, 39.163107875969615], [29.26739633817681, 39.163107875969615], [29.26739633817681, 39.16256888679914], [29.26847431651774, 39.16256888679914], [29.26847431651774, 39.16202989762867], [29.26901330568822, 39.16202989762867], [29.26901330568822, 39.1614909084582], [29.26847431651774, 39.1614909084582], [29.26847431651774, 39.160951919287726]]]}, "id": "+388262+83190", "properties": {"area_ha": 9.190451324675415, "count": 33, "label": 1, "mean_dnbr": 0.1793049451355155}}, {"type": "Feature", "geometry": {"geodesic": false, "type": "Polygon", "coordinates": [[[29.280871067438596, 38.87636563727867], [29.282488034950006, 38.87636563727867], [29.282488034950006, 38.87690462644913], [29.281949045779527, 38.87690462644913], [29.281949045779527, 38.877443615619605], [29.281410056609047, 38.877443615619605], [29.281410056609047, 38.87852159396055], [29.280871067438596, 38.87852159396055], [29.280871067438596, 38.87906058313102], [29.280332078268117, 38.87906058313102], [29.280332078268117, 38.87852159396055], [29.279793089097637, 38.87852159396055], [29.279793089097637, 38.87798260479008], [29.280332078268117, 38.87798260479008], [29.280332078268117, 38.877443615619605], [29.280871067438596, 38.877443615619605], [29.280871067438596, 38.87636563727867]]]}, "id": "+388286+83718", "properties": {"area_ha": 3.075925311397895, "count": 11, "label": 1, "mean_dnbr": 0.3382367832676098}}, {"type": "Feature", "geometry": {"geodesic": false, "type": "Polygon", "coordinates": [[[29.299735688405093, 38.822466720231496], [29.300274677575572, 38.822466720231496], [29.300274677575572, 38.82300570940196], [29.300813666746052, 38.82300570940196], [29.300813666746052, 38.823544698572434], [29.302430634257462, 38.823544698572434], [29.302430634257462, 38.82462267691338], [29.301352655916503, 38.82462267691338], [29.301352655916503, 38.82570065525432], [29.299735688405093, 38.82570065525432], [29.299735688405093, 38.82516166608385], [29.299196699234614, 38.82516166608385], [29.299196699234614, 38.82462267691338], [29.299735688405093, 38.82462267691338], [29.299735688405093, 38.822466720231496]]]}, "id": "+388319+83818", "properties": {"area_ha": 5.5967863477852395, "count": 20, "label": 1, "mean_dnbr": 0.2084970995985984}}, {"type": "Feature", "geometry": {"geodesic": false, "type": "Polygon", "coordinates": [[[29.31644435268973, 39.471409681479436], [29.31913929854207, 39.471409681479436], [29.31913929854207, 39.47248765982038], [29.31752233103066, 39.47248765982038], [29.31752233103066, 39.47194867064991], [29.31698334186018, 39.47194867064991], [29.31698334186018, 39.473565638161325], [29.31752233103066, 39.473565638161325], [29.31752233103066, 39.47410462733179], [29.31698334186018, 39.47410462733179], [29.31698334186018, 39.473565638161325], [29.31644435268973, 39.473565638161325], [29.31644435268973, 39.47302664899085], [29.31590536351925, 39.47302664899085], [29.31590536351925, 39.47194867064991], [29.31644435268973, 39.47194867064991], [29.31644435268973, 39.471409681479436]]]}, "id": "+388354+82614", "properties": {"area_ha": 3.8818341203810864, "count": 14, "label": 1, "mean_dnbr": 0.20409620700053238}}, {"type": "Feature", "geometry": {"geodesic": false, "type": "Polygon", "coordinates": [[[29.318600309371618, 39.2757566125982], [29.32291222273537, 39.2757566125982], [29.32291222273537, 39.276834590939146], [29.321834244394438, 39.276834590939146], [29.321834244394438, 39.27629560176867], [29.32129525522396, 39.27629560176867], [29.32129525522396, 39.276834590939146], [29.320217276883028, 39.276834590939146], [29.320217276883028, 39.27737358010962], [29.320756266053507, 39.27737358010962], [29.320756266053507, 39.27791256928009], [29.31967828771255, 39.27791256928009], [29.31967828771255, 39.27737358010962], [29.31913929854207, 39.27737358010962], [29.31913929854207, 39.276834590939146], [29.318600309371618, 39.276834590939146], [29.318600309371618, 39.2757566125982]]]}, "id": "+388361+82977", "properties": {"area_ha": 5.2829598615289015, "count": 19, "label": 1, "mean_dnbr": 0.18342115036036827}}, {"type": "Feature", "geometry": {"geodesic": false, "type": "Polygon", "coordinates": [[[29.32291222273537, 38.93619343520103], [29.323451211905848, 38.93619343520103], [29.323451211905848, 38.9367324243715], [29.323990201076327, 38.9367324243715], [29.323990201076327, 38.937271413541964], [29.324529190246807, 38.937271413541964], [29.324529190246807, 38.93781040271244], [29.325068179417258, 38.93781040271244], [29.325068179417258, 38.937271413541964], [29.326685146928696, 38.937271413541964], [29.326685146928696, 38.93834939188291], [29.326146157758217, 38.93834939188291], [29.326146157758217, 38.93888838105338], [29.325607168587737, 38.93888838105338], [29.325607168587737, 38.939427370223854], [29.324529190246807, 38.939427370223854], [29.324529190246807, 38.939966359394326], [29.323990201076327, 38.939966359394326], [29.323990201076327, 38.939427370223854], [29.322373233564917, 38.939427370223854], [29.322373233564917, 38.939966359394326], [29.32129525522396, 38.939966359394326], [29.32129525522396, 38.939427370223854], [29.320756266053507, 38.939427370223854], [29.320756266053507, 38.93834939188291], [29.321834244394438, 38.93834939188291], [29.321834244394438, 38.937271413541964], [29.322373233564917, 38.937271413541964], [29.322373233564917, 38.9367324243715], [29.32291222273537, 38.9367324243715], [29.32291222273537, 38.93619343520103]], [[29.32291222273537, 38.93781040271244], [29.32291222273537, 38.93834939188291], [29.322373233564917, 38.93834939188291], [29.322373233564917, 38.93781040271244], [29.32291222273537, 38.93781040271244]], [[29.324529190246807, 38.93781040271244], [29.324529190246807, 38.93834939188291], [29.323990201076327, 38.93834939188291], [29.323990201076327, 38.93781040271244], [29.324529190246807, 38.93781040271244]]]}, "id": "+388362+83607", "properties": {"area_ha": 11.455011185823913, "count": 41, "label": 1, "mean_dnbr": 0.37446176909878964}}, {"type": "Feature", "geometry": {"geodesic": false, "type": "Polygon", "coordinates": [[[29.331536049462926, 39.475182605672735], [29.332075038633405, 39.475182605672735], [29.332075038633405, 39.47572159484321], [29.332614027803885, 39.47572159484321], [29.332614027803885, 39.47626058401368], [29.333692006144815, 39.47626058401368], [29.333692006144815, 39.47679957318415], [29.334230995315295, 39.47679957318415], [29.334230995315295, 39.4778775515251], [29.335308973656225, 39.4778775515251], [29.335308973656225, 39.48003350820698], [29.334769984485746, 39.48003350820698], [29.334769984485746, 39.479494519036514], [29.333692006144815, 39.479494519036514], [29.333692006144815, 39.47841654069557], [29.333153016974336, 39.47841654069557], [29.333153016974336, 39.477338562354625], [29.333692006144815, 39.477338562354625], [29.333692006144815, 39.47679957318415], [29.332075038633405, 39.47679957318415], [29.332075038633405, 39.47626058401368], [29.331536049462926, 39.47626058401368], [29.331536049462926, 39.475182605672735]]]}, "id": "+388378+82607", "properties": {"area_ha": 5.545057476283809, "count": 20, "label": 1, "mean_dnbr": 0.17021142651073357}}, {"type": "Feature", "geometry": {"geodesic": false, "type": "Polygon", "coordinates": [[[29.335847962826705, 39.47679957318415], [29.336386951997184, 39.47679957318415], [29.336386951997184, 39.477338562354625], [29.336925941167635, 39.477338562354625], [29.336925941167635, 39.479494519036514], [29.336386951997184, 39.479494519036514], [29.336386951997184, 39.48003350820698], [29.336925941167635, 39.48003350820698], [29.336925941167635, 39.48057249737745], [29.337464930338115, 39.48057249737745], [29.337464930338115, 39.481650475718396], [29.338003919508594, 39.481650475718396], [29.338003919508594, 39.48218946488887], [29.336925941167635, 39.48218946488887], [29.336925941167635, 39.481650475718396], [29.335847962826705, 39.481650475718396], [29.335847962826705, 39.47841654069557], [29.336386951997184, 39.47841654069557], [29.336386951997184, 39.4778775515251], [29.335847962826705, 39.4778775515251], [29.335847962826705, 39.47679957318415]]]}, "id": "+388386+82604", "properties": {"area_ha": 5.267646757652631, "count": 19, "label": 1, "mean_dnbr": 0.1778804778102237}}, {"type": "Feature", "geometry": {"geodesic": false, "type": "Polygon", "coordinates": [[[29.35632955130464, 39.297316179417074], [29.35740752964557, 39.297316179417074], [29.35740752964557, 39.297855168587546], [29.35686854047509, 39.297855168587546], [29.35686854047509, 39.29839415775802], [29.35579056213416, 39.29839415775802], [29.35579056213416, 39.299472136098956], [29.35363460545227, 39.299472136098956], [29.35363460545227, 39.29893314692848], [29.3547125837932, 39.29893314692848], [29.3547125837932, 39.29839415775802], [29.35525157296368, 39.29839415775802], [29.35525157296368, 39.297855168587546], [29.35632955130464, 39.297855168587546], [29.35632955130464, 39.297316179417074]]]}, "id": "+388425+82937", "properties": {"area_ha": 3.057629861872686, "count": 11, "label": 1, "mean_dnbr": 0.1671958887743708}}, {"type": "Feature", "geometry": {"geodesic": false, "type": "Polygon", "coordinates": [[[29.385434966510104, 38.81545986101536], [29.385973955680583, 38.81545986101536], [29.385973955680583, 38.815998850185835], [29.386512944851034, 38.815998850185835], [29.386512944851034, 38.81653783935631], [29.385973955680583, 38.81653783935631], [29.385973955680583, 38.817615817697245], [29.385434966510104, 38.817615817697245], [29.385434966510104, 38.81707682852677], [29.384895977339625, 38.81707682852677], [29.384895977339625, 38.81815480686772], [29.385434966510104, 38.81815480686772], [29.385434966510104, 38.81869379603819], [29.384356988169145, 38.81869379603819], [29.384356988169145, 38.81707682852677], [29.384895977339625, 38.81707682852677], [29.384895977339625, 38.815998850185835], [29.385434966510104, 38.815998850185835], [29.385434966510104, 38.81545986101536]]]}, "id": "+388478+83831", "properties": {"area_ha": 3.0785460690673006, "count": 11, "label": 1, "mean_dnbr": 0.2248964219015355}}, {"type": "Feature", "geometry": {"geodesic": false, "type": "Polygon", "coordinates": [[[29.390824858214813, 39.026743615840275], [29.391902836555772, 39.026743615840275], [29.391902836555772, 39.02728260501075], [29.392441825726223, 39.02728260501075], [29.392441825726223, 39.028360583351684], [29.392980814896703, 39.028360583351684], [29.392980814896703, 39.02889957252216], [29.392441825726223, 39.02889957252216], [29.392441825726223, 39.028360583351684], [29.391363847385293, 39.028360583351684], [29.391363847385293, 39.02728260501075], [29.390824858214813, 39.02728260501075], [29.390824858214813, 39.02782159418121], [29.390285869044334, 39.02782159418121], [29.390285869044334, 39.028360583351684], [29.390824858214813, 39.028360583351684], [29.390824858214813, 39.02889957252216], [29.391363847385293, 39.02889957252216], [29.391363847385293, 39.0299775508631], [29.390285869044334, 39.0299775508631], [29.390285869044334, 39.02943856169263], [29.389746879873883, 39.02943856169263], [29.389746879873883, 39.02889957252216], [29.390285869044334, 39.02889957252216], [29.390285869044334, 39.028360583351684], [29.389746879873883, 39.028360583351684], [29.389746879873883, 39.02782159418121], [29.390285869044334, 39.02782159418121], [29.390285869044334, 39.02728260501075], [29.389746879873883, 39.02728260501075], [29.389746879873883, 39.026743615840275], [29.390285869044334, 39.026743615840275], [29.390285869044334, 39.02728260501075], [29.390824858214813, 39.02728260501075], [29.390824858214813, 39.026743615840275]], [[29.390824858214813, 39.02889957252216], [29.390824858214813, 39.02943856169263], [29.390285869044334, 39.02943856169263], [29.390285869044334, 39.02889957252216], [29.390824858214813, 39.02889957252216]]]}, "id": "+388489+83439", "properties": {"area_ha": 4.185542437004264, "count": 15, "label": 1, "mean_dnbr": 0.14879580482811508}}, {"type": "Feature", "geometry": {"geodesic": false, "type": "Polygon", "coordinates": [[[29.395136771578592, 39.09789018634254], [29.39567576074907, 39.09789018634254], [29.39567576074907, 39.098968164683484], [29.396214749919523, 39.098968164683484], [29.396214749919523, 39.101124121365366], [29.395136771578592, 39.101124121365366], [29.395136771578592, 39.10166311053584], [29.394597782408113, 39.10166311053584], [29.394597782408113, 39.100585132194894], [29.392980814896703, 39.100585132194894], [29.392980814896703, 39.10004614302442], [29.392441825726223, 39.10004614302442], [29.392441825726223, 39.100585132194894], [29.391902836555772, 39.100585132194894], [29.391902836555772, 39.099507153853956], [29.39405879323766, 39.099507153853956], [29.39405879323766, 39.10004614302442], [29.39567576074907, 39.10004614302442], [29.39567576074907, 39.098968164683484], [29.395136771578592, 39.098968164683484], [29.395136771578592, 39.09789018634254]]]}, "id": "+388496+83307", "properties": {"area_ha": 5.296286270944565, "count": 19, "label": 1, "mean_dnbr": 0.17917713028861518}}, {"type": "Feature", "geometry": {"geodesic": false, "type": "Polygon", "coordinates": [[[29.39567576074907, 38.97769560132735], [29.39729272826048, 38.97769560132735], [29.39729272826048, 38.97823459049782], [29.396753739090002, 38.97823459049782], [29.396753739090002, 38.97877357966829], [29.396214749919523, 38.97877357966829], [29.396214749919523, 38.979312568838765], [29.393519804067182, 38.979312568838765], [29.393519804067182, 38.97985155800923], [29.392980814896703, 38.97985155800923], [29.392980814896703, 38.979312568838765], [29.392441825726223, 38.979312568838765], [29.392441825726223, 38.97877357966829], [29.39405879323766, 38.97877357966829], [29.39405879323766, 38.97823459049782], [29.39567576074907, 38.97823459049782], [29.39567576074907, 38.97769560132735]]]}, "id": "+388499+83530", "properties": {"area_ha": 4.467707501877962, "count": 16, "label": 1, "mean_dnbr": 0.27017193362298475}}, {"type": "Feature", "geometry": {"geodesic": false, "type": "Polygon", "coordinates": [[[29.398370706601412, 38.96637682874744], [29.39944868494237, 38.96637682874744], [29.39944868494237, 38.96799379625885], [29.39998767411285, 38.96799379625885], [29.39998767411285, 38.968532785429325], [29.398370706601412, 38.968532785429325], [29.398370706601412, 38.96799379625885], [29.39783171743096, 38.96799379625885], [29.39783171743096, 38.966915817917915], [29.398370706601412, 38.966915817917915], [29.398370706601412, 38.96637682874744]]]}, "id": "+388503+83551", "properties": {"area_ha": 3.0720321229944734, "count": 11, "label": 1, "mean_dnbr": 0.22895739998221967}}, {"type": "Feature", "geometry": {"geodesic": false, "type": "Polygon", "coordinates": [[[29.4042995874766, 38.92217971676876], [29.40483857664708, 38.92217971676876], [29.40483857664708, 38.923257695109704], [29.40376059830615, 38.923257695109704], [29.40376059830615, 38.92271870593923], [29.40322160913567, 38.92271870593923], [29.40322160913567, 38.92379668428018], [29.40268261996519, 38.92379668428018], [29.40268261996519, 38.923257695109704], [29.40214363079471, 38.923257695109704], [29.40214363079471, 38.92379668428018], [29.40106565245378, 38.92379668428018], [29.40106565245378, 38.92271870593923], [29.40322160913567, 38.92271870593923], [29.40322160913567, 38.92217971676876], [29.40376059830615, 38.92217971676876], [29.40376059830615, 38.92271870593923], [29.4042995874766, 38.92271870593923], [29.4042995874766, 38.92217971676876]]]}, "id": "+388513+83633", "properties": {"area_ha": 3.073953617396018, "count": 11, "label": 1, "mean_dnbr": 0.1608603021274087}}, {"type": "Feature", "geometry": {"geodesic": false, "type": "Polygon", "coordinates": [[[29.40483857664708, 39.103280078047256], [29.40645554415849, 39.103280078047256], [29.40645554415849, 39.10381906721773], [29.40699453332897, 39.10381906721773], [29.40699453332897, 39.105436034729145], [29.40591655498804, 39.105436034729145], [29.40591655498804, 39.1043580563882], [29.40537756581756, 39.1043580563882], [29.40537756581756, 39.10489704555867], [29.40483857664708, 39.10489704555867], [29.40483857664708, 39.103280078047256]]]}, "id": "+388516+83297", "properties": {"area_ha": 3.344824975213106, "count": 12, "label": 1, "mean_dnbr": 0.1653652087827396}}, {"type": "Feature", "geometry": {"geodesic": false, "type": "Polygon", "coordinates": [[[29.4042995874766, 38.84402628705036], [29.40645554415849, 38.84402628705036], [29.40645554415849, 38.844565276220834], [29.40591655498804, 38.844565276220834], [29.40591655498804, 38.845104265391306], [29.4042995874766, 38.845104265391306], [29.4042995874766, 38.84564325456178], [29.40537756581756, 38.84564325456178], [29.40537756581756, 38.84618224373225], [29.40483857664708, 38.84618224373225], [29.40483857664708, 38.84726022207319], [29.4042995874766, 38.84726022207319], [29.4042995874766, 38.84618224373225], [29.40268261996519, 38.84618224373225], [29.40268261996519, 38.845104265391306], [29.40214363079471, 38.845104265391306], [29.40214363079471, 38.844565276220834], [29.4042995874766, 38.844565276220834], [29.4042995874766, 38.84402628705036]]]}, "id": "+388516+83778", "properties": {"area_ha": 5.87488740497194, "count": 21, "label": 1, "mean_dnbr": 0.16873254946290092}}, {"type": "Feature", "geometry": {"geodesic": false, "type": "Polygon", "coordinates": [[[29.40753352249945, 38.92271870593923], [29.40861150084038, 38.92271870593923], [29.40861150084038, 38.923257695109704], [29.40968947918134, 38.923257695109704], [29.40968947918134, 38.92379668428018], [29.41022846835179, 38.92379668428018], [29.41022846835179, 38.92433567345065], [29.40968947918134, 38.92433567345065], [29.40968947918134, 38.92541365179159], [29.40861150084038, 38.92541365179159], [29.40861150084038, 38.92433567345065], [29.40753352249945, 38.92433567345065], [29.40753352249945, 38.92541365179159], [29.40537756581756, 38.92541365179159], [29.40537756581756, 38.92487466262112], [29.40591655498804, 38.92487466262112], [29.40591655498804, 38.92433567345065], [29.40645554415849, 38.92433567345065], [29.40645554415849, 38.923257695109704], [29.40699453332897, 38.923257695109704], [29.40699453332897, 38.92379668428018], [29.40753352249945, 38.92379668428018], [29.40753352249945, 38.92271870593923]]]}, "id": "+388520+83632", "properties": {"area_ha": 6.986158019585699, "count": 25, "label": 1, "mean_dnbr": 0.19059468964638346}}, {"type": "Feature", "geometry": {"geodesic": false, "type": "Polygon", "coordinates": [[[29.40861150084038, 38.84294830870942], [29.41022846835179, 38.84294830870942], [29.41022846835179, 38.84402628705036], [29.40968947918134, 38.84402628705036], [29.40968947918134, 38.84348729787989], [29.40915049001086, 38.84348729787989], [29.40915049001086, 38.844565276220834], [29.40968947918134, 38.844565276220834], [29.40968947918134, 38.845104265391306], [29.40861150084038, 38.845104265391306], [29.40861150084038, 38.84402628705036], [29.4080725116699, 38.84402628705036], [29.4080725116699, 38.845104265391306], [29.40753352249945, 38.845104265391306], [29.40753352249945, 38.84564325456178], [29.40861150084038, 38.84564325456178], [29.40861150084038, 38.84618224373225], [29.40753352249945, 38.84618224373225], [29.40753352249945, 38.84564325456178], [29.40645554415849, 38.84564325456178], [29.40645554415849, 38.845104265391306], [29.40699453332897, 38.845104265391306], [29.40699453332897, 38.844565276220834], [29.40753352249945, 38.844565276220834], [29.40753352249945, 38.84402628705036], [29.4080725116699, 38.84402628705036], [29.4080725116699, 38.84348729787989], [29.40861150084038, 38.84348729787989], [29.40861150084038, 38.84294830870942]]]}, "id": "+388523+83780", "properties": {"area_ha": 4.476158880873792, "count": 16, "label": 1, "mean_dnbr": 0.16989200802988372}}, {"type": "Feature", "geometry": {"geodesic": false, "type": "Polygon", "coordinates": [[[29.411845435863228, 38.844565276220834], [29.41292341420416, 38.844565276220834], [29.41292341420416, 38.846721232902716], [29.411845435863228, 38.846721232902716], [29.411845435863228, 38.84618224373225], [29.41076745752227, 38.84618224373225], [29.41076745752227, 38.84564325456178], [29.41130644669275, 38.84564325456178], [29.41130644669275, 38.845104265391306], [29.411845435863228, 38.845104265391306], [29.411845435863228, 38.844565276220834]]]}, "id": "+388528+83777", "properties": {"area_ha": 3.0773087270718786, "count": 11, "label": 1, "mean_dnbr": 0.18442306955854432}}, {"type": "Feature", "geometry": {"geodesic": false, "type": "Polygon", "coordinates": [[[29.415618360056527, 38.84402628705036], [29.416696338397458, 38.84402628705036], [29.416696338397458, 38.844565276220834], [29.416157349226978, 38.844565276220834], [29.416157349226978, 38.84564325456178], [29.417235327567937, 38.84564325456178], [29.417235327567937, 38.84618224373225], [29.416696338397458, 38.84618224373225], [29.416696338397458, 38.846721232902716], [29.416157349226978, 38.846721232902716], [29.416157349226978, 38.84726022207319], [29.415079370886048, 38.84726022207319], [29.415079370886048, 38.846721232902716], [29.415618360056527, 38.846721232902716], [29.415618360056527, 38.84564325456178], [29.41400139254509, 38.84564325456178], [29.41400139254509, 38.845104265391306], [29.414540381715568, 38.845104265391306], [29.414540381715568, 38.844565276220834], [29.415618360056527, 38.844565276220834], [29.415618360056527, 38.84402628705036]]]}, "id": "+388535+83778", "properties": {"area_ha": 4.476091551703594, "count": 16, "label": 1, "mean_dnbr": 0.16677499152214256}}, {"type": "Feature", "geometry": {"geodesic": false, "type": "Polygon", "coordinates": [[[29.419930273420277, 39.00626202736235], [29.421008251761236, 39.00626202736235], [29.421008251761236, 39.00680101653282], [29.419930273420277, 39.00680101653282], [29.419930273420277, 39.008417984044236], [29.420469262590757, 39.008417984044236], [29.420469262590757, 39.00895697321471], [29.419930273420277, 39.00895697321471], [29.419930273420277, 39.00949596238518], [29.419391284249826, 39.00949596238518], [29.419391284249826, 39.00895697321471], [29.418852295079347, 39.00895697321471], [29.418852295079347, 39.00734000570329], [29.419391284249826, 39.00734000570329], [29.419391284249826, 39.00680101653282], [29.419930273420277, 39.00680101653282], [29.419930273420277, 39.00626202736235]]]}, "id": "+388543+83477", "properties": {"area_ha": 3.0702784878773532, "count": 11, "label": 1, "mean_dnbr": 0.15152419511390205}}, {"type": "Feature", "geometry": {"geodesic": false, "type": "Polygon", "coordinates": [[[29.425859154295466, 39.29893314692848], [29.426398143465946, 39.29893314692848], [29.426398143465946, 39.299472136098956], [29.427476121806905, 39.299472136098956], [29.427476121806905, 39.30001112526943], [29.428015110977356, 39.30001112526943], [29.428015110977356, 39.299472136098956], [29.428554100147835, 39.299472136098956], [29.428554100147835, 39.30001112526943], [29.428015110977356, 39.30001112526943], [29.428015110977356, 39.3005501144399], [29.425320165125015, 39.3005501144399], [29.425320165125015, 39.30108910361037], [29.425859154295466, 39.30108910361037], [29.425859154295466, 39.301628092780845], [29.425320165125015, 39.301628092780845], [29.425320165125015, 39.30108910361037], [29.423703197613605, 39.30108910361037], [29.423703197613605, 39.3005501144399], [29.424242186784056, 39.3005501144399], [29.424242186784056, 39.30001112526943], [29.423164208443126, 39.30001112526943], [29.423164208443126, 39.299472136098956], [29.424781175954536, 39.299472136098956], [29.424781175954536, 39.30001112526943], [29.426398143465946, 39.30001112526943], [29.426398143465946, 39.299472136098956], [29.425859154295466, 39.299472136098956], [29.425859154295466, 39.29893314692848]]]}, "id": "+388553+82934", "properties": {"area_ha": 5.003276528864528, "count": 18, "label": 1, "mean_dnbr": 0.24369479826453083}}]}