{"type": "FeatureCollection", "columns": {"area_ha": "Number", "count": "Long<0, 4294967295>", "label": "Byte<0, 1>", "mean_dnbr": "Object", "system:index": "String"}, "features": [{"type": "Feature", "geometry": {"geodesic": false, "type": "Polygon", "coordinates": [[[28.175943267971576, 39.26713278587066], [28.179716192164875, 39.26713278587066], [28.179716192164875, 39.26767177504113], [28.179177202994396, 39.26767177504113], [28.179177202994396, 39.2682107642116], [28.178638213823945, 39.2682107642116], [28.178638213823945, 39.26874975338207], [28.177560235482986, 39.26874975338207], [28.177560235482986, 39.2682107642116], [28.177021246312535, 39.2682107642116], [28.177021246312535, 39.26767177504113], [28.175943267971576, 39.26767177504113], [28.175943267971576, 39.26713278587066]]]}, "id": "+386240+82993", "properties": {"area_ha": 3.6151103196121372, "count": 13, "label": 1, "mean_dnbr": 0.29093590008505454}}, {"type": "Feature", "geometry": {"geodesic": false, "type": "Polygon", "coordinates": [[[28.25517467603092, 38.8623519188464], [28.25625265437185, 38.8623519188464], [28.25625265437185, 38.863429897187345], [28.25517467603092, 38.863429897187345], [28.25517467603092, 38.86450787552829], [28.254096697689988, 38.86450787552829], [28.254096697689988, 38.86396888635782], [28.25355770851951, 38.86396888635782], [28.25355770851951, 38.86289090801687], [28.25517467603092, 38.86289090801687], [28.25517467603092, 38.8623519188464]]]}, "id": "+386382+83744", "properties": {"area_ha": 3.3562252715571224, "count": 12, "label": 1, "mean_dnbr": 0.3092095109467513}}, {"type": "Feature", "geometry": {"geodesic": false, "type": "Polygon", "coordinates": [[[28.266493448610817, 38.869897767233006], [28.269727383633665, 38.869897767233006], [28.269727383633665, 38.87097574557394], [28.269188394463185, 38.87097574557394], [28.269188394463185, 38.871514734744416], [28.267571426951775, 38.871514734744416], [28.267571426951775, 38.87205372391489], [28.266493448610817, 38.87205372391489], [28.266493448610817, 38.871514734744416], [28.265954459440366, 38.871514734744416], [28.265954459440366, 38.87097574557394], [28.266493448610817, 38.87097574557394], [28.266493448610817, 38.869897767233006]]]}, "id": "+386407+83730", "properties": {"area_ha": 5.593108201096403, "count": 20, "label": 1, "mean_dnbr": 0.35040742837624167}}, {"type": "Feature", "geometry": {"geodesic": false, "type": "Polygon", "coordinates": [[[28.405013665422047, 38.983624482202536], [28.405552654592526, 38.983624482202536], [28.405552654592526, 38.98470246054348], [28.406091643763006, 38.98470246054348], [28.406091643763006, 38.98524144971395], [28.406630632933457, 38.98524144971395], [28.406630632933457, 38.98578043888442], [28.407169622103936, 38.98578043888442], [28.407169622103936, 38.98631942805489], [28.406630632933457, 38.98631942805489], [28.406630632933457, 38.98685841722536], [28.406091643763006, 38.98685841722536], [28.406091643763006, 38.987397406395836], [28.404474676251596, 38.987397406395836], [28.404474676251596, 38.98793639556631], [28.403396697910637, 38.98793639556631], [28.403396697910637, 38.98847538473678], [28.402857708740157, 38.98847538473678], [28.402857708740157, 38.987397406395836], [28.403935687081116, 38.987397406395836], [28.403935687081116, 38.98631942805489], [28.404474676251596, 38.98631942805489], [28.404474676251596, 38.98416347137301], [28.405013665422047, 38.98416347137301], [28.405013665422047, 38.983624482202536]]]}, "id": "+386659+83519", "properties": {"area_ha": 7.817658007776794, "count": 28, "label": 1, "mean_dnbr": 0.2547212725659341}}, {"type": "Feature", "geometry": {"geodesic": false, "type": "Polygon", "coordinates": [[[28.504187672788845, 39.68269343630435], [28.505804640300255, 39.68269343630435], [28.505804640300255, 39.68323242547482], [28.505265651129804, 39.68323242547482], [28.505265651129804, 39.68484939298623], [28.505804640300255, 39.68484939298623], [28.505804640300255, 39.6853883821567], [28.505265651129804, 39.6853883821567], [28.505265651129804, 39.68484939298623], [28.503109694447915, 39.68484939298623], [28.503109694447915, 39.68377141464529], [28.504187672788845, 39.68377141464529], [28.504187672788845, 39.68269343630435]]]}, "id": "+386845+82222", "properties": {"area_ha": 3.87001112210074, "count": 14, "label": 1, "mean_dnbr": 0.28761923522500665}}, {"type": "Feature", "geometry": {"geodesic": false, "type": "Polygon", "coordinates": [[[28.53329308799431, 38.94697321861046], [28.538682979699047, 38.94697321861046], [28.538682979699047, 38.94912917529235], [28.537605001358088, 38.94912917529235], [28.537605001358088, 38.949668164462814], [28.536527023017157, 38.949668164462814], [28.536527023017157, 38.94751220778093], [28.5354490446762, 38.94751220778093], [28.5354490446762, 38.948051196951404], [28.53383207716479, 38.948051196951404], [28.53383207716479, 38.948590186121876], [28.53329308799431, 38.948590186121876], [28.53329308799431, 38.94697321861046]]]}, "id": "+386906+83587", "properties": {"area_ha": 8.101125306734229, "count": 29, "label": 1, "mean_dnbr": 0.2805666584026519}}, {"type": "Feature", "geometry": {"geodesic": false, "type": "Polygon", "coordinates": [[[28.56455445988169, 38.99063134141867], [28.56563243822262, 38.99063134141867], [28.56563243822262, 38.99117033058914], [28.565093449052142, 38.99117033058914], [28.565093449052142, 38.99170931975961], [28.5661714273931, 38.99170931975961], [28.5661714273931, 38.993326287271024], [28.56563243822262, 38.993326287271024], [28.56563243822262, 38.9938652764415], [28.56401547071121, 38.9938652764415], [28.56401547071121, 38.993326287271024], [28.565093449052142, 38.993326287271024], [28.565093449052142, 38.99170931975961], [28.56455445988169, 38.99170931975961], [28.56455445988169, 38.99063134141867]]]}, "id": "+386956+83506", "properties": {"area_ha": 3.3501279789290295, "count": 12, "label": 1, "mean_dnbr": 0.20113439514063552}}, {"type": "Feature", "geometry": {"geodesic": false, "type": "Polygon", "coordinates": [[[28.643785867941034, 39.582441450596605], [28.644863846281964, 39.582441450596605], [28.644863846281964, 39.58351942893755], [28.644324857111485, 39.58351942893755], [28.644324857111485, 39.584597407278494], [28.642707889600075, 39.584597407278494], [28.642707889600075, 39.58298043976708], [28.643785867941034, 39.58298043976708], [28.643785867941034, 39.582441450596605]]]}, "id": "+387103+82408", "properties": {"area_ha": 3.321968844332673, "count": 12, "label": 1, "mean_dnbr": 0.4437852648808952}}, {"type": "Feature", "geometry": {"geodesic": false, "type": "Polygon", "coordinates": [[[28.648636770475264, 39.05800498772763], [28.649714748816223, 39.05800498772763], [28.649714748816223, 39.06016094440952], [28.649175759645743, 39.06016094440952], [28.649175759645743, 39.06069993357999], [28.648636770475264, 39.06069993357999], [28.648636770475264, 39.06016094440952], [28.648097781304784, 39.06016094440952], [28.648097781304784, 39.059621955239045], [28.647558792134333, 39.059621955239045], [28.647558792134333, 39.05908296606857], [28.648097781304784, 39.05908296606857], [28.648097781304784, 39.0585439768981], [28.648636770475264, 39.0585439768981], [28.648636770475264, 39.05800498772763]]]}, "id": "+387112+83381", "properties": {"area_ha": 3.6258738322985473, "count": 13, "label": 1, "mean_dnbr": 0.16506758894793827}}, {"type": "Feature", "geometry": {"geodesic": false, "type": "Polygon", "coordinates": [[[28.76398045295622, 39.65197105358746], [28.766675398808587, 39.65197105358746], [28.766675398808587, 39.65251004275793], [28.76721438797904, 39.65251004275793], [28.76721438797904, 39.653049031928404], [28.766675398808587, 39.653049031928404], [28.766675398808587, 39.65358802109888], [28.766136409638108, 39.65358802109888], [28.766136409638108, 39.65412701026935], [28.764519442126698, 39.65412701026935], [28.764519442126698, 39.653049031928404], [28.76398045295622, 39.653049031928404], [28.76398045295622, 39.65197105358746]]]}, "id": "+387329+82279", "properties": {"area_ha": 4.977949793233855, "count": 18, "label": 1, "mean_dnbr": 0.2684286465559349}}, {"type": "Feature", "geometry": {"geodesic": false, "type": "Polygon", "coordinates": [[[28.93807395501858, 39.13022953657084], [28.93969092252999, 39.13022953657084], [28.93969092252999, 39.13076852574131], [28.93915193335951, 39.13076852574131], [28.93915193335951, 39.13130751491178], [28.93861294418906, 39.13130751491178], [28.93861294418906, 39.131846504082255], [28.93807395501858, 39.131846504082255], [28.93807395501858, 39.13346347159367], [28.936995976677622, 39.13346347159367], [28.936995976677622, 39.13130751491178], [28.93645698750717, 39.13130751491178], [28.93645698750717, 39.1329244824232], [28.93591799833669, 39.1329244824232], [28.93591799833669, 39.13130751491178], [28.93645698750717, 39.13130751491178], [28.93645698750717, 39.13076852574131], [28.936995976677622, 39.13076852574131], [28.936995976677622, 39.13130751491178], [28.93807395501858, 39.13130751491178], [28.93807395501858, 39.13022953657084]]]}, "id": "+387650+83247", "properties": {"area_ha": 5.015280719063249, "count": 18, "label": 1, "mean_dnbr": 0.17051490792537233}}, {"type": "Feature", "geometry": {"geodesic": false, "type": "Polygon", "coordinates": [[[28.94076890087095, 39.128073579888955], [28.94184687921188, 39.128073579888955], [28.94184687921188, 39.12861256905943], [28.94292485755281, 39.12861256905943], [28.94292485755281, 39.13022953657084], [28.94346384672329, 39.13022953657084], [28.94346384672329, 39.13076852574131], [28.94238586838236, 39.13076852574131], [28.94238586838236, 39.13022953657084], [28.94184687921188, 39.13022953657084], [28.94184687921188, 39.1291515582299], [28.94076890087095, 39.1291515582299], [28.94076890087095, 39.12969054740037], [28.94022991170047, 39.12969054740037], [28.94022991170047, 39.1291515582299], [28.94076890087095, 39.1291515582299], [28.94076890087095, 39.128073579888955]]]}, "id": "+387654+83251", "properties": {"area_ha": 3.622273432560163, "count": 13, "label": 1, "mean_dnbr": 0.1572039276281503}}, {"type": "Feature", "geometry": {"geodesic": false, "type": "Polygon", "coordinates": [[[28.9450808142347, 39.16202989762867], [28.94615879257566, 39.16202989762867], [28.94615879257566, 39.163107875969615], [28.94669778174614, 39.163107875969615], [28.94669778174614, 39.16256888679914], [28.94723677091659, 39.16256888679914], [28.94723677091659, 39.16364686514009], [28.94669778174614, 39.16364686514009], [28.94669778174614, 39.16418585431056], [28.94723677091659, 39.16418585431056], [28.94723677091659, 39.16472484348103], [28.94615879257566, 39.16472484348103], [28.94615879257566, 39.16364686514009], [28.94561980340518, 39.16364686514009], [28.94561980340518, 39.163107875969615], [28.9450808142347, 39.163107875969615], [28.9450808142347, 39.16202989762867]]]}, "id": "+387662+83188", "properties": {"area_ha": 3.0635229640478387, "count": 11, "label": 1, "mean_dnbr": 0.17630689029975966}}, {"type": "Feature", "geometry": {"geodesic": false, "type": "Polygon", "coordinates": [[[29.057190561692835, 39.68323242547482], [29.057729550863286, 39.68323242547482], [29.057729550863286, 39.68377141464529], [29.058268540033765, 39.68377141464529], [29.058268540033765, 39.684310403815765], [29.058807529204245, 39.684310403815765], [29.058807529204245, 39.68484939298623], [29.059346518374724, 39.68484939298623], [29.059346518374724, 39.6853883821567], [29.058268540033765, 39.6853883821567], [29.058268540033765, 39.685927371327175], [29.060424496715655, 39.685927371327175], [29.060424496715655, 39.68484939298623], [29.062041464227065, 39.68484939298623], [29.062041464227065, 39.6853883821567], [29.062580453397544, 39.6853883821567], [29.062580453397544, 39.685927371327175], [29.064197420908954, 39.685927371327175], [29.064197420908954, 39.68754433883859], [29.063658431738475, 39.68754433883859], [29.063658431738475, 39.688083328009064], [29.065275399249913, 39.688083328009064], [29.065275399249913, 39.68970029552048], [29.064736410079433, 39.68970029552048], [29.064736410079433, 39.69077827386142], [29.065275399249913, 39.69077827386142], [29.065275399249913, 39.69131726303189], [29.066353377590843, 39.69131726303189], [29.066353377590843, 39.692395241372836], [29.065275399249913, 39.692395241372836], [29.065275399249913, 39.69293423054331], [29.065814388420364, 39.69293423054331], [29.065814388420364, 39.69401220888425], [29.064736410079433, 39.69401220888425], [29.064736410079433, 39.694551198054725], [29.063658431738475, 39.694551198054725], [29.063658431738475, 39.69401220888425], [29.062041464227065, 39.69401220888425], [29.062041464227065, 39.6950901872252], [29.062580453397544, 39.6950901872252], [29.062580453397544, 39.69562917639567], [29.067970345102253, 39.69562917639567], [29.067970345102253, 39.69616816556614], [29.067431355931802, 39.69616816556614], [29.067431355931802, 39.69724614390708], [29.069048323443212, 39.69724614390708], [29.069048323443212, 39.696707154736615], [29.069587312613663, 39.696707154736615], [29.069587312613663, 39.69778513307755], [29.070665290954622, 39.69778513307755], [29.070665290954622, 39.696707154736615], [29.071743269295553, 39.696707154736615], [29.071743269295553, 39.69724614390708], [29.07282124763651, 39.69724614390708], [29.07282124763651, 39.69562917639567], [29.072282258466032, 39.69562917639567], [29.072282258466032, 39.69401220888425], [29.073899225977442, 39.69401220888425], [29.073899225977442, 39.69293423054331], [29.07443821514792, 39.69293423054331], [29.07443821514792, 39.692395241372836], [29.0749772043184, 39.692395241372836], [29.0749772043184, 39.69185625220236], [29.07605518265933, 39.69185625220236], [29.07605518265933, 39.692395241372836], [29.07713316100029, 39.692395241372836], [29.07713316100029, 39.69293423054331], [29.07767215017074, 39.69293423054331], [29.07767215017074, 39.69347321971378], [29.07713316100029, 39.69347321971378], [29.07713316100029, 39.69293423054331], [29.07659417182981, 39.69293423054331], [29.07659417182981, 39.69347321971378], [29.07605518265933, 39.69347321971378], [29.07605518265933, 39.69401220888425], [29.07767215017074, 39.69401220888425], [29.07767215017074, 39.6950901872252], [29.07982810685263, 39.6950901872252], [29.07982810685263, 39.69616816556614], [29.08144507436407, 39.69616816556614], [29.08144507436407, 39.696707154736615], [29.08198406353452, 39.696707154736615], [29.08198406353452, 39.69616816556614], [29.082523052705, 39.69616816556614], [29.082523052705, 39.69562917639567], [29.08306204187548, 39.69562917639567], [29.08306204187548, 39.6950901872252], [29.08360103104593, 39.6950901872252], [29.08360103104593, 39.69562917639567], [29.08791294440971, 39.69562917639567], [29.08791294440971, 39.694551198054725], [29.088990922750668, 39.694551198054725], [29.088990922750668, 39.69401220888425], [29.08952991192112, 39.69401220888425], [29.08952991192112, 39.694551198054725], [29.088990922750668, 39.694551198054725], [29.088990922750668, 39.6950901872252], [29.08952991192112, 39.6950901872252], [29.08952991192112, 39.69562917639567], [29.091685868603008, 39.69562917639567], [29.091685868603008, 39.6950901872252], [29.092763846943967, 39.6950901872252], [29.092763846943967, 39.694551198054725], [29.094919803625857, 39.694551198054725], [29.094919803625857, 39.6950901872252], [29.095997781966787, 39.6950901872252], [29.095997781966787, 39.69562917639567], [29.096536771137266, 39.69562917639567], [29.096536771137266, 39.69616816556614], [29.097075760307746, 39.69616816556614], [29.097075760307746, 39.696707154736615], [29.096536771137266, 39.696707154736615], [29.096536771137266, 39.69724614390708], [29.097075760307746, 39.69724614390708], [29.097075760307746, 39.69994108975944], [29.095997781966787, 39.69994108975944], [29.095997781966787, 39.700480078929914], [29.097075760307746, 39.700480078929914], [29.097075760307746, 39.701019068100386], [29.095997781966787, 39.701019068100386], [29.095997781966787, 39.70155805727086], [29.096536771137266, 39.70155805727086], [29.096536771137266, 39.70317502478227], [29.095458792796308, 39.70317502478227], [29.095458792796308, 39.70371401395274], [29.095997781966787, 39.70371401395274], [29.095997781966787, 39.70425300312321], [29.095458792796308, 39.70425300312321], [29.095458792796308, 39.704791992293686], [29.094380814455377, 39.704791992293686], [29.094380814455377, 39.706947948975575], [29.093841825284898, 39.706947948975575], [29.093841825284898, 39.70748693814605], [29.094380814455377, 39.70748693814605], [29.094380814455377, 39.70802592731652], [29.097075760307746, 39.70802592731652], [29.097075760307746, 39.706947948975575], [29.097614749478197, 39.706947948975575], [29.097614749478197, 39.7064089598051], [29.097075760307746, 39.7064089598051], [29.097075760307746, 39.704791992293686], [29.097614749478197, 39.704791992293686], [29.097614749478197, 39.70533098146416], [29.099770706160086, 39.70533098146416], [29.099770706160086, 39.70586997063463], [29.100848684501045, 39.70586997063463], [29.100848684501045, 39.7064089598051], [29.100309695330566, 39.7064089598051], [29.100309695330566, 39.706947948975575], [29.099231716989635, 39.706947948975575], [29.099231716989635, 39.70748693814605], [29.098153738648676, 39.70748693814605], [29.098153738648676, 39.70802592731652], [29.099770706160086, 39.70802592731652], [29.099770706160086, 39.70748693814605], [29.100848684501045, 39.70748693814605], [29.100848684501045, 39.706947948975575], [29.101387673671496, 39.706947948975575], [29.101387673671496, 39.7064089598051], [29.101926662841976, 39.7064089598051], [29.101926662841976, 39.70586997063463], [29.102465652012455, 39.70586997063463], [29.102465652012455, 39.70533098146416], [29.103004641182935, 39.70533098146416], [29.103004641182935, 39.704791992293686], [29.103543630353386, 39.704791992293686], [29.103543630353386, 39.70371401395274], [29.104082619523865, 39.70371401395274], [29.104082619523865, 39.70317502478227], [29.104621608694345, 39.70317502478227], [29.104621608694345, 39.70209704644133], [29.105160597864824, 39.70209704644133], [29.105160597864824, 39.701019068100386], [29.105699587035275, 39.701019068100386], [29.105699587035275, 39.700480078929914], [29.106777565376234, 39.700480078929914], [29.106777565376234, 39.69994108975944], [29.108394532887644, 39.69994108975944], [29.108394532887644, 39.69940210058897], [29.110011500399054, 39.69940210058897], [29.110011500399054, 39.6988631114185], [29.110550489569533, 39.6988631114185], [29.110550489569533, 39.698324122248025], [29.111628467910464, 39.698324122248025], [29.111628467910464, 39.6988631114185], [29.112706446251423, 39.6988631114185], [29.112706446251423, 39.69778513307755], [29.113245435421874, 39.69778513307755], [29.113245435421874, 39.69724614390708], [29.113784424592353, 39.69724614390708], [29.113784424592353, 39.696707154736615], [29.112706446251423, 39.696707154736615], [29.112706446251423, 39.69616816556614], [29.113245435421874, 39.69616816556614], [29.113245435421874, 39.694551198054725], [29.113784424592353, 39.694551198054725], [29.113784424592353, 39.69401220888425], [29.115401392103763, 39.69401220888425], [29.115401392103763, 39.6950901872252], [29.1170183596152, 39.6950901872252], [29.1170183596152, 39.69616816556614], [29.117557348785652, 39.69616816556614], [29.117557348785652, 39.69724614390708], [29.1170183596152, 39.69724614390708], [29.1170183596152, 39.69778513307755], [29.116479370444722, 39.69778513307755], [29.116479370444722, 39.698324122248025], [29.115940381274243, 39.698324122248025], [29.115940381274243, 39.6988631114185], [29.116479370444722, 39.6988631114185], [29.116479370444722, 39.69940210058897], [29.1170183596152, 39.69940210058897], [29.1170183596152, 39.69994108975944], [29.117557348785652, 39.69994108975944], [29.117557348785652, 39.70155805727086], [29.118096337956132, 39.70155805727086], [29.118096337956132, 39.7026360356118], [29.11863532712661, 39.7026360356118], [29.11863532712661, 39.70317502478227], [29.119174316297062, 39.70317502478227], [29.119174316297062, 39.704791992293686], [29.119713305467542, 39.704791992293686], [29.119713305467542, 39.70533098146416], [29.119174316297062, 39.70533098146416], [29.119174316297062, 39.7064089598051], [29.119713305467542, 39.7064089598051], [29.119713305467542, 39.706947948975575], [29.11863532712661, 39.706947948975575], [29.11863532712661, 39.7064089598051], [29.118096337956132, 39.7064089598051], [29.118096337956132, 39.70802592731652], [29.119174316297062, 39.70802592731652], [29.119174316297062, 39.70856491648699], [29.119713305467542, 39.70856491648699], [29.119713305467542, 39.70802592731652], [29.12240825131991, 39.70802592731652], [29.12240825131991, 39.706947948975575], [29.12294724049039, 39.706947948975575], [29.12294724049039, 39.70802592731652], [29.12240825131991, 39.70802592731652], [29.12240825131991, 39.70856491648699], [29.1207912838085, 39.70856491648699], [29.1207912838085, 39.70910390565746], [29.119174316297062, 39.70910390565746], [29.119174316297062, 39.7101818839984], [29.11863532712661, 39.7101818839984], [29.11863532712661, 39.710720873168874], [29.118096337956132, 39.710720873168874], [29.118096337956132, 39.71125986233935], [29.1170183596152, 39.71125986233935], [29.1170183596152, 39.71233784068029], [29.117557348785652, 39.71233784068029], [29.117557348785652, 39.713415819021236], [29.118096337956132, 39.713415819021236], [29.118096337956132, 39.71449379736218], [29.119174316297062, 39.71449379736218], [29.119174316297062, 39.715032786532646], [29.12025229463802, 39.715032786532646], [29.12025229463802, 39.71449379736218], [29.121330272978952, 39.71449379736218], [29.121330272978952, 39.71395480819171], [29.12186926214943, 39.71395480819171], [29.12186926214943, 39.713415819021236], [29.12294724049039, 39.713415819021236], [29.12294724049039, 39.71449379736218], [29.12186926214943, 39.71449379736218], [29.12186926214943, 39.715032786532646], [29.12348622966084, 39.715032786532646], [29.12348622966084, 39.71449379736218], [29.12510319717225, 39.71449379736218], [29.12510319717225, 39.715032786532646], [29.12564218634273, 39.715032786532646], [29.12564218634273, 39.71557177570312], [29.12618117551321, 39.71557177570312], [29.12618117551321, 39.71611076487359], [29.12725915385414, 39.71611076487359], [29.12725915385414, 39.717188743214535], [29.12779814302462, 39.717188743214535], [29.12779814302462, 39.71772773238501], [29.12725915385414, 39.71772773238501], [29.12725915385414, 39.719344699896425], [29.12672016468369, 39.719344699896425], [29.12672016468369, 39.72042267823737], [29.12725915385414, 39.72042267823737], [29.12725915385414, 39.720961667407835], [29.12510319717225, 39.720961667407835], [29.12510319717225, 39.72150065657831], [29.1245642080018, 39.72150065657831], [29.1245642080018, 39.72203964574878], [29.12402521883132, 39.72203964574878], [29.12402521883132, 39.72257863491925], [29.12348622966084, 39.72257863491925], [29.12348622966084, 39.723117624089724], [29.121330272978952, 39.723117624089724], [29.121330272978952, 39.72419560243067], [29.12186926214943, 39.72419560243067], [29.12186926214943, 39.72473459160114], [29.12240825131991, 39.72473459160114], [29.12240825131991, 39.72527358077161], [29.12294724049039, 39.72527358077161], [29.12294724049039, 39.72689054828303], [29.12240825131991, 39.72689054828303], [29.12240825131991, 39.727429537453496], [29.12294724049039, 39.727429537453496], [29.12294724049039, 39.729585494135385], [29.12348622966084, 39.729585494135385], [29.12348622966084, 39.73066347247633], [29.11863532712661, 39.73066347247633], [29.11863532712661, 39.7312024616468], [29.091146879432557, 39.7312024616468], [29.091146879432557, 39.73066347247633], [29.090607890262078, 39.73066347247633], [29.090607890262078, 39.7312024616468], [29.088990922750668, 39.7312024616468], [29.088990922750668, 39.731741450817275], [29.073899225977442, 39.731741450817275], [29.073899225977442, 39.7312024616468], [29.07336023680699, 39.7312024616468], [29.07336023680699, 39.731741450817275], [29.062580453397544, 39.731741450817275], [29.062580453397544, 39.729585494135385], [29.062041464227065, 39.729585494135385], [29.062041464227065, 39.72850751579444], [29.061502475056614, 39.72850751579444], [29.061502475056614, 39.727429537453496], [29.060963485886134, 39.727429537453496], [29.060963485886134, 39.72850751579444], [29.060424496715655, 39.72850751579444], [29.060424496715655, 39.72904650496491], [29.060963485886134, 39.72904650496491], [29.060963485886134, 39.73012448330586], [29.061502475056614, 39.73012448330586], [29.061502475056614, 39.7312024616468], [29.062041464227065, 39.7312024616468], [29.062041464227065, 39.731741450817275], [29.058807529204245, 39.731741450817275], [29.058807529204245, 39.73228043998775], [29.03994290823772, 39.73228043998775], [29.03994290823772, 39.731741450817275], [29.03886492989679, 39.731741450817275], [29.03886492989679, 39.73066347247633], [29.03832594072631, 39.73066347247633], [29.03832594072631, 39.729585494135385], [29.03886492989679, 39.729585494135385], [29.03886492989679, 39.72904650496491], [29.03832594072631, 39.72904650496491], [29.03832594072631, 39.72796852662397], [29.03886492989679, 39.72796852662397], [29.03886492989679, 39.727429537453496], [29.03994290823772, 39.727429537453496], [29.03994290823772, 39.72635155911256], [29.04102088657868, 39.72635155911256], [29.04102088657868, 39.725812569942086], [29.03994290823772, 39.725812569942086], [29.03994290823772, 39.72527358077161], [29.03940391906727, 39.72527358077161], [29.03940391906727, 39.72419560243067], [29.03886492989679, 39.72419560243067], [29.03886492989679, 39.7236566132602], [29.03832594072631, 39.7236566132602], [29.03832594072631, 39.723117624089724], [29.03886492989679, 39.723117624089724], [29.03886492989679, 39.72203964574878], [29.03724796238538, 39.72203964574878], [29.03724796238538, 39.72150065657831], [29.0367089732149, 39.72150065657831], [29.0367089732149, 39.72042267823737], [29.03832594072631, 39.72042267823737], [29.03832594072631, 39.719344699896425], [29.03886492989679, 39.719344699896425], [29.03886492989679, 39.7198836890669], [29.03940391906727, 39.7198836890669], [29.03940391906727, 39.71880571072595], [29.03886492989679, 39.71880571072595], [29.03886492989679, 39.71826672155548], [29.03832594072631, 39.71826672155548], [29.03832594072631, 39.717188743214535], [29.03778695155586, 39.717188743214535], [29.03778695155586, 39.71772773238501], [29.03724796238538, 39.71772773238501], [29.03724796238538, 39.717188743214535], [29.03778695155586, 39.717188743214535], [29.03778695155586, 39.71449379736218], [29.03724796238538, 39.71449379736218], [29.03724796238538, 39.713415819021236], [29.03778695155586, 39.713415819021236], [29.03778695155586, 39.71233784068029], [29.03832594072631, 39.71233784068029], [29.03832594072631, 39.71179885150982], [29.03886492989679, 39.71179885150982], [29.03886492989679, 39.71125986233935], [29.03940391906727, 39.71125986233935], [29.03940391906727, 39.70964289482793], [29.03994290823772, 39.70964289482793], [29.03994290823772, 39.70910390565746], [29.03940391906727, 39.70910390565746], [29.03940391906727, 39.70856491648699], [29.03886492989679, 39.70856491648699], [29.03886492989679, 39.70802592731652], [29.0404818974082, 39.70802592731652], [29.0404818974082, 39.70748693814605], [29.03994290823772, 39.70748693814605], [29.03994290823772, 39.706947948975575], [29.0404818974082, 39.706947948975575], [29.0404818974082, 39.7064089598051], [29.04102088657868, 39.7064089598051], [29.04102088657868, 39.70533098146416], [29.041559875749158, 39.70533098146416], [29.041559875749158, 39.70209704644133], [29.04209886491961, 39.70209704644133], [29.04209886491961, 39.701019068100386], [29.041559875749158, 39.701019068100386], [29.041559875749158, 39.700480078929914], [29.04102088657868, 39.700480078929914], [29.04102088657868, 39.69994108975944], [29.041559875749158, 39.69994108975944], [29.041559875749158, 39.69940210058897], [29.04209886491961, 39.69940210058897], [29.04209886491961, 39.6988631114185], [29.041559875749158, 39.6988631114185], [29.041559875749158, 39.698324122248025], [29.04263785409009, 39.698324122248025], [29.04263785409009, 39.69724614390708], [29.041559875749158, 39.69724614390708], [29.041559875749158, 39.696707154736615], [29.04102088657868, 39.696707154736615], [29.04102088657868, 39.69724614390708], [29.03994290823772, 39.69724614390708], [29.03994290823772, 39.69616816556614], [29.0404818974082, 39.69616816556614], [29.0404818974082, 39.69401220888425], [29.04102088657868, 39.69401220888425], [29.04102088657868, 39.694551198054725], [29.041559875749158, 39.694551198054725], [29.041559875749158, 39.6950901872252], [29.04209886491961, 39.6950901872252], [29.04209886491961, 39.69401220888425], [29.041559875749158, 39.69401220888425], [29.041559875749158, 39.69347321971378], [29.04263785409009, 39.69347321971378], [29.04263785409009, 39.69293423054331], [29.043715832431047, 39.69293423054331], [29.043715832431047, 39.692395241372836], [29.04263785409009, 39.692395241372836], [29.04263785409009, 39.69185625220236], [29.04209886491961, 39.69185625220236], [29.04209886491961, 39.69131726303189], [29.04263785409009, 39.69131726303189], [29.04263785409009, 39.69077827386142], [29.043176843260568, 39.69077827386142], [29.043176843260568, 39.69023928469095], [29.0442548216015, 39.69023928469095], [29.0442548216015, 39.68862231717954], [29.043715832431047, 39.68862231717954], [29.043715832431047, 39.688083328009064], [29.044793810771978, 39.688083328009064], [29.044793810771978, 39.685927371327175], [29.04587178911291, 39.685927371327175], [29.04587178911291, 39.68484939298623], [29.051800669988097, 39.68484939298623], [29.051800669988097, 39.684310403815765], [29.052878648329056, 39.684310403815765], [29.052878648329056, 39.68484939298623], [29.053956626669986, 39.68484939298623], [29.053956626669986, 39.685927371327175], [29.053417637499535, 39.685927371327175], [29.053417637499535, 39.68646636049765], [29.055034605010945, 39.68646636049765], [29.055034605010945, 39.685927371327175], [29.055573594181425, 39.685927371327175], [29.055573594181425, 39.6853883821567], [29.057190561692835, 39.6853883821567], [29.057190561692835, 39.68484939298623], [29.056651572522355, 39.68484939298623], [29.056651572522355, 39.684310403815765], [29.057190561692835, 39.684310403815765], [29.057190561692835, 39.68323242547482]], [[29.0404818974082, 39.7312024616468], [29.0404818974082, 39.731741450817275], [29.03994290823772, 39.731741450817275], [29.03994290823772, 39.7312024616468], [29.0404818974082, 39.7312024616468]], [[29.099231716989635, 39.73012448330586], [29.099231716989635, 39.73066347247633], [29.098692727819156, 39.73066347247633], [29.098692727819156, 39.73012448330586], [29.099231716989635, 39.73012448330586]], [[29.100309695330566, 39.72904650496491], [29.100309695330566, 39.729585494135385], [29.099770706160086, 39.729585494135385], [29.099770706160086, 39.72904650496491], [29.100309695330566, 39.72904650496491]], [[29.08144507436407, 39.72850751579444], [29.08144507436407, 39.729585494135385], [29.08090608519359, 39.729585494135385], [29.08090608519359, 39.72904650496491], [29.08036709602311, 39.72904650496491], [29.08036709602311, 39.72850751579444], [29.08144507436407, 39.72850751579444]], [[29.100848684501045, 39.72796852662397], [29.100848684501045, 39.72850751579444], [29.099770706160086, 39.72850751579444], [29.099770706160086, 39.72796852662397], [29.100848684501045, 39.72796852662397]], [[29.107316554546685, 39.727429537453496], [29.107316554546685, 39.72796852662397], [29.106777565376234, 39.72796852662397], [29.106777565376234, 39.727429537453496], [29.107316554546685, 39.727429537453496]], [[29.041559875749158, 39.72635155911256], [29.041559875749158, 39.72689054828303], [29.04102088657868, 39.72689054828303], [29.04102088657868, 39.72635155911256], [29.041559875749158, 39.72635155911256]], [[29.055034605010945, 39.725812569942086], [29.055034605010945, 39.72635155911256], [29.054495615840466, 39.72635155911256], [29.054495615840466, 39.725812569942086], [29.055034605010945, 39.725812569942086]], [[29.103543630353386, 39.72527358077161], [29.103543630353386, 39.725812569942086], [29.103004641182935, 39.725812569942086], [29.103004641182935, 39.72635155911256], [29.102465652012455, 39.72635155911256], [29.102465652012455, 39.72689054828303], [29.101387673671496, 39.72689054828303], [29.101387673671496, 39.72635155911256], [29.101926662841976, 39.72635155911256], [29.101926662841976, 39.725812569942086], [29.102465652012455, 39.725812569942086], [29.102465652012455, 39.72527358077161], [29.103543630353386, 39.72527358077161]], [[29.119713305467542, 39.72527358077161], [29.119713305467542, 39.72635155911256], [29.119174316297062, 39.72635155911256], [29.119174316297062, 39.72527358077161], [29.119713305467542, 39.72527358077161]], [[29.102465652012455, 39.72473459160114], [29.102465652012455, 39.72527358077161], [29.101387673671496, 39.72527358077161], [29.101387673671496, 39.72473459160114], [29.102465652012455, 39.72473459160114]], [[29.055573594181425, 39.72419560243067], [29.055573594181425, 39.72473459160114], [29.055034605010945, 39.72473459160114], [29.055034605010945, 39.72419560243067], [29.055573594181425, 39.72419560243067]], [[29.07282124763651, 39.72419560243067], [29.07282124763651, 39.72473459160114], [29.071743269295553, 39.72473459160114], [29.071743269295553, 39.72419560243067], [29.07282124763651, 39.72419560243067]], [[29.046949767453867, 39.7236566132602], [29.046949767453867, 39.72419560243067], [29.04587178911291, 39.72419560243067], [29.04587178911291, 39.7236566132602], [29.046949767453867, 39.7236566132602]], [[29.050722691647167, 39.7236566132602], [29.050722691647167, 39.72527358077161], [29.050183702476687, 39.72527358077161], [29.050183702476687, 39.725812569942086], [29.049644713306236, 39.725812569942086], [29.049644713306236, 39.72527358077161], [29.049105724135757, 39.72527358077161], [29.049105724135757, 39.7236566132602], [29.050722691647167, 39.7236566132602]], [[29.059346518374724, 39.7236566132602], [29.059346518374724, 39.72419560243067], [29.058807529204245, 39.72419560243067], [29.058807529204245, 39.7236566132602], [29.059346518374724, 39.7236566132602]], [[29.048027745794798, 39.72257863491925], [29.048027745794798, 39.7236566132602], [29.047488756624347, 39.7236566132602], [29.047488756624347, 39.72257863491925], [29.048027745794798, 39.72257863491925]], [[29.046410778283388, 39.72203964574878], [29.046410778283388, 39.723117624089724], [29.04587178911291, 39.723117624089724], [29.04587178911291, 39.7236566132602], [29.045332799942457, 39.7236566132602], [29.045332799942457, 39.723117624089724], [29.044793810771978, 39.723117624089724], [29.044793810771978, 39.72257863491925], [29.043176843260568, 39.72257863491925], [29.043176843260568, 39.72203964574878], [29.045332799942457, 39.72203964574878], [29.045332799942457, 39.72257863491925], [29.04587178911291, 39.72257863491925], [29.04587178911291, 39.72203964574878], [29.046410778283388, 39.72203964574878]], [[29.102465652012455, 39.72203964574878], [29.102465652012455, 39.72257863491925], [29.101926662841976, 39.72257863491925], [29.101926662841976, 39.72203964574878], [29.102465652012455, 39.72203964574878]], [[29.105160597864824, 39.72203964574878], [29.105160597864824, 39.72257863491925], [29.104621608694345, 39.72257863491925], [29.104621608694345, 39.723117624089724], [29.103543630353386, 39.723117624089724], [29.103543630353386, 39.72257863491925], [29.104082619523865, 39.72257863491925], [29.104082619523865, 39.72203964574878], [29.105160597864824, 39.72203964574878]], [[29.04102088657868, 39.72150065657831], [29.04102088657868, 39.72257863491925], [29.0404818974082, 39.72257863491925], [29.0404818974082, 39.72203964574878], [29.03994290823772, 39.72203964574878], [29.03994290823772, 39.72150065657831], [29.04102088657868, 39.72150065657831]], [[29.049105724135757, 39.72150065657831], [29.049105724135757, 39.72203964574878], [29.048566734965277, 39.72203964574878], [29.048566734965277, 39.72150065657831], [29.049105724135757, 39.72150065657831]], [[29.106238576205754, 39.72150065657831], [29.106238576205754, 39.72203964574878], [29.105699587035275, 39.72203964574878], [29.105699587035275, 39.72150065657831], [29.106238576205754, 39.72150065657831]], [[29.0442548216015, 39.7198836890669], [29.0442548216015, 39.720961667407835], [29.04209886491961, 39.720961667407835], [29.04209886491961, 39.72042267823737], [29.041559875749158, 39.72042267823737], [29.041559875749158, 39.7198836890669], [29.0442548216015, 39.7198836890669]], [[29.045332799942457, 39.7198836890669], [29.045332799942457, 39.72042267823737], [29.044793810771978, 39.72042267823737], [29.044793810771978, 39.7198836890669], [29.045332799942457, 39.7198836890669]], [[29.069587312613663, 39.7198836890669], [29.069587312613663, 39.72042267823737], [29.069048323443212, 39.72042267823737], [29.069048323443212, 39.7198836890669], [29.069587312613663, 39.7198836890669]], [[29.115401392103763, 39.719344699896425], [29.115401392103763, 39.72042267823737], [29.114862402933312, 39.72042267823737], [29.114862402933312, 39.719344699896425], [29.115401392103763, 39.719344699896425]], [[29.045332799942457, 39.71826672155548], [29.045332799942457, 39.71880571072595], [29.044793810771978, 39.71880571072595], [29.044793810771978, 39.71826672155548], [29.045332799942457, 39.71826672155548]], [[29.064736410079433, 39.71826672155548], [29.064736410079433, 39.71880571072595], [29.065275399249913, 39.71880571072595], [29.065275399249913, 39.72042267823737], [29.065814388420364, 39.72042267823737], [29.065814388420364, 39.7198836890669], [29.066892366761323, 39.7198836890669], [29.066892366761323, 39.719344699896425], [29.068509334272733, 39.719344699896425], [29.068509334272733, 39.7198836890669], [29.067970345102253, 39.7198836890669], [29.067970345102253, 39.72042267823737], [29.066892366761323, 39.72042267823737], [29.066892366761323, 39.720961667407835], [29.065814388420364, 39.720961667407835], [29.065814388420364, 39.723117624089724], [29.065275399249913, 39.723117624089724], [29.065275399249913, 39.7236566132602], [29.063658431738475, 39.7236566132602], [29.063658431738475, 39.72419560243067], [29.063119442568023, 39.72419560243067], [29.063119442568023, 39.72635155911256], [29.062580453397544, 39.72635155911256], [29.062580453397544, 39.72689054828303], [29.062041464227065, 39.72689054828303], [29.062041464227065, 39.727429537453496], [29.061502475056614, 39.727429537453496], [29.061502475056614, 39.72635155911256], [29.062041464227065, 39.72635155911256], [29.062041464227065, 39.725812569942086], [29.062580453397544, 39.725812569942086], [29.062580453397544, 39.72527358077161], [29.062041464227065, 39.72527358077161], [29.062041464227065, 39.7236566132602], [29.062580453397544, 39.7236566132602], [29.062580453397544, 39.723117624089724], [29.060963485886134, 39.723117624089724], [29.060963485886134, 39.72257863491925], [29.059885507545175, 39.72257863491925], [29.059885507545175, 39.72203964574878], [29.060963485886134, 39.72203964574878], [29.060963485886134, 39.720961667407835], [29.062580453397544, 39.720961667407835], [29.062580453397544, 39.72257863491925], [29.064197420908954, 39.72257863491925], [29.064197420908954, 39.72042267823737], [29.063658431738475, 39.72042267823737], [29.063658431738475, 39.71880571072595], [29.064197420908954, 39.71880571072595], [29.064197420908954, 39.71826672155548], [29.064736410079433, 39.71826672155548]], [[29.071743269295553, 39.71826672155548], [29.071743269295553, 39.71880571072595], [29.072282258466032, 39.71880571072595], [29.072282258466032, 39.719344699896425], [29.0712042801251, 39.719344699896425], [29.0712042801251, 39.72042267823737], [29.070126301784143, 39.72042267823737], [29.070126301784143, 39.7198836890669], [29.069587312613663, 39.7198836890669], [29.069587312613663, 39.719344699896425], [29.070665290954622, 39.719344699896425], [29.070665290954622, 39.71880571072595], [29.0712042801251, 39.71880571072595], [29.0712042801251, 39.71826672155548], [29.071743269295553, 39.71826672155548]], [[29.04102088657868, 39.71772773238501], [29.04102088657868, 39.71826672155548], [29.0404818974082, 39.71826672155548], [29.0404818974082, 39.71772773238501], [29.04102088657868, 39.71772773238501]], [[29.068509334272733, 39.71772773238501], [29.068509334272733, 39.71826672155548], [29.065814388420364, 39.71826672155548], [29.065814388420364, 39.71880571072595], [29.065275399249913, 39.71880571072595], [29.065275399249913, 39.71772773238501], [29.068509334272733, 39.71772773238501]], [[29.069587312613663, 39.717188743214535], [29.069587312613663, 39.71772773238501], [29.068509334272733, 39.71772773238501], [29.068509334272733, 39.717188743214535], [29.069587312613663, 39.717188743214535]], [[29.12618117551321, 39.717188743214535], [29.12618117551321, 39.71880571072595], [29.12510319717225, 39.71880571072595], [29.12510319717225, 39.71826672155548], [29.12564218634273, 39.71826672155548], [29.12564218634273, 39.717188743214535], [29.12618117551321, 39.717188743214535]], [[29.071743269295553, 39.71611076487359], [29.071743269295553, 39.71664975404406], [29.0712042801251, 39.71664975404406], [29.0712042801251, 39.717188743214535], [29.069587312613663, 39.717188743214535], [29.069587312613663, 39.71664975404406], [29.070665290954622, 39.71664975404406], [29.070665290954622, 39.71611076487359], [29.071743269295553, 39.71611076487359]], [[29.110550489569533, 39.71557177570312], [29.110550489569533, 39.71611076487359], [29.110011500399054, 39.71611076487359], [29.110011500399054, 39.717188743214535], [29.108933522058123, 39.717188743214535], [29.108933522058123, 39.71826672155548], [29.106777565376234, 39.71826672155548], [29.106777565376234, 39.71772773238501], [29.107316554546685, 39.71772773238501], [29.107316554546685, 39.717188743214535], [29.108394532887644, 39.717188743214535], [29.108394532887644, 39.71664975404406], [29.108933522058123, 39.71664975404406], [29.108933522058123, 39.71611076487359], [29.109472511228574, 39.71611076487359], [29.109472511228574, 39.71557177570312], [29.110550489569533, 39.71557177570312]], [[29.04263785409009, 39.715032786532646], [29.04263785409009, 39.71557177570312], [29.04209886491961, 39.71557177570312], [29.04209886491961, 39.715032786532646], [29.04263785409009, 39.715032786532646]], [[29.059885507545175, 39.715032786532646], [29.059885507545175, 39.71557177570312], [29.059346518374724, 39.71557177570312], [29.059346518374724, 39.715032786532646], [29.059885507545175, 39.715032786532646]], [[29.091146879432557, 39.715032786532646], [29.091146879432557, 39.71557177570312], [29.090607890262078, 39.71557177570312], [29.090607890262078, 39.715032786532646], [29.091146879432557, 39.715032786532646]], [[29.12510319717225, 39.715032786532646], [29.12510319717225, 39.71611076487359], [29.12564218634273, 39.71611076487359], [29.12564218634273, 39.71664975404406], [29.1245642080018, 39.71664975404406], [29.1245642080018, 39.71557177570312], [29.12402521883132, 39.71557177570312], [29.12402521883132, 39.715032786532646], [29.12510319717225, 39.715032786532646]], [[29.070126301784143, 39.71449379736218], [29.070126301784143, 39.715032786532646], [29.069048323443212, 39.715032786532646], [29.069048323443212, 39.71449379736218], [29.070126301784143, 39.71449379736218]], [[29.082523052705, 39.71449379736218], [29.082523052705, 39.715032786532646], [29.08036709602311, 39.715032786532646], [29.08036709602311, 39.71449379736218], [29.082523052705, 39.71449379736218]], [[29.043176843260568, 39.71395480819171], [29.043176843260568, 39.715032786532646], [29.04263785409009, 39.715032786532646], [29.04263785409009, 39.71395480819171], [29.043176843260568, 39.71395480819171]], [[29.069048323443212, 39.71395480819171], [29.069048323443212, 39.71449379736218], [29.068509334272733, 39.71449379736218], [29.068509334272733, 39.71395480819171], [29.069048323443212, 39.71395480819171]], [[29.0787501285117, 39.713415819021236], [29.0787501285117, 39.71395480819171], [29.07982810685263, 39.71395480819171], [29.07982810685263, 39.71449379736218], [29.07767215017074, 39.71449379736218], [29.07767215017074, 39.71395480819171], [29.075516193488852, 39.71395480819171], [29.075516193488852, 39.71449379736218], [29.0749772043184, 39.71449379736218], [29.0749772043184, 39.715032786532646], [29.07336023680699, 39.715032786532646], [29.07336023680699, 39.71611076487359], [29.071743269295553, 39.71611076487359], [29.071743269295553, 39.715032786532646], [29.072282258466032, 39.715032786532646], [29.072282258466032, 39.71449379736218], [29.07282124763651, 39.71449379736218], [29.07282124763651, 39.71395480819171], [29.07443821514792, 39.71395480819171], [29.07443821514792, 39.713415819021236], [29.0787501285117, 39.713415819021236]], [[29.08521799855737, 39.713415819021236], [29.08521799855737, 39.71395480819171], [29.08467900938689, 39.71395480819171], [29.08467900938689, 39.71449379736218], [29.082523052705, 39.71449379736218], [29.082523052705, 39.71395480819171], [29.08306204187548, 39.71395480819171], [29.08306204187548, 39.713415819021236], [29.08521799855737, 39.713415819021236]], [[29.0442548216015, 39.712876829850764], [29.0442548216015, 39.713415819021236], [29.043176843260568, 39.713415819021236], [29.043176843260568, 39.712876829850764], [29.0442548216015, 39.712876829850764]], [[29.067970345102253, 39.712876829850764], [29.067970345102253, 39.713415819021236], [29.068509334272733, 39.713415819021236], [29.068509334272733, 39.71395480819171], [29.066892366761323, 39.71395480819171], [29.066892366761323, 39.713415819021236], [29.067431355931802, 39.713415819021236], [29.067431355931802, 39.712876829850764], [29.067970345102253, 39.712876829850764]], [[29.08575698772782, 39.712876829850764], [29.08575698772782, 39.713415819021236], [29.08521799855737, 39.713415819021236], [29.08521799855737, 39.712876829850764], [29.08575698772782, 39.712876829850764]], [[29.116479370444722, 39.71233784068029], [29.116479370444722, 39.713415819021236], [29.115940381274243, 39.713415819021236], [29.115940381274243, 39.71233784068029], [29.116479370444722, 39.71233784068029]], [[29.043176843260568, 39.71125986233935], [29.043176843260568, 39.71179885150982], [29.04263785409009, 39.71179885150982], [29.04263785409009, 39.71125986233935], [29.043176843260568, 39.71125986233935]], [[29.053417637499535, 39.71125986233935], [29.053417637499535, 39.71179885150982], [29.052339659158577, 39.71179885150982], [29.052339659158577, 39.71125986233935], [29.053417637499535, 39.71125986233935]], [[29.058807529204245, 39.71125986233935], [29.058807529204245, 39.71179885150982], [29.058268540033765, 39.71179885150982], [29.058268540033765, 39.71125986233935], [29.058807529204245, 39.71125986233935]], [[29.114862402933312, 39.71125986233935], [29.114862402933312, 39.71179885150982], [29.113784424592353, 39.71179885150982], [29.113784424592353, 39.71125986233935], [29.114862402933312, 39.71125986233935]], [[29.055034605010945, 39.710720873168874], [29.055034605010945, 39.71125986233935], [29.054495615840466, 39.71125986233935], [29.054495615840466, 39.71179885150982], [29.053956626669986, 39.71179885150982], [29.053956626669986, 39.710720873168874], [29.055034605010945, 39.710720873168874]], [[29.115401392103763, 39.710720873168874], [29.115401392103763, 39.71125986233935], [29.114862402933312, 39.71125986233935], [29.114862402933312, 39.710720873168874], [29.115401392103763, 39.710720873168874]], [[29.117557348785652, 39.7101818839984], [29.117557348785652, 39.710720873168874], [29.1170183596152, 39.710720873168874], [29.1170183596152, 39.7101818839984], [29.117557348785652, 39.7101818839984]], [[29.056651572522355, 39.70964289482793], [29.056651572522355, 39.710720873168874], [29.056112583351876, 39.710720873168874], [29.056112583351876, 39.7101818839984], [29.055573594181425, 39.7101818839984], [29.055573594181425, 39.70964289482793], [29.056651572522355, 39.70964289482793]], [[29.116479370444722, 39.70964289482793], [29.116479370444722, 39.7101818839984], [29.115940381274243, 39.7101818839984], [29.115940381274243, 39.70964289482793], [29.116479370444722, 39.70964289482793]], [[29.058268540033765, 39.70910390565746], [29.058268540033765, 39.70964289482793], [29.057729550863286, 39.70964289482793], [29.057729550863286, 39.70910390565746], [29.058268540033765, 39.70910390565746]], [[29.094380814455377, 39.70910390565746], [29.094380814455377, 39.70964289482793], [29.094919803625857, 39.70964289482793], [29.094919803625857, 39.7101818839984], [29.093841825284898, 39.7101818839984], [29.093841825284898, 39.710720873168874], [29.091146879432557, 39.710720873168874], [29.091146879432557, 39.71125986233935], [29.0900689010916, 39.71125986233935], [29.0900689010916, 39.71179885150982], [29.08845193358019, 39.71179885150982], [29.08845193358019, 39.71233784068029], [29.08791294440971, 39.71233784068029], [29.08791294440971, 39.712876829850764], [29.0862959768983, 39.712876829850764], [29.0862959768983, 39.71233784068029], [29.087373955239258, 39.71233784068029], [29.087373955239258, 39.71179885150982], [29.08791294440971, 39.71179885150982], [29.08791294440971, 39.71125986233935], [29.088990922750668, 39.71125986233935], [29.088990922750668, 39.710720873168874], [29.090607890262078, 39.710720873168874], [29.090607890262078, 39.70964289482793], [29.091685868603008, 39.70964289482793], [29.091685868603008, 39.7101818839984], [29.092224857773488, 39.7101818839984], [29.092224857773488, 39.70964289482793], [29.093841825284898, 39.70964289482793], [29.093841825284898, 39.70910390565746], [29.094380814455377, 39.70910390565746]], [[29.11863532712661, 39.70910390565746], [29.11863532712661, 39.7101818839984], [29.118096337956132, 39.7101818839984], [29.118096337956132, 39.70910390565746], [29.11863532712661, 39.70910390565746]], [[29.063119442568023, 39.70802592731652], [29.063119442568023, 39.70910390565746], [29.062580453397544, 39.70910390565746], [29.062580453397544, 39.70856491648699], [29.061502475056614, 39.70856491648699], [29.061502475056614, 39.70910390565746], [29.060424496715655, 39.70910390565746], [29.060424496715655, 39.70856491648699], [29.060963485886134, 39.70856491648699], [29.060963485886134, 39.70802592731652], [29.063119442568023, 39.70802592731652]], [[29.066892366761323, 39.70802592731652], [29.066892366761323, 39.70856491648699], [29.066353377590843, 39.70856491648699], [29.066353377590843, 39.70802592731652], [29.066892366761323, 39.70802592731652]], [[29.08090608519359, 39.70802592731652], [29.08090608519359, 39.70856491648699], [29.08036709602311, 39.70856491648699], [29.08036709602311, 39.70802592731652], [29.08090608519359, 39.70802592731652]], [[29.098153738648676, 39.70802592731652], [29.098153738648676, 39.70856491648699], [29.097614749478197, 39.70856491648699], [29.097614749478197, 39.70910390565746], [29.096536771137266, 39.70910390565746], [29.096536771137266, 39.70964289482793], [29.094919803625857, 39.70964289482793], [29.094919803625857, 39.70910390565746], [29.095997781966787, 39.70910390565746], [29.095997781966787, 39.70856491648699], [29.097075760307746, 39.70856491648699], [29.097075760307746, 39.70802592731652], [29.098153738648676, 39.70802592731652]], [[29.101387673671496, 39.70802592731652], [29.101387673671496, 39.70910390565746], [29.100309695330566, 39.70910390565746], [29.100309695330566, 39.70802592731652], [29.101387673671496, 39.70802592731652]], [[29.056112583351876, 39.70748693814605], [29.056112583351876, 39.70802592731652], [29.055573594181425, 39.70802592731652], [29.055573594181425, 39.70748693814605], [29.056112583351876, 39.70748693814605]], [[29.064197420908954, 39.70748693814605], [29.064197420908954, 39.70802592731652], [29.063658431738475, 39.70802592731652], [29.063658431738475, 39.70748693814605], [29.064197420908954, 39.70748693814605]], [[29.04587178911291, 39.706947948975575], [29.04587178911291, 39.70748693814605], [29.045332799942457, 39.70748693814605], [29.045332799942457, 39.706947948975575], [29.04587178911291, 39.706947948975575]], [[29.0862959768983, 39.706947948975575], [29.0862959768983, 39.70748693814605], [29.08521799855737, 39.70748693814605], [29.08521799855737, 39.706947948975575], [29.0862959768983, 39.706947948975575]], [[29.098153738648676, 39.706947948975575], [29.098153738648676, 39.70748693814605], [29.097614749478197, 39.70748693814605], [29.097614749478197, 39.706947948975575], [29.098153738648676, 39.706947948975575]], [[29.048566734965277, 39.7064089598051], [29.048566734965277, 39.706947948975575], [29.049105724135757, 39.706947948975575], [29.049105724135757, 39.70802592731652], [29.048566734965277, 39.70802592731652], [29.048566734965277, 39.70856491648699], [29.048027745794798, 39.70856491648699], [29.048027745794798, 39.70802592731652], [29.047488756624347, 39.70802592731652], [29.047488756624347, 39.70856491648699], [29.048027745794798, 39.70856491648699], [29.048027745794798, 39.70964289482793], [29.046949767453867, 39.70964289482793], [29.046949767453867, 39.70748693814605], [29.047488756624347, 39.70748693814605], [29.047488756624347, 39.7064089598051], [29.048566734965277, 39.7064089598051]], [[29.060424496715655, 39.7064089598051], [29.060424496715655, 39.706947948975575], [29.059885507545175, 39.706947948975575], [29.059885507545175, 39.7064089598051], [29.060424496715655, 39.7064089598051]], [[29.109472511228574, 39.7064089598051], [29.109472511228574, 39.706947948975575], [29.108933522058123, 39.706947948975575], [29.108933522058123, 39.7064089598051], [29.109472511228574, 39.7064089598051]], [[29.055034605010945, 39.70586997063463], [29.055034605010945, 39.706947948975575], [29.053956626669986, 39.706947948975575], [29.053956626669986, 39.70586997063463], [29.055034605010945, 39.70586997063463]], [[29.056112583351876, 39.704791992293686], [29.056112583351876, 39.70533098146416], [29.055573594181425, 39.70533098146416], [29.055573594181425, 39.704791992293686], [29.056112583351876, 39.704791992293686]], [[29.092224857773488, 39.704791992293686], [29.092224857773488, 39.70533098146416], [29.091685868603008, 39.70533098146416], [29.091685868603008, 39.704791992293686], [29.092224857773488, 39.704791992293686]], [[29.052339659158577, 39.70425300312321], [29.052339659158577, 39.704791992293686], [29.051800669988097, 39.704791992293686], [29.051800669988097, 39.70425300312321], [29.052339659158577, 39.70425300312321]], [[29.057729550863286, 39.70425300312321], [29.057729550863286, 39.704791992293686], [29.057190561692835, 39.704791992293686], [29.057190561692835, 39.70425300312321], [29.057729550863286, 39.70425300312321]], [[29.049644713306236, 39.7026360356118], [29.049644713306236, 39.70317502478227], [29.050183702476687, 39.70317502478227], [29.050183702476687, 39.70425300312321], [29.050722691647167, 39.70425300312321], [29.050722691647167, 39.704791992293686], [29.051800669988097, 39.704791992293686], [29.051800669988097, 39.70533098146416], [29.052339659158577, 39.70533098146416], [29.052339659158577, 39.7064089598051], [29.052878648329056, 39.7064089598051], [29.052878648329056, 39.706947948975575], [29.053417637499535, 39.706947948975575], [29.053417637499535, 39.70748693814605], [29.053956626669986, 39.70748693814605], [29.053956626669986, 39.70802592731652], [29.055034605010945, 39.70802592731652], [29.055034605010945, 39.70856491648699], [29.055573594181425, 39.70856491648699], [29.055573594181425, 39.70910390565746], [29.055034605010945, 39.70910390565746], [29.055034605010945, 39.70964289482793], [29.053417637499535, 39.70964289482793], [29.053417637499535, 39.7101818839984], [29.052339659158577, 39.7101818839984], [29.052339659158577, 39.710720873168874], [29.050722691647167, 39.710720873168874], [29.050722691647167, 39.7101818839984], [29.051800669988097, 39.7101818839984], [29.051800669988097, 39.70964289482793], [29.050722691647167, 39.70964289482793], [29.050722691647167, 39.70910390565746], [29.050183702476687, 39.70910390565746], [29.050183702476687, 39.706947948975575], [29.049644713306236, 39.706947948975575], [29.049644713306236, 39.7064089598051], [29.049105724135757, 39.7064089598051], [29.049105724135757, 39.70533098146416], [29.049644713306236, 39.70533098146416], [29.049644713306236, 39.70371401395274], [29.049105724135757, 39.70371401395274], [29.049105724135757, 39.7026360356118], [29.049644713306236, 39.7026360356118]], [[29.061502475056614, 39.7026360356118], [29.061502475056614, 39.70317502478227], [29.060963485886134, 39.70317502478227], [29.060963485886134, 39.7026360356118], [29.061502475056614, 39.7026360356118]], [[29.061502475056614, 39.70155805727086], [29.061502475056614, 39.70209704644133], [29.060963485886134, 39.70209704644133], [29.060963485886134, 39.70155805727086], [29.061502475056614, 39.70155805727086]], [[29.095997781966787, 39.70155805727086], [29.095997781966787, 39.70209704644133], [29.095458792796308, 39.70209704644133], [29.095458792796308, 39.70155805727086], [29.095997781966787, 39.70155805727086]], [[29.061502475056614, 39.700480078929914], [29.061502475056614, 39.701019068100386], [29.059346518374724, 39.701019068100386], [29.059346518374724, 39.700480078929914], [29.061502475056614, 39.700480078929914]], [[29.0442548216015, 39.698324122248025], [29.0442548216015, 39.6988631114185], [29.043715832431047, 39.6988631114185], [29.043715832431047, 39.698324122248025], [29.0442548216015, 39.698324122248025]], [[29.055573594181425, 39.698324122248025], [29.055573594181425, 39.6988631114185], [29.054495615840466, 39.6988631114185], [29.054495615840466, 39.698324122248025], [29.055573594181425, 39.698324122248025]], [[29.043715832431047, 39.69616816556614], [29.043715832431047, 39.696707154736615], [29.043176843260568, 39.696707154736615], [29.043176843260568, 39.69616816556614], [29.043715832431047, 39.69616816556614]], [[29.066892366761323, 39.69616816556614], [29.066892366761323, 39.69778513307755], [29.066353377590843, 39.69778513307755], [29.066353377590843, 39.698324122248025], [29.067970345102253, 39.698324122248025], [29.067970345102253, 39.6988631114185], [29.064736410079433, 39.6988631114185], [29.064736410079433, 39.700480078929914], [29.064197420908954, 39.700480078929914], [29.064197420908954, 39.69940210058897], [29.063658431738475, 39.69940210058897], [29.063658431738475, 39.700480078929914], [29.064197420908954, 39.700480078929914], [29.064197420908954, 39.701019068100386], [29.063658431738475, 39.701019068100386], [29.063658431738475, 39.70155805727086], [29.062041464227065, 39.70155805727086], [29.062041464227065, 39.701019068100386], [29.062580453397544, 39.701019068100386], [29.062580453397544, 39.700480078929914], [29.062041464227065, 39.700480078929914], [29.062041464227065, 39.69994108975944], [29.062580453397544, 39.69994108975944], [29.062580453397544, 39.69940210058897], [29.060424496715655, 39.69940210058897], [29.060424496715655, 39.69724614390708], [29.060963485886134, 39.69724614390708], [29.060963485886134, 39.6988631114185], [29.062041464227065, 39.6988631114185], [29.062041464227065, 39.69724614390708], [29.061502475056614, 39.69724614390708], [29.061502475056614, 39.696707154736615], [29.062580453397544, 39.696707154736615], [29.062580453397544, 39.69724614390708], [29.063119442568023, 39.69724614390708], [29.063119442568023, 39.69778513307755], [29.063658431738475, 39.69778513307755], [29.063658431738475, 39.69724614390708], [29.064197420908954, 39.69724614390708], [29.064197420908954, 39.696707154736615], [29.064736410079433, 39.696707154736615], [29.064736410079433, 39.69616816556614], [29.066892366761323, 39.69616816556614]], [[29.1170183596152, 39.69616816556614], [29.1170183596152, 39.69724614390708], [29.115940381274243, 39.69724614390708], [29.115940381274243, 39.696707154736615], [29.116479370444722, 39.696707154736615], [29.116479370444722, 39.69616816556614], [29.1170183596152, 39.69616816556614]], [[29.116479370444722, 39.69562917639567], [29.116479370444722, 39.69616816556614], [29.115401392103763, 39.69616816556614], [29.115401392103763, 39.69562917639567], [29.116479370444722, 39.69562917639567]], [[29.060424496715655, 39.6950901872252], [29.060424496715655, 39.69562917639567], [29.059885507545175, 39.69562917639567], [29.059885507545175, 39.6950901872252], [29.060424496715655, 39.6950901872252]], [[29.043715832431047, 39.694551198054725], [29.043715832431047, 39.6950901872252], [29.0442548216015, 39.6950901872252], [29.0442548216015, 39.69562917639567], [29.04263785409009, 39.69562917639567], [29.04263785409009, 39.694551198054725], [29.043715832431047, 39.694551198054725]], [[29.058268540033765, 39.694551198054725], [29.058268540033765, 39.6950901872252], [29.057729550863286, 39.6950901872252], [29.057729550863286, 39.694551198054725], [29.058268540033765, 39.694551198054725]], [[29.114862402933312, 39.694551198054725], [29.114862402933312, 39.6950901872252], [29.113784424592353, 39.6950901872252], [29.113784424592353, 39.694551198054725], [29.114862402933312, 39.694551198054725]], [[29.059885507545175, 39.69401220888425], [29.059885507545175, 39.6950901872252], [29.059346518374724, 39.6950901872252], [29.059346518374724, 39.69401220888425], [29.059885507545175, 39.69401220888425]], [[29.043176843260568, 39.69347321971378], [29.043176843260568, 39.69401220888425], [29.04263785409009, 39.69401220888425], [29.04263785409009, 39.69347321971378], [29.043176843260568, 39.69347321971378]], [[29.056651572522355, 39.69293423054331], [29.056651572522355, 39.69401220888425], [29.056112583351876, 39.69401220888425], [29.056112583351876, 39.69293423054331], [29.056651572522355, 39.69293423054331]], [[29.062580453397544, 39.69293423054331], [29.062580453397544, 39.69347321971378], [29.062041464227065, 39.69347321971378], [29.062041464227065, 39.69293423054331], [29.062580453397544, 39.69293423054331]], [[29.060424496715655, 39.692395241372836], [29.060424496715655, 39.69293423054331], [29.059885507545175, 39.69293423054331], [29.059885507545175, 39.692395241372836], [29.060424496715655, 39.692395241372836]], [[29.055034605010945, 39.69131726303189], [29.055034605010945, 39.69185625220236], [29.054495615840466, 39.69185625220236], [29.054495615840466, 39.69131726303189], [29.055034605010945, 39.69131726303189]], [[29.056651572522355, 39.69131726303189], [29.056651572522355, 39.69185625220236], [29.055573594181425, 39.69185625220236], [29.055573594181425, 39.69131726303189], [29.056651572522355, 39.69131726303189]], [[29.064197420908954, 39.69131726303189], [29.064197420908954, 39.69185625220236], [29.065275399249913, 39.69185625220236], [29.065275399249913, 39.692395241372836], [29.063119442568023, 39.692395241372836], [29.063119442568023, 39.69185625220236], [29.063658431738475, 39.69185625220236], [29.063658431738475, 39.69131726303189], [29.064197420908954, 39.69131726303189]], [[29.055573594181425, 39.68916130635001], [29.055573594181425, 39.68970029552048], [29.055034605010945, 39.68970029552048], [29.055034605010945, 39.68916130635001], [29.055573594181425, 39.68916130635001]], [[29.054495615840466, 39.68754433883859], [29.054495615840466, 39.688083328009064], [29.053417637499535, 39.688083328009064], [29.053417637499535, 39.68754433883859], [29.054495615840466, 39.68754433883859]], [[29.052339659158577, 39.6853883821567], [29.052339659158577, 39.685927371327175], [29.051261680817646, 39.685927371327175], [29.051261680817646, 39.6853883821567], [29.052339659158577, 39.6853883821567]], [[29.057729550863286, 39.6853883821567], [29.057729550863286, 39.685927371327175], [29.058268540033765, 39.685927371327175], [29.058268540033765, 39.68646636049765], [29.057190561692835, 39.68646636049765], [29.057190561692835, 39.68700534966812], [29.056651572522355, 39.68700534966812], [29.056651572522355, 39.688083328009064], [29.057190561692835, 39.688083328009064], [29.057190561692835, 39.68862231717954], [29.054495615840466, 39.68862231717954], [29.054495615840466, 39.688083328009064], [29.055034605010945, 39.688083328009064], [29.055034605010945, 39.68646636049765], [29.056651572522355, 39.68646636049765], [29.056651572522355, 39.685927371327175], [29.057190561692835, 39.685927371327175], [29.057190561692835, 39.6853883821567], [29.057729550863286, 39.6853883821567]], [[29.058268540033765, 39.684310403815765], [29.058268540033765, 39.68484939298623], [29.057729550863286, 39.68484939298623], [29.057729550863286, 39.684310403815765], [29.058268540033765, 39.684310403815765]]]}, "id": "+387869+82221", "properties": {"area_ha": 2749.338819007356, "count": 9950, "label": 1, "mean_dnbr": 0.49589904308965715}}, {"type": "Feature", "geometry": {"geodesic": false, "type": "Polygon", "coordinates": [[[29.101387673671496, 39.701019068100386], [29.102465652012455, 39.701019068100386], [29.102465652012455, 39.70155805727086], [29.103004641182935, 39.70155805727086], [29.103004641182935, 39.7026360356118], [29.102465652012455, 39.7026360356118], [29.102465652012455, 39.70371401395274], [29.101387673671496, 39.70371401395274], [29.101387673671496, 39.70317502478227], [29.099770706160086, 39.70317502478227], [29.099770706160086, 39.7026360356118], [29.100309695330566, 39.7026360356118], [29.100309695330566, 39.70155805727086], [29.101387673671496, 39.70155805727086], [29.101387673671496, 39.701019068100386]], [[29.101926662841976, 39.70209704644133], [29.101926662841976, 39.7026360356118], [29.101387673671496, 39.7026360356118], [29.101387673671496, 39.70209704644133], [29.101926662841976, 39.70209704644133]], [[29.102465652012455, 39.70155805727086], [29.102465652012455, 39.70209704644133], [29.101926662841976, 39.70209704644133], [29.101926662841976, 39.70155805727086], [29.102465652012455, 39.70155805727086]]]}, "id": "+387952+82188", "properties": {"area_ha": 4.698042482973511, "count": 17, "label": 1, "mean_dnbr": 0.19955509435624014}}, {"type": "Feature", "geometry": {"geodesic": false, "type": "Polygon", "coordinates": [[[29.16876131998046, 38.995482243952914], [29.1703782874919, 38.995482243952914], [29.1703782874919, 38.996021233123386], [29.17145626583283, 38.996021233123386], [29.17145626583283, 38.99656022229386], [29.17091727666235, 38.99656022229386], [29.17091727666235, 38.99709921146433], [29.1703782874919, 38.99709921146433], [29.1703782874919, 38.99817718980527], [29.16930030915094, 38.99817718980527], [29.16930030915094, 38.996021233123386], [29.16876131998046, 38.996021233123386], [29.16876131998046, 38.995482243952914]]]}, "id": "+388078+83497", "properties": {"area_ha": 3.9082447309927075, "count": 14, "label": 1, "mean_dnbr": 0.15981908882126242}}, {"type": "Feature", "geometry": {"geodesic": false, "type": "Polygon", "coordinates": [[[29.209185507765852, 38.882294518153856], [29.20972449693633, 38.882294518153856], [29.20972449693633, 38.88283350732433], [29.21134146444774, 38.88283350732433], [29.21134146444774, 38.883911485665266], [29.212419442788672, 38.883911485665266], [29.212419442788672, 38.88445047483574], [29.21295843195915, 38.88445047483574], [29.21295843195915, 38.88337249649479], [29.212419442788672, 38.88337249649479], [29.212419442788672, 38.88283350732433], [29.21349742112963, 38.88283350732433], [29.21349742112963, 38.883911485665266], [29.21457539947056, 38.883911485665266], [29.21457539947056, 38.88445047483574], [29.21511438864104, 38.88445047483574], [29.21511438864104, 38.88552845317668], [29.212419442788672, 38.88552845317668], [29.212419442788672, 38.886067442347155], [29.21134146444774, 38.886067442347155], [29.21134146444774, 38.88552845317668], [29.210263486106783, 38.88552845317668], [29.210263486106783, 38.88498946400621], [29.20972449693633, 38.88498946400621], [29.20972449693633, 38.883911485665266], [29.209185507765852, 38.883911485665266], [29.209185507765852, 38.882294518153856]], [[29.21349742112963, 38.88445047483574], [29.21349742112963, 38.88498946400621], [29.21295843195915, 38.88498946400621], [29.21295843195915, 38.88445047483574], [29.21349742112963, 38.88445047483574]]]}, "id": "+388151+83707", "properties": {"area_ha": 11.18413313935872, "count": 40, "label": 1, "mean_dnbr": 0.18787430002920202}}, {"type": "Feature", "geometry": {"geodesic": false, "type": "Polygon", "coordinates": [[[29.32291222273537, 38.93619343520103], [29.323451211905848, 38.93619343520103], [29.323451211905848, 38.937271413541964], [29.323990201076327, 38.937271413541964], [29.323990201076327, 38.93834939188291], [29.325068179417258, 38.93834939188291], [29.325068179417258, 38.937271413541964], [29.326146157758217, 38.937271413541964], [29.326146157758217, 38.93834939188291], [29.325607168587737, 38.93834939188291], [29.325607168587737, 38.93888838105338], [29.325068179417258, 38.93888838105338], [29.325068179417258, 38.939427370223854], [29.323990201076327, 38.939427370223854], [29.323990201076327, 38.93834939188291], [29.323451211905848, 38.93834939188291], [29.323451211905848, 38.93888838105338], [29.32291222273537, 38.93888838105338], [29.32291222273537, 38.939427370223854], [29.321834244394438, 38.939427370223854], [29.321834244394438, 38.939966359394326], [29.32129525522396, 38.939966359394326], [29.32129525522396, 38.939427370223854], [29.320756266053507, 38.939427370223854], [29.320756266053507, 38.93888838105338], [29.32129525522396, 38.93888838105338], [29.32129525522396, 38.93834939188291], [29.321834244394438, 38.93834939188291], [29.321834244394438, 38.937271413541964], [29.322373233564917, 38.937271413541964], [29.322373233564917, 38.9367324243715], [29.32291222273537, 38.9367324243715], [29.32291222273537, 38.93619343520103]], [[29.321834244394438, 38.93888838105338], [29.321834244394438, 38.939427370223854], [29.32129525522396, 38.939427370223854], [29.32129525522396, 38.93888838105338], [29.321834244394438, 38.93888838105338]], [[29.32291222273537, 38.93781040271244], [29.32291222273537, 38.93834939188291], [29.322373233564917, 38.93834939188291], [29.322373233564917, 38.93781040271244], [29.32291222273537, 38.93781040271244]], [[29.323451211905848, 38.937271413541964], [29.323451211905848, 38.93781040271244], [29.32291222273537, 38.93781040271244], [29.32291222273537, 38.937271413541964], [29.323451211905848, 38.937271413541964]]]}, "id": "+388362+83607", "properties": {"area_ha": 7.264162972419575, "count": 26, "label": 1, "mean_dnbr": 0.2123417704848074}}]}