{"type": "FeatureCollection", "columns": {"area_ha": "Number", "count": "Long<0, 4294967295>", "label": "Byte<0, 1>", "mean_dnbr": "Object", "system:index": "String"}, "features": [{"type": "Feature", "geometry": {"geodesic": false, "type": "Polygon", "coordinates": [[[28.67396926148743, 36.863780074737285], [28.674508250657908, 36.863780074737285], [28.674508250657908, 36.86431906390776], [28.675586228998867, 36.86431906390776], [28.675586228998867, 36.86485805307823], [28.675047239828388, 36.86485805307823], [28.675047239828388, 36.8653970422487], [28.674508250657908, 36.8653970422487], [28.674508250657908, 36.865936031419174], [28.672891283146498, 36.865936031419174], [28.672891283146498, 36.86647502058965], [28.67235229397602, 36.86647502058965], [28.67235229397602, 36.86701400976012], [28.67073532646461, 36.86701400976012], [28.67073532646461, 36.86755299893059], [28.66965734812368, 36.86755299893059], [28.66965734812368, 36.86647502058965], [28.67019633729413, 36.86647502058965], [28.67019633729413, 36.865936031419174], [28.67181330480554, 36.865936031419174], [28.67181330480554, 36.86485805307823], [28.673430272316978, 36.86485805307823], [28.673430272316978, 36.86431906390776], [28.67396926148743, 36.86431906390776], [28.67396926148743, 36.863780074737285]]]}, "id": "+387158+87452", "properties": {"area_ha": 8.046418840462854, "count": 28, "label": 1, "mean_dnbr": 0.3521328804900944}}, {"type": "Feature", "geometry": {"geodesic": false, "type": "Polygon", "coordinates": [[[28.692294893283474, 36.89342447911323], [28.692833882453954, 36.89342447911323], [28.692833882453954, 36.89450245745417], [28.691755904112995, 36.89450245745417], [28.691755904112995, 36.895041446624646], [28.690677925772064, 36.895041446624646], [28.690677925772064, 36.89558043579512], [28.692294893283474, 36.89558043579512], [28.692294893283474, 36.89611942496559], [28.690677925772064, 36.89611942496559], [28.690677925772064, 36.89558043579512], [28.690138936601585, 36.89558043579512], [28.690138936601585, 36.895041446624646], [28.689599947431134, 36.895041446624646], [28.689599947431134, 36.89450245745417], [28.691755904112995, 36.89450245745417], [28.691755904112995, 36.8939634682837], [28.692294893283474, 36.8939634682837], [28.692294893283474, 36.89342447911323]]]}, "id": "+387192+87397", "properties": {"area_ha": 3.159880460691382, "count": 11, "label": 1, "mean_dnbr": 0.26252903582990805}}, {"type": "Feature", "geometry": {"geodesic": false, "type": "Polygon", "coordinates": [[[28.693911860794884, 36.888573576578985], [28.694989839135843, 36.888573576578985], [28.694989839135843, 36.8901905440904], [28.694450849965364, 36.8901905440904], [28.694450849965364, 36.89180751160182], [28.693911860794884, 36.89180751160182], [28.693911860794884, 36.89234650077229], [28.693372871624433, 36.89234650077229], [28.693372871624433, 36.891268522431346], [28.693911860794884, 36.891268522431346], [28.693911860794884, 36.888573576578985]]]}, "id": "+387196+87406", "properties": {"area_ha": 3.1600777945824126, "count": 11, "label": 1, "mean_dnbr": 0.20617167244419354}}, {"type": "Feature", "geometry": {"geodesic": false, "type": "Polygon", "coordinates": [[[28.696606806647253, 36.84922736713455], [28.697684784988184, 36.84922736713455], [28.697684784988184, 36.849766356305025], [28.698223774158663, 36.849766356305025], [28.698223774158663, 36.8503053454755], [28.697684784988184, 36.8503053454755], [28.697684784988184, 36.851383323816435], [28.698223774158663, 36.851383323816435], [28.698223774158663, 36.85246130215738], [28.697145795817733, 36.85246130215738], [28.697145795817733, 36.85192231298691], [28.696606806647253, 36.85192231298691], [28.696606806647253, 36.85084433464597], [28.697145795817733, 36.85084433464597], [28.697145795817733, 36.8503053454755], [28.696606806647253, 36.8503053454755], [28.696606806647253, 36.84922736713455]]]}, "id": "+387201+87479", "properties": {"area_ha": 3.7365646697098964, "count": 13, "label": 1, "mean_dnbr": 0.2044649063545037}}, {"type": "Feature", "geometry": {"geodesic": false, "type": "Polygon", "coordinates": [[[28.746193810330652, 36.7721519157571], [28.747810777842062, 36.7721519157571], [28.747810777842062, 36.77269090492757], [28.74834976701254, 36.77269090492757], [28.74834976701254, 36.77376888326851], [28.74888875618302, 36.77376888326851], [28.74888875618302, 36.77430787243898], [28.74673279950113, 36.77430787243898], [28.74673279950113, 36.77538585077993], [28.746193810330652, 36.77538585077993], [28.746193810330652, 36.7721519157571]]]}, "id": "+387294+87622", "properties": {"area_ha": 5.178939963245737, "count": 18, "label": 1, "mean_dnbr": 0.32507818244590997}}, {"type": "Feature", "geometry": {"geodesic": false, "type": "Polygon", "coordinates": [[[28.74996673452395, 36.70531725861861], [28.75212269120584, 36.70531725861861], [28.75212269120584, 36.70639523695955], [28.75266168037632, 36.70639523695955], [28.75266168037632, 36.706934226130016], [28.75320066954677, 36.706934226130016], [28.75320066954677, 36.70747321530049], [28.75481763705821, 36.70747321530049], [28.75481763705821, 36.709090182811906], [28.75427864788773, 36.709090182811906], [28.75427864788773, 36.70962917198238], [28.751044712864882, 36.70962917198238], [28.751044712864882, 36.71016816115285], [28.74996673452395, 36.71016816115285], [28.74996673452395, 36.71070715032332], [28.74888875618302, 36.71070715032332], [28.74888875618302, 36.711246139493795], [28.747271788671583, 36.711246139493795], [28.747271788671583, 36.71178512866427], [28.745654821160173, 36.71178512866427], [28.745654821160173, 36.71232411783474], [28.741881896966873, 36.71232411783474], [28.741881896966873, 36.711246139493795], [28.743498864478283, 36.711246139493795], [28.743498864478283, 36.71070715032332], [28.744576842819242, 36.71070715032332], [28.744576842819242, 36.711246139493795], [28.745654821160173, 36.711246139493795], [28.745654821160173, 36.71070715032332], [28.746193810330652, 36.71070715032332], [28.746193810330652, 36.71016816115285], [28.747271788671583, 36.71016816115285], [28.747271788671583, 36.709090182811906], [28.745654821160173, 36.709090182811906], [28.745654821160173, 36.70855119364143], [28.747271788671583, 36.70855119364143], [28.747271788671583, 36.709090182811906], [28.747810777842062, 36.709090182811906], [28.747810777842062, 36.70801220447096], [28.749427745353472, 36.70801220447096], [28.749427745353472, 36.70747321530049], [28.74996673452395, 36.70747321530049], [28.74996673452395, 36.706934226130016], [28.75050572369443, 36.706934226130016], [28.75050572369443, 36.70639523695955], [28.751044712864882, 36.70639523695955], [28.751044712864882, 36.70585624778908], [28.74996673452395, 36.70585624778908], [28.74996673452395, 36.70531725861861]], [[28.74888875618302, 36.71016816115285], [28.74888875618302, 36.71070715032332], [28.74834976701254, 36.71070715032332], [28.74834976701254, 36.71016816115285], [28.74888875618302, 36.71016816115285]], [[28.75212269120584, 36.70639523695955], [28.75212269120584, 36.70747321530049], [28.75266168037632, 36.70747321530049], [28.75266168037632, 36.70801220447096], [28.75212269120584, 36.70801220447096], [28.75212269120584, 36.70855119364143], [28.75050572369443, 36.70855119364143], [28.75050572369443, 36.709090182811906], [28.749427745353472, 36.709090182811906], [28.749427745353472, 36.70962917198238], [28.747810777842062, 36.70962917198238], [28.747810777842062, 36.709090182811906], [28.74834976701254, 36.709090182811906], [28.74834976701254, 36.70855119364143], [28.749427745353472, 36.70855119364143], [28.749427745353472, 36.70801220447096], [28.751044712864882, 36.70801220447096], [28.751044712864882, 36.70747321530049], [28.75158370203536, 36.70747321530049], [28.75158370203536, 36.70639523695955], [28.75212269120584, 36.70639523695955]]]}, "id": "+387302+87746", "properties": {"area_ha": 25.628429156354205, "count": 89, "label": 1, "mean_dnbr": 0.26515518068115423}}, {"type": "Feature", "geometry": {"geodesic": false, "type": "Polygon", "coordinates": [[[28.76344146378574, 36.79317249340549], [28.764519442126698, 36.79317249340549], [28.764519442126698, 36.793711482575965], [28.76344146378574, 36.793711482575965], [28.76344146378574, 36.79425047174644], [28.76290247461526, 36.79425047174644], [28.76290247461526, 36.79478946091691], [28.76344146378574, 36.79478946091691], [28.76344146378574, 36.795867439257854], [28.76236348544481, 36.795867439257854], [28.76236348544481, 36.79532845008738], [28.76182449627433, 36.79532845008738], [28.76182449627433, 36.79425047174644], [28.76236348544481, 36.79425047174644], [28.76236348544481, 36.793711482575965], [28.76344146378574, 36.793711482575965], [28.76344146378574, 36.79317249340549]]]}, "id": "+387325+87583", "properties": {"area_ha": 3.164035336331694, "count": 11, "label": 1, "mean_dnbr": 0.16215641874947526}}, {"type": "Feature", "geometry": {"geodesic": false, "type": "Polygon", "coordinates": [[[28.764519442126698, 36.74951437059728], [28.76559742046763, 36.74951437059728], [28.76559742046763, 36.75059234893823], [28.764519442126698, 36.75059234893823], [28.764519442126698, 36.7511313381087], [28.76398045295622, 36.7511313381087], [28.76398045295622, 36.75167032727917], [28.76344146378574, 36.75167032727917], [28.76344146378574, 36.752748305620116], [28.76290247461526, 36.752748305620116], [28.76290247461526, 36.75328729479059], [28.76236348544481, 36.75328729479059], [28.76236348544481, 36.752209316449644], [28.76290247461526, 36.752209316449644], [28.76290247461526, 36.75167032727917], [28.76344146378574, 36.75167032727917], [28.76344146378574, 36.75059234893823], [28.76398045295622, 36.75059234893823], [28.76398045295622, 36.750053359767755], [28.764519442126698, 36.750053359767755], [28.764519442126698, 36.74951437059728]]]}, "id": "+387327+87664", "properties": {"area_ha": 3.453631162300813, "count": 12, "label": 1, "mean_dnbr": 0.22512561038331388}}, {"type": "Feature", "geometry": {"geodesic": false, "type": "Polygon", "coordinates": [[[28.76559742046763, 36.73873458718785], [28.76883135549045, 36.73873458718785], [28.76883135549045, 36.73927357635832], [28.769909333831407, 36.73927357635832], [28.769909333831407, 36.739812565528794], [28.769370344660928, 36.739812565528794], [28.769370344660928, 36.74035155469927], [28.76883135549045, 36.74035155469927], [28.76883135549045, 36.74089054386974], [28.767753377149518, 36.74089054386974], [28.767753377149518, 36.74035155469927], [28.76721438797904, 36.74035155469927], [28.76721438797904, 36.74089054386974], [28.76398045295622, 36.74089054386974], [28.76398045295622, 36.739812565528794], [28.764519442126698, 36.739812565528794], [28.764519442126698, 36.73927357635832], [28.76505843129715, 36.73927357635832], [28.76505843129715, 36.739812565528794], [28.76559742046763, 36.739812565528794], [28.76559742046763, 36.73873458718785]]]}, "id": "+387333+87684", "properties": {"area_ha": 9.498879540383449, "count": 33, "label": 1, "mean_dnbr": 0.23003045998297234}}, {"type": "Feature", "geometry": {"geodesic": false, "type": "Polygon", "coordinates": [[[28.774221247195186, 36.70370029110719], [28.775299225536116, 36.70370029110719], [28.775299225536116, 36.704778269448134], [28.775838214706596, 36.704778269448134], [28.775838214706596, 36.70531725861861], [28.773143268854227, 36.70531725861861], [28.773143268854227, 36.70423928027766], [28.774221247195186, 36.70423928027766], [28.774221247195186, 36.70370029110719]]]}, "id": "+387345+87749", "properties": {"area_ha": 3.1677568782773373, "count": 11, "label": 1, "mean_dnbr": 0.17622643868262308}}, {"type": "Feature", "geometry": {"geodesic": false, "type": "Polygon", "coordinates": [[[28.776377203877075, 36.73280570631266], [28.776916193047526, 36.73280570631266], [28.776916193047526, 36.73334469548313], [28.778533160558965, 36.73334469548313], [28.778533160558965, 36.733883684653605], [28.777994171388485, 36.733883684653605], [28.777994171388485, 36.73442267382408], [28.777455182218006, 36.73442267382408], [28.777455182218006, 36.73496166299455], [28.778533160558965, 36.73496166299455], [28.778533160558965, 36.73550065216502], [28.777455182218006, 36.73550065216502], [28.777455182218006, 36.736039641335495], [28.776916193047526, 36.736039641335495], [28.776916193047526, 36.73442267382408], [28.776377203877075, 36.73442267382408], [28.776377203877075, 36.73496166299455], [28.775838214706596, 36.73496166299455], [28.775838214706596, 36.73442267382408], [28.776377203877075, 36.73442267382408], [28.776377203877075, 36.73280570631266]]]}, "id": "+387348+87695", "properties": {"area_ha": 4.030115089259332, "count": 14, "label": 1, "mean_dnbr": 0.16232590127134278}}, {"type": "Feature", "geometry": {"geodesic": false, "type": "Polygon", "coordinates": [[[28.776916193047526, 36.72687682543747], [28.777455182218006, 36.72687682543747], [28.777455182218006, 36.72903278211936], [28.777994171388485, 36.72903278211936], [28.777994171388485, 36.730110760460306], [28.776916193047526, 36.730110760460306], [28.776916193047526, 36.73064974963077], [28.776377203877075, 36.73064974963077], [28.776377203877075, 36.730110760460306], [28.776916193047526, 36.730110760460306], [28.776916193047526, 36.729571771289834], [28.776377203877075, 36.729571771289834], [28.776377203877075, 36.72795480377842], [28.776916193047526, 36.72795480377842], [28.776916193047526, 36.72687682543747]]]}, "id": "+387349+87706", "properties": {"area_ha": 3.4546323391111597, "count": 12, "label": 1, "mean_dnbr": 0.1570491082495911}}, {"type": "Feature", "geometry": {"geodesic": false, "type": "Polygon", "coordinates": [[[28.775838214706596, 36.76083314317719], [28.777994171388485, 36.76083314317719], [28.777994171388485, 36.76298909985908], [28.778533160558965, 36.76298909985908], [28.778533160558965, 36.76406707820002], [28.777455182218006, 36.76406707820002], [28.777455182218006, 36.764606067370494], [28.776377203877075, 36.764606067370494], [28.776377203877075, 36.765145056540966], [28.775299225536116, 36.765145056540966], [28.775299225536116, 36.76406707820002], [28.774760236365637, 36.76406707820002], [28.774760236365637, 36.76298909985908], [28.775838214706596, 36.76298909985908], [28.775838214706596, 36.762450110688604], [28.776377203877075, 36.762450110688604], [28.776377203877075, 36.76191112151813], [28.775838214706596, 36.76191112151813], [28.775838214706596, 36.76083314317719]]]}, "id": "+387350+87643", "properties": {"area_ha": 10.07152769044878, "count": 35, "label": 1, "mean_dnbr": 0.305965255253936}}, {"type": "Feature", "geometry": {"geodesic": false, "type": "Polygon", "coordinates": [[[28.779072149729416, 36.72472086875558], [28.781228106411305, 36.72472086875558], [28.781228106411305, 36.725259857926055], [28.781767095581785, 36.725259857926055], [28.781767095581785, 36.726337836267], [28.782306084752264, 36.726337836267], [28.782306084752264, 36.72795480377842], [28.782845073922715, 36.72795480377842], [28.782845073922715, 36.72903278211936], [28.783384063093195, 36.72903278211936], [28.783384063093195, 36.730110760460306], [28.782845073922715, 36.730110760460306], [28.782845073922715, 36.73064974963077], [28.781767095581785, 36.73064974963077], [28.781767095581785, 36.730110760460306], [28.780689117240826, 36.730110760460306], [28.780689117240826, 36.729571771289834], [28.781767095581785, 36.729571771289834], [28.781767095581785, 36.72903278211936], [28.781228106411305, 36.72903278211936], [28.781228106411305, 36.72849379294889], [28.781767095581785, 36.72849379294889], [28.781767095581785, 36.72795480377842], [28.779611138899895, 36.72795480377842], [28.779611138899895, 36.72849379294889], [28.778533160558965, 36.72849379294889], [28.778533160558965, 36.726337836267], [28.777994171388485, 36.726337836267], [28.777994171388485, 36.72579884709653], [28.778533160558965, 36.72579884709653], [28.778533160558965, 36.725259857926055], [28.779072149729416, 36.725259857926055], [28.779072149729416, 36.72472086875558]]]}, "id": "+387356+87710", "properties": {"area_ha": 15.834054702337008, "count": 55, "label": 1, "mean_dnbr": 0.17737904347672112}}, {"type": "Feature", "geometry": {"geodesic": false, "type": "Polygon", "coordinates": [[[28.780689117240826, 36.79910137428068], [28.782306084752264, 36.79910137428068], [28.782306084752264, 36.800179352621626], [28.781767095581785, 36.800179352621626], [28.781767095581785, 36.8007183417921], [28.781228106411305, 36.8007183417921], [28.781228106411305, 36.80341328764445], [28.780150128070375, 36.80341328764445], [28.780150128070375, 36.80287429847399], [28.780689117240826, 36.80287429847399], [28.780689117240826, 36.80125733096257], [28.780150128070375, 36.80125733096257], [28.780150128070375, 36.799640363451154], [28.779611138899895, 36.799640363451154], [28.779611138899895, 36.79910137428068], [28.780150128070375, 36.79910137428068], [28.780150128070375, 36.799640363451154], [28.780689117240826, 36.799640363451154], [28.780689117240826, 36.79910137428068]]]}, "id": "+387358+87572", "properties": {"area_ha": 5.1770948919843995, "count": 18, "label": 1, "mean_dnbr": 0.29208334286267684}}, {"type": "Feature", "geometry": {"geodesic": false, "type": "Polygon", "coordinates": [[[28.782306084752264, 36.79317249340549], [28.783384063093195, 36.79317249340549], [28.783384063093195, 36.793711482575965], [28.784462041434153, 36.793711482575965], [28.784462041434153, 36.79425047174644], [28.785001030604604, 36.79425047174644], [28.785001030604604, 36.79532845008738], [28.783923052263674, 36.79532845008738], [28.783923052263674, 36.795867439257854], [28.783384063093195, 36.795867439257854], [28.783384063093195, 36.79425047174644], [28.782845073922715, 36.79425047174644], [28.782845073922715, 36.793711482575965], [28.782306084752264, 36.793711482575965], [28.782306084752264, 36.79317249340549]]]}, "id": "+387360+87583", "properties": {"area_ha": 3.451680519041651, "count": 12, "label": 1, "mean_dnbr": 0.325961221831874}}, {"type": "Feature", "geometry": {"geodesic": false, "type": "Polygon", "coordinates": [[[28.787156987286494, 36.76137213234766], [28.788773954797904, 36.76137213234766], [28.788773954797904, 36.76191112151813], [28.792007889820752, 36.76191112151813], [28.792007889820752, 36.762450110688604], [28.792546878991203, 36.762450110688604], [28.792546878991203, 36.764606067370494], [28.791468900650273, 36.764606067370494], [28.791468900650273, 36.76568404571144], [28.792546878991203, 36.76568404571144], [28.792546878991203, 36.76622303488191], [28.793085868161683, 36.76622303488191], [28.793085868161683, 36.766762024052376], [28.793624857332162, 36.766762024052376], [28.793624857332162, 36.76784000239332], [28.79416384650264, 36.76784000239332], [28.79416384650264, 36.768917980734265], [28.789851933138863, 36.768917980734265], [28.789851933138863, 36.76945696990474], [28.788234965627453, 36.76945696990474], [28.788234965627453, 36.76999595907521], [28.786617998116014, 36.76999595907521], [28.786617998116014, 36.77053494824568], [28.786079008945563, 36.77053494824568], [28.786079008945563, 36.76999595907521], [28.785540019775084, 36.76999595907521], [28.785540019775084, 36.76622303488191], [28.786079008945563, 36.76622303488191], [28.786079008945563, 36.76568404571144], [28.786617998116014, 36.76568404571144], [28.786617998116014, 36.76622303488191], [28.788234965627453, 36.76622303488191], [28.788234965627453, 36.76568404571144], [28.790929911479793, 36.76568404571144], [28.790929911479793, 36.765145056540966], [28.790390922309342, 36.765145056540966], [28.790390922309342, 36.764606067370494], [28.790929911479793, 36.764606067370494], [28.790929911479793, 36.76406707820002], [28.790390922309342, 36.76406707820002], [28.790390922309342, 36.76352808902955], [28.789312943968383, 36.76352808902955], [28.789312943968383, 36.76298909985908], [28.788773954797904, 36.76298909985908], [28.788773954797904, 36.76191112151813], [28.787156987286494, 36.76191112151813], [28.787156987286494, 36.76137213234766]]]}, "id": "+387370+87642", "properties": {"area_ha": 37.69456194666838, "count": 131, "label": 1, "mean_dnbr": 0.42309638698485075}}, {"type": "Feature", "geometry": {"geodesic": false, "type": "Polygon", "coordinates": [[[28.788234965627453, 36.73657863050597], [28.791468900650273, 36.73657863050597], [28.791468900650273, 36.73711761967643], [28.792007889820752, 36.73711761967643], [28.792007889820752, 36.737656608846905], [28.790929911479793, 36.737656608846905], [28.790929911479793, 36.73819559801738], [28.790390922309342, 36.73819559801738], [28.790390922309342, 36.73873458718785], [28.789851933138863, 36.73873458718785], [28.789851933138863, 36.73927357635832], [28.789312943968383, 36.73927357635832], [28.789312943968383, 36.73873458718785], [28.788773954797904, 36.73873458718785], [28.788773954797904, 36.737656608846905], [28.788234965627453, 36.737656608846905], [28.788234965627453, 36.73657863050597]]]}, "id": "+387375+87688", "properties": {"area_ha": 6.044900816749654, "count": 21, "label": 1, "mean_dnbr": 0.1960310118701955}}, {"type": "Feature", "geometry": {"geodesic": false, "type": "Polygon", "coordinates": [[[28.792546878991203, 36.73657863050597], [28.795241824843572, 36.73657863050597], [28.795241824843572, 36.73927357635832], [28.79416384650264, 36.73927357635832], [28.79416384650264, 36.737656608846905], [28.793624857332162, 36.737656608846905], [28.793624857332162, 36.73873458718785], [28.793085868161683, 36.73873458718785], [28.793085868161683, 36.73711761967643], [28.792546878991203, 36.73711761967643], [28.792546878991203, 36.73657863050597]]]}, "id": "+387382+87688", "properties": {"area_ha": 4.893487910917293, "count": 17, "label": 1, "mean_dnbr": 0.21586860236082406}}, {"type": "Feature", "geometry": {"geodesic": false, "type": "Polygon", "coordinates": [[[28.793624857332162, 36.744124478892566], [28.79578081401405, 36.744124478892566], [28.79578081401405, 36.74466346806304], [28.795241824843572, 36.74466346806304], [28.795241824843572, 36.7473584139154], [28.790390922309342, 36.7473584139154], [28.790390922309342, 36.74681942474493], [28.789851933138863, 36.74681942474493], [28.789851933138863, 36.746280435574455], [28.790390922309342, 36.746280435574455], [28.790390922309342, 36.74520245723351], [28.790929911479793, 36.74520245723351], [28.790929911479793, 36.74466346806304], [28.793624857332162, 36.74466346806304], [28.793624857332162, 36.744124478892566]], [[28.793624857332162, 36.74574144640398], [28.793624857332162, 36.746280435574455], [28.793085868161683, 36.746280435574455], [28.793085868161683, 36.74574144640398], [28.793624857332162, 36.74574144640398]], [[28.794702835673093, 36.74520245723351], [28.794702835673093, 36.74681942474493], [28.79416384650264, 36.74681942474493], [28.79416384650264, 36.74520245723351], [28.794702835673093, 36.74520245723351]]]}, "id": "+387383+87674", "properties": {"area_ha": 12.952057727257174, "count": 45, "label": 1, "mean_dnbr": 0.18027999867392885}}, {"type": "Feature", "geometry": {"geodesic": false, "type": "Polygon", "coordinates": [[[28.79416384650264, 36.74789740308587], [28.798475759866392, 36.74789740308587], [28.798475759866392, 36.750053359767755], [28.79739778152546, 36.750053359767755], [28.79739778152546, 36.74951437059728], [28.79631980318453, 36.74951437059728], [28.79631980318453, 36.750053359767755], [28.792546878991203, 36.750053359767755], [28.792546878991203, 36.74951437059728], [28.793624857332162, 36.74951437059728], [28.793624857332162, 36.74897538142681], [28.79416384650264, 36.74897538142681], [28.79416384650264, 36.74789740308587]]]}, "id": "+387388+87667", "properties": {"area_ha": 9.785541684933838, "count": 34, "label": 1, "mean_dnbr": 0.166008066260574}}, {"type": "Feature", "geometry": {"geodesic": false, "type": "Polygon", "coordinates": [[[28.79955373820735, 36.71986996622134], [28.80170969488924, 36.71986996622134], [28.80170969488924, 36.721486933732756], [28.80063171654828, 36.721486933732756], [28.80063171654828, 36.72202592290323], [28.79901474903687, 36.72202592290323], [28.79901474903687, 36.72040895539181], [28.79955373820735, 36.72040895539181], [28.79955373820735, 36.71986996622134]]]}, "id": "+387394+87719", "properties": {"area_ha": 4.894568000801813, "count": 17, "label": 1, "mean_dnbr": 0.2599133371329153}}, {"type": "Feature", "geometry": {"geodesic": false, "type": "Polygon", "coordinates": [[[28.80709958659395, 36.774846861609454], [28.80817756493491, 36.774846861609454], [28.80817756493491, 36.7759248399504], [28.80763857576443, 36.7759248399504], [28.80763857576443, 36.77646382912087], [28.80709958659395, 36.77646382912087], [28.80709958659395, 36.77700281829134], [28.80494362991206, 36.77700281829134], [28.80494362991206, 36.77646382912087], [28.80440464074158, 36.77646382912087], [28.80440464074158, 36.7759248399504], [28.80494362991206, 36.7759248399504], [28.80494362991206, 36.77538585077993], [28.80602160825302, 36.77538585077993], [28.80602160825302, 36.7759248399504], [28.80656059742347, 36.7759248399504], [28.80656059742347, 36.77538585077993], [28.80709958659395, 36.77538585077993], [28.80709958659395, 36.774846861609454]]]}, "id": "+387406+87617", "properties": {"area_ha": 4.891060758011604, "count": 17, "label": 1, "mean_dnbr": 0.3613969860473489}}, {"type": "Feature", "geometry": {"geodesic": false, "type": "Polygon", "coordinates": [[[28.80763857576443, 36.72579884709653], [28.80817756493491, 36.72579884709653], [28.80817756493491, 36.726337836267], [28.80871655410536, 36.726337836267], [28.80871655410536, 36.72903278211936], [28.80817756493491, 36.72903278211936], [28.80817756493491, 36.730110760460306], [28.80763857576443, 36.730110760460306], [28.80763857576443, 36.72903278211936], [28.80709958659395, 36.72903278211936], [28.80709958659395, 36.72687682543747], [28.80763857576443, 36.72687682543747], [28.80763857576443, 36.72579884709653]]]}, "id": "+387406+87708", "properties": {"area_ha": 4.89412672902928, "count": 17, "label": 1, "mean_dnbr": 0.1703230455688555}}, {"type": "Feature", "geometry": {"geodesic": false, "type": "Polygon", "coordinates": [[[29.301891645086982, 36.52852881070388], [29.302430634257462, 36.52852881070388], [29.302430634257462, 36.529067799874355], [29.30296962342794, 36.529067799874355], [29.30296962342794, 36.52960678904483], [29.302430634257462, 36.52960678904483], [29.302430634257462, 36.5301457782153], [29.30296962342794, 36.5301457782153], [29.30296962342794, 36.53176274572671], [29.301891645086982, 36.53176274572671], [29.301891645086982, 36.53230173489718], [29.300813666746052, 36.53230173489718], [29.300813666746052, 36.532840724067654], [29.300274677575572, 36.532840724067654], [29.300274677575572, 36.53230173489718], [29.300813666746052, 36.53230173489718], [29.300813666746052, 36.53176274572671], [29.301352655916503, 36.53176274572671], [29.301352655916503, 36.53068476738577], [29.300813666746052, 36.53068476738577], [29.300813666746052, 36.5301457782153], [29.300274677575572, 36.5301457782153], [29.300274677575572, 36.531223756556244], [29.299196699234614, 36.531223756556244], [29.299196699234614, 36.53068476738577], [29.299735688405093, 36.53068476738577], [29.299735688405093, 36.5301457782153], [29.300274677575572, 36.5301457782153], [29.300274677575572, 36.529067799874355], [29.301891645086982, 36.529067799874355], [29.301891645086982, 36.52852881070388]]]}, "id": "+388323+88074", "properties": {"area_ha": 7.504329282496571, "count": 26, "label": 1, "mean_dnbr": 0.2534563809341676}}, {"type": "Feature", "geometry": {"geodesic": false, "type": "Polygon", "coordinates": [[[29.302430634257462, 36.46492808858822], [29.30458659093935, 36.46492808858822], [29.30458659093935, 36.46546707775869], [29.30566456928028, 36.46546707775869], [29.30566456928028, 36.46600606692916], [29.305125580109802, 36.46600606692916], [29.305125580109802, 36.46654505609963], [29.30458659093935, 36.46654505609963], [29.30458659093935, 36.467084045270106], [29.303508612598392, 36.467084045270106], [29.303508612598392, 36.46600606692916], [29.301891645086982, 36.46600606692916], [29.301891645086982, 36.46546707775869], [29.302430634257462, 36.46546707775869], [29.302430634257462, 36.46492808858822]]]}, "id": "+388327+88192", "properties": {"area_ha": 4.6219030653038855, "count": 16, "label": 1, "mean_dnbr": 0.25704699380369306}}, {"type": "Feature", "geometry": {"geodesic": false, "type": "Polygon", "coordinates": [[[29.331536049462926, 36.979662746388705], [29.332075038633405, 36.979662746388705], [29.332075038633405, 36.98020173555918], [29.332614027803885, 36.98020173555918], [29.332614027803885, 36.98074072472965], [29.333153016974336, 36.98074072472965], [29.333153016974336, 36.98020173555918], [29.333692006144815, 36.98020173555918], [29.333692006144815, 36.98074072472965], [29.333153016974336, 36.98074072472965], [29.333153016974336, 36.98127971390012], [29.334769984485746, 36.98127971390012], [29.334769984485746, 36.981818703070594], [29.333153016974336, 36.981818703070594], [29.333153016974336, 36.98127971390012], [29.332614027803885, 36.98127971390012], [29.332614027803885, 36.981818703070594], [29.330997060292447, 36.981818703070594], [29.330997060292447, 36.98127971390012], [29.332075038633405, 36.98127971390012], [29.332075038633405, 36.98074072472965], [29.330458071121996, 36.98074072472965], [29.330458071121996, 36.98020173555918], [29.331536049462926, 36.98020173555918], [29.331536049462926, 36.979662746388705]]]}, "id": "+388378+87237", "properties": {"area_ha": 4.01713775520981, "count": 14, "label": 1, "mean_dnbr": 0.2625868875955326}}, {"type": "Feature", "geometry": {"geodesic": false, "type": "Polygon", "coordinates": [[[29.340159876190484, 36.74897538142681], [29.340698865360963, 36.74897538142681], [29.340698865360963, 36.74951437059728], [29.341237854531414, 36.74951437059728], [29.341237854531414, 36.750053359767755], [29.341776843701894, 36.750053359767755], [29.341776843701894, 36.75059234893823], [29.340159876190484, 36.75059234893823], [29.340159876190484, 36.7511313381087], [29.339620887020004, 36.7511313381087], [29.339620887020004, 36.75167032727917], [29.339081897849525, 36.75167032727917], [29.339081897849525, 36.7511313381087], [29.339620887020004, 36.7511313381087], [29.339620887020004, 36.75059234893823], [29.339081897849525, 36.75059234893823], [29.339081897849525, 36.74951437059728], [29.340159876190484, 36.74951437059728], [29.340159876190484, 36.74897538142681]]]}, "id": "+388394+87665", "properties": {"area_ha": 3.4536755669190904, "count": 12, "label": 1, "mean_dnbr": 0.26567880440818603}}, {"type": "Feature", "geometry": {"geodesic": false, "type": "Polygon", "coordinates": [[[29.345010778724713, 36.72040895539181], [29.345549767895193, 36.72040895539181], [29.345549767895193, 36.72094794456228], [29.346088757065672, 36.72094794456228], [29.346088757065672, 36.72202592290323], [29.346627746236152, 36.72202592290323], [29.346627746236152, 36.7225649120737], [29.346088757065672, 36.7225649120737], [29.346088757065672, 36.72202592290323], [29.345549767895193, 36.72202592290323], [29.345549767895193, 36.7225649120737], [29.345010778724713, 36.7225649120737], [29.345010778724713, 36.723642890414645], [29.343393811213303, 36.723642890414645], [29.343393811213303, 36.7225649120737], [29.343932800383783, 36.7225649120737], [29.343932800383783, 36.72094794456228], [29.345010778724713, 36.72094794456228], [29.345010778724713, 36.72040895539181]]]}, "id": "+388403+87718", "properties": {"area_ha": 5.47031787064827, "count": 19, "label": 1, "mean_dnbr": 0.2899158421392682}}]}