{"type": "FeatureCollection", "columns": {"area_ha": "Number", "count": "Long<0, 4294967295>", "label": "Byte<0, 1>", "mean_dnbr": "Object", "system:index": "String"}, "features": [{"type": "Feature", "geometry": {"geodesic": false, "type": "Polygon", "coordinates": [[[28.44112593984366, 37.002300291548515], [28.442203918184617, 37.002300291548515], [28.442203918184617, 37.00283928071899], [28.441664929014138, 37.00283928071899], [28.441664929014138, 37.00337826988946], [28.44112593984366, 37.00337826988946], [28.44112593984366, 37.00391725905993], [28.44058695067318, 37.00391725905993], [28.44058695067318, 37.00499523740088], [28.440047961502728, 37.00499523740088], [28.440047961502728, 37.00391725905993], [28.43950897233225, 37.00391725905993], [28.43950897233225, 37.00283928071899], [28.43896998316177, 37.00283928071899], [28.43896998316177, 37.002300291548515], [28.44058695067318, 37.002300291548515], [28.44058695067318, 37.00337826988946], [28.44112593984366, 37.00337826988946], [28.44112593984366, 37.002300291548515]]]}, "id": "+386727+87195", "properties": {"area_ha": 3.7291008253579885, "count": 13, "label": 1, "mean_dnbr": 0.2445561724291477}}, {"type": "Feature", "geometry": {"geodesic": false, "type": "Polygon", "coordinates": [[[28.66049453222564, 36.82012195192908], [28.66103352139612, 36.82012195192908], [28.66103352139612, 36.82119993027002], [28.66049453222564, 36.82119993027002], [28.66049453222564, 36.82173891944049], [28.65887756471423, 36.82173891944049], [28.65887756471423, 36.820660941099554], [28.658338575543752, 36.820660941099554], [28.658338575543752, 36.82012195192908], [28.659955543055162, 36.82012195192908], [28.659955543055162, 36.820660941099554], [28.66049453222564, 36.820660941099554], [28.66049453222564, 36.82012195192908]]]}, "id": "+387133+87533", "properties": {"area_ha": 3.162948197989174, "count": 11, "label": 1, "mean_dnbr": 0.2025856257103824}}, {"type": "Feature", "geometry": {"geodesic": false, "type": "Polygon", "coordinates": [[[28.67181330480554, 36.86485805307823], [28.673430272316978, 36.86485805307823], [28.673430272316978, 36.86647502058965], [28.67235229397602, 36.86647502058965], [28.67235229397602, 36.865936031419174], [28.67181330480554, 36.865936031419174], [28.67181330480554, 36.86701400976012], [28.67073532646461, 36.86701400976012], [28.67073532646461, 36.86755299893059], [28.66965734812368, 36.86755299893059], [28.66965734812368, 36.86701400976012], [28.67019633729413, 36.86701400976012], [28.67019633729413, 36.86647502058965], [28.67073532646461, 36.86647502058965], [28.67073532646461, 36.865936031419174], [28.67181330480554, 36.865936031419174], [28.67181330480554, 36.86485805307823]]]}, "id": "+387156+87450", "properties": {"area_ha": 4.310558214554645, "count": 15, "label": 1, "mean_dnbr": 0.23631212847440278}}, {"type": "Feature", "geometry": {"geodesic": false, "type": "Polygon", "coordinates": [[[28.687982979919695, 36.88156671736285], [28.689060958260654, 36.88156671736285], [28.689060958260654, 36.882644695703796], [28.689599947431134, 36.882644695703796], [28.689599947431134, 36.88318368487427], [28.690138936601585, 36.88318368487427], [28.690138936601585, 36.88426166321521], [28.690677925772064, 36.88426166321521], [28.690677925772064, 36.88533964155616], [28.690138936601585, 36.88533964155616], [28.690138936601585, 36.884800652385685], [28.689060958260654, 36.884800652385685], [28.689060958260654, 36.88533964155616], [28.687982979919695, 36.88533964155616], [28.687982979919695, 36.88426166321521], [28.687443990749244, 36.88426166321521], [28.687443990749244, 36.882644695703796], [28.686905001578765, 36.882644695703796], [28.686905001578765, 36.88210570653332], [28.687443990749244, 36.88210570653332], [28.687443990749244, 36.882644695703796], [28.687982979919695, 36.882644695703796], [28.687982979919695, 36.88156671736285]]]}, "id": "+387185+87419", "properties": {"area_ha": 7.75723237221788, "count": 27, "label": 1, "mean_dnbr": 0.2030757437553203}}, {"type": "Feature", "geometry": {"geodesic": false, "type": "Polygon", "coordinates": [[[28.693911860794884, 36.89180751160182], [28.694450849965364, 36.89180751160182], [28.694450849965364, 36.89234650077229], [28.694989839135843, 36.89234650077229], [28.694989839135843, 36.89288548994276], [28.694450849965364, 36.89288548994276], [28.694450849965364, 36.89342447911323], [28.693372871624433, 36.89342447911323], [28.693372871624433, 36.8939634682837], [28.692294893283474, 36.8939634682837], [28.692294893283474, 36.89450245745417], [28.691216914942544, 36.89450245745417], [28.691216914942544, 36.895041446624646], [28.690677925772064, 36.895041446624646], [28.690677925772064, 36.89558043579512], [28.690138936601585, 36.89558043579512], [28.690138936601585, 36.895041446624646], [28.689599947431134, 36.895041446624646], [28.689599947431134, 36.8939634682837], [28.690138936601585, 36.8939634682837], [28.690138936601585, 36.89342447911323], [28.692294893283474, 36.89342447911323], [28.692294893283474, 36.89234650077229], [28.693911860794884, 36.89234650077229], [28.693911860794884, 36.89180751160182]]]}, "id": "+387195+87400", "properties": {"area_ha": 7.181672504552269, "count": 25, "label": 1, "mean_dnbr": 0.20811421326395735}}, {"type": "Feature", "geometry": {"geodesic": false, "type": "Polygon", "coordinates": [[[28.694450849965364, 36.913367078420684], [28.695528828306323, 36.913367078420684], [28.695528828306323, 36.91444505676163], [28.696067817476774, 36.91444505676163], [28.696067817476774, 36.9149840459321], [28.696606806647253, 36.9149840459321], [28.696606806647253, 36.91390606759116], [28.698762763329142, 36.91390606759116], [28.698762763329142, 36.91444505676163], [28.698223774158663, 36.91444505676163], [28.698223774158663, 36.9149840459321], [28.696606806647253, 36.9149840459321], [28.696606806647253, 36.915523035102574], [28.695528828306323, 36.915523035102574], [28.695528828306323, 36.9149840459321], [28.694450849965364, 36.9149840459321], [28.694450849965364, 36.913367078420684]]]}, "id": "+387197+87360", "properties": {"area_ha": 4.595017960171815, "count": 16, "label": 1, "mean_dnbr": 0.34812777809789996}}, {"type": "Feature", "geometry": {"geodesic": false, "type": "Polygon", "coordinates": [[[28.735953016091685, 36.71178512866427], [28.737030994432644, 36.71178512866427], [28.737030994432644, 36.71232411783474], [28.739725940284984, 36.71232411783474], [28.739725940284984, 36.71394108534615], [28.739186951114505, 36.71394108534615], [28.739186951114505, 36.71340209617568], [28.738108972773574, 36.71340209617568], [28.738108972773574, 36.712863107005205], [28.734336048580275, 36.712863107005205], [28.734336048580275, 36.71232411783474], [28.735953016091685, 36.71232411783474], [28.735953016091685, 36.71178512866427]]]}, "id": "+387274+87734", "properties": {"area_ha": 4.607168149778545, "count": 16, "label": 1, "mean_dnbr": 0.3132415614532203}}, {"type": "Feature", "geometry": {"geodesic": false, "type": "Polygon", "coordinates": [[[28.75427864788773, 36.70370029110719], [28.75481763705821, 36.70370029110719], [28.75481763705821, 36.70423928027766], [28.75535662622866, 36.70423928027766], [28.75535662622866, 36.704778269448134], [28.75481763705821, 36.704778269448134], [28.75481763705821, 36.70531725861861], [28.75697359374007, 36.70531725861861], [28.75697359374007, 36.70585624778908], [28.75751258291055, 36.70585624778908], [28.75751258291055, 36.706934226130016], [28.75805157208103, 36.706934226130016], [28.75805157208103, 36.70639523695955], [28.75859056125151, 36.70639523695955], [28.75859056125151, 36.706934226130016], [28.75912955042196, 36.706934226130016], [28.75912955042196, 36.70639523695955], [28.7607465179334, 36.70639523695955], [28.7607465179334, 36.70747321530049], [28.75805157208103, 36.70747321530049], [28.75805157208103, 36.70801220447096], [28.75751258291055, 36.70801220447096], [28.75751258291055, 36.70747321530049], [28.75643460456962, 36.70747321530049], [28.75643460456962, 36.706934226130016], [28.75481763705821, 36.706934226130016], [28.75481763705821, 36.70747321530049], [28.75535662622866, 36.70747321530049], [28.75535662622866, 36.70855119364143], [28.75481763705821, 36.70855119364143], [28.75481763705821, 36.709090182811906], [28.75427864788773, 36.709090182811906], [28.75427864788773, 36.70962917198238], [28.751044712864882, 36.70962917198238], [28.751044712864882, 36.71016816115285], [28.74996673452395, 36.71016816115285], [28.74996673452395, 36.71070715032332], [28.749427745353472, 36.71070715032332], [28.749427745353472, 36.711246139493795], [28.74888875618302, 36.711246139493795], [28.74888875618302, 36.71016816115285], [28.747810777842062, 36.71016816115285], [28.747810777842062, 36.71070715032332], [28.74834976701254, 36.71070715032332], [28.74834976701254, 36.711246139493795], [28.747271788671583, 36.711246139493795], [28.747271788671583, 36.71178512866427], [28.746193810330652, 36.71178512866427], [28.746193810330652, 36.71232411783474], [28.742959875307832, 36.71232411783474], [28.742959875307832, 36.71340209617568], [28.742420886137353, 36.71340209617568], [28.742420886137353, 36.71232411783474], [28.741881896966873, 36.71232411783474], [28.741881896966873, 36.71178512866427], [28.740803918625943, 36.71178512866427], [28.740803918625943, 36.711246139493795], [28.741342907796394, 36.711246139493795], [28.741342907796394, 36.71016816115285], [28.740803918625943, 36.71016816115285], [28.740803918625943, 36.70962917198238], [28.741342907796394, 36.70962917198238], [28.741342907796394, 36.709090182811906], [28.743498864478283, 36.709090182811906], [28.743498864478283, 36.70962917198238], [28.744037853648763, 36.70962917198238], [28.744037853648763, 36.709090182811906], [28.744576842819242, 36.709090182811906], [28.744576842819242, 36.71016816115285], [28.74673279950113, 36.71016816115285], [28.74673279950113, 36.70962917198238], [28.745115831989693, 36.70962917198238], [28.745115831989693, 36.709090182811906], [28.745654821160173, 36.709090182811906], [28.745654821160173, 36.70855119364143], [28.747271788671583, 36.70855119364143], [28.747271788671583, 36.709090182811906], [28.747810777842062, 36.709090182811906], [28.747810777842062, 36.70801220447096], [28.749427745353472, 36.70801220447096], [28.749427745353472, 36.706934226130016], [28.74888875618302, 36.706934226130016], [28.74888875618302, 36.70639523695955], [28.749427745353472, 36.70639523695955], [28.749427745353472, 36.70585624778908], [28.74996673452395, 36.70585624778908], [28.74996673452395, 36.70531725861861], [28.75158370203536, 36.70531725861861], [28.75158370203536, 36.704778269448134], [28.75266168037632, 36.704778269448134], [28.75266168037632, 36.70531725861861], [28.75320066954677, 36.70531725861861], [28.75320066954677, 36.704778269448134], [28.75373965871725, 36.704778269448134], [28.75373965871725, 36.70423928027766], [28.75427864788773, 36.70423928027766], [28.75427864788773, 36.70370029110719]], [[28.744037853648763, 36.71016816115285], [28.744037853648763, 36.71070715032332], [28.743498864478283, 36.71070715032332], [28.743498864478283, 36.71016816115285], [28.744037853648763, 36.71016816115285]], [[28.75050572369443, 36.70801220447096], [28.75050572369443, 36.709090182811906], [28.74996673452395, 36.709090182811906], [28.74996673452395, 36.70855119364143], [28.749427745353472, 36.70855119364143], [28.749427745353472, 36.70801220447096], [28.75050572369443, 36.70801220447096]], [[28.75212269120584, 36.70801220447096], [28.75212269120584, 36.70855119364143], [28.751044712864882, 36.70855119364143], [28.751044712864882, 36.70801220447096], [28.75212269120584, 36.70801220447096]], [[28.74996673452395, 36.70639523695955], [28.74996673452395, 36.706934226130016], [28.749427745353472, 36.706934226130016], [28.749427745353472, 36.70639523695955], [28.74996673452395, 36.70639523695955]], [[28.75212269120584, 36.70639523695955], [28.75212269120584, 36.70747321530049], [28.75158370203536, 36.70747321530049], [28.75158370203536, 36.70639523695955], [28.75212269120584, 36.70639523695955]], [[28.75373965871725, 36.70585624778908], [28.75373965871725, 36.70639523695955], [28.75320066954677, 36.70639523695955], [28.75320066954677, 36.70585624778908], [28.75373965871725, 36.70585624778908]]]}, "id": "+387307+87749", "properties": {"area_ha": 55.86472410995689, "count": 194, "label": 1, "mean_dnbr": 0.2871826675709561}}, {"type": "Feature", "geometry": {"geodesic": false, "type": "Polygon", "coordinates": [[[28.75427864788773, 36.71825299870993], [28.75643460456962, 36.71825299870993], [28.75643460456962, 36.719330977050866], [28.75589561539914, 36.719330977050866], [28.75589561539914, 36.72094794456228], [28.75535662622866, 36.72094794456228], [28.75535662622866, 36.721486933732756], [28.75481763705821, 36.721486933732756], [28.75481763705821, 36.72094794456228], [28.75427864788773, 36.72094794456228], [28.75427864788773, 36.72040895539181], [28.75481763705821, 36.72040895539181], [28.75481763705821, 36.719330977050866], [28.75373965871725, 36.719330977050866], [28.75373965871725, 36.718791987880394], [28.75427864788773, 36.718791987880394], [28.75427864788773, 36.71825299870993]]]}, "id": "+387310+87722", "properties": {"area_ha": 4.894652278560217, "count": 17, "label": 1, "mean_dnbr": 0.41751273701025715}}, {"type": "Feature", "geometry": {"geodesic": false, "type": "Polygon", "coordinates": [[[28.75751258291055, 36.70100534525483], [28.75805157208103, 36.70100534525483], [28.75805157208103, 36.7015443344253], [28.75912955042196, 36.7015443344253], [28.75912955042196, 36.70208332359577], [28.7607465179334, 36.70208332359577], [28.7607465179334, 36.70316130193672], [28.75912955042196, 36.70316130193672], [28.75912955042196, 36.70370029110719], [28.75859056125151, 36.70370029110719], [28.75859056125151, 36.70423928027766], [28.75966853959244, 36.70423928027766], [28.75966853959244, 36.70370029110719], [28.76020752876292, 36.70370029110719], [28.76020752876292, 36.704778269448134], [28.75966853959244, 36.704778269448134], [28.75966853959244, 36.70531725861861], [28.75912955042196, 36.70531725861861], [28.75912955042196, 36.704778269448134], [28.75859056125151, 36.704778269448134], [28.75859056125151, 36.70423928027766], [28.75805157208103, 36.70423928027766], [28.75805157208103, 36.70370029110719], [28.75751258291055, 36.70370029110719], [28.75751258291055, 36.70316130193672], [28.75805157208103, 36.70316130193672], [28.75805157208103, 36.702622312766245], [28.75859056125151, 36.702622312766245], [28.75859056125151, 36.70208332359577], [28.75805157208103, 36.70208332359577], [28.75805157208103, 36.7015443344253], [28.75751258291055, 36.7015443344253], [28.75751258291055, 36.70100534525483]]]}, "id": "+387313+87754", "properties": {"area_ha": 6.047632878310954, "count": 21, "label": 1, "mean_dnbr": 0.19367730951296572}}, {"type": "Feature", "geometry": {"geodesic": false, "type": "Polygon", "coordinates": [[[28.76236348544481, 36.700466356084355], [28.76290247461526, 36.700466356084355], [28.76290247461526, 36.70100534525483], [28.76344146378574, 36.70100534525483], [28.76344146378574, 36.7015443344253], [28.76398045295622, 36.7015443344253], [28.76398045295622, 36.70208332359577], [28.76290247461526, 36.70208332359577], [28.76290247461526, 36.702622312766245], [28.76344146378574, 36.702622312766245], [28.76344146378574, 36.70370029110719], [28.76236348544481, 36.70370029110719], [28.76236348544481, 36.702622312766245], [28.76182449627433, 36.702622312766245], [28.76182449627433, 36.70208332359577], [28.76236348544481, 36.70208332359577], [28.76236348544481, 36.7015443344253], [28.76182449627433, 36.7015443344253], [28.76182449627433, 36.70100534525483], [28.76236348544481, 36.70100534525483], [28.76236348544481, 36.700466356084355]]]}, "id": "+387322+87755", "properties": {"area_ha": 3.7438244580617885, "count": 13, "label": 1, "mean_dnbr": 0.1809505256205375}}, {"type": "Feature", "geometry": {"geodesic": false, "type": "Polygon", "coordinates": [[[28.764519442126698, 36.74951437059728], [28.76559742046763, 36.74951437059728], [28.76559742046763, 36.75059234893823], [28.764519442126698, 36.75059234893823], [28.764519442126698, 36.7511313381087], [28.76398045295622, 36.7511313381087], [28.76398045295622, 36.75167032727917], [28.76344146378574, 36.75167032727917], [28.76344146378574, 36.752748305620116], [28.76290247461526, 36.752748305620116], [28.76290247461526, 36.75328729479059], [28.76236348544481, 36.75328729479059], [28.76236348544481, 36.752209316449644], [28.76290247461526, 36.752209316449644], [28.76290247461526, 36.75167032727917], [28.76344146378574, 36.75167032727917], [28.76344146378574, 36.75059234893823], [28.76398045295622, 36.75059234893823], [28.76398045295622, 36.750053359767755], [28.764519442126698, 36.750053359767755], [28.764519442126698, 36.74951437059728]]]}, "id": "+387327+87664", "properties": {"area_ha": 3.453631162300813, "count": 12, "label": 1, "mean_dnbr": 0.22236443107384574}}, {"type": "Feature", "geometry": {"geodesic": false, "type": "Polygon", "coordinates": [[[28.76236348544481, 36.71394108534615], [28.766136409638108, 36.71394108534615], [28.766136409638108, 36.71448007451662], [28.764519442126698, 36.71448007451662], [28.764519442126698, 36.715019063687095], [28.76398045295622, 36.715019063687095], [28.76398045295622, 36.71448007451662], [28.76344146378574, 36.71448007451662], [28.76344146378574, 36.71555805285757], [28.764519442126698, 36.71555805285757], [28.764519442126698, 36.71609704202804], [28.76236348544481, 36.71609704202804], [28.76236348544481, 36.717175020368984], [28.76182449627433, 36.717175020368984], [28.76182449627433, 36.71663603119851], [28.76128550710385, 36.71663603119851], [28.76128550710385, 36.71609704202804], [28.76236348544481, 36.71609704202804], [28.76236348544481, 36.71394108534615]]]}, "id": "+387328+87730", "properties": {"area_ha": 5.470786368707096, "count": 19, "label": 1, "mean_dnbr": 0.4270339218314181}}, {"type": "Feature", "geometry": {"geodesic": false, "type": "Polygon", "coordinates": [[[28.766136409638108, 36.75167032727917], [28.766675398808587, 36.75167032727917], [28.766675398808587, 36.752209316449644], [28.76721438797904, 36.752209316449644], [28.76721438797904, 36.75328729479059], [28.766675398808587, 36.75328729479059], [28.766675398808587, 36.754904262302], [28.769909333831407, 36.754904262302], [28.769909333831407, 36.75436527313153], [28.770448323001887, 36.75436527313153], [28.770448323001887, 36.754904262302], [28.769909333831407, 36.754904262302], [28.769909333831407, 36.75598224064294], [28.769370344660928, 36.75598224064294], [28.769370344660928, 36.756521229813416], [28.76721438797904, 36.756521229813416], [28.76721438797904, 36.75598224064294], [28.76505843129715, 36.75598224064294], [28.76505843129715, 36.75544325147247], [28.764519442126698, 36.75544325147247], [28.764519442126698, 36.754904262302], [28.76398045295622, 36.754904262302], [28.76398045295622, 36.75382628396106], [28.76505843129715, 36.75382628396106], [28.76505843129715, 36.75436527313153], [28.766136409638108, 36.75436527313153], [28.766136409638108, 36.75167032727917]]]}, "id": "+387329+87660", "properties": {"area_ha": 10.93595589303283, "count": 38, "label": 1, "mean_dnbr": 0.2699905353880764}}, {"type": "Feature", "geometry": {"geodesic": false, "type": "Polygon", "coordinates": [[[28.76721438797904, 36.855695237180214], [28.769370344660928, 36.855695237180214], [28.769370344660928, 36.856234226350686], [28.769909333831407, 36.856234226350686], [28.769909333831407, 36.85677321552116], [28.769370344660928, 36.85677321552116], [28.769370344660928, 36.857312204691624], [28.76721438797904, 36.857312204691624], [28.76721438797904, 36.855695237180214]]]}, "id": "+387334+87467", "properties": {"area_ha": 3.7362890476338317, "count": 13, "label": 1, "mean_dnbr": 0.3410044236930174}}, {"type": "Feature", "geometry": {"geodesic": false, "type": "Polygon", "coordinates": [[[28.764519442126698, 36.69938837774342], [28.769370344660928, 36.69938837774342], [28.769370344660928, 36.7015443344253], [28.766675398808587, 36.7015443344253], [28.766675398808587, 36.70316130193672], [28.766136409638108, 36.70316130193672], [28.766136409638108, 36.70208332359577], [28.76559742046763, 36.70208332359577], [28.76559742046763, 36.702622312766245], [28.76505843129715, 36.702622312766245], [28.76505843129715, 36.70208332359577], [28.764519442126698, 36.70208332359577], [28.764519442126698, 36.69938837774342]], [[28.767753377149518, 36.69992736691389], [28.767753377149518, 36.700466356084355], [28.768292366319997, 36.700466356084355], [28.768292366319997, 36.70100534525483], [28.766675398808587, 36.70100534525483], [28.766675398808587, 36.700466356084355], [28.76721438797904, 36.700466356084355], [28.76721438797904, 36.69992736691389], [28.767753377149518, 36.69992736691389]]]}, "id": "+387334+87757", "properties": {"area_ha": 11.231599881557026, "count": 39, "label": 1, "mean_dnbr": 0.22428567191225698}}, {"type": "Feature", "geometry": {"geodesic": false, "type": "Polygon", "coordinates": [[[28.773143268854227, 36.70370029110719], [28.775299225536116, 36.70370029110719], [28.775299225536116, 36.70423928027766], [28.775838214706596, 36.70423928027766], [28.775838214706596, 36.70531725861861], [28.774221247195186, 36.70531725861861], [28.774221247195186, 36.70585624778908], [28.764519442126698, 36.70585624778908], [28.764519442126698, 36.704778269448134], [28.766136409638108, 36.704778269448134], [28.766136409638108, 36.70423928027766], [28.766675398808587, 36.70423928027766], [28.766675398808587, 36.70370029110719], [28.772604279683776, 36.70370029110719], [28.772604279683776, 36.70423928027766], [28.773143268854227, 36.70423928027766], [28.773143268854227, 36.70370029110719]]]}, "id": "+387345+87749", "properties": {"area_ha": 20.734766676523055, "count": 72, "label": 1, "mean_dnbr": 0.27820816683970934}}, {"type": "Feature", "geometry": {"geodesic": false, "type": "Polygon", "coordinates": [[[28.775838214706596, 36.76083314317719], [28.777994171388485, 36.76083314317719], [28.777994171388485, 36.76298909985908], [28.778533160558965, 36.76298909985908], [28.778533160558965, 36.76406707820002], [28.777455182218006, 36.76406707820002], [28.777455182218006, 36.764606067370494], [28.776916193047526, 36.764606067370494], [28.776916193047526, 36.76406707820002], [28.776377203877075, 36.76406707820002], [28.776377203877075, 36.764606067370494], [28.775838214706596, 36.764606067370494], [28.775838214706596, 36.76406707820002], [28.774760236365637, 36.76406707820002], [28.774760236365637, 36.76298909985908], [28.775838214706596, 36.76298909985908], [28.775838214706596, 36.762450110688604], [28.776377203877075, 36.762450110688604], [28.776377203877075, 36.76191112151813], [28.775838214706596, 36.76191112151813], [28.775838214706596, 36.76083314317719]]]}, "id": "+387350+87643", "properties": {"area_ha": 8.920518776676266, "count": 31, "label": 1, "mean_dnbr": 0.2453978159791094}}, {"type": "Feature", "geometry": {"geodesic": false, "type": "Polygon", "coordinates": [[[28.777455182218006, 36.81365408188342], [28.778533160558965, 36.81365408188342], [28.778533160558965, 36.81419307105389], [28.779072149729416, 36.81419307105389], [28.779072149729416, 36.814732060224365], [28.780150128070375, 36.814732060224365], [28.780150128070375, 36.8158100385653], [28.781228106411305, 36.8158100385653], [28.781228106411305, 36.816349027735775], [28.780689117240826, 36.816349027735775], [28.780689117240826, 36.81796599524719], [28.780150128070375, 36.81796599524719], [28.780150128070375, 36.81742700607672], [28.779611138899895, 36.81742700607672], [28.779611138899895, 36.816349027735775], [28.780150128070375, 36.816349027735775], [28.780150128070375, 36.8158100385653], [28.779611138899895, 36.8158100385653], [28.779611138899895, 36.81527104939483], [28.778533160558965, 36.81527104939483], [28.778533160558965, 36.814732060224365], [28.777455182218006, 36.814732060224365], [28.777455182218006, 36.81527104939483], [28.776916193047526, 36.81527104939483], [28.776916193047526, 36.81419307105389], [28.777455182218006, 36.81419307105389], [28.777455182218006, 36.81365408188342]]]}, "id": "+387351+87545", "properties": {"area_ha": 5.176097994290574, "count": 18, "label": 1, "mean_dnbr": 0.4987728148886311}}, {"type": "Feature", "geometry": {"geodesic": false, "type": "Polygon", "coordinates": [[[28.781228106411305, 36.697771410232], [28.781767095581785, 36.697771410232], [28.781767095581785, 36.698849388572945], [28.779072149729416, 36.698849388572945], [28.779072149729416, 36.69938837774342], [28.777994171388485, 36.69938837774342], [28.777994171388485, 36.698849388572945], [28.778533160558965, 36.698849388572945], [28.778533160558965, 36.69831039940247], [28.777994171388485, 36.69831039940247], [28.777994171388485, 36.697771410232], [28.780150128070375, 36.697771410232], [28.780150128070375, 36.69831039940247], [28.781228106411305, 36.69831039940247], [28.781228106411305, 36.697771410232]]]}, "id": "+387357+87760", "properties": {"area_ha": 3.7440073572652306, "count": 13, "label": 1, "mean_dnbr": 0.3470036012030402}}, {"type": "Feature", "geometry": {"geodesic": false, "type": "Polygon", "coordinates": [[[28.782306084752264, 36.79317249340549], [28.783923052263674, 36.79317249340549], [28.783923052263674, 36.793711482575965], [28.784462041434153, 36.793711482575965], [28.784462041434153, 36.79425047174644], [28.785001030604604, 36.79425047174644], [28.785001030604604, 36.79532845008738], [28.783923052263674, 36.79532845008738], [28.783923052263674, 36.795867439257854], [28.783384063093195, 36.795867439257854], [28.783384063093195, 36.79532845008738], [28.782845073922715, 36.79532845008738], [28.782845073922715, 36.79425047174644], [28.782306084752264, 36.79425047174644], [28.782306084752264, 36.79317249340549]]]}, "id": "+387361+87583", "properties": {"area_ha": 4.602242309001832, "count": 16, "label": 1, "mean_dnbr": 0.2199519170959913}}, {"type": "Feature", "geometry": {"geodesic": false, "type": "Polygon", "coordinates": [[[28.783923052263674, 36.766762024052376], [28.784462041434153, 36.766762024052376], [28.784462041434153, 36.76730101322285], [28.785001030604604, 36.76730101322285], [28.785001030604604, 36.77053494824568], [28.783923052263674, 36.77053494824568], [28.783923052263674, 36.771073937416155], [28.785001030604604, 36.771073937416155], [28.785001030604604, 36.77161292658663], [28.783384063093195, 36.77161292658663], [28.783384063093195, 36.76730101322285], [28.783923052263674, 36.76730101322285], [28.783923052263674, 36.766762024052376]], [[28.784462041434153, 36.76837899156379], [28.784462041434153, 36.768917980734265], [28.783923052263674, 36.768917980734265], [28.783923052263674, 36.76837899156379], [28.784462041434153, 36.76837899156379]]]}, "id": "+387362+87632", "properties": {"area_ha": 6.33016328212773, "count": 22, "label": 1, "mean_dnbr": 0.163419653053071}}, {"type": "Feature", "geometry": {"geodesic": false, "type": "Polygon", "coordinates": [[[28.785540019775084, 36.78886058004172], [28.788234965627453, 36.78886058004172], [28.788234965627453, 36.78939956921219], [28.788773954797904, 36.78939956921219], [28.788773954797904, 36.789938558382666], [28.789312943968383, 36.789938558382666], [28.789312943968383, 36.7910165367236], [28.789851933138863, 36.7910165367236], [28.789851933138863, 36.791555525894076], [28.789312943968383, 36.791555525894076], [28.789312943968383, 36.79317249340549], [28.786617998116014, 36.79317249340549], [28.786617998116014, 36.79209451506455], [28.786079008945563, 36.79209451506455], [28.786079008945563, 36.7910165367236], [28.785540019775084, 36.7910165367236], [28.785540019775084, 36.789938558382666], [28.785001030604604, 36.789938558382666], [28.785001030604604, 36.78939956921219], [28.785540019775084, 36.78939956921219], [28.785540019775084, 36.78886058004172]], [[28.787156987286494, 36.789938558382666], [28.787156987286494, 36.79047754755314], [28.786617998116014, 36.79047754755314], [28.786617998116014, 36.789938558382666], [28.787156987286494, 36.789938558382666]], [[28.788234965627453, 36.78939956921219], [28.788234965627453, 36.789938558382666], [28.787156987286494, 36.789938558382666], [28.787156987286494, 36.78939956921219], [28.788234965627453, 36.78939956921219]]]}, "id": "+387369+87591", "properties": {"area_ha": 13.232034063224608, "count": 46, "label": 1, "mean_dnbr": 0.2843648892403105}}, {"type": "Feature", "geometry": {"geodesic": false, "type": "Polygon", "coordinates": [[[28.788234965627453, 36.81796599524719], [28.789312943968383, 36.81796599524719], [28.789312943968383, 36.818504984417665], [28.788773954797904, 36.818504984417665], [28.788773954797904, 36.81904397358814], [28.787695976456973, 36.81904397358814], [28.787695976456973, 36.81958296275861], [28.787156987286494, 36.81958296275861], [28.787156987286494, 36.820660941099554], [28.786079008945563, 36.820660941099554], [28.786079008945563, 36.82173891944049], [28.785001030604604, 36.82173891944049], [28.785001030604604, 36.82119993027002], [28.785540019775084, 36.82119993027002], [28.785540019775084, 36.820660941099554], [28.786079008945563, 36.820660941099554], [28.786079008945563, 36.82012195192908], [28.786617998116014, 36.82012195192908], [28.786617998116014, 36.81958296275861], [28.787156987286494, 36.81958296275861], [28.787156987286494, 36.818504984417665], [28.788234965627453, 36.818504984417665], [28.788234965627453, 36.81796599524719]]]}, "id": "+387371+87537", "properties": {"area_ha": 3.450542058998493, "count": 12, "label": 1, "mean_dnbr": 0.19519536867963827}}, {"type": "Feature", "geometry": {"geodesic": false, "type": "Polygon", "coordinates": [[[28.788234965627453, 36.76568404571144], [28.792007889820752, 36.76568404571144], [28.792007889820752, 36.76622303488191], [28.792546878991203, 36.76622303488191], [28.792546878991203, 36.766762024052376], [28.793085868161683, 36.766762024052376], [28.793085868161683, 36.76837899156379], [28.792546878991203, 36.76837899156379], [28.792546878991203, 36.768917980734265], [28.790390922309342, 36.768917980734265], [28.790390922309342, 36.76837899156379], [28.789851933138863, 36.76837899156379], [28.789851933138863, 36.768917980734265], [28.787156987286494, 36.768917980734265], [28.787156987286494, 36.76999595907521], [28.786079008945563, 36.76999595907521], [28.786079008945563, 36.768917980734265], [28.785540019775084, 36.768917980734265], [28.785540019775084, 36.76837899156379], [28.787695976456973, 36.76837899156379], [28.787695976456973, 36.76784000239332], [28.785540019775084, 36.76784000239332], [28.785540019775084, 36.76730101322285], [28.788234965627453, 36.76730101322285], [28.788234965627453, 36.766762024052376], [28.786079008945563, 36.766762024052376], [28.786079008945563, 36.76622303488191], [28.788234965627453, 36.76622303488191], [28.788234965627453, 36.76568404571144]], [[28.790929911479793, 36.76730101322285], [28.790929911479793, 36.76784000239332], [28.789851933138863, 36.76784000239332], [28.789851933138863, 36.76837899156379], [28.789312943968383, 36.76837899156379], [28.789312943968383, 36.76730101322285], [28.790929911479793, 36.76730101322285]], [[28.791468900650273, 36.76622303488191], [28.791468900650273, 36.766762024052376], [28.788234965627453, 36.766762024052376], [28.788234965627453, 36.76622303488191], [28.791468900650273, 36.76622303488191]]]}, "id": "+387376+87634", "properties": {"area_ha": 16.688936009368536, "count": 58, "label": 1, "mean_dnbr": 0.1809256556434946}}, {"type": "Feature", "geometry": {"geodesic": false, "type": "Polygon", "coordinates": [[[28.791468900650273, 36.74789740308587], [28.795241824843572, 36.74789740308587], [28.795241824843572, 36.748436392256345], [28.793624857332162, 36.748436392256345], [28.793624857332162, 36.74951437059728], [28.793085868161683, 36.74951437059728], [28.793085868161683, 36.74897538142681], [28.789851933138863, 36.74897538142681], [28.789851933138863, 36.748436392256345], [28.791468900650273, 36.748436392256345], [28.791468900650273, 36.74789740308587]]]}, "id": "+387382+87667", "properties": {"area_ha": 4.317173921900665, "count": 15, "label": 1, "mean_dnbr": 0.1568840216111833}}, {"type": "Feature", "geometry": {"geodesic": false, "type": "Polygon", "coordinates": [[[28.795241824843572, 36.771073937416155], [28.796858792354982, 36.771073937416155], [28.796858792354982, 36.7721519157571], [28.79793677069594, 36.7721519157571], [28.79793677069594, 36.77322989409804], [28.79578081401405, 36.77322989409804], [28.79578081401405, 36.7721519157571], [28.795241824843572, 36.7721519157571], [28.795241824843572, 36.771073937416155]]]}, "id": "+387385+87624", "properties": {"area_ha": 4.028131385335794, "count": 14, "label": 1, "mean_dnbr": 0.20488875677726795}}, {"type": "Feature", "geometry": {"geodesic": false, "type": "Polygon", "coordinates": [[[28.80332666240065, 36.719330977050866], [28.80386565157113, 36.719330977050866], [28.80386565157113, 36.71986996622134], [28.80440464074158, 36.71986996622134], [28.80440464074158, 36.72094794456228], [28.80386565157113, 36.72094794456228], [28.80386565157113, 36.72202592290323], [28.80440464074158, 36.72202592290323], [28.80440464074158, 36.7225649120737], [28.80386565157113, 36.7225649120737], [28.80386565157113, 36.72310390124417], [28.80332666240065, 36.72310390124417], [28.80332666240065, 36.7225649120737], [28.80386565157113, 36.7225649120737], [28.80386565157113, 36.72202592290323], [28.80278767323017, 36.72202592290323], [28.80278767323017, 36.72310390124417], [28.79955373820735, 36.72310390124417], [28.79955373820735, 36.7225649120737], [28.79901474903687, 36.7225649120737], [28.79901474903687, 36.72202592290323], [28.798475759866392, 36.72202592290323], [28.798475759866392, 36.72040895539181], [28.79955373820735, 36.72040895539181], [28.79955373820735, 36.71986996622134], [28.80170969488924, 36.71986996622134], [28.80170969488924, 36.72040895539181], [28.80224868405972, 36.72040895539181], [28.80224868405972, 36.721486933732756], [28.80278767323017, 36.721486933732756], [28.80278767323017, 36.71986996622134], [28.80332666240065, 36.71986996622134], [28.80332666240065, 36.719330977050866]]]}, "id": "+387398+87720", "properties": {"area_ha": 14.971543711022413, "count": 52, "label": 1, "mean_dnbr": 0.27243235394657295}}, {"type": "Feature", "geometry": {"geodesic": false, "type": "Polygon", "coordinates": [[[28.80709958659395, 36.774846861609454], [28.80817756493491, 36.774846861609454], [28.80817756493491, 36.7759248399504], [28.80763857576443, 36.7759248399504], [28.80763857576443, 36.77646382912087], [28.80709958659395, 36.77646382912087], [28.80709958659395, 36.77700281829134], [28.80494362991206, 36.77700281829134], [28.80494362991206, 36.77646382912087], [28.80440464074158, 36.77646382912087], [28.80440464074158, 36.7759248399504], [28.80494362991206, 36.7759248399504], [28.80494362991206, 36.77538585077993], [28.80602160825302, 36.77538585077993], [28.80602160825302, 36.7759248399504], [28.80656059742347, 36.7759248399504], [28.80656059742347, 36.77538585077993], [28.80709958659395, 36.77538585077993], [28.80709958659395, 36.774846861609454]]]}, "id": "+387406+87617", "properties": {"area_ha": 4.891060758011604, "count": 17, "label": 1, "mean_dnbr": 0.35341277174112884}}, {"type": "Feature", "geometry": {"geodesic": false, "type": "Polygon", "coordinates": [[[28.80817756493491, 36.80556924432634], [28.80925554327584, 36.80556924432634], [28.80925554327584, 36.806108233496815], [28.80979453244632, 36.806108233496815], [28.80979453244632, 36.809881157690114], [28.81033352161677, 36.809881157690114], [28.81033352161677, 36.81042014686059], [28.80871655410536, 36.81042014686059], [28.80871655410536, 36.80772520100823], [28.80817756493491, 36.80772520100823], [28.80817756493491, 36.80556924432634]]]}, "id": "+387408+87560", "properties": {"area_ha": 6.326967425969891, "count": 22, "label": 1, "mean_dnbr": 0.21270307432913654}}, {"type": "Feature", "geometry": {"geodesic": false, "type": "Polygon", "coordinates": [[[28.80871655410536, 36.812576103542476], [28.80979453244632, 36.812576103542476], [28.80979453244632, 36.81311509271295], [28.80925554327584, 36.81311509271295], [28.80925554327584, 36.81419307105389], [28.80871655410536, 36.81419307105389], [28.80871655410536, 36.814732060224365], [28.80763857576443, 36.814732060224365], [28.80763857576443, 36.81419307105389], [28.80709958659395, 36.81419307105389], [28.80709958659395, 36.81311509271295], [28.80871655410536, 36.81311509271295], [28.80871655410536, 36.812576103542476]]]}, "id": "+387409+87547", "properties": {"area_ha": 3.450812175299178, "count": 12, "label": 1, "mean_dnbr": 0.408732510791799}}, {"type": "Feature", "geometry": {"geodesic": false, "type": "Polygon", "coordinates": [[[29.339620887020004, 36.95001834201276], [29.340698865360963, 36.95001834201276], [29.340698865360963, 36.950557331183234], [29.341776843701894, 36.950557331183234], [29.341776843701894, 36.951096320353706], [29.340698865360963, 36.951096320353706], [29.340698865360963, 36.95163530952418], [29.341237854531414, 36.95163530952418], [29.341237854531414, 36.95217429869465], [29.340698865360963, 36.95217429869465], [29.340698865360963, 36.95271328786512], [29.339620887020004, 36.95271328786512], [29.339620887020004, 36.951096320353706], [29.340159876190484, 36.951096320353706], [29.340159876190484, 36.950557331183234], [29.339620887020004, 36.950557331183234], [29.339620887020004, 36.95001834201276]]]}, "id": "+388394+87292", "properties": {"area_ha": 3.4445969363893294, "count": 12, "label": 1, "mean_dnbr": 0.32405182429956564}}]}