{"type": "FeatureCollection", "columns": {"area_ha": "Number", "count": "Long<0, 4294967295>", "label": "Byte<0, 1>", "mean_dnbr": "Object", "system:index": "String"}, "features": [{"type": "Feature", "geometry": {"geodesic": false, "type": "Polygon", "coordinates": [[[28.62168731195169, 36.94408946113757], [28.62222630112217, 36.94408946113757], [28.62222630112217, 36.944628450308045], [28.62276529029262, 36.944628450308045], [28.62276529029262, 36.94570642864899], [28.6233042794631, 36.94570642864899], [28.6233042794631, 36.94624541781946], [28.62168731195169, 36.94624541781946], [28.62168731195169, 36.946784406989934], [28.62114832278121, 36.946784406989934], [28.62114832278121, 36.94624541781946], [28.62060933361073, 36.94624541781946], [28.62060933361073, 36.94516743947852], [28.62114832278121, 36.94516743947852], [28.62114832278121, 36.944628450308045], [28.62168731195169, 36.944628450308045], [28.62168731195169, 36.94408946113757]]]}, "id": "+387061+87303", "properties": {"area_ha": 4.0190077482857625, "count": 14, "label": 1, "mean_dnbr": 0.22525865571746867}}, {"type": "Feature", "geometry": {"geodesic": false, "type": "Polygon", "coordinates": [[[28.629772149508767, 36.92684180768248], [28.630311138679218, 36.92684180768248], [28.630311138679218, 36.92738079685295], [28.630850127849698, 36.92738079685295], [28.630850127849698, 36.928458775193896], [28.630311138679218, 36.928458775193896], [28.630311138679218, 36.92899776436437], [28.629772149508767, 36.92899776436437], [28.629772149508767, 36.92953675353484], [28.630311138679218, 36.92953675353484], [28.630311138679218, 36.930075742705306], [28.629772149508767, 36.930075742705306], [28.629772149508767, 36.92953675353484], [28.628155181997357, 36.92953675353484], [28.628155181997357, 36.92899776436437], [28.62869417116781, 36.92899776436437], [28.62869417116781, 36.92791978602342], [28.629233160338288, 36.92791978602342], [28.629233160338288, 36.92738079685295], [28.629772149508767, 36.92738079685295], [28.629772149508767, 36.92684180768248]]]}, "id": "+387076+87335", "properties": {"area_ha": 4.307044353139729, "count": 15, "label": 1, "mean_dnbr": 0.28259272703643556}}, {"type": "Feature", "geometry": {"geodesic": false, "type": "Polygon", "coordinates": [[[28.640012943747735, 36.96780498463833], [28.641090922088665, 36.96780498463833], [28.641090922088665, 36.9683439738088], [28.642168900429596, 36.9683439738088], [28.642168900429596, 36.96888296297927], [28.641629911259145, 36.96888296297927], [28.641629911259145, 36.969421952149744], [28.641090922088665, 36.969421952149744], [28.641090922088665, 36.97049993049069], [28.640012943747735, 36.97049993049069], [28.640012943747735, 36.969421952149744], [28.639473954577255, 36.969421952149744], [28.639473954577255, 36.9683439738088], [28.640012943747735, 36.9683439738088], [28.640012943747735, 36.96780498463833]]]}, "id": "+387096+87259", "properties": {"area_ha": 4.304745945602364, "count": 15, "label": 1, "mean_dnbr": 0.23342706114430517}}, {"type": "Feature", "geometry": {"geodesic": false, "type": "Polygon", "coordinates": [[[28.67396926148743, 36.863780074737285], [28.675047239828388, 36.863780074737285], [28.675047239828388, 36.86431906390776], [28.675586228998867, 36.86431906390776], [28.675586228998867, 36.8653970422487], [28.674508250657908, 36.8653970422487], [28.674508250657908, 36.865936031419174], [28.673430272316978, 36.865936031419174], [28.673430272316978, 36.86647502058965], [28.67235229397602, 36.86647502058965], [28.67235229397602, 36.86701400976012], [28.67181330480554, 36.86701400976012], [28.67181330480554, 36.868091988101064], [28.67235229397602, 36.868091988101064], [28.67235229397602, 36.868630977271536], [28.672891283146498, 36.868630977271536], [28.672891283146498, 36.86916996644201], [28.67235229397602, 36.86916996644201], [28.67235229397602, 36.869708955612474], [28.671274315635088, 36.869708955612474], [28.671274315635088, 36.870247944782946], [28.66965734812368, 36.870247944782946], [28.66965734812368, 36.86916996644201], [28.6691183589532, 36.86916996644201], [28.6691183589532, 36.868630977271536], [28.66857936978272, 36.868630977271536], [28.66857936978272, 36.86916996644201], [28.66696240227131, 36.86916996644201], [28.66696240227131, 36.868630977271536], [28.66642341310083, 36.868630977271536], [28.66642341310083, 36.868091988101064], [28.6653454347599, 36.868091988101064], [28.6653454347599, 36.86701400976012], [28.66642341310083, 36.86701400976012], [28.66642341310083, 36.86647502058965], [28.66696240227131, 36.86647502058965], [28.66696240227131, 36.865936031419174], [28.66804038061224, 36.865936031419174], [28.66804038061224, 36.86647502058965], [28.66857936978272, 36.86647502058965], [28.66857936978272, 36.86701400976012], [28.6691183589532, 36.86701400976012], [28.6691183589532, 36.86647502058965], [28.66965734812368, 36.86647502058965], [28.66965734812368, 36.865936031419174], [28.671274315635088, 36.865936031419174], [28.671274315635088, 36.8653970422487], [28.67181330480554, 36.8653970422487], [28.67181330480554, 36.86485805307823], [28.672891283146498, 36.86485805307823], [28.672891283146498, 36.86431906390776], [28.67396926148743, 36.86431906390776], [28.67396926148743, 36.863780074737285]]]}, "id": "+387159+87452", "properties": {"area_ha": 26.43772737449425, "count": 92, "label": 1, "mean_dnbr": 0.38662271300240153}}, {"type": "Feature", "geometry": {"geodesic": false, "type": "Polygon", "coordinates": [[[28.685827023237806, 36.86431906390776], [28.689060958260654, 36.86431906390776], [28.689060958260654, 36.86485805307823], [28.691755904112995, 36.86485805307823], [28.691755904112995, 36.8653970422487], [28.690677925772064, 36.8653970422487], [28.690677925772064, 36.865936031419174], [28.689060958260654, 36.865936031419174], [28.689060958260654, 36.8653970422487], [28.687982979919695, 36.8653970422487], [28.687982979919695, 36.86485805307823], [28.687443990749244, 36.86485805307823], [28.687443990749244, 36.8653970422487], [28.686905001578765, 36.8653970422487], [28.686905001578765, 36.86485805307823], [28.685827023237806, 36.86485805307823], [28.685827023237806, 36.86431906390776]]]}, "id": "+387185+87451", "properties": {"area_ha": 4.8853400506149, "count": 17, "label": 1, "mean_dnbr": 0.2533442857936039}}, {"type": "Feature", "geometry": {"geodesic": false, "type": "Polygon", "coordinates": [[[28.692294893283474, 36.88749559823804], [28.693372871624433, 36.88749559823804], [28.693372871624433, 36.88965155491993], [28.692833882453954, 36.88965155491993], [28.692833882453954, 36.891268522431346], [28.692294893283474, 36.891268522431346], [28.692294893283474, 36.89180751160182], [28.691216914942544, 36.89180751160182], [28.691216914942544, 36.891268522431346], [28.690677925772064, 36.891268522431346], [28.690677925772064, 36.8901905440904], [28.691216914942544, 36.8901905440904], [28.691216914942544, 36.88911256574946], [28.692294893283474, 36.88911256574946], [28.692294893283474, 36.88749559823804]]]}, "id": "+387193+87408", "properties": {"area_ha": 6.6074737126461445, "count": 23, "label": 1, "mean_dnbr": 0.23836006933030973}}, {"type": "Feature", "geometry": {"geodesic": false, "type": "Polygon", "coordinates": [[[28.699840741670073, 36.90258729501125], [28.700918720011032, 36.90258729501125], [28.700918720011032, 36.903665273352196], [28.70145770918151, 36.903665273352196], [28.70145770918151, 36.90474325169314], [28.700379730840552, 36.90474325169314], [28.700379730840552, 36.90420426252267], [28.699840741670073, 36.90420426252267], [28.699840741670073, 36.903665273352196], [28.698762763329142, 36.903665273352196], [28.698762763329142, 36.903126284181724], [28.699840741670073, 36.903126284181724], [28.699840741670073, 36.90258729501125]]]}, "id": "+387207+87380", "properties": {"area_ha": 3.1595245265207152, "count": 11, "label": 1, "mean_dnbr": 0.1820464283690039}}, {"type": "Feature", "geometry": {"geodesic": false, "type": "Polygon", "coordinates": [[[28.724095254341307, 36.766762024052376], [28.725173232682266, 36.766762024052376], [28.725173232682266, 36.76730101322285], [28.726251211023197, 36.76730101322285], [28.726251211023197, 36.76784000239332], [28.725173232682266, 36.76784000239332], [28.725173232682266, 36.76837899156379], [28.724095254341307, 36.76837899156379], [28.724095254341307, 36.768917980734265], [28.723017276000377, 36.768917980734265], [28.723017276000377, 36.76730101322285], [28.724095254341307, 36.76730101322285], [28.724095254341307, 36.766762024052376]]]}, "id": "+387252+87632", "properties": {"area_ha": 4.028360749539666, "count": 14, "label": 1, "mean_dnbr": 0.303778985932972}}, {"type": "Feature", "geometry": {"geodesic": false, "type": "Polygon", "coordinates": [[[28.728946156875566, 36.76784000239332], [28.730563124386975, 36.76784000239332], [28.730563124386975, 36.76837899156379], [28.730024135216496, 36.76837899156379], [28.730024135216496, 36.76945696990474], [28.730563124386975, 36.76945696990474], [28.730563124386975, 36.76999595907521], [28.728407167705086, 36.76999595907521], [28.728407167705086, 36.76945696990474], [28.728946156875566, 36.76945696990474], [28.728946156875566, 36.76784000239332]]]}, "id": "+387262+87630", "properties": {"area_ha": 3.1650953620099895, "count": 11, "label": 1, "mean_dnbr": 0.19931060455611946}}, {"type": "Feature", "geometry": {"geodesic": false, "type": "Polygon", "coordinates": [[[28.745115831989693, 36.785087655848415], [28.74834976701254, 36.785087655848415], [28.74834976701254, 36.78616563418936], [28.745654821160173, 36.78616563418936], [28.745654821160173, 36.78562664501889], [28.745115831989693, 36.78562664501889], [28.745115831989693, 36.785087655848415]]]}, "id": "+387295+87598", "properties": {"area_ha": 3.1643959276120195, "count": 11, "label": 1, "mean_dnbr": 0.3364970963661938}}, {"type": "Feature", "geometry": {"geodesic": false, "type": "Polygon", "coordinates": [[[28.769909333831407, 36.725259857926055], [28.771526301342817, 36.725259857926055], [28.771526301342817, 36.726337836267], [28.770987312172338, 36.726337836267], [28.770987312172338, 36.727415814607944], [28.770448323001887, 36.727415814607944], [28.770448323001887, 36.72687682543747], [28.769909333831407, 36.72687682543747], [28.769909333831407, 36.727415814607944], [28.76883135549045, 36.727415814607944], [28.76883135549045, 36.726337836267], [28.770448323001887, 36.726337836267], [28.770448323001887, 36.72579884709653], [28.769909333831407, 36.72579884709653], [28.769909333831407, 36.725259857926055]]]}, "id": "+387338+87709", "properties": {"area_ha": 3.4547403053825807, "count": 12, "label": 1, "mean_dnbr": 0.17754591872044365}}, {"type": "Feature", "geometry": {"geodesic": false, "type": "Polygon", "coordinates": [[[28.774221247195186, 36.725259857926055], [28.775299225536116, 36.725259857926055], [28.775299225536116, 36.72579884709653], [28.775838214706596, 36.72579884709653], [28.775838214706596, 36.730110760460306], [28.775299225536116, 36.730110760460306], [28.775299225536116, 36.73226671714219], [28.773682258024706, 36.73226671714219], [28.773682258024706, 36.731727727971716], [28.774221247195186, 36.731727727971716], [28.774221247195186, 36.73064974963077], [28.774760236365637, 36.73064974963077], [28.774760236365637, 36.72903278211936], [28.774221247195186, 36.72903278211936], [28.774221247195186, 36.72849379294889], [28.773682258024706, 36.72849379294889], [28.773682258024706, 36.72795480377842], [28.772604279683776, 36.72795480377842], [28.772604279683776, 36.72687682543747], [28.773143268854227, 36.72687682543747], [28.773143268854227, 36.727415814607944], [28.774221247195186, 36.727415814607944], [28.774221247195186, 36.726337836267], [28.772065290513297, 36.726337836267], [28.772065290513297, 36.725259857926055], [28.773682258024706, 36.725259857926055], [28.773682258024706, 36.72579884709653], [28.774221247195186, 36.72579884709653], [28.774221247195186, 36.725259857926055]]]}, "id": "+387345+87709", "properties": {"area_ha": 12.667132120415495, "count": 44, "label": 1, "mean_dnbr": 0.2212556072679488}}, {"type": "Feature", "geometry": {"geodesic": false, "type": "Polygon", "coordinates": [[[28.781767095581785, 36.73819559801738], [28.782306084752264, 36.73819559801738], [28.782306084752264, 36.73873458718785], [28.781767095581785, 36.73873458718785], [28.781767095581785, 36.739812565528794], [28.781228106411305, 36.739812565528794], [28.781228106411305, 36.74035155469927], [28.780150128070375, 36.74035155469927], [28.780150128070375, 36.73819559801738], [28.781228106411305, 36.73819559801738], [28.781228106411305, 36.73873458718785], [28.781767095581785, 36.73873458718785], [28.781767095581785, 36.73819559801738]]]}, "id": "+387358+87685", "properties": {"area_ha": 3.1663208038418538, "count": 11, "label": 1, "mean_dnbr": 0.16260665042128172}}, {"type": "Feature", "geometry": {"geodesic": false, "type": "Polygon", "coordinates": [[[28.782845073922715, 36.81688801690625], [28.785001030604604, 36.81688801690625], [28.785001030604604, 36.81742700607672], [28.785540019775084, 36.81742700607672], [28.785540019775084, 36.81796599524719], [28.785001030604604, 36.81796599524719], [28.785001030604604, 36.81904397358814], [28.784462041434153, 36.81904397358814], [28.784462041434153, 36.81796599524719], [28.783384063093195, 36.81796599524719], [28.783384063093195, 36.818504984417665], [28.782306084752264, 36.818504984417665], [28.782306084752264, 36.81796599524719], [28.782845073922715, 36.81796599524719], [28.782845073922715, 36.81688801690625]]]}, "id": "+387363+87539", "properties": {"area_ha": 3.7381780303912193, "count": 13, "label": 1, "mean_dnbr": 0.21528481145781436}}, {"type": "Feature", "geometry": {"geodesic": false, "type": "Polygon", "coordinates": [[[28.783923052263674, 36.8007183417921], [28.786079008945563, 36.8007183417921], [28.786079008945563, 36.80125733096257], [28.785540019775084, 36.80125733096257], [28.785540019775084, 36.80179632013304], [28.786079008945563, 36.80179632013304], [28.786079008945563, 36.802335309303515], [28.785540019775084, 36.802335309303515], [28.785540019775084, 36.80341328764445], [28.785001030604604, 36.80341328764445], [28.785001030604604, 36.80179632013304], [28.783923052263674, 36.80179632013304], [28.783923052263674, 36.8007183417921]]]}, "id": "+387365+87569", "properties": {"area_ha": 3.163736014439722, "count": 11, "label": 1, "mean_dnbr": 0.1784459212512501}}, {"type": "Feature", "geometry": {"geodesic": false, "type": "Polygon", "coordinates": [[[28.787695976456973, 36.78886058004172], [28.788773954797904, 36.78886058004172], [28.788773954797904, 36.789938558382666], [28.789312943968383, 36.789938558382666], [28.789312943968383, 36.7910165367236], [28.789851933138863, 36.7910165367236], [28.789851933138863, 36.791555525894076], [28.789312943968383, 36.791555525894076], [28.789312943968383, 36.79317249340549], [28.786079008945563, 36.79317249340549], [28.786079008945563, 36.7910165367236], [28.785540019775084, 36.7910165367236], [28.785540019775084, 36.789938558382666], [28.785001030604604, 36.789938558382666], [28.785001030604604, 36.78886058004172], [28.787156987286494, 36.78886058004172], [28.787156987286494, 36.78939956921219], [28.787695976456973, 36.78939956921219], [28.787695976456973, 36.78886058004172]]]}, "id": "+387370+87591", "properties": {"area_ha": 14.95797521816078, "count": 52, "label": 1, "mean_dnbr": 0.40023678214272157}}, {"type": "Feature", "geometry": {"geodesic": false, "type": "Polygon", "coordinates": [[[28.788234965627453, 36.779158774973226], [28.788773954797904, 36.779158774973226], [28.788773954797904, 36.7796977641437], [28.789851933138863, 36.7796977641437], [28.789851933138863, 36.78077574248464], [28.790390922309342, 36.78077574248464], [28.790390922309342, 36.781314731655115], [28.790929911479793, 36.781314731655115], [28.790929911479793, 36.78185372082559], [28.791468900650273, 36.78185372082559], [28.791468900650273, 36.783470688337005], [28.792007889820752, 36.783470688337005], [28.792007889820752, 36.78454866667795], [28.791468900650273, 36.78454866667795], [28.791468900650273, 36.785087655848415], [28.790929911479793, 36.785087655848415], [28.790929911479793, 36.78562664501889], [28.789851933138863, 36.78562664501889], [28.789851933138863, 36.78616563418936], [28.789312943968383, 36.78616563418936], [28.789312943968383, 36.78670462335983], [28.785001030604604, 36.78670462335983], [28.785001030604604, 36.78562664501889], [28.785540019775084, 36.78562664501889], [28.785540019775084, 36.78454866667795], [28.785001030604604, 36.78454866667795], [28.785001030604604, 36.783470688337005], [28.784462041434153, 36.783470688337005], [28.784462041434153, 36.78293169916653], [28.783923052263674, 36.78293169916653], [28.783923052263674, 36.78454866667795], [28.784462041434153, 36.78454866667795], [28.784462041434153, 36.78562664501889], [28.783923052263674, 36.78562664501889], [28.783923052263674, 36.785087655848415], [28.783384063093195, 36.785087655848415], [28.783384063093195, 36.78454866667795], [28.782845073922715, 36.78454866667795], [28.782845073922715, 36.78400967750748], [28.782306084752264, 36.78400967750748], [28.782306084752264, 36.78185372082559], [28.782845073922715, 36.78185372082559], [28.782845073922715, 36.78077574248464], [28.783384063093195, 36.78077574248464], [28.783384063093195, 36.78023675331417], [28.783923052263674, 36.78023675331417], [28.783923052263674, 36.78077574248464], [28.784462041434153, 36.78077574248464], [28.784462041434153, 36.78023675331417], [28.785001030604604, 36.78023675331417], [28.785001030604604, 36.779158774973226], [28.787156987286494, 36.779158774973226], [28.787156987286494, 36.7796977641437], [28.787695976456973, 36.7796977641437], [28.787695976456973, 36.78023675331417], [28.787156987286494, 36.78023675331417], [28.787156987286494, 36.781314731655115], [28.787695976456973, 36.781314731655115], [28.787695976456973, 36.78077574248464], [28.788234965627453, 36.78077574248464], [28.788234965627453, 36.781314731655115], [28.789312943968383, 36.781314731655115], [28.789312943968383, 36.78077574248464], [28.788773954797904, 36.78077574248464], [28.788773954797904, 36.7796977641437], [28.788234965627453, 36.7796977641437], [28.788234965627453, 36.779158774973226]], [[28.786079008945563, 36.783470688337005], [28.786079008945563, 36.78400967750748], [28.785540019775084, 36.78400967750748], [28.785540019775084, 36.783470688337005], [28.786079008945563, 36.783470688337005]], [[28.785001030604604, 36.78239270999606], [28.785001030604604, 36.78293169916653], [28.784462041434153, 36.78293169916653], [28.784462041434153, 36.78239270999606], [28.785001030604604, 36.78239270999606]], [[28.787156987286494, 36.78185372082559], [28.787156987286494, 36.78239270999606], [28.786617998116014, 36.78239270999606], [28.786617998116014, 36.78185372082559], [28.787156987286494, 36.78185372082559]], [[28.786079008945563, 36.78023675331417], [28.786079008945563, 36.78077574248464], [28.785540019775084, 36.78077574248464], [28.785540019775084, 36.78023675331417], [28.786079008945563, 36.78023675331417]]]}, "id": "+387370+87609", "properties": {"area_ha": 47.17999384040554, "count": 164, "label": 1, "mean_dnbr": 0.37192261001493887}}, {"type": "Feature", "geometry": {"geodesic": false, "type": "Polygon", "coordinates": [[[28.790929911479793, 36.777541807461816], [28.794702835673093, 36.777541807461816], [28.794702835673093, 36.77808079663229], [28.79416384650264, 36.77808079663229], [28.79416384650264, 36.77861978580276], [28.791468900650273, 36.77861978580276], [28.791468900650273, 36.779158774973226], [28.790929911479793, 36.779158774973226], [28.790929911479793, 36.777541807461816]]]}, "id": "+387381+87612", "properties": {"area_ha": 4.027795270824269, "count": 14, "label": 1, "mean_dnbr": 0.2030839922782424}}, {"type": "Feature", "geometry": {"geodesic": false, "type": "Polygon", "coordinates": [[[28.791468900650273, 36.75436527313153], [28.79578081401405, 36.75436527313153], [28.79578081401405, 36.75598224064294], [28.795241824843572, 36.75598224064294], [28.795241824843572, 36.75706021898389], [28.792546878991203, 36.75706021898389], [28.792546878991203, 36.75544325147247], [28.790929911479793, 36.75544325147247], [28.790929911479793, 36.754904262302], [28.791468900650273, 36.754904262302], [28.791468900650273, 36.75436527313153]], [[28.793624857332162, 36.75598224064294], [28.793624857332162, 36.756521229813416], [28.793085868161683, 36.756521229813416], [28.793085868161683, 36.75598224064294], [28.793624857332162, 36.75598224064294]]]}, "id": "+387383+87655", "properties": {"area_ha": 9.209116446314152, "count": 32, "label": 1, "mean_dnbr": 0.16227040475520643}}, {"type": "Feature", "geometry": {"geodesic": false, "type": "Polygon", "coordinates": [[[28.79955373820735, 36.80341328764445], [28.80009272737783, 36.80341328764445], [28.80009272737783, 36.806108233496815], [28.80117070571876, 36.806108233496815], [28.80117070571876, 36.80664722266729], [28.798475759866392, 36.80664722266729], [28.798475759866392, 36.806108233496815], [28.79739778152546, 36.806108233496815], [28.79739778152546, 36.80556924432634], [28.796858792354982, 36.80556924432634], [28.796858792354982, 36.8044912659854], [28.798475759866392, 36.8044912659854], [28.798475759866392, 36.803952276814925], [28.79955373820735, 36.803952276814925], [28.79955373820735, 36.80341328764445]], [[28.798475759866392, 36.80503025515587], [28.798475759866392, 36.80556924432634], [28.79793677069594, 36.80556924432634], [28.79793677069594, 36.80503025515587], [28.798475759866392, 36.80503025515587]]]}, "id": "+387391+87564", "properties": {"area_ha": 7.189991684933466, "count": 25, "label": 1, "mean_dnbr": 0.27380948613393996}}, {"type": "Feature", "geometry": {"geodesic": false, "type": "Polygon", "coordinates": [[[28.79955373820735, 36.70100534525483], [28.80278767323017, 36.70100534525483], [28.80278767323017, 36.7015443344253], [28.80332666240065, 36.7015443344253], [28.80332666240065, 36.702622312766245], [28.80386565157113, 36.702622312766245], [28.80386565157113, 36.70316130193672], [28.80440464074158, 36.70316130193672], [28.80440464074158, 36.70423928027766], [28.80117070571876, 36.70423928027766], [28.80117070571876, 36.704778269448134], [28.80009272737783, 36.704778269448134], [28.80009272737783, 36.70370029110719], [28.79955373820735, 36.70370029110719], [28.79955373820735, 36.70316130193672], [28.80009272737783, 36.70316130193672], [28.80009272737783, 36.702622312766245], [28.79955373820735, 36.702622312766245], [28.79955373820735, 36.70208332359577], [28.79901474903687, 36.70208332359577], [28.79901474903687, 36.7015443344253], [28.79955373820735, 36.7015443344253], [28.79955373820735, 36.70100534525483]]]}, "id": "+387396+87754", "properties": {"area_ha": 13.535242774961281, "count": 47, "label": 1, "mean_dnbr": 0.40304387059585334}}, {"type": "Feature", "geometry": {"geodesic": false, "type": "Polygon", "coordinates": [[[28.80494362991206, 36.70423928027766], [28.80548261908254, 36.70423928027766], [28.80548261908254, 36.704778269448134], [28.80602160825302, 36.704778269448134], [28.80602160825302, 36.70531725861861], [28.80494362991206, 36.70531725861861], [28.80494362991206, 36.70801220447096], [28.80548261908254, 36.70801220447096], [28.80548261908254, 36.706934226130016], [28.80602160825302, 36.706934226130016], [28.80602160825302, 36.70639523695955], [28.80763857576443, 36.70639523695955], [28.80763857576443, 36.70585624778908], [28.80817756493491, 36.70585624778908], [28.80817756493491, 36.70639523695955], [28.80763857576443, 36.70639523695955], [28.80763857576443, 36.70747321530049], [28.80709958659395, 36.70747321530049], [28.80709958659395, 36.70801220447096], [28.80548261908254, 36.70801220447096], [28.80548261908254, 36.709090182811906], [28.80440464074158, 36.709090182811906], [28.80440464074158, 36.70855119364143], [28.80332666240065, 36.70855119364143], [28.80332666240065, 36.709090182811906], [28.80386565157113, 36.709090182811906], [28.80386565157113, 36.70962917198238], [28.80709958659395, 36.70962917198238], [28.80709958659395, 36.71016816115285], [28.80763857576443, 36.71016816115285], [28.80763857576443, 36.71070715032332], [28.80817756493491, 36.71070715032332], [28.80817756493491, 36.71178512866427], [28.80871655410536, 36.71178512866427], [28.80871655410536, 36.71232411783474], [28.80925554327584, 36.71232411783474], [28.80925554327584, 36.71340209617568], [28.80763857576443, 36.71340209617568], [28.80763857576443, 36.71394108534615], [28.81033352161677, 36.71394108534615], [28.81033352161677, 36.715019063687095], [28.80979453244632, 36.715019063687095], [28.80979453244632, 36.71555805285757], [28.81033352161677, 36.71555805285757], [28.81033352161677, 36.71663603119851], [28.81087251078725, 36.71663603119851], [28.81087251078725, 36.71394108534615], [28.811950489128208, 36.71394108534615], [28.811950489128208, 36.71340209617568], [28.813028467469138, 36.71340209617568], [28.813028467469138, 36.712863107005205], [28.813567456639618, 36.712863107005205], [28.813567456639618, 36.71232411783474], [28.815184424151028, 36.71232411783474], [28.815184424151028, 36.71178512866427], [28.816262402491958, 36.71178512866427], [28.816262402491958, 36.71232411783474], [28.815723413321507, 36.71232411783474], [28.815723413321507, 36.71340209617568], [28.814645434980548, 36.71340209617568], [28.814645434980548, 36.71394108534615], [28.814106445810097, 36.71394108534615], [28.814106445810097, 36.71448007451662], [28.815723413321507, 36.71448007451662], [28.815723413321507, 36.71555805285757], [28.814106445810097, 36.71555805285757], [28.814106445810097, 36.715019063687095], [28.813567456639618, 36.715019063687095], [28.813567456639618, 36.71555805285757], [28.81248947829866, 36.71555805285757], [28.81248947829866, 36.71609704202804], [28.811950489128208, 36.71609704202804], [28.811950489128208, 36.717175020368984], [28.81248947829866, 36.717175020368984], [28.81248947829866, 36.71663603119851], [28.814645434980548, 36.71663603119851], [28.814645434980548, 36.717175020368984], [28.815184424151028, 36.717175020368984], [28.815184424151028, 36.717714009539456], [28.813567456639618, 36.717714009539456], [28.813567456639618, 36.71825299870993], [28.811950489128208, 36.71825299870993], [28.811950489128208, 36.718791987880394], [28.811411499957728, 36.718791987880394], [28.811411499957728, 36.717714009539456], [28.81033352161677, 36.717714009539456], [28.81033352161677, 36.717175020368984], [28.80979453244632, 36.717175020368984], [28.80979453244632, 36.717714009539456], [28.80925554327584, 36.717714009539456], [28.80925554327584, 36.718791987880394], [28.80871655410536, 36.718791987880394], [28.80871655410536, 36.71986996622134], [28.80817756493491, 36.71986996622134], [28.80817756493491, 36.721486933732756], [28.80709958659395, 36.721486933732756], [28.80709958659395, 36.72310390124417], [28.80656059742347, 36.72310390124417], [28.80656059742347, 36.723642890414645], [28.80548261908254, 36.723642890414645], [28.80548261908254, 36.72418187958512], [28.80494362991206, 36.72418187958512], [28.80494362991206, 36.7225649120737], [28.80440464074158, 36.7225649120737], [28.80440464074158, 36.71986996622134], [28.80386565157113, 36.71986996622134], [28.80386565157113, 36.719330977050866], [28.80440464074158, 36.719330977050866], [28.80440464074158, 36.718791987880394], [28.80278767323017, 36.718791987880394], [28.80278767323017, 36.719330977050866], [28.80224868405972, 36.719330977050866], [28.80224868405972, 36.718791987880394], [28.80117070571876, 36.718791987880394], [28.80117070571876, 36.71825299870993], [28.80170969488924, 36.71825299870993], [28.80170969488924, 36.71609704202804], [28.80063171654828, 36.71609704202804], [28.80063171654828, 36.715019063687095], [28.80170969488924, 36.715019063687095], [28.80170969488924, 36.71555805285757], [28.80224868405972, 36.71555805285757], [28.80224868405972, 36.715019063687095], [28.80332666240065, 36.715019063687095], [28.80332666240065, 36.71448007451662], [28.80063171654828, 36.71448007451662], [28.80063171654828, 36.71340209617568], [28.80009272737783, 36.71340209617568], [28.80009272737783, 36.711246139493795], [28.79955373820735, 36.711246139493795], [28.79955373820735, 36.71070715032332], [28.80009272737783, 36.71070715032332], [28.80009272737783, 36.71016816115285], [28.80224868405972, 36.71016816115285], [28.80224868405972, 36.70855119364143], [28.80170969488924, 36.70855119364143], [28.80170969488924, 36.70747321530049], [28.80117070571876, 36.70747321530049], [28.80117070571876, 36.70639523695955], [28.80063171654828, 36.70639523695955], [28.80063171654828, 36.70531725861861], [28.80224868405972, 36.70531725861861], [28.80224868405972, 36.704778269448134], [28.80494362991206, 36.704778269448134], [28.80494362991206, 36.70423928027766]], [[28.80656059742347, 36.71825299870993], [28.80656059742347, 36.718791987880394], [28.80548261908254, 36.718791987880394], [28.80548261908254, 36.71825299870993], [28.80656059742347, 36.71825299870993]], [[28.811950489128208, 36.717175020368984], [28.811950489128208, 36.717714009539456], [28.811411499957728, 36.717714009539456], [28.811411499957728, 36.717175020368984], [28.811950489128208, 36.717175020368984]], [[28.80817756493491, 36.71555805285757], [28.80817756493491, 36.71609704202804], [28.80763857576443, 36.71609704202804], [28.80763857576443, 36.71555805285757], [28.80817756493491, 36.71555805285757]], [[28.80548261908254, 36.71394108534615], [28.80548261908254, 36.71448007451662], [28.80332666240065, 36.71448007451662], [28.80332666240065, 36.71394108534615], [28.80548261908254, 36.71394108534615]], [[28.80871655410536, 36.71232411783474], [28.80871655410536, 36.712863107005205], [28.80817756493491, 36.712863107005205], [28.80817756493491, 36.71232411783474], [28.80871655410536, 36.71232411783474]], [[28.80117070571876, 36.71178512866427], [28.80117070571876, 36.71232411783474], [28.80063171654828, 36.71232411783474], [28.80063171654828, 36.71178512866427], [28.80117070571876, 36.71178512866427]], [[28.80332666240065, 36.71016816115285], [28.80332666240065, 36.711246139493795], [28.80278767323017, 36.711246139493795], [28.80278767323017, 36.71178512866427], [28.80224868405972, 36.71178512866427], [28.80224868405972, 36.71070715032332], [28.80278767323017, 36.71070715032332], [28.80278767323017, 36.71016816115285], [28.80332666240065, 36.71016816115285]], [[28.80332666240065, 36.706934226130016], [28.80332666240065, 36.70747321530049], [28.80224868405972, 36.70747321530049], [28.80224868405972, 36.706934226130016], [28.80332666240065, 36.706934226130016]]]}, "id": "+387401+87748", "properties": {"area_ha": 124.67846982586615, "count": 433, "label": 1, "mean_dnbr": 0.3949050662425164}}, {"type": "Feature", "geometry": {"geodesic": false, "type": "Polygon", "coordinates": [[[28.80817756493491, 36.80287429847399], [28.80925554327584, 36.80287429847399], [28.80925554327584, 36.80341328764445], [28.80979453244632, 36.80341328764445], [28.80979453244632, 36.803952276814925], [28.80925554327584, 36.803952276814925], [28.80925554327584, 36.8044912659854], [28.81033352161677, 36.8044912659854], [28.81033352161677, 36.80503025515587], [28.80925554327584, 36.80503025515587], [28.80925554327584, 36.80934216851964], [28.80817756493491, 36.80934216851964], [28.80817756493491, 36.80880317934918], [28.80871655410536, 36.80880317934918], [28.80871655410536, 36.80772520100823], [28.80817756493491, 36.80772520100823], [28.80817756493491, 36.806108233496815], [28.80871655410536, 36.806108233496815], [28.80871655410536, 36.80556924432634], [28.80817756493491, 36.80556924432634], [28.80817756493491, 36.8044912659854], [28.80871655410536, 36.8044912659854], [28.80871655410536, 36.803952276814925], [28.80817756493491, 36.803952276814925], [28.80817756493491, 36.80287429847399]]]}, "id": "+387408+87565", "properties": {"area_ha": 6.614740881014553, "count": 23, "label": 1, "mean_dnbr": 0.16325049990444002}}, {"type": "Feature", "geometry": {"geodesic": false, "type": "Polygon", "coordinates": [[[28.80979453244632, 36.80556924432634], [28.81033352161677, 36.80556924432634], [28.81033352161677, 36.80718621183776], [28.81087251078725, 36.80718621183776], [28.81087251078725, 36.81095913603106], [28.81033352161677, 36.81095913603106], [28.81033352161677, 36.80934216851964], [28.80979453244632, 36.80934216851964], [28.80979453244632, 36.80772520100823], [28.81033352161677, 36.80772520100823], [28.81033352161677, 36.80718621183776], [28.80979453244632, 36.80718621183776], [28.80979453244632, 36.80556924432634]]]}, "id": "+387410+87560", "properties": {"area_ha": 3.7386429561078782, "count": 13, "label": 1, "mean_dnbr": 0.16244485176919404}}, {"type": "Feature", "geometry": {"geodesic": false, "type": "Polygon", "coordinates": [[[29.12995409970651, 36.86108512888493], [29.13049308887699, 36.86108512888493], [29.13049308887699, 36.8616241180554], [29.13103207804744, 36.8616241180554], [29.13103207804744, 36.862163107225875], [29.13157106721792, 36.862163107225875], [29.13157106721792, 36.86324108556681], [29.13049308887699, 36.86324108556681], [29.13049308887699, 36.86485805307823], [29.12995409970651, 36.86485805307823], [29.12995409970651, 36.86431906390776], [29.12941511053603, 36.86431906390776], [29.12941511053603, 36.86324108556681], [29.12995409970651, 36.86324108556681], [29.12995409970651, 36.86270209639635], [29.12941511053603, 36.86270209639635], [29.12941511053603, 36.8616241180554], [29.12995409970651, 36.8616241180554], [29.12995409970651, 36.86108512888493]]]}, "id": "+388004+87457", "properties": {"area_ha": 4.598129273173142, "count": 16, "label": 1, "mean_dnbr": 0.7059638784108453}}, {"type": "Feature", "geometry": {"geodesic": false, "type": "Polygon", "coordinates": [[[29.1321100563884, 36.862163107225875], [29.13372702389981, 36.862163107225875], [29.13372702389981, 36.86270209639635], [29.134266013070288, 36.86270209639635], [29.134266013070288, 36.86324108556681], [29.134805002240768, 36.86324108556681], [29.134805002240768, 36.863780074737285], [29.134266013070288, 36.863780074737285], [29.134266013070288, 36.86431906390776], [29.13318803472933, 36.86431906390776], [29.13318803472933, 36.863780074737285], [29.1321100563884, 36.863780074737285], [29.1321100563884, 36.862163107225875]]]}, "id": "+388010+87455", "properties": {"area_ha": 4.023341914530774, "count": 14, "label": 1, "mean_dnbr": 0.6862237233566871}}, {"type": "Feature", "geometry": {"geodesic": false, "type": "Polygon", "coordinates": [[[29.240985868823685, 36.85946816137351], [29.242602836335095, 36.85946816137351], [29.242602836335095, 36.860007150543986], [29.243141825505575, 36.860007150543986], [29.243141825505575, 36.8616241180554], [29.242602836335095, 36.8616241180554], [29.242602836335095, 36.86270209639635], [29.240985868823685, 36.86270209639635], [29.240985868823685, 36.862163107225875], [29.241524857994165, 36.862163107225875], [29.241524857994165, 36.86054613971446], [29.239907890482726, 36.86054613971446], [29.239907890482726, 36.860007150543986], [29.240985868823685, 36.860007150543986], [29.240985868823685, 36.85946816137351]]]}, "id": "+388212+87460", "properties": {"area_ha": 5.747806534947603, "count": 20, "label": 1, "mean_dnbr": 0.8189073805341266}}, {"type": "Feature", "geometry": {"geodesic": false, "type": "Polygon", "coordinates": [[[29.291650850848015, 36.46870101278152], [29.292189840018494, 36.46870101278152], [29.292189840018494, 36.469240001951995], [29.292728829188974, 36.469240001951995], [29.292728829188974, 36.46977899112247], [29.292189840018494, 36.46977899112247], [29.292189840018494, 36.47085696946341], [29.291111861677564, 36.47085696946341], [29.291111861677564, 36.47031798029294], [29.290033883336605, 36.47031798029294], [29.290033883336605, 36.47085696946341], [29.289494894166126, 36.47085696946341], [29.289494894166126, 36.47031798029294], [29.288955904995674, 36.47031798029294], [29.288955904995674, 36.46977899112247], [29.290572872507084, 36.46977899112247], [29.290572872507084, 36.469240001951995], [29.291650850848015, 36.469240001951995], [29.291650850848015, 36.46870101278152]]]}, "id": "+388304+88185", "properties": {"area_ha": 4.043953001526735, "count": 14, "label": 1, "mean_dnbr": 0.35200117926306984}}, {"type": "Feature", "geometry": {"geodesic": false, "type": "Polygon", "coordinates": [[[29.30566456928028, 36.86054613971446], [29.30620355845076, 36.86054613971446], [29.30620355845076, 36.86108512888493], [29.30674254762124, 36.86108512888493], [29.30674254762124, 36.8616241180554], [29.30566456928028, 36.8616241180554], [29.30566456928028, 36.862163107225875], [29.304047601768872, 36.862163107225875], [29.304047601768872, 36.8616241180554], [29.303508612598392, 36.8616241180554], [29.303508612598392, 36.86054613971446], [29.304047601768872, 36.86054613971446], [29.304047601768872, 36.86108512888493], [29.30566456928028, 36.86108512888493], [29.30566456928028, 36.86054613971446]]]}, "id": "+388330+87458", "properties": {"area_ha": 3.1612733083663, "count": 11, "label": 1, "mean_dnbr": 0.5707442086112389}}, {"type": "Feature", "geometry": {"geodesic": false, "type": "Polygon", "coordinates": [[[29.30782052596217, 36.458999207713035], [29.31159345015547, 36.458999207713035], [29.31159345015547, 36.46007718605397], [29.30782052596217, 36.46007718605397], [29.30782052596217, 36.458999207713035]]]}, "id": "+388340+88203", "properties": {"area_ha": 4.044497173261229, "count": 14, "label": 1, "mean_dnbr": 0.24215223228563476}}, {"type": "Feature", "geometry": {"geodesic": false, "type": "Polygon", "coordinates": [[[29.334230995315295, 36.46977899112247], [29.335308973656225, 36.46977899112247], [29.335308973656225, 36.47031798029294], [29.335847962826705, 36.47031798029294], [29.335847962826705, 36.47139595863388], [29.334230995315295, 36.47139595863388], [29.334230995315295, 36.47193494780435], [29.331536049462926, 36.47193494780435], [29.331536049462926, 36.47085696946341], [29.332075038633405, 36.47085696946341], [29.332075038633405, 36.46977899112247], [29.333692006144815, 36.46977899112247], [29.333692006144815, 36.47031798029294], [29.334230995315295, 36.47031798029294], [29.334230995315295, 36.46977899112247]]]}, "id": "+388384+88183", "properties": {"area_ha": 7.221273380676161, "count": 25, "label": 1, "mean_dnbr": 0.4033977683492468}}, {"type": "Feature", "geometry": {"geodesic": false, "type": "Polygon", "coordinates": [[[29.335847962826705, 36.64333350401436], [29.336386951997184, 36.64333350401436], [29.336386951997184, 36.6444114823553], [29.336925941167635, 36.6444114823553], [29.336925941167635, 36.64548946069625], [29.337464930338115, 36.64548946069625], [29.337464930338115, 36.64602844986672], [29.335847962826705, 36.64602844986672], [29.335847962826705, 36.64548946069625], [29.335308973656225, 36.64548946069625], [29.335308973656225, 36.64602844986672], [29.334769984485746, 36.64602844986672], [29.334769984485746, 36.64548946069625], [29.334230995315295, 36.64548946069625], [29.334230995315295, 36.64602844986672], [29.333692006144815, 36.64602844986672], [29.333692006144815, 36.64387249318483], [29.335847962826705, 36.64387249318483], [29.335847962826705, 36.64333350401436]], [[29.335308973656225, 36.6444114823553], [29.335308973656225, 36.644950471525775], [29.334230995315295, 36.644950471525775], [29.334230995315295, 36.6444114823553], [29.335308973656225, 36.6444114823553]]]}, "id": "+388386+87861", "properties": {"area_ha": 6.052207440532978, "count": 21, "label": 1, "mean_dnbr": 0.38962374186719606}}, {"type": "Feature", "geometry": {"geodesic": false, "type": "Polygon", "coordinates": [[[29.335308973656225, 36.47624686116813], [29.336386951997184, 36.47624686116813], [29.336386951997184, 36.4767858503386], [29.338003919508594, 36.4767858503386], [29.338003919508594, 36.47894180702048], [29.337464930338115, 36.47894180702048], [29.337464930338115, 36.47786382867954], [29.336925941167635, 36.47786382867954], [29.336925941167635, 36.47732483950907], [29.334769984485746, 36.47732483950907], [29.334769984485746, 36.4767858503386], [29.335308973656225, 36.4767858503386], [29.335308973656225, 36.47624686116813]]]}, "id": "+388386+88171", "properties": {"area_ha": 3.465921788216236, "count": 12, "label": 1, "mean_dnbr": 0.36032341225739845}}]}