{"type": "FeatureCollection", "columns": {"area_ha": "Number", "count": "Long<0, 4294967295>", "label": "Byte<0, 1>", "mean_dnbr": "Object", "system:index": "String"}, "features": [{"type": "Feature", "geometry": {"geodesic": false, "type": "Polygon", "coordinates": [[[28.34410788915875, 37.03463964177682], [28.34464687832923, 37.03463964177682], [28.34464687832923, 37.035717620117765], [28.34410788915875, 37.035717620117765], [28.34410788915875, 37.03625660928824], [28.34464687832923, 37.03625660928824], [28.34464687832923, 37.03733458762918], [28.34410788915875, 37.03733458762918], [28.34410788915875, 37.03841256597012], [28.34302991081782, 37.03841256597012], [28.34302991081782, 37.03733458762918], [28.34141294330638, 37.03733458762918], [28.34141294330638, 37.03679559845871], [28.34302991081782, 37.03679559845871], [28.34302991081782, 37.035717620117765], [28.34356889998827, 37.035717620117765], [28.34356889998827, 37.03517863094729], [28.34410788915875, 37.03517863094729], [28.34410788915875, 37.03463964177682]]]}, "id": "+386546+87135", "properties": {"area_ha": 5.161099230123882, "count": 18, "label": 1, "mean_dnbr": 0.24162631226403794}}, {"type": "Feature", "geometry": {"geodesic": false, "type": "Polygon", "coordinates": [[[28.367284423489025, 37.03517863094729], [28.368362401829984, 37.03517863094729], [28.368362401829984, 37.03733458762918], [28.368901391000463, 37.03733458762918], [28.368901391000463, 37.037873576799655], [28.366206445148094, 37.037873576799655], [28.366206445148094, 37.03733458762918], [28.367823412659504, 37.03733458762918], [28.367823412659504, 37.03679559845871], [28.367284423489025, 37.03679559845871], [28.367284423489025, 37.03517863094729]]]}, "id": "+386590+87134", "properties": {"area_ha": 3.440741447098754, "count": 12, "label": 1, "mean_dnbr": 0.25963162822014657}}, {"type": "Feature", "geometry": {"geodesic": false, "type": "Polygon", "coordinates": [[[28.38075915275084, 37.03733458762918], [28.3829151094327, 37.03733458762918], [28.3829151094327, 37.03841256597012], [28.37860319606895, 37.03841256597012], [28.37860319606895, 37.037873576799655], [28.38075915275084, 37.037873576799655], [28.38075915275084, 37.03733458762918]]]}, "id": "+386617+87130", "properties": {"area_ha": 3.440718267628363, "count": 12, "label": 1, "mean_dnbr": 0.32123115360759835}}, {"type": "Feature", "geometry": {"geodesic": false, "type": "Polygon", "coordinates": [[[28.38830500113744, 37.00391725905993], [28.38938297947837, 37.00391725905993], [28.38938297947837, 37.004456248230404], [28.39046095781933, 37.004456248230404], [28.39046095781933, 37.00499523740088], [28.39369489284215, 37.00499523740088], [28.39369489284215, 37.00553422657135], [28.394233882012628, 37.00553422657135], [28.394233882012628, 37.00607321574182], [28.395850849524038, 37.00607321574182], [28.395850849524038, 37.006612204912294], [28.394233882012628, 37.006612204912294], [28.394233882012628, 37.00607321574182], [28.39369489284215, 37.00607321574182], [28.39369489284215, 37.00553422657135], [28.38992196864885, 37.00553422657135], [28.38992196864885, 37.00499523740088], [28.38938297947837, 37.00499523740088], [28.38938297947837, 37.004456248230404], [28.38830500113744, 37.004456248230404], [28.38830500113744, 37.00391725905993]]]}, "id": "+386629+87192", "properties": {"area_ha": 4.302708338084186, "count": 15, "label": 1, "mean_dnbr": 0.2193224066378797}}, {"type": "Feature", "geometry": {"geodesic": false, "type": "Polygon", "coordinates": [[[28.43304110228658, 37.01631400998078], [28.43411908062754, 37.01631400998078], [28.43411908062754, 37.019547945003616], [28.43358009145706, 37.019547945003616], [28.43358009145706, 37.019008955833144], [28.43304110228658, 37.019008955833144], [28.43304110228658, 37.01631400998078]]]}, "id": "+386712+87169", "properties": {"area_ha": 3.1547900556712682, "count": 11, "label": 1, "mean_dnbr": 0.30855815200100484}}, {"type": "Feature", "geometry": {"geodesic": false, "type": "Polygon", "coordinates": [[[28.446515831548368, 37.008768161594176], [28.448132799059806, 37.008768161594176], [28.448132799059806, 37.00930715076465], [28.446515831548368, 37.00930715076465], [28.446515831548368, 37.00984613993512], [28.447054820718847, 37.00984613993512], [28.447054820718847, 37.010924118276066], [28.445976842377917, 37.010924118276066], [28.445976842377917, 37.01038512910559], [28.444898864036958, 37.01038512910559], [28.444898864036958, 37.00984613993512], [28.445437853207437, 37.00984613993512], [28.445437853207437, 37.00930715076465], [28.446515831548368, 37.00930715076465], [28.446515831548368, 37.008768161594176]]]}, "id": "+386738+87183", "properties": {"area_ha": 3.155122924888167, "count": 11, "label": 1, "mean_dnbr": 0.2503102175032972}}, {"type": "Feature", "geometry": {"geodesic": false, "type": "Polygon", "coordinates": [[[28.445976842377917, 37.00122231320758], [28.448671788230257, 37.00122231320758], [28.448671788230257, 37.00283928071899], [28.447593809889327, 37.00283928071899], [28.447593809889327, 37.002300291548515], [28.445976842377917, 37.002300291548515], [28.445976842377917, 37.00122231320758]]]}, "id": "+386739+87197", "properties": {"area_ha": 3.442300721635268, "count": 12, "label": 1, "mean_dnbr": 0.33866969048379264}}, {"type": "Feature", "geometry": {"geodesic": false, "type": "Polygon", "coordinates": [[[28.454600669105446, 37.010924118276066], [28.455139658275925, 37.010924118276066], [28.455139658275925, 37.01146310744654], [28.457834604128294, 37.01146310744654], [28.457834604128294, 37.01254108578748], [28.455139658275925, 37.01254108578748], [28.455139658275925, 37.01146310744654], [28.454600669105446, 37.01146310744654], [28.454600669105446, 37.010924118276066]]]}, "id": "+386751+87179", "properties": {"area_ha": 3.155034812498112, "count": 11, "label": 1, "mean_dnbr": 0.2415517350379924}}, {"type": "Feature", "geometry": {"geodesic": false, "type": "Polygon", "coordinates": [[[28.47723821426527, 37.008768161594176], [28.47777720343575, 37.008768161594176], [28.47777720343575, 37.00930715076465], [28.47939417094716, 37.00930715076465], [28.47939417094716, 37.00984613993512], [28.47993316011761, 37.00984613993512], [28.47993316011761, 37.01038512910559], [28.47939417094716, 37.01038512910559], [28.47939417094716, 37.010924118276066], [28.4783161926062, 37.010924118276066], [28.4783161926062, 37.00984613993512], [28.47669922509479, 37.00984613993512], [28.47669922509479, 37.00930715076465], [28.47723821426527, 37.00930715076465], [28.47723821426527, 37.008768161594176]]]}, "id": "+386793+87183", "properties": {"area_ha": 3.1551208909494184, "count": 11, "label": 1, "mean_dnbr": 0.21295763977013663}}, {"type": "Feature", "geometry": {"geodesic": false, "type": "Polygon", "coordinates": [[[28.62007034444028, 36.94301148279663], [28.62276529029262, 36.94301148279663], [28.62276529029262, 36.9435504719671], [28.62168731195169, 36.9435504719671], [28.62168731195169, 36.94408946113757], [28.62222630112217, 36.94408946113757], [28.62222630112217, 36.944628450308045], [28.62276529029262, 36.944628450308045], [28.62276529029262, 36.94624541781946], [28.62114832278121, 36.94624541781946], [28.62114832278121, 36.94570642864899], [28.62060933361073, 36.94570642864899], [28.62060933361073, 36.94516743947852], [28.62114832278121, 36.94516743947852], [28.62114832278121, 36.944628450308045], [28.62060933361073, 36.944628450308045], [28.62060933361073, 36.9435504719671], [28.62007034444028, 36.9435504719671], [28.62007034444028, 36.94301148279663]], [[28.62168731195169, 36.94408946113757], [28.62168731195169, 36.944628450308045], [28.62114832278121, 36.944628450308045], [28.62114832278121, 36.94408946113757], [28.62168731195169, 36.94408946113757]]]}, "id": "+387062+87305", "properties": {"area_ha": 5.454420848242138, "count": 19, "label": 1, "mean_dnbr": 0.17531689035098724}}, {"type": "Feature", "geometry": {"geodesic": false, "type": "Polygon", "coordinates": [[[28.629772149508767, 36.92684180768248], [28.630311138679218, 36.92684180768248], [28.630311138679218, 36.92738079685295], [28.630850127849698, 36.92738079685295], [28.630850127849698, 36.928458775193896], [28.630311138679218, 36.928458775193896], [28.630311138679218, 36.92899776436437], [28.629772149508767, 36.92899776436437], [28.629772149508767, 36.92953675353484], [28.62869417116781, 36.92953675353484], [28.62869417116781, 36.928458775193896], [28.629233160338288, 36.928458775193896], [28.629233160338288, 36.92738079685295], [28.629772149508767, 36.92738079685295], [28.629772149508767, 36.92684180768248]]]}, "id": "+387076+87335", "properties": {"area_ha": 3.445641364114346, "count": 12, "label": 1, "mean_dnbr": 0.2376332538897717}}, {"type": "Feature", "geometry": {"geodesic": false, "type": "Polygon", "coordinates": [[[28.640012943747735, 36.96780498463833], [28.641090922088665, 36.96780498463833], [28.641090922088665, 36.9683439738088], [28.642168900429596, 36.9683439738088], [28.642168900429596, 36.96888296297927], [28.641629911259145, 36.96888296297927], [28.641629911259145, 36.969421952149744], [28.641090922088665, 36.969421952149744], [28.641090922088665, 36.96996094132022], [28.640012943747735, 36.96996094132022], [28.640012943747735, 36.96780498463833]]]}, "id": "+387096+87259", "properties": {"area_ha": 3.1568212424220894, "count": 11, "label": 1, "mean_dnbr": 0.20455909949020445}}, {"type": "Feature", "geometry": {"geodesic": false, "type": "Polygon", "coordinates": [[[28.641090922088665, 36.812576103542476], [28.641629911259145, 36.812576103542476], [28.641629911259145, 36.81311509271295], [28.642707889600075, 36.81311509271295], [28.642707889600075, 36.81365408188342], [28.643246878770555, 36.81365408188342], [28.643246878770555, 36.814732060224365], [28.640551932918186, 36.814732060224365], [28.640551932918186, 36.81419307105389], [28.641090922088665, 36.81419307105389], [28.641090922088665, 36.812576103542476]]]}, "id": "+387097+87547", "properties": {"area_ha": 3.7383818360198493, "count": 13, "label": 1, "mean_dnbr": 0.22366775461394453}}, {"type": "Feature", "geometry": {"geodesic": false, "type": "Polygon", "coordinates": [[[28.66696240227131, 36.865936031419174], [28.66804038061224, 36.865936031419174], [28.66804038061224, 36.86647502058965], [28.66857936978272, 36.86647502058965], [28.66857936978272, 36.86755299893059], [28.6691183589532, 36.86755299893059], [28.6691183589532, 36.868091988101064], [28.66804038061224, 36.868091988101064], [28.66804038061224, 36.86755299893059], [28.66750139144179, 36.86755299893059], [28.66750139144179, 36.868091988101064], [28.6653454347599, 36.868091988101064], [28.6653454347599, 36.86701400976012], [28.66642341310083, 36.86701400976012], [28.66642341310083, 36.86647502058965], [28.66696240227131, 36.86647502058965], [28.66696240227131, 36.865936031419174]]]}, "id": "+387146+87448", "properties": {"area_ha": 5.17260346175574, "count": 18, "label": 1, "mean_dnbr": 0.2825547923042703}}, {"type": "Feature", "geometry": {"geodesic": false, "type": "Polygon", "coordinates": [[[28.683132077385466, 36.841142529577475], [28.684749044896876, 36.841142529577475], [28.684749044896876, 36.843298486259364], [28.685288034067355, 36.843298486259364], [28.685288034067355, 36.84383747542984], [28.686905001578765, 36.84383747542984], [28.686905001578765, 36.84437646460031], [28.684210055726396, 36.84437646460031], [28.684210055726396, 36.84383747542984], [28.682593088214986, 36.84383747542984], [28.682593088214986, 36.843298486259364], [28.683132077385466, 36.843298486259364], [28.683132077385466, 36.84222050791842], [28.682593088214986, 36.84222050791842], [28.682593088214986, 36.84168151874795], [28.683132077385466, 36.84168151874795], [28.683132077385466, 36.841142529577475]]]}, "id": "+387177+87494", "properties": {"area_ha": 6.611543266225146, "count": 23, "label": 1, "mean_dnbr": 0.24405650952822966}}, {"type": "Feature", "geometry": {"geodesic": false, "type": "Polygon", "coordinates": [[[28.694989839135843, 36.857312204691624], [28.697145795817733, 36.857312204691624], [28.697145795817733, 36.857851193862096], [28.697684784988184, 36.857851193862096], [28.697684784988184, 36.85946816137351], [28.694989839135843, 36.85946816137351], [28.694989839135843, 36.857312204691624]]]}, "id": "+387200+87464", "properties": {"area_ha": 5.460598810870743, "count": 19, "label": 1, "mean_dnbr": 0.22257280413961766}}, {"type": "Feature", "geometry": {"geodesic": false, "type": "Polygon", "coordinates": [[[28.70576962254526, 36.758677186495305], [28.70846456839763, 36.758677186495305], [28.70846456839763, 36.75975516483625], [28.70792557922715, 36.75975516483625], [28.70792557922715, 36.76083314317719], [28.70630861171574, 36.76083314317719], [28.70630861171574, 36.75921617566578], [28.70576962254526, 36.75921617566578], [28.70576962254526, 36.758677186495305]]]}, "id": "+387221+87647", "properties": {"area_ha": 4.316550368216845, "count": 15, "label": 1, "mean_dnbr": 0.25823932756680834}}, {"type": "Feature", "geometry": {"geodesic": false, "type": "Polygon", "coordinates": [[[28.732180091898385, 36.71016816115285], [28.733258070239316, 36.71016816115285], [28.733258070239316, 36.71070715032332], [28.733797059409795, 36.71070715032332], [28.733797059409795, 36.71178512866427], [28.734875037750754, 36.71178512866427], [28.734875037750754, 36.71232411783474], [28.730024135216496, 36.71232411783474], [28.730024135216496, 36.71178512866427], [28.728946156875566, 36.71178512866427], [28.728946156875566, 36.711246139493795], [28.728407167705086, 36.711246139493795], [28.728407167705086, 36.71070715032332], [28.729485146046017, 36.71070715032332], [28.729485146046017, 36.711246139493795], [28.730024135216496, 36.711246139493795], [28.730024135216496, 36.71178512866427], [28.731641102727906, 36.71178512866427], [28.731641102727906, 36.711246139493795], [28.732180091898385, 36.711246139493795], [28.732180091898385, 36.71016816115285]]]}, "id": "+387267+87737", "properties": {"area_ha": 6.334998849569665, "count": 22, "label": 1, "mean_dnbr": 0.17985759916308905}}, {"type": "Feature", "geometry": {"geodesic": false, "type": "Polygon", "coordinates": [[[28.75751258291055, 36.7910165367236], [28.75859056125151, 36.7910165367236], [28.75859056125151, 36.791555525894076], [28.75912955042196, 36.791555525894076], [28.75912955042196, 36.79209451506455], [28.75751258291055, 36.79209451506455], [28.75751258291055, 36.79263350423502], [28.75643460456962, 36.79263350423502], [28.75643460456962, 36.79209451506455], [28.75589561539914, 36.79209451506455], [28.75589561539914, 36.79263350423502], [28.75481763705821, 36.79263350423502], [28.75481763705821, 36.79209451506455], [28.75535662622866, 36.79209451506455], [28.75535662622866, 36.791555525894076], [28.75751258291055, 36.791555525894076], [28.75751258291055, 36.7910165367236]]]}, "id": "+387314+87587", "properties": {"area_ha": 3.739441134106732, "count": 13, "label": 1, "mean_dnbr": 0.27692460197868995}}, {"type": "Feature", "geometry": {"geodesic": false, "type": "Polygon", "coordinates": [[[28.76505843129715, 36.73280570631266], [28.766136409638108, 36.73280570631266], [28.766136409638108, 36.73334469548313], [28.767753377149518, 36.73334469548313], [28.767753377149518, 36.733883684653605], [28.766136409638108, 36.733883684653605], [28.766136409638108, 36.73442267382408], [28.767753377149518, 36.73442267382408], [28.767753377149518, 36.73496166299455], [28.76721438797904, 36.73496166299455], [28.76721438797904, 36.73550065216502], [28.766136409638108, 36.73550065216502], [28.766136409638108, 36.73496166299455], [28.76505843129715, 36.73496166299455], [28.76505843129715, 36.73442267382408], [28.764519442126698, 36.73442267382408], [28.764519442126698, 36.733883684653605], [28.766136409638108, 36.733883684653605], [28.766136409638108, 36.73334469548313], [28.76505843129715, 36.73334469548313], [28.76505843129715, 36.73280570631266]]]}, "id": "+387328+87695", "properties": {"area_ha": 4.317986125038602, "count": 15, "label": 1, "mean_dnbr": 0.2831437648785541}}, {"type": "Feature", "geometry": {"geodesic": false, "type": "Polygon", "coordinates": [[[28.76721438797904, 36.729571771289834], [28.76883135549045, 36.729571771289834], [28.76883135549045, 36.730110760460306], [28.768292366319997, 36.730110760460306], [28.768292366319997, 36.73064974963077], [28.76883135549045, 36.73064974963077], [28.76883135549045, 36.731188738801244], [28.768292366319997, 36.731188738801244], [28.768292366319997, 36.73064974963077], [28.76721438797904, 36.73064974963077], [28.76721438797904, 36.731188738801244], [28.767753377149518, 36.731188738801244], [28.767753377149518, 36.73226671714219], [28.76721438797904, 36.73226671714219], [28.76721438797904, 36.731188738801244], [28.766136409638108, 36.731188738801244], [28.766136409638108, 36.730110760460306], [28.76721438797904, 36.730110760460306], [28.76721438797904, 36.729571771289834]]]}, "id": "+387333+87701", "properties": {"area_ha": 3.4545529534844563, "count": 12, "label": 1, "mean_dnbr": 0.28676139892206975}}, {"type": "Feature", "geometry": {"geodesic": false, "type": "Polygon", "coordinates": [[[28.769909333831407, 36.75059234893823], [28.770987312172338, 36.75059234893823], [28.770987312172338, 36.752209316449644], [28.770448323001887, 36.752209316449644], [28.770448323001887, 36.75382628396106], [28.769909333831407, 36.75382628396106], [28.769909333831407, 36.754904262302], [28.769370344660928, 36.754904262302], [28.769370344660928, 36.75328729479059], [28.769909333831407, 36.75328729479059], [28.769909333831407, 36.752209316449644], [28.76883135549045, 36.752209316449644], [28.76883135549045, 36.75167032727917], [28.769909333831407, 36.75167032727917], [28.769909333831407, 36.75059234893823]]]}, "id": "+387337+87662", "properties": {"area_ha": 4.029169120338151, "count": 14, "label": 1, "mean_dnbr": 0.31924798991535425}}, {"type": "Feature", "geometry": {"geodesic": false, "type": "Polygon", "coordinates": [[[28.772065290513297, 36.730110760460306], [28.772604279683776, 36.730110760460306], [28.772604279683776, 36.73226671714219], [28.774760236365637, 36.73226671714219], [28.774760236365637, 36.73280570631266], [28.775299225536116, 36.73280570631266], [28.775299225536116, 36.733883684653605], [28.774760236365637, 36.733883684653605], [28.774760236365637, 36.73711761967643], [28.774221247195186, 36.73711761967643], [28.774221247195186, 36.737656608846905], [28.773682258024706, 36.737656608846905], [28.773682258024706, 36.73819559801738], [28.772065290513297, 36.73819559801738], [28.772065290513297, 36.73873458718785], [28.771526301342817, 36.73873458718785], [28.771526301342817, 36.73819559801738], [28.769909333831407, 36.73819559801738], [28.769909333831407, 36.73873458718785], [28.76883135549045, 36.73873458718785], [28.76883135549045, 36.73819559801738], [28.76721438797904, 36.73819559801738], [28.76721438797904, 36.737656608846905], [28.767753377149518, 36.737656608846905], [28.767753377149518, 36.73711761967643], [28.768292366319997, 36.73711761967643], [28.768292366319997, 36.73657863050597], [28.769370344660928, 36.73657863050597], [28.769370344660928, 36.73550065216502], [28.769909333831407, 36.73550065216502], [28.769909333831407, 36.73496166299455], [28.770448323001887, 36.73496166299455], [28.770448323001887, 36.73442267382408], [28.769909333831407, 36.73442267382408], [28.769909333831407, 36.733883684653605], [28.770987312172338, 36.733883684653605], [28.770987312172338, 36.73280570631266], [28.771526301342817, 36.73280570631266], [28.771526301342817, 36.731188738801244], [28.772065290513297, 36.731188738801244], [28.772065290513297, 36.730110760460306]]]}, "id": "+387340+87700", "properties": {"area_ha": 32.52835769789941, "count": 113, "label": 1, "mean_dnbr": 0.31489145769116544}}, {"type": "Feature", "geometry": {"geodesic": false, "type": "Polygon", "coordinates": [[[28.772065290513297, 36.7015443344253], [28.775299225536116, 36.7015443344253], [28.775299225536116, 36.70316130193672], [28.775838214706596, 36.70316130193672], [28.775838214706596, 36.70370029110719], [28.775299225536116, 36.70370029110719], [28.775299225536116, 36.70316130193672], [28.773682258024706, 36.70316130193672], [28.773682258024706, 36.70370029110719], [28.773143268854227, 36.70370029110719], [28.773143268854227, 36.70316130193672], [28.772604279683776, 36.70316130193672], [28.772604279683776, 36.70370029110719], [28.771526301342817, 36.70370029110719], [28.771526301342817, 36.70316130193672], [28.770448323001887, 36.70316130193672], [28.770448323001887, 36.702622312766245], [28.771526301342817, 36.702622312766245], [28.771526301342817, 36.70208332359577], [28.772065290513297, 36.70208332359577], [28.772065290513297, 36.7015443344253]]]}, "id": "+387345+87753", "properties": {"area_ha": 7.4875804000734005, "count": 26, "label": 1, "mean_dnbr": 0.22956715472433248}}, {"type": "Feature", "geometry": {"geodesic": false, "type": "Polygon", "coordinates": [[[28.772065290513297, 36.71555805285757], [28.775838214706596, 36.71555805285757], [28.775838214706596, 36.717714009539456], [28.775299225536116, 36.717714009539456], [28.775299225536116, 36.71663603119851], [28.772065290513297, 36.71663603119851], [28.772065290513297, 36.71555805285757]]]}, "id": "+387346+87727", "properties": {"area_ha": 4.606921643875627, "count": 16, "label": 1, "mean_dnbr": 0.2873691235204869}}, {"type": "Feature", "geometry": {"geodesic": false, "type": "Polygon", "coordinates": [[[28.775838214706596, 36.76083314317719], [28.777994171388485, 36.76083314317719], [28.777994171388485, 36.76298909985908], [28.778533160558965, 36.76298909985908], [28.778533160558965, 36.76406707820002], [28.777455182218006, 36.76406707820002], [28.777455182218006, 36.764606067370494], [28.776377203877075, 36.764606067370494], [28.776377203877075, 36.765145056540966], [28.775299225536116, 36.765145056540966], [28.775299225536116, 36.76406707820002], [28.774760236365637, 36.76406707820002], [28.774760236365637, 36.76298909985908], [28.775838214706596, 36.76298909985908], [28.775838214706596, 36.76083314317719]]]}, "id": "+387350+87643", "properties": {"area_ha": 10.359288835246607, "count": 36, "label": 1, "mean_dnbr": 0.37635584829487145}}, {"type": "Feature", "geometry": {"geodesic": false, "type": "Polygon", "coordinates": [[[28.780150128070375, 36.81796599524719], [28.780689117240826, 36.81796599524719], [28.780689117240826, 36.818504984417665], [28.780150128070375, 36.818504984417665], [28.780150128070375, 36.81904397358814], [28.778533160558965, 36.81904397358814], [28.778533160558965, 36.81958296275861], [28.779611138899895, 36.81958296275861], [28.779611138899895, 36.82012195192908], [28.779072149729416, 36.82012195192908], [28.779072149729416, 36.820660941099554], [28.777994171388485, 36.820660941099554], [28.777994171388485, 36.82012195192908], [28.778533160558965, 36.82012195192908], [28.778533160558965, 36.81958296275861], [28.777455182218006, 36.81958296275861], [28.777455182218006, 36.81904397358814], [28.777994171388485, 36.81904397358814], [28.777994171388485, 36.818504984417665], [28.780150128070375, 36.818504984417665], [28.780150128070375, 36.81796599524719]]]}, "id": "+387355+87537", "properties": {"area_ha": 3.1630097551423164, "count": 11, "label": 1, "mean_dnbr": 0.17338730866042001}}, {"type": "Feature", "geometry": {"geodesic": false, "type": "Polygon", "coordinates": [[[28.780689117240826, 36.79910137428068], [28.782306084752264, 36.79910137428068], [28.782306084752264, 36.800179352621626], [28.783384063093195, 36.800179352621626], [28.783384063093195, 36.80125733096257], [28.783923052263674, 36.80125733096257], [28.783923052263674, 36.802335309303515], [28.783384063093195, 36.802335309303515], [28.783384063093195, 36.80125733096257], [28.782306084752264, 36.80125733096257], [28.782306084752264, 36.8007183417921], [28.781228106411305, 36.8007183417921], [28.781228106411305, 36.80125733096257], [28.779611138899895, 36.80125733096257], [28.779611138899895, 36.800179352621626], [28.780150128070375, 36.800179352621626], [28.780150128070375, 36.799640363451154], [28.780689117240826, 36.799640363451154], [28.780689117240826, 36.79910137428068]]]}, "id": "+387358+87572", "properties": {"area_ha": 6.039968069256667, "count": 21, "label": 1, "mean_dnbr": 0.28164589491419756}}, {"type": "Feature", "geometry": {"geodesic": false, "type": "Polygon", "coordinates": [[[28.782845073922715, 36.73334469548313], [28.785001030604604, 36.73334469548313], [28.785001030604604, 36.733883684653605], [28.783923052263674, 36.733883684653605], [28.783923052263674, 36.73442267382408], [28.785001030604604, 36.73442267382408], [28.785001030604604, 36.73550065216502], [28.782306084752264, 36.73550065216502], [28.782306084752264, 36.73442267382408], [28.782845073922715, 36.73442267382408], [28.782845073922715, 36.73334469548313]]]}, "id": "+387363+87694", "properties": {"area_ha": 4.6058445909672745, "count": 16, "label": 1, "mean_dnbr": 0.21949475154277948}}, {"type": "Feature", "geometry": {"geodesic": false, "type": "Polygon", "coordinates": [[[28.786617998116014, 36.78939956921219], [28.787156987286494, 36.78939956921219], [28.787156987286494, 36.79047754755314], [28.787695976456973, 36.79047754755314], [28.787695976456973, 36.789938558382666], [28.788234965627453, 36.789938558382666], [28.788234965627453, 36.79047754755314], [28.788773954797904, 36.79047754755314], [28.788773954797904, 36.7910165367236], [28.789312943968383, 36.7910165367236], [28.789312943968383, 36.791555525894076], [28.788773954797904, 36.791555525894076], [28.788773954797904, 36.79263350423502], [28.787156987286494, 36.79263350423502], [28.787156987286494, 36.79317249340549], [28.786617998116014, 36.79317249340549], [28.786617998116014, 36.79209451506455], [28.786079008945563, 36.79209451506455], [28.786079008945563, 36.7910165367236], [28.785540019775084, 36.7910165367236], [28.785540019775084, 36.789938558382666], [28.785001030604604, 36.789938558382666], [28.785001030604604, 36.78939956921219], [28.785540019775084, 36.78939956921219], [28.785540019775084, 36.789938558382666], [28.786617998116014, 36.789938558382666], [28.786617998116014, 36.78939956921219]], [[28.788234965627453, 36.79047754755314], [28.788234965627453, 36.7910165367236], [28.787695976456973, 36.7910165367236], [28.787695976456973, 36.79047754755314], [28.788234965627453, 36.79047754755314]]]}, "id": "+387367+87590", "properties": {"area_ha": 7.766609388183531, "count": 27, "label": 1, "mean_dnbr": 0.17439915217651558}}, {"type": "Feature", "geometry": {"geodesic": false, "type": "Polygon", "coordinates": [[[28.788773954797904, 36.74089054386974], [28.789851933138863, 36.74089054386974], [28.789851933138863, 36.74142953304021], [28.790390922309342, 36.74142953304021], [28.790390922309342, 36.744124478892566], [28.789851933138863, 36.744124478892566], [28.789851933138863, 36.74466346806304], [28.789312943968383, 36.74466346806304], [28.789312943968383, 36.7473584139154], [28.788234965627453, 36.7473584139154], [28.788234965627453, 36.742507511381156], [28.788773954797904, 36.742507511381156], [28.788773954797904, 36.74089054386974]]]}, "id": "+387372+87680", "properties": {"area_ha": 9.498386326069184, "count": 33, "label": 1, "mean_dnbr": 0.3787083659691785}}, {"type": "Feature", "geometry": {"geodesic": false, "type": "Polygon", "coordinates": [[[28.791468900650273, 36.768917980734265], [28.79416384650264, 36.768917980734265], [28.79416384650264, 36.76999595907521], [28.794702835673093, 36.76999595907521], [28.794702835673093, 36.77161292658663], [28.795241824843572, 36.77161292658663], [28.795241824843572, 36.77376888326851], [28.790390922309342, 36.77376888326851], [28.790390922309342, 36.77161292658663], [28.789851933138863, 36.77161292658663], [28.789851933138863, 36.76945696990474], [28.791468900650273, 36.76945696990474], [28.791468900650273, 36.768917980734265]], [[28.793085868161683, 36.76999595907521], [28.793085868161683, 36.77053494824568], [28.792546878991203, 36.77053494824568], [28.792546878991203, 36.76999595907521], [28.793085868161683, 36.76999595907521]]]}, "id": "+387380+87628", "properties": {"area_ha": 21.579526946282062, "count": 75, "label": 1, "mean_dnbr": 0.3745676405435886}}, {"type": "Feature", "geometry": {"geodesic": false, "type": "Polygon", "coordinates": [[[28.790929911479793, 36.777541807461816], [28.794702835673093, 36.777541807461816], [28.794702835673093, 36.77861978580276], [28.793085868161683, 36.77861978580276], [28.793085868161683, 36.7796977641437], [28.791468900650273, 36.7796977641437], [28.791468900650273, 36.779158774973226], [28.790929911479793, 36.779158774973226], [28.790929911479793, 36.777541807461816]], [[28.792546878991203, 36.77861978580276], [28.792546878991203, 36.779158774973226], [28.792007889820752, 36.779158774973226], [28.792007889820752, 36.77861978580276], [28.792546878991203, 36.77861978580276]]]}, "id": "+387381+87612", "properties": {"area_ha": 5.7539740820229035, "count": 20, "label": 1, "mean_dnbr": 0.22579001043420818}}, {"type": "Feature", "geometry": {"geodesic": false, "type": "Polygon", "coordinates": [[[28.792007889820752, 36.75436527313153], [28.795241824843572, 36.75436527313153], [28.795241824843572, 36.754904262302], [28.79578081401405, 36.754904262302], [28.79578081401405, 36.75598224064294], [28.793085868161683, 36.75598224064294], [28.793085868161683, 36.75544325147247], [28.792546878991203, 36.75544325147247], [28.792546878991203, 36.754904262302], [28.792007889820752, 36.754904262302], [28.792007889820752, 36.75436527313153]]]}, "id": "+387382+87655", "properties": {"area_ha": 4.8923786437141334, "count": 17, "label": 1, "mean_dnbr": 0.15529855311484736}}, {"type": "Feature", "geometry": {"geodesic": false, "type": "Polygon", "coordinates": [[[28.79955373820735, 36.80341328764445], [28.80009272737783, 36.80341328764445], [28.80009272737783, 36.806108233496815], [28.80063171654828, 36.806108233496815], [28.80063171654828, 36.80664722266729], [28.798475759866392, 36.80664722266729], [28.798475759866392, 36.806108233496815], [28.79901474903687, 36.806108233496815], [28.79901474903687, 36.80556924432634], [28.798475759866392, 36.80556924432634], [28.798475759866392, 36.80503025515587], [28.79793677069594, 36.80503025515587], [28.79793677069594, 36.80556924432634], [28.796858792354982, 36.80556924432634], [28.796858792354982, 36.8044912659854], [28.798475759866392, 36.8044912659854], [28.798475759866392, 36.803952276814925], [28.79955373820735, 36.803952276814925], [28.79955373820735, 36.80341328764445]]]}, "id": "+387391+87564", "properties": {"area_ha": 6.039598854458201, "count": 21, "label": 1, "mean_dnbr": 0.2663003182010835}}, {"type": "Feature", "geometry": {"geodesic": false, "type": "Polygon", "coordinates": [[[28.80117070571876, 36.7015443344253], [28.80278767323017, 36.7015443344253], [28.80278767323017, 36.70208332359577], [28.80332666240065, 36.70208332359577], [28.80332666240065, 36.70316130193672], [28.80224868405972, 36.70316130193672], [28.80224868405972, 36.70370029110719], [28.80278767323017, 36.70370029110719], [28.80278767323017, 36.70423928027766], [28.80170969488924, 36.70423928027766], [28.80170969488924, 36.70316130193672], [28.80009272737783, 36.70316130193672], [28.80009272737783, 36.702622312766245], [28.79955373820735, 36.702622312766245], [28.79955373820735, 36.7015443344253], [28.80063171654828, 36.7015443344253], [28.80063171654828, 36.70208332359577], [28.80117070571876, 36.70208332359577], [28.80117070571876, 36.7015443344253]], [[28.80170969488924, 36.70208332359577], [28.80170969488924, 36.702622312766245], [28.80117070571876, 36.702622312766245], [28.80117070571876, 36.70208332359577], [28.80170969488924, 36.70208332359577]], [[28.80278767323017, 36.70208332359577], [28.80278767323017, 36.702622312766245], [28.80224868405972, 36.702622312766245], [28.80224868405972, 36.70208332359577], [28.80278767323017, 36.70208332359577]]]}, "id": "+387396+87753", "properties": {"area_ha": 5.471706305982489, "count": 19, "label": 1, "mean_dnbr": 0.4045937466471227}}, {"type": "Feature", "geometry": {"geodesic": false, "type": "Polygon", "coordinates": [[[28.80386565157113, 36.71070715032332], [28.80494362991206, 36.71070715032332], [28.80494362991206, 36.71178512866427], [28.80548261908254, 36.71178512866427], [28.80548261908254, 36.712863107005205], [28.80602160825302, 36.712863107005205], [28.80602160825302, 36.71232411783474], [28.80656059742347, 36.71232411783474], [28.80656059742347, 36.71394108534615], [28.80871655410536, 36.71394108534615], [28.80871655410536, 36.71448007451662], [28.80925554327584, 36.71448007451662], [28.80925554327584, 36.715019063687095], [28.80871655410536, 36.715019063687095], [28.80871655410536, 36.71663603119851], [28.80925554327584, 36.71663603119851], [28.80925554327584, 36.71555805285757], [28.80979453244632, 36.71555805285757], [28.80979453244632, 36.717714009539456], [28.80871655410536, 36.717714009539456], [28.80871655410536, 36.71825299870993], [28.80925554327584, 36.71825299870993], [28.80925554327584, 36.718791987880394], [28.80871655410536, 36.718791987880394], [28.80871655410536, 36.719330977050866], [28.80817756493491, 36.719330977050866], [28.80817756493491, 36.72094794456228], [28.80763857576443, 36.72094794456228], [28.80763857576443, 36.721486933732756], [28.80709958659395, 36.721486933732756], [28.80709958659395, 36.7225649120737], [28.80548261908254, 36.7225649120737], [28.80548261908254, 36.721486933732756], [28.80440464074158, 36.721486933732756], [28.80440464074158, 36.719330977050866], [28.80494362991206, 36.719330977050866], [28.80494362991206, 36.718791987880394], [28.80602160825302, 36.718791987880394], [28.80602160825302, 36.719330977050866], [28.80763857576443, 36.719330977050866], [28.80763857576443, 36.71825299870993], [28.80817756493491, 36.71825299870993], [28.80817756493491, 36.717714009539456], [28.80709958659395, 36.717714009539456], [28.80709958659395, 36.717175020368984], [28.80440464074158, 36.717175020368984], [28.80440464074158, 36.717714009539456], [28.80386565157113, 36.717714009539456], [28.80386565157113, 36.717175020368984], [28.80332666240065, 36.717175020368984], [28.80332666240065, 36.71663603119851], [28.80386565157113, 36.71663603119851], [28.80386565157113, 36.71609704202804], [28.80332666240065, 36.71609704202804], [28.80332666240065, 36.71448007451662], [28.80440464074158, 36.71448007451662], [28.80440464074158, 36.715019063687095], [28.80386565157113, 36.715019063687095], [28.80386565157113, 36.71555805285757], [28.80494362991206, 36.71555805285757], [28.80494362991206, 36.715019063687095], [28.80548261908254, 36.715019063687095], [28.80548261908254, 36.71394108534615], [28.80332666240065, 36.71394108534615], [28.80332666240065, 36.712863107005205], [28.80386565157113, 36.712863107005205], [28.80386565157113, 36.71232411783474], [28.80332666240065, 36.71232411783474], [28.80332666240065, 36.71178512866427], [28.80278767323017, 36.71178512866427], [28.80278767323017, 36.711246139493795], [28.80386565157113, 36.711246139493795], [28.80386565157113, 36.71070715032332]], [[28.80817756493491, 36.71555805285757], [28.80817756493491, 36.71663603119851], [28.80763857576443, 36.71663603119851], [28.80763857576443, 36.71609704202804], [28.80656059742347, 36.71609704202804], [28.80656059742347, 36.71555805285757], [28.80817756493491, 36.71555805285757]], [[28.80602160825302, 36.715019063687095], [28.80602160825302, 36.71609704202804], [28.80548261908254, 36.71609704202804], [28.80548261908254, 36.715019063687095], [28.80602160825302, 36.715019063687095]], [[28.80656059742347, 36.71448007451662], [28.80656059742347, 36.715019063687095], [28.80602160825302, 36.715019063687095], [28.80602160825302, 36.71448007451662], [28.80656059742347, 36.71448007451662]]]}, "id": "+387400+87736", "properties": {"area_ha": 35.12768797893543, "count": 122, "label": 1, "mean_dnbr": 0.40295838857337407}}, {"type": "Feature", "geometry": {"geodesic": false, "type": "Polygon", "coordinates": [[[28.80817756493491, 36.80556924432634], [28.80925554327584, 36.80556924432634], [28.80925554327584, 36.80934216851964], [28.80979453244632, 36.80934216851964], [28.80979453244632, 36.809881157690114], [28.80925554327584, 36.809881157690114], [28.80925554327584, 36.81042014686059], [28.80871655410536, 36.81042014686059], [28.80871655410536, 36.809881157690114], [28.80925554327584, 36.809881157690114], [28.80925554327584, 36.80934216851964], [28.80871655410536, 36.80934216851964], [28.80871655410536, 36.80718621183776], [28.80817756493491, 36.80718621183776], [28.80817756493491, 36.80556924432634]]]}, "id": "+387408+87560", "properties": {"area_ha": 3.451087442453622, "count": 12, "label": 1, "mean_dnbr": 0.16824105304437798}}, {"type": "Feature", "geometry": {"geodesic": false, "type": "Polygon", "coordinates": [[[28.811950489128208, 36.76029415400672], [28.813028467469138, 36.76029415400672], [28.813028467469138, 36.76083314317719], [28.813567456639618, 36.76083314317719], [28.813567456639618, 36.762450110688604], [28.811950489128208, 36.762450110688604], [28.811950489128208, 36.76029415400672]]]}, "id": "+387415+87644", "properties": {"area_ha": 3.1654048739328826, "count": 11, "label": 1, "mean_dnbr": 0.2338087371572351}}, {"type": "Feature", "geometry": {"geodesic": false, "type": "Polygon", "coordinates": [[[28.815184424151028, 36.71178512866427], [28.816262402491958, 36.71178512866427], [28.816262402491958, 36.71232411783474], [28.815723413321507, 36.71232411783474], [28.815723413321507, 36.712863107005205], [28.815184424151028, 36.712863107005205], [28.815184424151028, 36.71340209617568], [28.814106445810097, 36.71340209617568], [28.814106445810097, 36.71448007451662], [28.815184424151028, 36.71448007451662], [28.815184424151028, 36.715019063687095], [28.815723413321507, 36.715019063687095], [28.815723413321507, 36.71555805285757], [28.814106445810097, 36.71555805285757], [28.814106445810097, 36.71448007451662], [28.813567456639618, 36.71448007451662], [28.813567456639618, 36.715019063687095], [28.813028467469138, 36.715019063687095], [28.813028467469138, 36.71555805285757], [28.81248947829866, 36.71555805285757], [28.81248947829866, 36.71609704202804], [28.811950489128208, 36.71609704202804], [28.811950489128208, 36.717175020368984], [28.813028467469138, 36.717175020368984], [28.813028467469138, 36.717714009539456], [28.811950489128208, 36.717714009539456], [28.811950489128208, 36.717175020368984], [28.81087251078725, 36.717175020368984], [28.81087251078725, 36.71448007451662], [28.811411499957728, 36.71448007451662], [28.811411499957728, 36.71394108534615], [28.811950489128208, 36.71394108534615], [28.811950489128208, 36.71340209617568], [28.811411499957728, 36.71340209617568], [28.811411499957728, 36.712863107005205], [28.811950489128208, 36.712863107005205], [28.811950489128208, 36.71340209617568], [28.813028467469138, 36.71340209617568], [28.813028467469138, 36.712863107005205], [28.813567456639618, 36.712863107005205], [28.813567456639618, 36.71232411783474], [28.815184424151028, 36.71232411783474], [28.815184424151028, 36.71178512866427]]]}, "id": "+387421+87734", "properties": {"area_ha": 12.381411115172426, "count": 43, "label": 1, "mean_dnbr": 0.38552830202711463}}, {"type": "Feature", "geometry": {"geodesic": false, "type": "Polygon", "coordinates": [[[29.16552738495764, 36.834674659531814], [29.16606637412812, 36.834674659531814], [29.16606637412812, 36.835213648702286], [29.16768334163953, 36.835213648702286], [29.16768334163953, 36.83575263787276], [29.16714435246905, 36.83575263787276], [29.16714435246905, 36.8368306162137], [29.16876131998046, 36.8368306162137], [29.16876131998046, 36.837369605384175], [29.16822233081001, 36.837369605384175], [29.16822233081001, 36.83790859455465], [29.16876131998046, 36.83790859455465], [29.16876131998046, 36.83844758372512], [29.166605363298572, 36.83844758372512], [29.166605363298572, 36.83790859455465], [29.16606637412812, 36.83790859455465], [29.16606637412812, 36.83844758372512], [29.16552738495764, 36.83844758372512], [29.16552738495764, 36.83898657289559], [29.163910417446232, 36.83898657289559], [29.163910417446232, 36.83844758372512], [29.16552738495764, 36.83844758372512], [29.16552738495764, 36.83790859455465], [29.16606637412812, 36.83790859455465], [29.16606637412812, 36.8368306162137], [29.164988395787162, 36.8368306162137], [29.164988395787162, 36.83629162704323], [29.16552738495764, 36.83629162704323], [29.16552738495764, 36.834674659531814]]]}, "id": "+388070+87506", "properties": {"area_ha": 8.33692213639935, "count": 29, "label": 1, "mean_dnbr": 0.22280299074211019}}, {"type": "Feature", "geometry": {"geodesic": false, "type": "Polygon", "coordinates": [[[29.246914749698874, 36.512898124760206], [29.250687673892173, 36.512898124760206], [29.250687673892173, 36.51559307061256], [29.249070706380763, 36.51559307061256], [29.249070706380763, 36.516671048953505], [29.247453738869353, 36.516671048953505], [29.247453738869353, 36.51721003812398], [29.246375760528394, 36.51721003812398], [29.246375760528394, 36.51828801646492], [29.245836771357915, 36.51828801646492], [29.245836771357915, 36.51990498397633], [29.245297782187464, 36.51990498397633], [29.245297782187464, 36.520443973146804], [29.240985868823685, 36.520443973146804], [29.240985868823685, 36.518827005635394], [29.240446879653206, 36.518827005635394], [29.240446879653206, 36.51936599480587], [29.239907890482726, 36.51936599480587], [29.239907890482726, 36.51990498397633], [29.239368901312275, 36.51990498397633], [29.239368901312275, 36.518827005635394], [29.240446879653206, 36.518827005635394], [29.240446879653206, 36.51828801646492], [29.241524857994165, 36.51828801646492], [29.241524857994165, 36.51774902729445], [29.242063847164616, 36.51774902729445], [29.242063847164616, 36.51613205978303], [29.243141825505575, 36.51613205978303], [29.243141825505575, 36.51559307061256], [29.243680814676054, 36.51559307061256], [29.243680814676054, 36.51613205978303], [29.244219803846505, 36.51613205978303], [29.244219803846505, 36.51559307061256], [29.244758793016985, 36.51559307061256], [29.244758793016985, 36.51505408144209], [29.244219803846505, 36.51505408144209], [29.244219803846505, 36.514515092271616], [29.245297782187464, 36.514515092271616], [29.245297782187464, 36.51397610310114], [29.247453738869353, 36.51397610310114], [29.247453738869353, 36.51343711393068], [29.246914749698874, 36.51343711393068], [29.246914749698874, 36.512898124760206]]]}, "id": "+388227+88103", "properties": {"area_ha": 38.97173649013002, "count": 135, "label": 1, "mean_dnbr": 0.5184127118874954}}, {"type": "Feature", "geometry": {"geodesic": false, "type": "Polygon", "coordinates": [[[29.27009128402915, 36.46438909941775], [29.27170825154056, 36.46438909941775], [29.27170825154056, 36.46546707775869], [29.27224724071104, 36.46546707775869], [29.27224724071104, 36.46654505609963], [29.27170825154056, 36.46654505609963], [29.27170825154056, 36.46816202361105], [29.27224724071104, 36.46816202361105], [29.27224724071104, 36.46870101278152], [29.27170825154056, 36.46870101278152], [29.27170825154056, 36.46816202361105], [29.27116926237011, 36.46816202361105], [29.27116926237011, 36.46654505609963], [29.27063027319963, 36.46654505609963], [29.27063027319963, 36.46546707775869], [29.27009128402915, 36.46546707775869], [29.27009128402915, 36.46438909941775]]]}, "id": "+388266+88193", "properties": {"area_ha": 4.621894322001239, "count": 16, "label": 1, "mean_dnbr": 0.46373815833325566}}, {"type": "Feature", "geometry": {"geodesic": false, "type": "Polygon", "coordinates": [[[29.300274677575572, 36.314550110026616], [29.301352655916503, 36.314550110026616], [29.301352655916503, 36.31562808836755], [29.299735688405093, 36.31562808836755], [29.299735688405093, 36.316167077538026], [29.299196699234614, 36.316167077538026], [29.299196699234614, 36.3167060667085], [29.298118720893683, 36.3167060667085], [29.298118720893683, 36.31724505587897], [29.297040742552753, 36.31724505587897], [29.297040742552753, 36.3167060667085], [29.297579731723204, 36.3167060667085], [29.297579731723204, 36.316167077538026], [29.299196699234614, 36.316167077538026], [29.299196699234614, 36.31562808836755], [29.299735688405093, 36.31562808836755], [29.299735688405093, 36.31508909919708], [29.300274677575572, 36.31508909919708], [29.300274677575572, 36.314550110026616]]]}, "id": "+388321+88471", "properties": {"area_ha": 3.1836962828277606, "count": 11, "label": 1, "mean_dnbr": 0.3024059758175324}}, {"type": "Feature", "geometry": {"geodesic": false, "type": "Polygon", "coordinates": [[[29.301352655916503, 36.52745083236294], [29.301891645086982, 36.52745083236294], [29.301891645086982, 36.52852881070388], [29.302430634257462, 36.52852881070388], [29.302430634257462, 36.529067799874355], [29.30296962342794, 36.529067799874355], [29.30296962342794, 36.52960678904483], [29.301891645086982, 36.52960678904483], [29.301891645086982, 36.5301457782153], [29.300274677575572, 36.5301457782153], [29.300274677575572, 36.529067799874355], [29.299735688405093, 36.529067799874355], [29.299735688405093, 36.52852881070388], [29.300274677575572, 36.52852881070388], [29.300274677575572, 36.52798982153341], [29.301352655916503, 36.52798982153341], [29.301352655916503, 36.52745083236294]]]}, "id": "+388322+88076", "properties": {"area_ha": 4.906775630531904, "count": 17, "label": 1, "mean_dnbr": 0.3186110725816809}}, {"type": "Feature", "geometry": {"geodesic": false, "type": "Polygon", "coordinates": [[[29.302430634257462, 36.46492808858822], [29.30458659093935, 36.46492808858822], [29.30458659093935, 36.46546707775869], [29.30566456928028, 36.46546707775869], [29.30566456928028, 36.46654505609963], [29.305125580109802, 36.46654505609963], [29.305125580109802, 36.467084045270106], [29.303508612598392, 36.467084045270106], [29.303508612598392, 36.46654505609963], [29.302430634257462, 36.46654505609963], [29.302430634257462, 36.46600606692916], [29.301891645086982, 36.46600606692916], [29.301891645086982, 36.46546707775869], [29.302430634257462, 36.46546707775869], [29.302430634257462, 36.46492808858822]], [[29.30458659093935, 36.46600606692916], [29.30458659093935, 36.46654505609963], [29.304047601768872, 36.46654505609963], [29.304047601768872, 36.46600606692916], [29.30458659093935, 36.46600606692916]]]}, "id": "+388327+88192", "properties": {"area_ha": 5.488503717131589, "count": 19, "label": 1, "mean_dnbr": 0.40919768175447085}}, {"type": "Feature", "geometry": {"geodesic": false, "type": "Polygon", "coordinates": [[[29.31321041766688, 36.53068476738577], [29.31428839600784, 36.53068476738577], [29.31428839600784, 36.53176274572671], [29.31482738517832, 36.53176274572671], [29.31482738517832, 36.5339187024086], [29.31374940683736, 36.5339187024086], [29.31374940683736, 36.53176274572671], [29.31321041766688, 36.53176274572671], [29.31321041766688, 36.53068476738577]]]}, "id": "+388345+88070", "properties": {"area_ha": 3.463456126428143, "count": 12, "label": 1, "mean_dnbr": 0.3037311682660297}}, {"type": "Feature", "geometry": {"geodesic": false, "type": "Polygon", "coordinates": [[[29.323451211905848, 36.444446500110296], [29.323990201076327, 36.444446500110296], [29.323990201076327, 36.44498548928077], [29.324529190246807, 36.44498548928077], [29.324529190246807, 36.44552447845124], [29.325607168587737, 36.44552447845124], [29.325607168587737, 36.44606346762171], [29.326685146928696, 36.44606346762171], [29.326685146928696, 36.44498548928077], [29.327224136099147, 36.44498548928077], [29.327224136099147, 36.44606346762171], [29.327763125269627, 36.44606346762171], [29.327763125269627, 36.446602456792185], [29.327224136099147, 36.446602456792185], [29.327224136099147, 36.44714144596266], [29.325607168587737, 36.44714144596266], [29.325607168587737, 36.446602456792185], [29.325068179417258, 36.446602456792185], [29.325068179417258, 36.44606346762171], [29.323451211905848, 36.44606346762171], [29.323451211905848, 36.444446500110296]]]}, "id": "+388363+88230", "properties": {"area_ha": 4.912037313314003, "count": 17, "label": 1, "mean_dnbr": 0.35085889937430875}}, {"type": "Feature", "geometry": {"geodesic": false, "type": "Polygon", "coordinates": [[[29.334230995315295, 36.46977899112247], [29.335308973656225, 36.46977899112247], [29.335308973656225, 36.47031798029294], [29.335847962826705, 36.47031798029294], [29.335847962826705, 36.47139595863388], [29.334230995315295, 36.47139595863388], [29.334230995315295, 36.47193494780435], [29.331536049462926, 36.47193494780435], [29.331536049462926, 36.47085696946341], [29.332075038633405, 36.47085696946341], [29.332075038633405, 36.47031798029294], [29.332614027803885, 36.47031798029294], [29.332614027803885, 36.46977899112247], [29.333692006144815, 36.46977899112247], [29.333692006144815, 36.47031798029294], [29.334230995315295, 36.47031798029294], [29.334230995315295, 36.46977899112247]]]}, "id": "+388384+88183", "properties": {"area_ha": 6.9324218343843125, "count": 24, "label": 1, "mean_dnbr": 0.36905590297968216}}, {"type": "Feature", "geometry": {"geodesic": false, "type": "Polygon", "coordinates": [[[29.335308973656225, 36.47624686116813], [29.336386951997184, 36.47624686116813], [29.336386951997184, 36.4767858503386], [29.338003919508594, 36.4767858503386], [29.338003919508594, 36.47894180702048], [29.337464930338115, 36.47894180702048], [29.337464930338115, 36.47786382867954], [29.336925941167635, 36.47786382867954], [29.336925941167635, 36.47732483950907], [29.335308973656225, 36.47732483950907], [29.335308973656225, 36.47624686116813]]]}, "id": "+388386+88171", "properties": {"area_ha": 3.17709050957762, "count": 11, "label": 1, "mean_dnbr": 0.3122512477704827}}, {"type": "Feature", "geometry": {"geodesic": false, "type": "Polygon", "coordinates": [[[29.343932800383783, 36.72094794456228], [29.346088757065672, 36.72094794456228], [29.346088757065672, 36.72202592290323], [29.345549767895193, 36.72202592290323], [29.345549767895193, 36.7225649120737], [29.343932800383783, 36.7225649120737], [29.343932800383783, 36.72202592290323], [29.343393811213303, 36.72202592290323], [29.343393811213303, 36.721486933732756], [29.343932800383783, 36.721486933732756], [29.343932800383783, 36.72094794456228]]]}, "id": "+388404+87717", "properties": {"area_ha": 3.4549510878637286, "count": 12, "label": 1, "mean_dnbr": 0.3655516667253161}}]}