{"type": "FeatureCollection", "columns": {"area_ha": "Number", "count": "Long<0, 4294967295>", "label": "Byte<0, 1>", "mean_dnbr": "Object", "system:index": "String"}, "features": [{"type": "Feature", "geometry": {"geodesic": false, "type": "Polygon", "coordinates": [[[28.52466926126678, 36.83952556206606], [28.52574723960771, 36.83952556206606], [28.52574723960771, 36.841142529577475], [28.52520825043726, 36.841142529577475], [28.52520825043726, 36.84168151874795], [28.52359128292582, 36.84168151874795], [28.52359128292582, 36.84222050791842], [28.52305229375537, 36.84222050791842], [28.52305229375537, 36.84275949708889], [28.52197431541441, 36.84275949708889], [28.52197431541441, 36.84222050791842], [28.52251330458489, 36.84222050791842], [28.52251330458489, 36.841142529577475], [28.52305229375537, 36.841142529577475], [28.52305229375537, 36.84006455123653], [28.52466926126678, 36.84006455123653], [28.52466926126678, 36.83952556206606]]]}, "id": "+386882+87497", "properties": {"area_ha": 6.036765767341968, "count": 21, "label": 1, "mean_dnbr": 0.23336591134729145}}, {"type": "Feature", "geometry": {"geodesic": false, "type": "Polygon", "coordinates": [[[28.652409694668563, 36.851383323816435], [28.652948683839043, 36.851383323816435], [28.652948683839043, 36.85461725883927], [28.650792727157153, 36.85461725883927], [28.650792727157153, 36.8540782696688], [28.651331716327633, 36.8540782696688], [28.651331716327633, 36.85300029132785], [28.651870705498112, 36.85300029132785], [28.651870705498112, 36.853539280498325], [28.652409694668563, 36.853539280498325], [28.652409694668563, 36.851383323816435]]]}, "id": "+387118+87475", "properties": {"area_ha": 3.4490244743203693, "count": 12, "label": 1, "mean_dnbr": 0.1947842268340922}}, {"type": "Feature", "geometry": {"geodesic": false, "type": "Polygon", "coordinates": [[[28.66426745641894, 36.85515624800974], [28.66696240227131, 36.85515624800974], [28.66696240227131, 36.855695237180214], [28.66750139144179, 36.855695237180214], [28.66750139144179, 36.856234226350686], [28.66804038061224, 36.856234226350686], [28.66804038061224, 36.857851193862096], [28.66588442393035, 36.857851193862096], [28.66588442393035, 36.85839018303257], [28.6653454347599, 36.85839018303257], [28.6653454347599, 36.857312204691624], [28.66480644558942, 36.857312204691624], [28.66480644558942, 36.856234226350686], [28.66426745641894, 36.856234226350686], [28.66426745641894, 36.85515624800974]]]}, "id": "+387144+87468", "properties": {"area_ha": 8.334786075895565, "count": 29, "label": 1, "mean_dnbr": 0.5398059074898197}}, {"type": "Feature", "geometry": {"geodesic": false, "type": "Polygon", "coordinates": [[[28.676664207339797, 36.87294289063531], [28.678281174851207, 36.87294289063531], [28.678281174851207, 36.87348187980578], [28.677742185680728, 36.87348187980578], [28.677742185680728, 36.87402086897625], [28.677203196510277, 36.87402086897625], [28.677203196510277, 36.874559858146725], [28.676125218169318, 36.874559858146725], [28.676125218169318, 36.8750988473172], [28.675586228998867, 36.8750988473172], [28.675586228998867, 36.874559858146725], [28.675047239828388, 36.874559858146725], [28.675047239828388, 36.876176825658135], [28.674508250657908, 36.876176825658135], [28.674508250657908, 36.874559858146725], [28.675047239828388, 36.874559858146725], [28.675047239828388, 36.87402086897625], [28.675586228998867, 36.87402086897625], [28.675586228998867, 36.87348187980578], [28.676664207339797, 36.87348187980578], [28.676664207339797, 36.87294289063531]]]}, "id": "+387165+87435", "properties": {"area_ha": 4.310102776402869, "count": 15, "label": 1, "mean_dnbr": 0.21146251378390624}}, {"type": "Feature", "geometry": {"geodesic": false, "type": "Polygon", "coordinates": [[[28.687443990749244, 36.853539280498325], [28.688521969090175, 36.853539280498325], [28.688521969090175, 36.8540782696688], [28.689060958260654, 36.8540782696688], [28.689060958260654, 36.85515624800974], [28.685288034067355, 36.85515624800974], [28.685288034067355, 36.8540782696688], [28.687443990749244, 36.8540782696688], [28.687443990749244, 36.853539280498325]]]}, "id": "+387184+87471", "properties": {"area_ha": 4.598658369552382, "count": 16, "label": 1, "mean_dnbr": 0.20128952545040038}}, {"type": "Feature", "geometry": {"geodesic": false, "type": "Polygon", "coordinates": [[[28.690677925772064, 36.86054613971446], [28.693372871624433, 36.86054613971446], [28.693372871624433, 36.8616241180554], [28.692833882453954, 36.8616241180554], [28.692833882453954, 36.862163107225875], [28.691755904112995, 36.862163107225875], [28.691755904112995, 36.8616241180554], [28.691216914942544, 36.8616241180554], [28.691216914942544, 36.86108512888493], [28.690677925772064, 36.86108512888493], [28.690677925772064, 36.86054613971446]]]}, "id": "+387193+87458", "properties": {"area_ha": 3.161268440638487, "count": 11, "label": 1, "mean_dnbr": 0.2424640620197365}}, {"type": "Feature", "geometry": {"geodesic": false, "type": "Polygon", "coordinates": [[[28.728407167705086, 36.70962917198238], [28.728946156875566, 36.70962917198238], [28.728946156875566, 36.71016816115285], [28.730563124386975, 36.71016816115285], [28.730563124386975, 36.71070715032332], [28.731102113557455, 36.71070715032332], [28.731102113557455, 36.71178512866427], [28.728946156875566, 36.71178512866427], [28.728946156875566, 36.711246139493795], [28.728407167705086, 36.711246139493795], [28.728407167705086, 36.70962917198238]]]}, "id": "+387259+87738", "properties": {"area_ha": 4.031352031399701, "count": 14, "label": 1, "mean_dnbr": 0.1947177048229253}}, {"type": "Feature", "geometry": {"geodesic": false, "type": "Polygon", "coordinates": [[[28.743498864478283, 36.712863107005205], [28.745115831989693, 36.712863107005205], [28.745115831989693, 36.71340209617568], [28.747271788671583, 36.71340209617568], [28.747271788671583, 36.71609704202804], [28.74673279950113, 36.71609704202804], [28.74673279950113, 36.71663603119851], [28.745654821160173, 36.71663603119851], [28.745654821160173, 36.71555805285757], [28.745115831989693, 36.71555805285757], [28.745115831989693, 36.71394108534615], [28.744576842819242, 36.71394108534615], [28.744576842819242, 36.71340209617568], [28.743498864478283, 36.71340209617568], [28.743498864478283, 36.712863107005205]]]}, "id": "+387289+87732", "properties": {"area_ha": 7.198481598982874, "count": 25, "label": 1, "mean_dnbr": 0.22568066092752823}}, {"type": "Feature", "geometry": {"geodesic": false, "type": "Polygon", "coordinates": [[[28.74888875618302, 36.71986996622134], [28.74996673452395, 36.71986996622134], [28.74996673452395, 36.72094794456228], [28.75050572369443, 36.72094794456228], [28.75050572369443, 36.721486933732756], [28.74888875618302, 36.721486933732756], [28.74888875618302, 36.72094794456228], [28.74673279950113, 36.72094794456228], [28.74673279950113, 36.72040895539181], [28.74888875618302, 36.72040895539181], [28.74888875618302, 36.71986996622134]]]}, "id": "+387298+87719", "properties": {"area_ha": 3.1670845732662745, "count": 11, "label": 1, "mean_dnbr": 0.30153727251656204}}, {"type": "Feature", "geometry": {"geodesic": false, "type": "Polygon", "coordinates": [[[28.75050572369443, 36.71448007451662], [28.75158370203536, 36.71448007451662], [28.75158370203536, 36.715019063687095], [28.75427864788773, 36.715019063687095], [28.75427864788773, 36.71555805285757], [28.75535662622866, 36.71555805285757], [28.75535662622866, 36.71609704202804], [28.75320066954677, 36.71609704202804], [28.75320066954677, 36.71555805285757], [28.75266168037632, 36.71555805285757], [28.75266168037632, 36.71609704202804], [28.75212269120584, 36.71609704202804], [28.75212269120584, 36.71663603119851], [28.75050572369443, 36.71663603119851], [28.75050572369443, 36.71448007451662]]]}, "id": "+387301+87729", "properties": {"area_ha": 5.758710362905229, "count": 20, "label": 1, "mean_dnbr": 0.21497924699562596}}, {"type": "Feature", "geometry": {"geodesic": false, "type": "Polygon", "coordinates": [[[28.75266168037632, 36.86054613971446], [28.75535662622866, 36.86054613971446], [28.75535662622866, 36.86108512888493], [28.75481763705821, 36.86108512888493], [28.75481763705821, 36.862163107225875], [28.75373965871725, 36.862163107225875], [28.75373965871725, 36.8616241180554], [28.75320066954677, 36.8616241180554], [28.75320066954677, 36.862163107225875], [28.75212269120584, 36.862163107225875], [28.75212269120584, 36.86108512888493], [28.75266168037632, 36.86108512888493], [28.75266168037632, 36.86054613971446]]]}, "id": "+387308+87458", "properties": {"area_ha": 4.023430859009076, "count": 14, "label": 1, "mean_dnbr": 0.28003770967669284}}, {"type": "Feature", "geometry": {"geodesic": false, "type": "Polygon", "coordinates": [[[28.75535662622866, 36.71825299870993], [28.75643460456962, 36.71825299870993], [28.75643460456962, 36.719330977050866], [28.75589561539914, 36.719330977050866], [28.75589561539914, 36.72040895539181], [28.75535662622866, 36.72040895539181], [28.75535662622866, 36.721486933732756], [28.75481763705821, 36.721486933732756], [28.75481763705821, 36.718791987880394], [28.75535662622866, 36.718791987880394], [28.75535662622866, 36.71825299870993]]]}, "id": "+387310+87722", "properties": {"area_ha": 3.1671284611171893, "count": 11, "label": 1, "mean_dnbr": 0.3584905091133437}}, {"type": "Feature", "geometry": {"geodesic": false, "type": "Polygon", "coordinates": [[[28.76182449627433, 36.69831039940247], [28.76290247461526, 36.69831039940247], [28.76290247461526, 36.698849388572945], [28.76344146378574, 36.698849388572945], [28.76344146378574, 36.69938837774342], [28.770987312172338, 36.69938837774342], [28.770987312172338, 36.698849388572945], [28.772604279683776, 36.698849388572945], [28.772604279683776, 36.69938837774342], [28.771526301342817, 36.69938837774342], [28.771526301342817, 36.700466356084355], [28.772065290513297, 36.700466356084355], [28.772065290513297, 36.70100534525483], [28.771526301342817, 36.70100534525483], [28.771526301342817, 36.70316130193672], [28.773143268854227, 36.70316130193672], [28.773143268854227, 36.70370029110719], [28.773682258024706, 36.70370029110719], [28.773682258024706, 36.70316130193672], [28.775299225536116, 36.70316130193672], [28.775299225536116, 36.70423928027766], [28.775838214706596, 36.70423928027766], [28.775838214706596, 36.70531725861861], [28.774760236365637, 36.70531725861861], [28.774760236365637, 36.704778269448134], [28.774221247195186, 36.704778269448134], [28.774221247195186, 36.70585624778908], [28.768292366319997, 36.70585624778908], [28.768292366319997, 36.70531725861861], [28.767753377149518, 36.70531725861861], [28.767753377149518, 36.70585624778908], [28.76398045295622, 36.70585624778908], [28.76398045295622, 36.70639523695955], [28.76290247461526, 36.70639523695955], [28.76290247461526, 36.706934226130016], [28.76128550710385, 36.706934226130016], [28.76128550710385, 36.70747321530049], [28.75966853959244, 36.70747321530049], [28.75966853959244, 36.706934226130016], [28.75912955042196, 36.706934226130016], [28.75912955042196, 36.70801220447096], [28.75751258291055, 36.70801220447096], [28.75751258291055, 36.70855119364143], [28.75535662622866, 36.70855119364143], [28.75535662622866, 36.709090182811906], [28.75427864788773, 36.709090182811906], [28.75427864788773, 36.70962917198238], [28.75320066954677, 36.70962917198238], [28.75320066954677, 36.709090182811906], [28.75373965871725, 36.709090182811906], [28.75373965871725, 36.70855119364143], [28.75427864788773, 36.70855119364143], [28.75427864788773, 36.70801220447096], [28.75266168037632, 36.70801220447096], [28.75266168037632, 36.70855119364143], [28.75212269120584, 36.70855119364143], [28.75212269120584, 36.70801220447096], [28.751044712864882, 36.70801220447096], [28.751044712864882, 36.709090182811906], [28.75266168037632, 36.709090182811906], [28.75266168037632, 36.70962917198238], [28.75212269120584, 36.70962917198238], [28.75212269120584, 36.71016816115285], [28.75050572369443, 36.71016816115285], [28.75050572369443, 36.71070715032332], [28.74996673452395, 36.71070715032332], [28.74996673452395, 36.70962917198238], [28.74888875618302, 36.70962917198238], [28.74888875618302, 36.71016816115285], [28.74834976701254, 36.71016816115285], [28.74834976701254, 36.70962917198238], [28.747271788671583, 36.70962917198238], [28.747271788671583, 36.71178512866427], [28.746193810330652, 36.71178512866427], [28.746193810330652, 36.71232411783474], [28.745115831989693, 36.71232411783474], [28.745115831989693, 36.71178512866427], [28.744576842819242, 36.71178512866427], [28.744576842819242, 36.711246139493795], [28.742959875307832, 36.711246139493795], [28.742959875307832, 36.71178512866427], [28.741342907796394, 36.71178512866427], [28.741342907796394, 36.71232411783474], [28.742959875307832, 36.71232411783474], [28.742959875307832, 36.71340209617568], [28.741881896966873, 36.71340209617568], [28.741881896966873, 36.71394108534615], [28.739186951114505, 36.71394108534615], [28.739186951114505, 36.71340209617568], [28.738108972773574, 36.71340209617568], [28.738108972773574, 36.712863107005205], [28.737030994432644, 36.712863107005205], [28.737030994432644, 36.71232411783474], [28.735953016091685, 36.71232411783474], [28.735953016091685, 36.712863107005205], [28.734875037750754, 36.712863107005205], [28.734875037750754, 36.71232411783474], [28.734336048580275, 36.71232411783474], [28.734336048580275, 36.71178512866427], [28.733797059409795, 36.71178512866427], [28.733797059409795, 36.71070715032332], [28.734336048580275, 36.71070715032332], [28.734336048580275, 36.71016816115285], [28.735414026921205, 36.71016816115285], [28.735414026921205, 36.70962917198238], [28.738647961944054, 36.70962917198238], [28.738647961944054, 36.709090182811906], [28.741881896966873, 36.709090182811906], [28.741881896966873, 36.70962917198238], [28.742420886137353, 36.70962917198238], [28.742420886137353, 36.709090182811906], [28.745654821160173, 36.709090182811906], [28.745654821160173, 36.70855119364143], [28.747271788671583, 36.70855119364143], [28.747271788671583, 36.709090182811906], [28.747810777842062, 36.709090182811906], [28.747810777842062, 36.70801220447096], [28.74834976701254, 36.70801220447096], [28.74834976701254, 36.706934226130016], [28.74888875618302, 36.706934226130016], [28.74888875618302, 36.70639523695955], [28.749427745353472, 36.70639523695955], [28.749427745353472, 36.70585624778908], [28.74996673452395, 36.70585624778908], [28.74996673452395, 36.70531725861861], [28.75158370203536, 36.70531725861861], [28.75158370203536, 36.704778269448134], [28.75320066954677, 36.704778269448134], [28.75320066954677, 36.70423928027766], [28.75427864788773, 36.70423928027766], [28.75427864788773, 36.70370029110719], [28.75481763705821, 36.70370029110719], [28.75481763705821, 36.70316130193672], [28.75697359374007, 36.70316130193672], [28.75697359374007, 36.7015443344253], [28.75751258291055, 36.7015443344253], [28.75751258291055, 36.70100534525483], [28.75859056125151, 36.70100534525483], [28.75859056125151, 36.700466356084355], [28.75912955042196, 36.700466356084355], [28.75912955042196, 36.69992736691389], [28.7607465179334, 36.69992736691389], [28.7607465179334, 36.69938837774342], [28.76128550710385, 36.69938837774342], [28.76128550710385, 36.698849388572945], [28.76182449627433, 36.698849388572945], [28.76182449627433, 36.69831039940247]], [[28.739725940284984, 36.711246139493795], [28.739725940284984, 36.71178512866427], [28.739186951114505, 36.71178512866427], [28.739186951114505, 36.711246139493795], [28.739725940284984, 36.711246139493795]], [[28.737569983603095, 36.71070715032332], [28.737569983603095, 36.711246139493795], [28.738647961944054, 36.711246139493795], [28.738647961944054, 36.71178512866427], [28.737030994432644, 36.71178512866427], [28.737030994432644, 36.711246139493795], [28.734336048580275, 36.711246139493795], [28.734336048580275, 36.71070715032332], [28.737569983603095, 36.71070715032332]], [[28.751044712864882, 36.709090182811906], [28.751044712864882, 36.70962917198238], [28.74996673452395, 36.70962917198238], [28.74996673452395, 36.709090182811906], [28.751044712864882, 36.709090182811906]], [[28.75320066954677, 36.70639523695955], [28.75320066954677, 36.70747321530049], [28.75266168037632, 36.70747321530049], [28.75266168037632, 36.70801220447096], [28.75212269120584, 36.70801220447096], [28.75212269120584, 36.70747321530049], [28.75158370203536, 36.70747321530049], [28.75158370203536, 36.70639523695955], [28.75320066954677, 36.70639523695955]], [[28.75912955042196, 36.70639523695955], [28.75912955042196, 36.706934226130016], [28.75859056125151, 36.706934226130016], [28.75859056125151, 36.70639523695955], [28.75912955042196, 36.70639523695955]], [[28.75535662622866, 36.70585624778908], [28.75535662622866, 36.70639523695955], [28.75481763705821, 36.70639523695955], [28.75481763705821, 36.70585624778908], [28.75535662622866, 36.70585624778908]], [[28.76290247461526, 36.70585624778908], [28.76290247461526, 36.70639523695955], [28.76236348544481, 36.70639523695955], [28.76236348544481, 36.70585624778908], [28.76290247461526, 36.70585624778908]], [[28.76236348544481, 36.70531725861861], [28.76236348544481, 36.70585624778908], [28.76182449627433, 36.70585624778908], [28.76182449627433, 36.70531725861861], [28.76236348544481, 36.70531725861861]]]}, "id": "+387322+87759", "properties": {"area_ha": 188.9103080595704, "count": 656, "label": 1, "mean_dnbr": 0.3775442420623184}}, {"type": "Feature", "geometry": {"geodesic": false, "type": "Polygon", "coordinates": [[[28.76236348544481, 36.71394108534615], [28.766136409638108, 36.71394108534615], [28.766136409638108, 36.71448007451662], [28.76559742046763, 36.71448007451662], [28.76559742046763, 36.715019063687095], [28.76505843129715, 36.715019063687095], [28.76505843129715, 36.71448007451662], [28.764519442126698, 36.71448007451662], [28.764519442126698, 36.715019063687095], [28.76344146378574, 36.715019063687095], [28.76344146378574, 36.71555805285757], [28.76559742046763, 36.71555805285757], [28.76559742046763, 36.71609704202804], [28.764519442126698, 36.71609704202804], [28.764519442126698, 36.71663603119851], [28.76290247461526, 36.71663603119851], [28.76290247461526, 36.71609704202804], [28.76236348544481, 36.71609704202804], [28.76236348544481, 36.71663603119851], [28.76128550710385, 36.71663603119851], [28.76128550710385, 36.71609704202804], [28.76236348544481, 36.71609704202804], [28.76236348544481, 36.71394108534615]]]}, "id": "+387328+87730", "properties": {"area_ha": 7.198391862619319, "count": 25, "label": 1, "mean_dnbr": 0.4159850251462222}}, {"type": "Feature", "geometry": {"geodesic": false, "type": "Polygon", "coordinates": [[[28.766136409638108, 36.74466346806304], [28.76883135549045, 36.74466346806304], [28.76883135549045, 36.74681942474493], [28.768292366319997, 36.74681942474493], [28.768292366319997, 36.7473584139154], [28.769370344660928, 36.7473584139154], [28.769370344660928, 36.74789740308587], [28.769909333831407, 36.74789740308587], [28.769909333831407, 36.7473584139154], [28.771526301342817, 36.7473584139154], [28.771526301342817, 36.748436392256345], [28.770987312172338, 36.748436392256345], [28.770987312172338, 36.75059234893823], [28.76721438797904, 36.75059234893823], [28.76721438797904, 36.7511313381087], [28.767753377149518, 36.7511313381087], [28.767753377149518, 36.75167032727917], [28.76721438797904, 36.75167032727917], [28.76721438797904, 36.75382628396106], [28.766136409638108, 36.75382628396106], [28.766136409638108, 36.75328729479059], [28.76559742046763, 36.75328729479059], [28.76559742046763, 36.75382628396106], [28.764519442126698, 36.75382628396106], [28.764519442126698, 36.75436527313153], [28.76398045295622, 36.75436527313153], [28.76398045295622, 36.75382628396106], [28.76290247461526, 36.75382628396106], [28.76290247461526, 36.75328729479059], [28.76344146378574, 36.75328729479059], [28.76344146378574, 36.75167032727917], [28.76398045295622, 36.75167032727917], [28.76398045295622, 36.7511313381087], [28.764519442126698, 36.7511313381087], [28.764519442126698, 36.75059234893823], [28.76505843129715, 36.75059234893823], [28.76505843129715, 36.7511313381087], [28.76559742046763, 36.7511313381087], [28.76559742046763, 36.74951437059728], [28.766136409638108, 36.74951437059728], [28.766136409638108, 36.748436392256345], [28.76559742046763, 36.748436392256345], [28.76559742046763, 36.746280435574455], [28.764519442126698, 36.746280435574455], [28.764519442126698, 36.74520245723351], [28.76505843129715, 36.74520245723351], [28.76505843129715, 36.74466346806304], [28.76559742046763, 36.74466346806304], [28.76559742046763, 36.74520245723351], [28.766136409638108, 36.74520245723351], [28.766136409638108, 36.74466346806304]]]}, "id": "+387333+87673", "properties": {"area_ha": 37.99090356003833, "count": 132, "label": 1, "mean_dnbr": 0.35241996269165066}}, {"type": "Feature", "geometry": {"geodesic": false, "type": "Polygon", "coordinates": [[[28.770987312172338, 36.81527104939483], [28.772065290513297, 36.81527104939483], [28.772065290513297, 36.8158100385653], [28.771526301342817, 36.8158100385653], [28.771526301342817, 36.816349027735775], [28.770987312172338, 36.816349027735775], [28.770987312172338, 36.81688801690625], [28.772065290513297, 36.81688801690625], [28.772065290513297, 36.81742700607672], [28.772604279683776, 36.81742700607672], [28.772604279683776, 36.81796599524719], [28.772065290513297, 36.81796599524719], [28.772065290513297, 36.81742700607672], [28.770987312172338, 36.81742700607672], [28.770987312172338, 36.81796599524719], [28.770448323001887, 36.81796599524719], [28.770448323001887, 36.81742700607672], [28.769909333831407, 36.81742700607672], [28.769909333831407, 36.8158100385653], [28.770987312172338, 36.8158100385653], [28.770987312172338, 36.81527104939483]]]}, "id": "+387339+87542", "properties": {"area_ha": 3.738234571213986, "count": 13, "label": 1, "mean_dnbr": 0.2407845530858142}}, {"type": "Feature", "geometry": {"geodesic": false, "type": "Polygon", "coordinates": [[[28.775838214706596, 36.808264190178704], [28.776377203877075, 36.808264190178704], [28.776377203877075, 36.80880317934918], [28.776916193047526, 36.80880317934918], [28.776916193047526, 36.80934216851964], [28.777455182218006, 36.80934216851964], [28.777455182218006, 36.809881157690114], [28.776916193047526, 36.809881157690114], [28.776916193047526, 36.81042014686059], [28.775838214706596, 36.81042014686059], [28.775838214706596, 36.81095913603106], [28.775299225536116, 36.81095913603106], [28.775299225536116, 36.81042014686059], [28.774760236365637, 36.81042014686059], [28.774760236365637, 36.809881157690114], [28.775838214706596, 36.809881157690114], [28.775838214706596, 36.80934216851964], [28.775299225536116, 36.80934216851964], [28.775299225536116, 36.80880317934918], [28.775838214706596, 36.80880317934918], [28.775838214706596, 36.808264190178704]]]}, "id": "+387347+87555", "properties": {"area_ha": 3.450994964774455, "count": 12, "label": 1, "mean_dnbr": 0.19126280701437656}}, {"type": "Feature", "geometry": {"geodesic": false, "type": "Polygon", "coordinates": [[[28.777455182218006, 36.81365408188342], [28.777994171388485, 36.81365408188342], [28.777994171388485, 36.81419307105389], [28.778533160558965, 36.81419307105389], [28.778533160558965, 36.814732060224365], [28.779611138899895, 36.814732060224365], [28.779611138899895, 36.81527104939483], [28.780150128070375, 36.81527104939483], [28.780150128070375, 36.8158100385653], [28.780689117240826, 36.8158100385653], [28.780689117240826, 36.81742700607672], [28.778533160558965, 36.81742700607672], [28.778533160558965, 36.81688801690625], [28.779611138899895, 36.81688801690625], [28.779611138899895, 36.816349027735775], [28.780150128070375, 36.816349027735775], [28.780150128070375, 36.8158100385653], [28.779611138899895, 36.8158100385653], [28.779611138899895, 36.81527104939483], [28.778533160558965, 36.81527104939483], [28.778533160558965, 36.814732060224365], [28.777455182218006, 36.814732060224365], [28.777455182218006, 36.81527104939483], [28.776916193047526, 36.81527104939483], [28.776916193047526, 36.81419307105389], [28.777455182218006, 36.81419307105389], [28.777455182218006, 36.81365408188342]]]}, "id": "+387350+87545", "properties": {"area_ha": 4.313408525706537, "count": 15, "label": 1, "mean_dnbr": 0.31032608361008485}}, {"type": "Feature", "geometry": {"geodesic": false, "type": "Polygon", "coordinates": [[[28.777455182218006, 36.74897538142681], [28.777994171388485, 36.74897538142681], [28.777994171388485, 36.74951437059728], [28.778533160558965, 36.74951437059728], [28.778533160558965, 36.750053359767755], [28.779072149729416, 36.750053359767755], [28.779072149729416, 36.75059234893823], [28.779611138899895, 36.75059234893823], [28.779611138899895, 36.7511313381087], [28.780689117240826, 36.7511313381087], [28.780689117240826, 36.75167032727917], [28.781228106411305, 36.75167032727917], [28.781228106411305, 36.752209316449644], [28.781767095581785, 36.752209316449644], [28.781767095581785, 36.75706021898389], [28.780150128070375, 36.75706021898389], [28.780150128070375, 36.756521229813416], [28.777994171388485, 36.756521229813416], [28.777994171388485, 36.752209316449644], [28.777455182218006, 36.752209316449644], [28.777455182218006, 36.7511313381087], [28.777994171388485, 36.7511313381087], [28.777994171388485, 36.75059234893823], [28.777455182218006, 36.75059234893823], [28.777455182218006, 36.74897538142681]]]}, "id": "+387350+87665", "properties": {"area_ha": 23.31127776472156, "count": 81, "label": 1, "mean_dnbr": 0.2665125795767004}}, {"type": "Feature", "geometry": {"geodesic": false, "type": "Polygon", "coordinates": [[[28.778533160558965, 36.704778269448134], [28.780150128070375, 36.704778269448134], [28.780150128070375, 36.70531725861861], [28.780689117240826, 36.70531725861861], [28.780689117240826, 36.70639523695955], [28.781228106411305, 36.70639523695955], [28.781228106411305, 36.70855119364143], [28.780689117240826, 36.70855119364143], [28.780689117240826, 36.70747321530049], [28.780150128070375, 36.70747321530049], [28.780150128070375, 36.706934226130016], [28.779072149729416, 36.706934226130016], [28.779072149729416, 36.70639523695955], [28.777994171388485, 36.70639523695955], [28.777994171388485, 36.70585624778908], [28.777455182218006, 36.70585624778908], [28.777455182218006, 36.70531725861861], [28.778533160558965, 36.70531725861861], [28.778533160558965, 36.704778269448134]]]}, "id": "+387354+87747", "properties": {"area_ha": 6.335361205649563, "count": 22, "label": 1, "mean_dnbr": 0.2993001049697838}}, {"type": "Feature", "geometry": {"geodesic": false, "type": "Polygon", "coordinates": [[[28.778533160558965, 36.781314731655115], [28.781767095581785, 36.781314731655115], [28.781767095581785, 36.783470688337005], [28.781228106411305, 36.783470688337005], [28.781228106411305, 36.78670462335983], [28.780689117240826, 36.78670462335983], [28.780689117240826, 36.78616563418936], [28.780150128070375, 36.78616563418936], [28.780150128070375, 36.785087655848415], [28.779611138899895, 36.785087655848415], [28.779611138899895, 36.78400967750748], [28.778533160558965, 36.78400967750748], [28.778533160558965, 36.78293169916653], [28.779072149729416, 36.78293169916653], [28.779072149729416, 36.78185372082559], [28.778533160558965, 36.78185372082559], [28.778533160558965, 36.781314731655115]]]}, "id": "+387357+87605", "properties": {"area_ha": 10.931881371828283, "count": 38, "label": 1, "mean_dnbr": 0.33357292118754}}, {"type": "Feature", "geometry": {"geodesic": false, "type": "Polygon", "coordinates": [[[28.782306084752264, 36.80718621183776], [28.783923052263674, 36.80718621183776], [28.783923052263674, 36.80772520100823], [28.785001030604604, 36.80772520100823], [28.785001030604604, 36.80934216851964], [28.784462041434153, 36.80934216851964], [28.784462041434153, 36.809881157690114], [28.782306084752264, 36.809881157690114], [28.782306084752264, 36.80880317934918], [28.781767095581785, 36.80880317934918], [28.781767095581785, 36.80772520100823], [28.782306084752264, 36.80772520100823], [28.782306084752264, 36.80718621183776]]]}, "id": "+387361+87557", "properties": {"area_ha": 6.902092375843055, "count": 24, "label": 1, "mean_dnbr": 0.4661244275677978}}, {"type": "Feature", "geometry": {"geodesic": false, "type": "Polygon", "coordinates": [[[28.782306084752264, 36.81311509271295], [28.784462041434153, 36.81311509271295], [28.784462041434153, 36.81419307105389], [28.783923052263674, 36.81419307105389], [28.783923052263674, 36.814732060224365], [28.783384063093195, 36.814732060224365], [28.783384063093195, 36.81527104939483], [28.781767095581785, 36.81527104939483], [28.781767095581785, 36.81365408188342], [28.782306084752264, 36.81365408188342], [28.782306084752264, 36.81311509271295]]]}, "id": "+387362+87546", "properties": {"area_ha": 4.60105412115395, "count": 16, "label": 1, "mean_dnbr": 0.4732709402834315}}, {"type": "Feature", "geometry": {"geodesic": false, "type": "Polygon", "coordinates": [[[28.785540019775084, 36.79263350423502], [28.786079008945563, 36.79263350423502], [28.786079008945563, 36.79425047174644], [28.786617998116014, 36.79425047174644], [28.786617998116014, 36.79694541759879], [28.785001030604604, 36.79694541759879], [28.785001030604604, 36.79640642842833], [28.784462041434153, 36.79640642842833], [28.784462041434153, 36.795867439257854], [28.785001030604604, 36.795867439257854], [28.785001030604604, 36.79532845008738], [28.785540019775084, 36.79532845008738], [28.785540019775084, 36.79263350423502]]]}, "id": "+387365+87584", "properties": {"area_ha": 4.8898258949227555, "count": 17, "label": 1, "mean_dnbr": 0.278387692319977}}, {"type": "Feature", "geometry": {"geodesic": false, "type": "Polygon", "coordinates": [[[28.787695976456973, 36.78832159087125], [28.788234965627453, 36.78832159087125], [28.788234965627453, 36.78886058004172], [28.788773954797904, 36.78886058004172], [28.788773954797904, 36.789938558382666], [28.788234965627453, 36.789938558382666], [28.788234965627453, 36.78939956921219], [28.787156987286494, 36.78939956921219], [28.787156987286494, 36.789938558382666], [28.785001030604604, 36.789938558382666], [28.785001030604604, 36.78939956921219], [28.785540019775084, 36.78939956921219], [28.785540019775084, 36.78886058004172], [28.787695976456973, 36.78886058004172], [28.787695976456973, 36.78832159087125]]]}, "id": "+387369+87592", "properties": {"area_ha": 3.451912520825309, "count": 12, "label": 1, "mean_dnbr": 0.28220458272439225}}, {"type": "Feature", "geometry": {"geodesic": false, "type": "Polygon", "coordinates": [[[28.788234965627453, 36.79047754755314], [28.789312943968383, 36.79047754755314], [28.789312943968383, 36.7910165367236], [28.789851933138863, 36.7910165367236], [28.789851933138863, 36.79209451506455], [28.789312943968383, 36.79209451506455], [28.789312943968383, 36.79317249340549], [28.786617998116014, 36.79317249340549], [28.786617998116014, 36.79263350423502], [28.787156987286494, 36.79263350423502], [28.787156987286494, 36.79209451506455], [28.787695976456973, 36.79209451506455], [28.787695976456973, 36.791555525894076], [28.786617998116014, 36.791555525894076], [28.786617998116014, 36.79209451506455], [28.786079008945563, 36.79209451506455], [28.786079008945563, 36.7910165367236], [28.788234965627453, 36.7910165367236], [28.788234965627453, 36.79047754755314]]]}, "id": "+387371+87588", "properties": {"area_ha": 6.615947632933124, "count": 23, "label": 1, "mean_dnbr": 0.22293752611917655}}, {"type": "Feature", "geometry": {"geodesic": false, "type": "Polygon", "coordinates": [[[28.79901474903687, 36.74358548972209], [28.79955373820735, 36.74358548972209], [28.79955373820735, 36.74574144640398], [28.79901474903687, 36.74574144640398], [28.79901474903687, 36.746280435574455], [28.79955373820735, 36.746280435574455], [28.79955373820735, 36.7473584139154], [28.79901474903687, 36.7473584139154], [28.79901474903687, 36.74789740308587], [28.796858792354982, 36.74789740308587], [28.796858792354982, 36.7473584139154], [28.79631980318453, 36.7473584139154], [28.79631980318453, 36.74789740308587], [28.79578081401405, 36.74789740308587], [28.79578081401405, 36.7473584139154], [28.795241824843572, 36.7473584139154], [28.795241824843572, 36.746280435574455], [28.79578081401405, 36.746280435574455], [28.79578081401405, 36.744124478892566], [28.79739778152546, 36.744124478892566], [28.79739778152546, 36.74466346806304], [28.79793677069594, 36.74466346806304], [28.79793677069594, 36.744124478892566], [28.79901474903687, 36.744124478892566], [28.79901474903687, 36.74358548972209]]]}, "id": "+387390+87675", "properties": {"area_ha": 13.815457862916324, "count": 48, "label": 1, "mean_dnbr": 0.28270450497381877}}, {"type": "Feature", "geometry": {"geodesic": false, "type": "Polygon", "coordinates": [[[28.80170969488924, 36.719330977050866], [28.80386565157113, 36.719330977050866], [28.80386565157113, 36.71986996622134], [28.80440464074158, 36.71986996622134], [28.80440464074158, 36.723642890414645], [28.80494362991206, 36.723642890414645], [28.80494362991206, 36.727415814607944], [28.80440464074158, 36.727415814607944], [28.80440464074158, 36.72687682543747], [28.80332666240065, 36.72687682543747], [28.80332666240065, 36.727415814607944], [28.80278767323017, 36.727415814607944], [28.80278767323017, 36.72849379294889], [28.80170969488924, 36.72849379294889], [28.80170969488924, 36.729571771289834], [28.80063171654828, 36.729571771289834], [28.80063171654828, 36.72849379294889], [28.80009272737783, 36.72849379294889], [28.80009272737783, 36.72795480377842], [28.80063171654828, 36.72795480377842], [28.80063171654828, 36.727415814607944], [28.80009272737783, 36.727415814607944], [28.80009272737783, 36.72687682543747], [28.79955373820735, 36.72687682543747], [28.79955373820735, 36.723642890414645], [28.79901474903687, 36.723642890414645], [28.79901474903687, 36.721486933732756], [28.798475759866392, 36.721486933732756], [28.798475759866392, 36.72040895539181], [28.80009272737783, 36.72040895539181], [28.80009272737783, 36.71986996622134], [28.80170969488924, 36.71986996622134], [28.80170969488924, 36.719330977050866]], [[28.80009272737783, 36.72094794456228], [28.80009272737783, 36.72202592290323], [28.79955373820735, 36.72202592290323], [28.79955373820735, 36.721486933732756], [28.79901474903687, 36.721486933732756], [28.79901474903687, 36.72094794456228], [28.80009272737783, 36.72094794456228]]]}, "id": "+387398+87720", "properties": {"area_ha": 43.47358922419766, "count": 151, "label": 1, "mean_dnbr": 0.3567844699852334}}, {"type": "Feature", "geometry": {"geodesic": false, "type": "Polygon", "coordinates": [[[28.80709958659395, 36.81311509271295], [28.80925554327584, 36.81311509271295], [28.80925554327584, 36.814732060224365], [28.80763857576443, 36.814732060224365], [28.80763857576443, 36.81419307105389], [28.80709958659395, 36.81419307105389], [28.80709958659395, 36.81311509271295]]]}, "id": "+387408+87546", "properties": {"area_ha": 3.163233868632575, "count": 11, "label": 1, "mean_dnbr": 0.30388750262509706}}, {"type": "Feature", "geometry": {"geodesic": false, "type": "Polygon", "coordinates": [[[28.818418359173847, 36.79478946091691], [28.818957348344327, 36.79478946091691], [28.818957348344327, 36.79532845008738], [28.820035326685286, 36.79532845008738], [28.820035326685286, 36.79694541759879], [28.818418359173847, 36.79694541759879], [28.818418359173847, 36.795867439257854], [28.817879370003396, 36.795867439257854], [28.817879370003396, 36.79532845008738], [28.818418359173847, 36.79532845008738], [28.818418359173847, 36.79478946091691]]]}, "id": "+387426+87580", "properties": {"area_ha": 3.163978552162329, "count": 11, "label": 1, "mean_dnbr": 0.2647121822301738}}, {"type": "Feature", "geometry": {"geodesic": false, "type": "Polygon", "coordinates": [[[28.840516915163192, 36.63093675309351], [28.841055904333672, 36.63093675309351], [28.841055904333672, 36.63201473143445], [28.840516915163192, 36.63201473143445], [28.840516915163192, 36.632553720604925], [28.842133882674602, 36.632553720604925], [28.842133882674602, 36.63363169894587], [28.84321186101556, 36.63363169894587], [28.84321186101556, 36.634170688116335], [28.84375085018604, 36.634170688116335], [28.84375085018604, 36.63470967728681], [28.84267287184508, 36.63470967728681], [28.84267287184508, 36.634170688116335], [28.842133882674602, 36.634170688116335], [28.842133882674602, 36.63363169894587], [28.84159489350415, 36.63363169894587], [28.84159489350415, 36.6330927097754], [28.840516915163192, 36.6330927097754], [28.840516915163192, 36.632553720604925], [28.839438936822262, 36.632553720604925], [28.839438936822262, 36.63201473143445], [28.840516915163192, 36.63201473143445], [28.840516915163192, 36.63093675309351]]]}, "id": "+387467+87884", "properties": {"area_ha": 3.458939187216012, "count": 12, "label": 1, "mean_dnbr": 0.2057802324459634}}, {"type": "Feature", "geometry": {"geodesic": false, "type": "Polygon", "coordinates": [[[28.972030272758303, 36.785087655848415], [28.972569261928783, 36.785087655848415], [28.972569261928783, 36.78562664501889], [28.973108251099234, 36.78562664501889], [28.973108251099234, 36.78670462335983], [28.972569261928783, 36.78670462335983], [28.972569261928783, 36.78562664501889], [28.972030272758303, 36.78562664501889], [28.972030272758303, 36.787243612530304], [28.971491283587824, 36.787243612530304], [28.971491283587824, 36.787782601700776], [28.970952294417344, 36.787782601700776], [28.970952294417344, 36.78832159087125], [28.970413305246893, 36.78832159087125], [28.970413305246893, 36.78886058004172], [28.969874316076414, 36.78886058004172], [28.969874316076414, 36.78832159087125], [28.968796337735455, 36.78832159087125], [28.968796337735455, 36.787243612530304], [28.968257348565004, 36.787243612530304], [28.968257348565004, 36.78670462335983], [28.967718359394524, 36.78670462335983], [28.967718359394524, 36.78616563418936], [28.968257348565004, 36.78616563418936], [28.968257348565004, 36.78670462335983], [28.969874316076414, 36.78670462335983], [28.969874316076414, 36.787782601700776], [28.970952294417344, 36.787782601700776], [28.970952294417344, 36.78670462335983], [28.971491283587824, 36.78670462335983], [28.971491283587824, 36.78562664501889], [28.972030272758303, 36.78562664501889], [28.972030272758303, 36.785087655848415]]]}, "id": "+387711+87598", "properties": {"area_ha": 5.465683045392354, "count": 19, "label": 1, "mean_dnbr": 0.21119910690126087}}, {"type": "Feature", "geometry": {"geodesic": false, "type": "Polygon", "coordinates": [[[29.022695254782633, 36.874559858146725], [29.024312222294043, 36.874559858146725], [29.024312222294043, 36.8750988473172], [29.024851211464522, 36.8750988473172], [29.024851211464522, 36.87563783648766], [29.022695254782633, 36.87563783648766], [29.022695254782633, 36.876176825658135], [29.023773233123592, 36.876176825658135], [29.023773233123592, 36.87671581482861], [29.021617276441702, 36.87671581482861], [29.021617276441702, 36.876176825658135], [29.021078287271223, 36.876176825658135], [29.021078287271223, 36.8750988473172], [29.021617276441702, 36.8750988473172], [29.021617276441702, 36.87563783648766], [29.022156265612153, 36.87563783648766], [29.022156265612153, 36.8750988473172], [29.022695254782633, 36.8750988473172], [29.022695254782633, 36.874559858146725]]]}, "id": "+387807+87432", "properties": {"area_ha": 4.597367867135187, "count": 16, "label": 1, "mean_dnbr": 0.27561767541187093}}, {"type": "Feature", "geometry": {"geodesic": false, "type": "Polygon", "coordinates": [[[29.067970345102253, 36.86647502058965], [29.068509334272733, 36.86647502058965], [29.068509334272733, 36.868091988101064], [29.066892366761323, 36.868091988101064], [29.066892366761323, 36.868630977271536], [29.068509334272733, 36.868630977271536], [29.068509334272733, 36.869708955612474], [29.067431355931802, 36.869708955612474], [29.067431355931802, 36.86916996644201], [29.066892366761323, 36.86916996644201], [29.066892366761323, 36.868630977271536], [29.066353377590843, 36.868630977271536], [29.066353377590843, 36.868091988101064], [29.066892366761323, 36.868091988101064], [29.066892366761323, 36.86755299893059], [29.066353377590843, 36.86755299893059], [29.066353377590843, 36.86701400976012], [29.065814388420364, 36.86701400976012], [29.065814388420364, 36.86647502058965], [29.067431355931802, 36.86647502058965], [29.067431355931802, 36.86701400976012], [29.067970345102253, 36.86701400976012], [29.067970345102253, 36.86647502058965]]]}, "id": "+387889+87447", "properties": {"area_ha": 4.885188820957615, "count": 17, "label": 1, "mean_dnbr": 0.2528732513012588}}, {"type": "Feature", "geometry": {"geodesic": false, "type": "Polygon", "coordinates": [[[29.13103207804744, 36.40779523651822], [29.13157106721792, 36.40779523651822], [29.13157106721792, 36.40833422568869], [29.1321100563884, 36.40833422568869], [29.1321100563884, 36.40887321485916], [29.13157106721792, 36.40887321485916], [29.13157106721792, 36.409412204029636], [29.13103207804744, 36.409412204029636], [29.13103207804744, 36.40887321485916], [29.12995409970651, 36.40887321485916], [29.12995409970651, 36.40995119320011], [29.12941511053603, 36.40995119320011], [29.12941511053603, 36.409412204029636], [29.1283371321951, 36.409412204029636], [29.1283371321951, 36.40887321485916], [29.12941511053603, 36.40887321485916], [29.12941511053603, 36.40833422568869], [29.12995409970651, 36.40833422568869], [29.12995409970651, 36.40779523651822], [29.13049308887699, 36.40779523651822], [29.13049308887699, 36.40833422568869], [29.13103207804744, 36.40833422568869], [29.13103207804744, 36.40779523651822]]]}, "id": "+388006+88298", "properties": {"area_ha": 3.4689801622026417, "count": 12, "label": 1, "mean_dnbr": 0.18902847540110002}}, {"type": "Feature", "geometry": {"geodesic": false, "type": "Polygon", "coordinates": [[[29.13534399141122, 36.407256247347746], [29.136421969752178, 36.407256247347746], [29.136421969752178, 36.40779523651822], [29.13696095892263, 36.40779523651822], [29.13696095892263, 36.40887321485916], [29.137499948093108, 36.40887321485916], [29.137499948093108, 36.409412204029636], [29.138038937263588, 36.409412204029636], [29.138038937263588, 36.40995119320011], [29.137499948093108, 36.40995119320011], [29.137499948093108, 36.409412204029636], [29.135882980581698, 36.409412204029636], [29.135882980581698, 36.40833422568869], [29.134805002240768, 36.40833422568869], [29.134805002240768, 36.40779523651822], [29.13534399141122, 36.40779523651822], [29.13534399141122, 36.407256247347746]]]}, "id": "+388015+88299", "properties": {"area_ha": 3.4689961663071966, "count": 12, "label": 1, "mean_dnbr": 0.1906434883566409}}, {"type": "Feature", "geometry": {"geodesic": false, "type": "Polygon", "coordinates": [[[29.139655904774997, 36.45522628351973], [29.142350850627366, 36.45522628351973], [29.142350850627366, 36.45630426186067], [29.141811861456887, 36.45630426186067], [29.141811861456887, 36.45738224020162], [29.142350850627366, 36.45738224020162], [29.142350850627366, 36.45846021854256], [29.141272872286407, 36.45846021854256], [29.141272872286407, 36.46007718605397], [29.140733883115956, 36.46007718605397], [29.140733883115956, 36.46169415356539], [29.140194893945477, 36.46169415356539], [29.140194893945477, 36.460616175224445], [29.139116915604518, 36.460616175224445], [29.139116915604518, 36.45846021854256], [29.140194893945477, 36.45846021854256], [29.140194893945477, 36.45792122937209], [29.139116915604518, 36.45792122937209], [29.139116915604518, 36.45738224020162], [29.138577926434067, 36.45738224020162], [29.138577926434067, 36.458999207713035], [29.137499948093108, 36.458999207713035], [29.137499948093108, 36.45792122937209], [29.134805002240768, 36.45792122937209], [29.134805002240768, 36.45738224020162], [29.135882980581698, 36.45738224020162], [29.135882980581698, 36.456843251031145], [29.13696095892263, 36.456843251031145], [29.13696095892263, 36.45630426186067], [29.137499948093108, 36.45630426186067], [29.137499948093108, 36.456843251031145], [29.138577926434067, 36.456843251031145], [29.138577926434067, 36.45630426186067], [29.139655904774997, 36.45630426186067], [29.139655904774997, 36.45522628351973]], [[29.140733883115956, 36.4595381968835], [29.140733883115956, 36.46007718605397], [29.140194893945477, 36.46007718605397], [29.140194893945477, 36.4595381968835], [29.140733883115956, 36.4595381968835]], [[29.141272872286407, 36.45792122937209], [29.141272872286407, 36.45846021854256], [29.140733883115956, 36.45846021854256], [29.140733883115956, 36.45792122937209], [29.141272872286407, 36.45792122937209]], [[29.137499948093108, 36.456843251031145], [29.137499948093108, 36.45738224020162], [29.13696095892263, 36.45738224020162], [29.13696095892263, 36.456843251031145], [29.137499948093108, 36.456843251031145]], [[29.140194893945477, 36.456843251031145], [29.140194893945477, 36.45738224020162], [29.139655904774997, 36.45738224020162], [29.139655904774997, 36.456843251031145], [29.140194893945477, 36.456843251031145]]]}, "id": "+388026+88210", "properties": {"area_ha": 17.911757607097268, "count": 62, "label": 1, "mean_dnbr": 0.24253564348637174}}, {"type": "Feature", "geometry": {"geodesic": false, "type": "Polygon", "coordinates": [[[29.142350850627366, 36.460616175224445], [29.143967818138776, 36.460616175224445], [29.143967818138776, 36.46169415356539], [29.145584785650186, 36.46169415356539], [29.145584785650186, 36.46223314273586], [29.146123774820666, 36.46223314273586], [29.146123774820666, 36.462772131906334], [29.146662763991145, 36.462772131906334], [29.146662763991145, 36.463311121076806], [29.146123774820666, 36.463311121076806], [29.146123774820666, 36.462772131906334], [29.143428828968297, 36.462772131906334], [29.143428828968297, 36.46169415356539], [29.142350850627366, 36.46169415356539], [29.142350850627366, 36.460616175224445]]]}, "id": "+388029+88200", "properties": {"area_ha": 4.622150363200717, "count": 16, "label": 1, "mean_dnbr": 0.26684489715961623}}, {"type": "Feature", "geometry": {"geodesic": false, "type": "Polygon", "coordinates": [[[29.147740742332076, 36.452531337667374], [29.148279731502555, 36.452531337667374], [29.148279731502555, 36.453070326837846], [29.149357709843486, 36.453070326837846], [29.149357709843486, 36.45360931600831], [29.149896699013965, 36.45360931600831], [29.149896699013965, 36.454148305178784], [29.150435688184444, 36.454148305178784], [29.150435688184444, 36.45522628351973], [29.150974677354895, 36.45522628351973], [29.150974677354895, 36.4557652726902], [29.152052655695854, 36.4557652726902], [29.152052655695854, 36.45630426186067], [29.151513666525375, 36.45630426186067], [29.151513666525375, 36.456843251031145], [29.150435688184444, 36.456843251031145], [29.150435688184444, 36.45630426186067], [29.149357709843486, 36.45630426186067], [29.149357709843486, 36.456843251031145], [29.148818720673006, 36.456843251031145], [29.148818720673006, 36.45738224020162], [29.147740742332076, 36.45738224020162], [29.147740742332076, 36.456843251031145], [29.147201753161596, 36.456843251031145], [29.147201753161596, 36.4557652726902], [29.146662763991145, 36.4557652726902], [29.146662763991145, 36.45522628351973], [29.147201753161596, 36.45522628351973], [29.147201753161596, 36.453070326837846], [29.147740742332076, 36.453070326837846], [29.147740742332076, 36.452531337667374]]]}, "id": "+388037+88215", "properties": {"area_ha": 13.57871743584958, "count": 47, "label": 1, "mean_dnbr": 0.2790848080493517}}, {"type": "Feature", "geometry": {"geodesic": false, "type": "Polygon", "coordinates": [[[29.150435688184444, 36.49295552545275], [29.151513666525375, 36.49295552545275], [29.151513666525375, 36.49349451462322], [29.152052655695854, 36.49349451462322], [29.152052655695854, 36.494033503793695], [29.152591644866334, 36.494033503793695], [29.152591644866334, 36.49457249296417], [29.152052655695854, 36.49457249296417], [29.152052655695854, 36.495650471305105], [29.152591644866334, 36.495650471305105], [29.152591644866334, 36.49511148213464], [29.153130634036785, 36.49511148213464], [29.153130634036785, 36.49457249296417], [29.153669623207264, 36.49457249296417], [29.153669623207264, 36.495650471305105], [29.154208612377744, 36.495650471305105], [29.154208612377744, 36.49726743881652], [29.152052655695854, 36.49726743881652], [29.152052655695854, 36.495650471305105], [29.151513666525375, 36.495650471305105], [29.151513666525375, 36.49457249296417], [29.150974677354895, 36.49457249296417], [29.150974677354895, 36.494033503793695], [29.151513666525375, 36.494033503793695], [29.151513666525375, 36.49349451462322], [29.150435688184444, 36.49349451462322], [29.150435688184444, 36.49295552545275]]]}, "id": "+388043+88140", "properties": {"area_ha": 6.641454996319515, "count": 23, "label": 1, "mean_dnbr": 0.2575588687280216}}, {"type": "Feature", "geometry": {"geodesic": false, "type": "Polygon", "coordinates": [[[29.150974677354895, 36.46007718605397], [29.152052655695854, 36.46007718605397], [29.152052655695854, 36.46115516439492], [29.153669623207264, 36.46115516439492], [29.153669623207264, 36.46223314273586], [29.154208612377744, 36.46223314273586], [29.154208612377744, 36.46385011024728], [29.153669623207264, 36.46385011024728], [29.153669623207264, 36.463311121076806], [29.153130634036785, 36.463311121076806], [29.153130634036785, 36.46223314273586], [29.152591644866334, 36.46223314273586], [29.152591644866334, 36.463311121076806], [29.152052655695854, 36.463311121076806], [29.152052655695854, 36.46115516439492], [29.151513666525375, 36.46115516439492], [29.151513666525375, 36.460616175224445], [29.150974677354895, 36.460616175224445], [29.150974677354895, 36.46007718605397]]]}, "id": "+388044+88201", "properties": {"area_ha": 4.622132648678145, "count": 16, "label": 1, "mean_dnbr": 0.15895672440857814}}, {"type": "Feature", "geometry": {"geodesic": false, "type": "Polygon", "coordinates": [[[29.150435688184444, 36.45792122937209], [29.152052655695854, 36.45792122937209], [29.152052655695854, 36.45846021854256], [29.152591644866334, 36.45846021854256], [29.152591644866334, 36.458999207713035], [29.153130634036785, 36.458999207713035], [29.153130634036785, 36.45846021854256], [29.153669623207264, 36.45846021854256], [29.153669623207264, 36.4595381968835], [29.152052655695854, 36.4595381968835], [29.152052655695854, 36.458999207713035], [29.150435688184444, 36.458999207713035], [29.150435688184444, 36.45792122937209]]]}, "id": "+388044+88205", "properties": {"area_ha": 3.1778549368673077, "count": 11, "label": 1, "mean_dnbr": 0.17742233030552076}}, {"type": "Feature", "geometry": {"geodesic": false, "type": "Polygon", "coordinates": [[[29.152591644866334, 36.41426310656388], [29.153669623207264, 36.41426310656388], [29.153669623207264, 36.415341084904824], [29.154208612377744, 36.415341084904824], [29.154208612377744, 36.4158800740753], [29.153669623207264, 36.4158800740753], [29.153669623207264, 36.41641906324577], [29.152591644866334, 36.41641906324577], [29.152591644866334, 36.4158800740753], [29.152052655695854, 36.4158800740753], [29.152052655695854, 36.41480209573435], [29.152591644866334, 36.41480209573435], [29.152591644866334, 36.41426310656388]]]}, "id": "+388047+88286", "properties": {"area_ha": 3.1796284646066413, "count": 11, "label": 1, "mean_dnbr": 0.1997949183282496}}, {"type": "Feature", "geometry": {"geodesic": false, "type": "Polygon", "coordinates": [[[29.153669623207264, 36.92252989431871], [29.154208612377744, 36.92252989431871], [29.154208612377744, 36.92306888348918], [29.155825579889154, 36.92306888348918], [29.155825579889154, 36.923607872659645], [29.156364569059633, 36.923607872659645], [29.156364569059633, 36.92414686183012], [29.156903558230084, 36.92414686183012], [29.156903558230084, 36.92468585100059], [29.156364569059633, 36.92468585100059], [29.156364569059633, 36.92522484017106], [29.155286590718674, 36.92522484017106], [29.155286590718674, 36.925763829341534], [29.154208612377744, 36.925763829341534], [29.154208612377744, 36.92522484017106], [29.155286590718674, 36.92522484017106], [29.155286590718674, 36.92468585100059], [29.154747601548195, 36.92468585100059], [29.154747601548195, 36.92414686183012], [29.155825579889154, 36.92414686183012], [29.155825579889154, 36.923607872659645], [29.154208612377744, 36.923607872659645], [29.154208612377744, 36.92306888348918], [29.153669623207264, 36.92306888348918], [29.153669623207264, 36.92252989431871]], [[29.156364569059633, 36.92414686183012], [29.156364569059633, 36.92468585100059], [29.155825579889154, 36.92468585100059], [29.155825579889154, 36.92414686183012], [29.156364569059633, 36.92414686183012]]]}, "id": "+388048+87343", "properties": {"area_ha": 3.445823420595927, "count": 12, "label": 1, "mean_dnbr": 0.13737436843056172}}, {"type": "Feature", "geometry": {"geodesic": false, "type": "Polygon", "coordinates": [[[29.153130634036785, 36.498345417157466], [29.154208612377744, 36.498345417157466], [29.154208612377744, 36.49942339549841], [29.155825579889154, 36.49942339549841], [29.155825579889154, 36.49996238466888], [29.155286590718674, 36.49996238466888], [29.155286590718674, 36.500501373839356], [29.155825579889154, 36.500501373839356], [29.155825579889154, 36.50104036300983], [29.156364569059633, 36.50104036300983], [29.156364569059633, 36.50157935218029], [29.154747601548195, 36.50157935218029], [29.154747601548195, 36.502118341350766], [29.154208612377744, 36.502118341350766], [29.154208612377744, 36.50157935218029], [29.152052655695854, 36.50157935218029], [29.152052655695854, 36.49942339549841], [29.152591644866334, 36.49942339549841], [29.152591644866334, 36.49888440632794], [29.152052655695854, 36.49888440632794], [29.152052655695854, 36.498345417157466], [29.152591644866334, 36.498345417157466], [29.152591644866334, 36.49888440632794], [29.153130634036785, 36.49888440632794], [29.153130634036785, 36.498345417157466]], [[29.154747601548195, 36.50104036300983], [29.154747601548195, 36.50157935218029], [29.154208612377744, 36.50157935218029], [29.154208612377744, 36.50104036300983], [29.154747601548195, 36.50104036300983]]]}, "id": "+388048+88130", "properties": {"area_ha": 9.817195118249586, "count": 34, "label": 1, "mean_dnbr": 0.2792406061898023}}, {"type": "Feature", "geometry": {"geodesic": false, "type": "Polygon", "coordinates": [[[29.153669623207264, 36.46654505609963], [29.154208612377744, 36.46654505609963], [29.154208612377744, 36.46762303444058], [29.154747601548195, 36.46762303444058], [29.154747601548195, 36.46816202361105], [29.154208612377744, 36.46816202361105], [29.154208612377744, 36.46762303444058], [29.153669623207264, 36.46762303444058], [29.153669623207264, 36.46816202361105], [29.152052655695854, 36.46816202361105], [29.152052655695854, 36.46762303444058], [29.151513666525375, 36.46762303444058], [29.151513666525375, 36.46816202361105], [29.150974677354895, 36.46816202361105], [29.150974677354895, 36.46870101278152], [29.150435688184444, 36.46870101278152], [29.150435688184444, 36.46762303444058], [29.151513666525375, 36.46762303444058], [29.151513666525375, 36.467084045270106], [29.152591644866334, 36.467084045270106], [29.152591644866334, 36.46654505609963], [29.153130634036785, 36.46654505609963], [29.153130634036785, 36.467084045270106], [29.153669623207264, 36.467084045270106], [29.153669623207264, 36.46654505609963]]]}, "id": "+388048+88189", "properties": {"area_ha": 4.044078762635244, "count": 14, "label": 1, "mean_dnbr": 0.13726599678741064}}, {"type": "Feature", "geometry": {"geodesic": false, "type": "Polygon", "coordinates": [[[29.154747601548195, 36.440673575916996], [29.156364569059633, 36.440673575916996], [29.156364569059633, 36.44121256508746], [29.155825579889154, 36.44121256508746], [29.155825579889154, 36.44282953259888], [29.154208612377744, 36.44282953259888], [29.154208612377744, 36.44336852176935], [29.154747601548195, 36.44336852176935], [29.154747601548195, 36.44390751093982], [29.154208612377744, 36.44390751093982], [29.154208612377744, 36.444446500110296], [29.153669623207264, 36.444446500110296], [29.153669623207264, 36.44498548928077], [29.153130634036785, 36.44498548928077], [29.153130634036785, 36.444446500110296], [29.152591644866334, 36.444446500110296], [29.152591644866334, 36.44336852176935], [29.152052655695854, 36.44336852176935], [29.152052655695854, 36.44282953259888], [29.152591644866334, 36.44282953259888], [29.152591644866334, 36.442290543428406], [29.153130634036785, 36.442290543428406], [29.153130634036785, 36.441751554257934], [29.153669623207264, 36.441751554257934], [29.153669623207264, 36.44121256508746], [29.154747601548195, 36.44121256508746], [29.154747601548195, 36.440673575916996]], [[29.153669623207264, 36.44282953259888], [29.153669623207264, 36.44390751093982], [29.153130634036785, 36.44390751093982], [29.153130634036785, 36.44282953259888], [29.153669623207264, 36.44282953259888]], [[29.155286590718674, 36.441751554257934], [29.155286590718674, 36.442290543428406], [29.153669623207264, 36.442290543428406], [29.153669623207264, 36.441751554257934], [29.155286590718674, 36.441751554257934]]]}, "id": "+388052+88237", "properties": {"area_ha": 7.223890629806117, "count": 25, "label": 1, "mean_dnbr": 0.1959923129086001}}, {"type": "Feature", "geometry": {"geodesic": false, "type": "Polygon", "coordinates": [[[29.156364569059633, 36.46762303444058], [29.156903558230084, 36.46762303444058], [29.156903558230084, 36.46816202361105], [29.157442547400564, 36.46816202361105], [29.157442547400564, 36.46870101278152], [29.157981536571043, 36.46870101278152], [29.157981536571043, 36.469240001951995], [29.159059514911974, 36.469240001951995], [29.159059514911974, 36.46977899112247], [29.160137493252932, 36.46977899112247], [29.160137493252932, 36.47031798029294], [29.158520525741523, 36.47031798029294], [29.158520525741523, 36.46977899112247], [29.157981536571043, 36.46977899112247], [29.157981536571043, 36.469240001951995], [29.157442547400564, 36.469240001951995], [29.157442547400564, 36.46977899112247], [29.156364569059633, 36.46977899112247], [29.156364569059633, 36.469240001951995], [29.155825579889154, 36.469240001951995], [29.155825579889154, 36.46816202361105], [29.156364569059633, 36.46816202361105], [29.156364569059633, 36.46762303444058]]]}, "id": "+388053+88187", "properties": {"area_ha": 4.332854578744936, "count": 15, "label": 1, "mean_dnbr": 0.20066670272768636}}, {"type": "Feature", "geometry": {"geodesic": false, "type": "Polygon", "coordinates": [[[29.160676482423384, 36.50696924388502], [29.161215471593863, 36.50696924388502], [29.161215471593863, 36.50750823305549], [29.161754460764342, 36.50750823305549], [29.161754460764342, 36.508047222225954], [29.160676482423384, 36.508047222225954], [29.160676482423384, 36.50858621139643], [29.159598504082453, 36.50858621139643], [29.159598504082453, 36.5091252005669], [29.159059514911974, 36.5091252005669], [29.159059514911974, 36.50966418973737], [29.158520525741523, 36.50966418973737], [29.158520525741523, 36.5091252005669], [29.157981536571043, 36.5091252005669], [29.157981536571043, 36.508047222225954], [29.159598504082453, 36.508047222225954], [29.159598504082453, 36.50750823305549], [29.160676482423384, 36.50750823305549], [29.160676482423384, 36.50696924388502]]]}, "id": "+388061+88114", "properties": {"area_ha": 4.041951648526958, "count": 14, "label": 1, "mean_dnbr": 0.2822997761972219}}, {"type": "Feature", "geometry": {"geodesic": false, "type": "Polygon", "coordinates": [[[29.16606637412812, 36.37976779965369], [29.166605363298572, 36.37976779965369], [29.166605363298572, 36.3813847671651], [29.16552738495764, 36.3813847671651], [29.16552738495764, 36.381923756335574], [29.163371428275752, 36.381923756335574], [29.163371428275752, 36.3813847671651], [29.163910417446232, 36.3813847671651], [29.163910417446232, 36.380306788824164], [29.16606637412812, 36.380306788824164], [29.16606637412812, 36.37976779965369]]]}, "id": "+388071+88350", "properties": {"area_ha": 4.337774865182698, "count": 15, "label": 1, "mean_dnbr": 0.22431764454247818}}, {"type": "Feature", "geometry": {"geodesic": false, "type": "Polygon", "coordinates": [[[29.16822233081001, 36.48109776370237], [29.16983929832142, 36.48109776370237], [29.16983929832142, 36.481636752872845], [29.17091727666235, 36.481636752872845], [29.17091727666235, 36.48217574204332], [29.16983929832142, 36.48217574204332], [29.16983929832142, 36.48271473121379], [29.16930030915094, 36.48271473121379], [29.16930030915094, 36.48379270955473], [29.1703782874919, 36.48379270955473], [29.1703782874919, 36.4843316987252], [29.16876131998046, 36.4843316987252], [29.16876131998046, 36.48325372038426], [29.16768334163953, 36.48325372038426], [29.16768334163953, 36.48271473121379], [29.16714435246905, 36.48271473121379], [29.16714435246905, 36.48217574204332], [29.16822233081001, 36.48217574204332], [29.16822233081001, 36.48109776370237]]]}, "id": "+388077+88162", "properties": {"area_ha": 5.776139175622227, "count": 20, "label": 1, "mean_dnbr": 0.20589139918682153}}, {"type": "Feature", "geometry": {"geodesic": false, "type": "Polygon", "coordinates": [[[29.17522919002613, 36.500501373839356], [29.17684615753754, 36.500501373839356], [29.17684615753754, 36.50104036300983], [29.17738514670802, 36.50104036300983], [29.17738514670802, 36.50157935218029], [29.17684615753754, 36.50157935218029], [29.17684615753754, 36.502118341350766], [29.17630716836709, 36.502118341350766], [29.17630716836709, 36.50265733052124], [29.17684615753754, 36.50265733052124], [29.17684615753754, 36.50319631969171], [29.17738514670802, 36.50319631969171], [29.17738514670802, 36.504274298032655], [29.1779241358785, 36.504274298032655], [29.1779241358785, 36.5053522763736], [29.17684615753754, 36.5053522763736], [29.17684615753754, 36.506430254714545], [29.17630716836709, 36.506430254714545], [29.17630716836709, 36.50750823305549], [29.17469020085565, 36.50750823305549], [29.17469020085565, 36.508047222225954], [29.1741512116852, 36.508047222225954], [29.1741512116852, 36.50696924388502], [29.17361222251472, 36.50696924388502], [29.17361222251472, 36.50589126554407], [29.17307323334424, 36.50589126554407], [29.17307323334424, 36.5053522763736], [29.17253424417376, 36.5053522763736], [29.17253424417376, 36.50481328720313], [29.17361222251472, 36.50481328720313], [29.17361222251472, 36.50265733052124], [29.17307323334424, 36.50265733052124], [29.17307323334424, 36.50157935218029], [29.17522919002613, 36.50157935218029], [29.17522919002613, 36.500501373839356]], [[29.17630716836709, 36.50265733052124], [29.17630716836709, 36.50319631969171], [29.17469020085565, 36.50319631969171], [29.17469020085565, 36.50265733052124], [29.17630716836709, 36.50265733052124]], [[29.17576817919661, 36.50157935218029], [29.17576817919661, 36.502118341350766], [29.17522919002613, 36.502118341350766], [29.17522919002613, 36.50157935218029], [29.17576817919661, 36.50157935218029]]]}, "id": "+388090+88126", "properties": {"area_ha": 22.231893139909854, "count": 77, "label": 1, "mean_dnbr": 0.24842274741598888}}, {"type": "Feature", "geometry": {"geodesic": false, "type": "Polygon", "coordinates": [[[29.17684615753754, 36.5948244786719], [29.1779241358785, 36.5948244786719], [29.1779241358785, 36.59698043535379], [29.17738514670802, 36.59698043535379], [29.17738514670802, 36.597519424524265], [29.17684615753754, 36.597519424524265], [29.17684615753754, 36.59698043535379], [29.17630716836709, 36.59698043535379], [29.17630716836709, 36.59590245701285], [29.17576817919661, 36.59590245701285], [29.17576817919661, 36.595363467842375], [29.17630716836709, 36.595363467842375], [29.17630716836709, 36.59590245701285], [29.17684615753754, 36.59590245701285], [29.17684615753754, 36.5948244786719]], [[29.17738514670802, 36.59590245701285], [29.17738514670802, 36.59644144618332], [29.17684615753754, 36.59644144618332], [29.17684615753754, 36.59590245701285], [29.17738514670802, 36.59590245701285]]]}, "id": "+388092+87951", "properties": {"area_ha": 3.172214280609169, "count": 11, "label": 1, "mean_dnbr": 0.164977457958533}}, {"type": "Feature", "geometry": {"geodesic": false, "type": "Polygon", "coordinates": [[[29.185469984265097, 36.83413567036134], [29.186008973435577, 36.83413567036134], [29.186008973435577, 36.834674659531814], [29.186547962606028, 36.834674659531814], [29.186547962606028, 36.83575263787276], [29.187086951776507, 36.83575263787276], [29.187086951776507, 36.83629162704323], [29.187625940946987, 36.83629162704323], [29.187625940946987, 36.83575263787276], [29.188703919287917, 36.83575263787276], [29.188703919287917, 36.83629162704323], [29.189242908458397, 36.83629162704323], [29.189242908458397, 36.8368306162137], [29.187086951776507, 36.8368306162137], [29.187086951776507, 36.83790859455465], [29.186547962606028, 36.83790859455465], [29.186547962606028, 36.8368306162137], [29.187086951776507, 36.8368306162137], [29.187086951776507, 36.83629162704323], [29.186008973435577, 36.83629162704323], [29.186008973435577, 36.835213648702286], [29.185469984265097, 36.835213648702286], [29.185469984265097, 36.83413567036134]]]}, "id": "+388107+87507", "properties": {"area_ha": 4.0247783436816364, "count": 14, "label": 1, "mean_dnbr": 0.22529356019669872}}, {"type": "Feature", "geometry": {"geodesic": false, "type": "Polygon", "coordinates": [[[29.195710778504065, 36.51613205978303], [29.196249767674516, 36.51613205978303], [29.196249767674516, 36.516671048953505], [29.196788756844995, 36.516671048953505], [29.196788756844995, 36.518827005635394], [29.195710778504065, 36.518827005635394], [29.195710778504065, 36.51828801646492], [29.195171789333585, 36.51828801646492], [29.195171789333585, 36.51774902729445], [29.194632800163106, 36.51774902729445], [29.194632800163106, 36.51721003812398], [29.194093810992655, 36.51721003812398], [29.194093810992655, 36.516671048953505], [29.195710778504065, 36.516671048953505], [29.195710778504065, 36.51613205978303]], [[29.195710778504065, 36.51721003812398], [29.195710778504065, 36.51774902729445], [29.195171789333585, 36.51774902729445], [29.195171789333585, 36.51721003812398], [29.195710778504065, 36.51721003812398]]]}, "id": "+388126+88097", "properties": {"area_ha": 4.041471177874619, "count": 14, "label": 1, "mean_dnbr": 0.19341873745667984}}, {"type": "Feature", "geometry": {"geodesic": false, "type": "Polygon", "coordinates": [[[29.196788756844995, 36.4519923484969], [29.197866735185954, 36.4519923484969], [29.197866735185954, 36.452531337667374], [29.198405724356405, 36.452531337667374], [29.198405724356405, 36.45360931600831], [29.198944713526885, 36.45360931600831], [29.198944713526885, 36.454148305178784], [29.196788756844995, 36.454148305178784], [29.196788756844995, 36.454687294349256], [29.196249767674516, 36.454687294349256], [29.196249767674516, 36.454148305178784], [29.195710778504065, 36.454148305178784], [29.195710778504065, 36.45360931600831], [29.196249767674516, 36.45360931600831], [29.196249767674516, 36.453070326837846], [29.196788756844995, 36.453070326837846], [29.196788756844995, 36.4519923484969]]]}, "id": "+388129+88216", "properties": {"area_ha": 4.6226557638552865, "count": 16, "label": 1, "mean_dnbr": 0.2286027021166337}}, {"type": "Feature", "geometry": {"geodesic": false, "type": "Polygon", "coordinates": [[[29.197327746015475, 36.82012195192908], [29.198405724356405, 36.82012195192908], [29.198405724356405, 36.820660941099554], [29.197866735185954, 36.820660941099554], [29.197866735185954, 36.82119993027002], [29.197327746015475, 36.82119993027002], [29.197327746015475, 36.822277908610964], [29.196788756844995, 36.822277908610964], [29.196788756844995, 36.82173891944049], [29.195710778504065, 36.82173891944049], [29.195710778504065, 36.82119993027002], [29.194632800163106, 36.82119993027002], [29.194632800163106, 36.820660941099554], [29.196788756844995, 36.820660941099554], [29.196788756844995, 36.82119993027002], [29.197327746015475, 36.82119993027002], [29.197327746015475, 36.82012195192908]]]}, "id": "+388130+87533", "properties": {"area_ha": 3.1629342578388915, "count": 11, "label": 1, "mean_dnbr": 0.25818901296154073}}, {"type": "Feature", "geometry": {"geodesic": false, "type": "Polygon", "coordinates": [[[29.198405724356405, 36.926302818512006], [29.199483702697364, 36.926302818512006], [29.199483702697364, 36.92684180768248], [29.198405724356405, 36.92684180768248], [29.198405724356405, 36.92738079685295], [29.198944713526885, 36.92738079685295], [29.198944713526885, 36.928458775193896], [29.198405724356405, 36.928458775193896], [29.198405724356405, 36.92899776436437], [29.197866735185954, 36.92899776436437], [29.197866735185954, 36.92791978602342], [29.197327746015475, 36.92791978602342], [29.197327746015475, 36.92738079685295], [29.196788756844995, 36.92738079685295], [29.196788756844995, 36.92684180768248], [29.195710778504065, 36.92684180768248], [29.195710778504065, 36.92738079685295], [29.194632800163106, 36.92738079685295], [29.194632800163106, 36.92684180768248], [29.195171789333585, 36.92684180768248], [29.195171789333585, 36.926302818512006], [29.196788756844995, 36.926302818512006], [29.196788756844995, 36.92684180768248], [29.198405724356405, 36.92684180768248], [29.198405724356405, 36.926302818512006]], [[29.198405724356405, 36.92738079685295], [29.198405724356405, 36.92791978602342], [29.197866735185954, 36.92791978602342], [29.197866735185954, 36.92738079685295], [29.198405724356405, 36.92738079685295]]]}, "id": "+388132+87336", "properties": {"area_ha": 4.307104861091755, "count": 15, "label": 1, "mean_dnbr": 0.21883700406670692}}, {"type": "Feature", "geometry": {"geodesic": false, "type": "Polygon", "coordinates": [[[29.21565337781152, 36.361981157028126], [29.21673135615245, 36.361981157028126], [29.21673135615245, 36.3625201461986], [29.21727034532293, 36.3625201461986], [29.21727034532293, 36.363598124539536], [29.21673135615245, 36.363598124539536], [29.21673135615245, 36.36413711371001], [29.21565337781152, 36.36413711371001], [29.21565337781152, 36.363598124539536], [29.21511438864104, 36.363598124539536], [29.21511438864104, 36.36305913536906], [29.21565337781152, 36.36305913536906], [29.21565337781152, 36.361981157028126]]]}, "id": "+388164+88383", "properties": {"area_ha": 3.1817674280908586, "count": 11, "label": 1, "mean_dnbr": 0.22559435941460831}}, {"type": "Feature", "geometry": {"geodesic": false, "type": "Polygon", "coordinates": [[[29.212419442788672, 36.92738079685295], [29.212419442788672, 36.92684180768248], [29.21349742112963, 36.92684180768248], [29.21349742112963, 36.926302818512006], [29.21727034532293, 36.926302818512006], [29.21727034532293, 36.925763829341534], [29.21780933449341, 36.925763829341534], [29.21780933449341, 36.926302818512006], [29.21727034532293, 36.926302818512006], [29.21727034532293, 36.92684180768248], [29.21403641030011, 36.92684180768248], [29.21403641030011, 36.92738079685295], [29.212419442788672, 36.92738079685295]]]}, "id": "+388166+87337", "properties": {"area_ha": 3.1585589689325135, "count": 11, "label": 1, "mean_dnbr": 0.24937995847280686}}, {"type": "Feature", "geometry": {"geodesic": false, "type": "Polygon", "coordinates": [[[29.21619236698197, 36.34742844942539], [29.21780933449341, 36.34742844942539], [29.21780933449341, 36.34796743859586], [29.21727034532293, 36.34796743859586], [29.21727034532293, 36.34850642776633], [29.21673135615245, 36.34850642776633], [29.21673135615245, 36.349045416936804], [29.21780933449341, 36.349045416936804], [29.21780933449341, 36.349584406107276], [29.21727034532293, 36.349584406107276], [29.21727034532293, 36.35012339527775], [29.21619236698197, 36.35012339527775], [29.21619236698197, 36.35066238444822], [29.21565337781152, 36.35066238444822], [29.21565337781152, 36.349584406107276], [29.21511438864104, 36.349584406107276], [29.21511438864104, 36.349045416936804], [29.21457539947056, 36.349045416936804], [29.21457539947056, 36.34850642776633], [29.21511438864104, 36.34850642776633], [29.21511438864104, 36.34796743859586], [29.21619236698197, 36.34796743859586], [29.21619236698197, 36.34742844942539]]]}, "id": "+388166+88410", "properties": {"area_ha": 5.786083876843058, "count": 20, "label": 1, "mean_dnbr": 0.26262433964661924}}, {"type": "Feature", "geometry": {"geodesic": false, "type": "Polygon", "coordinates": [[[29.31159345015547, 37.01523603163984], [29.31321041766688, 37.01523603163984], [29.31321041766688, 37.01631400998078], [29.31213243932595, 37.01631400998078], [29.31213243932595, 37.01739198832173], [29.31267142849643, 37.01739198832173], [29.31267142849643, 37.016852999151254], [29.31321041766688, 37.016852999151254], [29.31321041766688, 37.0179309774922], [29.31213243932595, 37.0179309774922], [29.31213243932595, 37.01739198832173], [29.31159345015547, 37.01739198832173], [29.31159345015547, 37.01523603163984]]]}, "id": "+388343+87171", "properties": {"area_ha": 3.1548463687088306, "count": 11, "label": 1, "mean_dnbr": 0.27145943529435446}}, {"type": "Feature", "geometry": {"geodesic": false, "type": "Polygon", "coordinates": [[[29.328302114440106, 36.456843251031145], [29.329380092781037, 36.456843251031145], [29.329380092781037, 36.45738224020162], [29.330997060292447, 36.45738224020162], [29.330997060292447, 36.45792122937209], [29.330458071121996, 36.45792122937209], [29.330458071121996, 36.4595381968835], [29.330997060292447, 36.4595381968835], [29.330997060292447, 36.460616175224445], [29.331536049462926, 36.460616175224445], [29.331536049462926, 36.46115516439492], [29.329380092781037, 36.46115516439492], [29.329380092781037, 36.46007718605397], [29.329919081951516, 36.46007718605397], [29.329919081951516, 36.45846021854256], [29.329380092781037, 36.45846021854256], [29.329380092781037, 36.45738224020162], [29.328302114440106, 36.45738224020162], [29.328302114440106, 36.456843251031145]]]}, "id": "+388373+88207", "properties": {"area_ha": 5.200093777314296, "count": 18, "label": 1, "mean_dnbr": 0.24127482176872478}}, {"type": "Feature", "geometry": {"geodesic": false, "type": "Polygon", "coordinates": [[[29.333692006144815, 36.64387249318483], [29.335847962826705, 36.64387249318483], [29.335847962826705, 36.64548946069625], [29.335308973656225, 36.64548946069625], [29.335308973656225, 36.64602844986672], [29.334769984485746, 36.64602844986672], [29.334769984485746, 36.64548946069625], [29.334230995315295, 36.64548946069625], [29.334230995315295, 36.64602844986672], [29.333692006144815, 36.64602844986672], [29.333692006144815, 36.64387249318483]]]}, "id": "+388385+87860", "properties": {"area_ha": 4.034805098986835, "count": 14, "label": 1, "mean_dnbr": 0.3356080873222632}}, {"type": "Feature", "geometry": {"geodesic": false, "type": "Polygon", "coordinates": [[[29.340159876190484, 36.47193494780435], [29.340698865360963, 36.47193494780435], [29.340698865360963, 36.47247393697482], [29.341237854531414, 36.47247393697482], [29.341237854531414, 36.473012926145294], [29.340698865360963, 36.473012926145294], [29.340698865360963, 36.47355191531577], [29.341237854531414, 36.47355191531577], [29.341237854531414, 36.47409090448624], [29.341776843701894, 36.47409090448624], [29.341776843701894, 36.47462989365671], [29.340698865360963, 36.47462989365671], [29.340698865360963, 36.47409090448624], [29.339620887020004, 36.47409090448624], [29.339620887020004, 36.47355191531577], [29.339081897849525, 36.47355191531577], [29.339081897849525, 36.473012926145294], [29.340159876190484, 36.473012926145294], [29.340159876190484, 36.47193494780435]]]}, "id": "+388394+88179", "properties": {"area_ha": 3.1772504987652566, "count": 11, "label": 1, "mean_dnbr": 0.3918578911838698}}]}