{"type": "FeatureCollection", "columns": {"area_ha": "Number", "count": "Long<0, 4294967295>", "label": "Byte<0, 1>", "mean_dnbr": "Object", "system:index": "String"}, "features": [{"type": "Feature", "geometry": {"geodesic": false, "type": "Polygon", "coordinates": [[[28.66426745641894, 36.85515624800974], [28.66696240227131, 36.85515624800974], [28.66696240227131, 36.855695237180214], [28.66750139144179, 36.855695237180214], [28.66750139144179, 36.856234226350686], [28.66804038061224, 36.856234226350686], [28.66804038061224, 36.857312204691624], [28.66750139144179, 36.857312204691624], [28.66750139144179, 36.857851193862096], [28.66588442393035, 36.857851193862096], [28.66588442393035, 36.85839018303257], [28.6653454347599, 36.85839018303257], [28.6653454347599, 36.857312204691624], [28.66480644558942, 36.857312204691624], [28.66480644558942, 36.856234226350686], [28.66426745641894, 36.856234226350686], [28.66426745641894, 36.85515624800974]]]}, "id": "+387144+87468", "properties": {"area_ha": 8.047379386918708, "count": 28, "label": 1, "mean_dnbr": 0.5722059256838474}}, {"type": "Feature", "geometry": {"geodesic": false, "type": "Polygon", "coordinates": [[[28.678281174851207, 36.872403901464835], [28.678820164021687, 36.872403901464835], [28.678820164021687, 36.87294289063531], [28.678281174851207, 36.87294289063531], [28.678281174851207, 36.87348187980578], [28.677742185680728, 36.87348187980578], [28.677742185680728, 36.87402086897625], [28.677203196510277, 36.87402086897625], [28.677203196510277, 36.874559858146725], [28.676125218169318, 36.874559858146725], [28.676125218169318, 36.8750988473172], [28.675586228998867, 36.8750988473172], [28.675586228998867, 36.874559858146725], [28.675047239828388, 36.874559858146725], [28.675047239828388, 36.87563783648766], [28.675586228998867, 36.87563783648766], [28.675586228998867, 36.876176825658135], [28.675047239828388, 36.876176825658135], [28.675047239828388, 36.87671581482861], [28.67396926148743, 36.87671581482861], [28.67396926148743, 36.876176825658135], [28.674508250657908, 36.876176825658135], [28.674508250657908, 36.874559858146725], [28.675047239828388, 36.874559858146725], [28.675047239828388, 36.87402086897625], [28.675586228998867, 36.87402086897625], [28.675586228998867, 36.87348187980578], [28.677203196510277, 36.87348187980578], [28.677203196510277, 36.87294289063531], [28.678281174851207, 36.87294289063531], [28.678281174851207, 36.872403901464835]]]}, "id": "+387166+87436", "properties": {"area_ha": 5.172103006311926, "count": 18, "label": 1, "mean_dnbr": 0.232976042337444}}, {"type": "Feature", "geometry": {"geodesic": false, "type": "Polygon", "coordinates": [[[28.686905001578765, 36.853539280498325], [28.688521969090175, 36.853539280498325], [28.688521969090175, 36.8540782696688], [28.689060958260654, 36.8540782696688], [28.689060958260654, 36.85461725883927], [28.688521969090175, 36.85461725883927], [28.688521969090175, 36.85515624800974], [28.685288034067355, 36.85515624800974], [28.685288034067355, 36.85461725883927], [28.685827023237806, 36.85461725883927], [28.685827023237806, 36.8540782696688], [28.686905001578765, 36.8540782696688], [28.686905001578765, 36.853539280498325]]]}, "id": "+387184+87471", "properties": {"area_ha": 4.311237734273479, "count": 15, "label": 1, "mean_dnbr": 0.1996925933362591}}, {"type": "Feature", "geometry": {"geodesic": false, "type": "Polygon", "coordinates": [[[28.687982979919695, 36.88156671736285], [28.689060958260654, 36.88156671736285], [28.689060958260654, 36.882644695703796], [28.689599947431134, 36.882644695703796], [28.689599947431134, 36.88318368487427], [28.690138936601585, 36.88318368487427], [28.690138936601585, 36.88426166321521], [28.690677925772064, 36.88426166321521], [28.690677925772064, 36.884800652385685], [28.687982979919695, 36.884800652385685], [28.687982979919695, 36.88372267404474], [28.687443990749244, 36.88372267404474], [28.687443990749244, 36.882644695703796], [28.687982979919695, 36.882644695703796], [28.687982979919695, 36.88156671736285]]]}, "id": "+387185+87419", "properties": {"area_ha": 6.320732876316738, "count": 22, "label": 1, "mean_dnbr": 0.20089874711891462}}, {"type": "Feature", "geometry": {"geodesic": false, "type": "Polygon", "coordinates": [[[28.728407167705086, 36.70962917198238], [28.728946156875566, 36.70962917198238], [28.728946156875566, 36.71016816115285], [28.730563124386975, 36.71016816115285], [28.730563124386975, 36.71070715032332], [28.731102113557455, 36.71070715032332], [28.731102113557455, 36.71178512866427], [28.729485146046017, 36.71178512866427], [28.729485146046017, 36.711246139493795], [28.728946156875566, 36.711246139493795], [28.728946156875566, 36.71070715032332], [28.728407167705086, 36.71070715032332], [28.728407167705086, 36.70962917198238]]]}, "id": "+387259+87738", "properties": {"area_ha": 3.455443857367213, "count": 12, "label": 1, "mean_dnbr": 0.21212980844373314}}, {"type": "Feature", "geometry": {"geodesic": false, "type": "Polygon", "coordinates": [[[28.745115831989693, 36.71340209617568], [28.747271788671583, 36.71340209617568], [28.747271788671583, 36.71609704202804], [28.74673279950113, 36.71609704202804], [28.74673279950113, 36.71663603119851], [28.745654821160173, 36.71663603119851], [28.745654821160173, 36.71555805285757], [28.745115831989693, 36.71555805285757], [28.745115831989693, 36.71340209617568]]]}, "id": "+387293+87731", "properties": {"area_ha": 6.046705286024911, "count": 21, "label": 1, "mean_dnbr": 0.25149831429554115}}, {"type": "Feature", "geometry": {"geodesic": false, "type": "Polygon", "coordinates": [[[28.74888875618302, 36.71986996622134], [28.74996673452395, 36.71986996622134], [28.74996673452395, 36.721486933732756], [28.74888875618302, 36.721486933732756], [28.74888875618302, 36.72094794456228], [28.74673279950113, 36.72094794456228], [28.74673279950113, 36.72040895539181], [28.747271788671583, 36.72040895539181], [28.747271788671583, 36.71986996622134], [28.747810777842062, 36.71986996622134], [28.747810777842062, 36.72040895539181], [28.74888875618302, 36.72040895539181], [28.74888875618302, 36.71986996622134]]]}, "id": "+387298+87719", "properties": {"area_ha": 3.1670925081889933, "count": 11, "label": 1, "mean_dnbr": 0.32053446473958913}}, {"type": "Feature", "geometry": {"geodesic": false, "type": "Polygon", "coordinates": [[[28.751044712864882, 36.71448007451662], [28.75158370203536, 36.71448007451662], [28.75158370203536, 36.715019063687095], [28.75427864788773, 36.715019063687095], [28.75427864788773, 36.71555805285757], [28.75535662622866, 36.71555805285757], [28.75535662622866, 36.71609704202804], [28.75320066954677, 36.71609704202804], [28.75320066954677, 36.71555805285757], [28.75266168037632, 36.71555805285757], [28.75266168037632, 36.71609704202804], [28.75212269120584, 36.71609704202804], [28.75212269120584, 36.71663603119851], [28.75050572369443, 36.71663603119851], [28.75050572369443, 36.715019063687095], [28.751044712864882, 36.715019063687095], [28.751044712864882, 36.71448007451662]]]}, "id": "+387301+87729", "properties": {"area_ha": 5.470772002031013, "count": 19, "label": 1, "mean_dnbr": 0.21377457951757825}}, {"type": "Feature", "geometry": {"geodesic": false, "type": "Polygon", "coordinates": [[[28.75320066954677, 36.860007150543986], [28.75373965871725, 36.860007150543986], [28.75373965871725, 36.86054613971446], [28.75481763705821, 36.86054613971446], [28.75481763705821, 36.86108512888493], [28.75535662622866, 36.86108512888493], [28.75535662622866, 36.8616241180554], [28.75481763705821, 36.8616241180554], [28.75481763705821, 36.86108512888493], [28.75427864788773, 36.86108512888493], [28.75427864788773, 36.8616241180554], [28.75320066954677, 36.8616241180554], [28.75320066954677, 36.862163107225875], [28.75158370203536, 36.862163107225875], [28.75158370203536, 36.8616241180554], [28.75212269120584, 36.8616241180554], [28.75212269120584, 36.86108512888493], [28.75266168037632, 36.86108512888493], [28.75266168037632, 36.86054613971446], [28.75320066954677, 36.86054613971446], [28.75320066954677, 36.860007150543986]]]}, "id": "+387305+87459", "properties": {"area_ha": 3.7360605783767147, "count": 13, "label": 1, "mean_dnbr": 0.3499061297520361}}, {"type": "Feature", "geometry": {"geodesic": false, "type": "Polygon", "coordinates": [[[28.76182449627433, 36.69831039940247], [28.76236348544481, 36.69831039940247], [28.76236348544481, 36.698849388572945], [28.76344146378574, 36.698849388572945], [28.76344146378574, 36.69938837774342], [28.770987312172338, 36.69938837774342], [28.770987312172338, 36.698849388572945], [28.772604279683776, 36.698849388572945], [28.772604279683776, 36.69938837774342], [28.771526301342817, 36.69938837774342], [28.771526301342817, 36.70316130193672], [28.775299225536116, 36.70316130193672], [28.775299225536116, 36.70370029110719], [28.775838214706596, 36.70370029110719], [28.775838214706596, 36.70531725861861], [28.775299225536116, 36.70531725861861], [28.775299225536116, 36.704778269448134], [28.774221247195186, 36.704778269448134], [28.774221247195186, 36.70585624778908], [28.772065290513297, 36.70585624778908], [28.772065290513297, 36.70531725861861], [28.771526301342817, 36.70531725861861], [28.771526301342817, 36.70585624778908], [28.76883135549045, 36.70585624778908], [28.76883135549045, 36.704778269448134], [28.766675398808587, 36.704778269448134], [28.766675398808587, 36.70585624778908], [28.76398045295622, 36.70585624778908], [28.76398045295622, 36.70639523695955], [28.76290247461526, 36.70639523695955], [28.76290247461526, 36.706934226130016], [28.7607465179334, 36.706934226130016], [28.7607465179334, 36.70747321530049], [28.76020752876292, 36.70747321530049], [28.76020752876292, 36.70639523695955], [28.75859056125151, 36.70639523695955], [28.75859056125151, 36.70801220447096], [28.75751258291055, 36.70801220447096], [28.75751258291055, 36.70855119364143], [28.75535662622866, 36.70855119364143], [28.75535662622866, 36.709090182811906], [28.75427864788773, 36.709090182811906], [28.75427864788773, 36.70962917198238], [28.75212269120584, 36.70962917198238], [28.75212269120584, 36.71016816115285], [28.751044712864882, 36.71016816115285], [28.751044712864882, 36.709090182811906], [28.75373965871725, 36.709090182811906], [28.75373965871725, 36.70855119364143], [28.75427864788773, 36.70855119364143], [28.75427864788773, 36.70801220447096], [28.75320066954677, 36.70801220447096], [28.75320066954677, 36.70639523695955], [28.75158370203536, 36.70639523695955], [28.75158370203536, 36.706934226130016], [28.751044712864882, 36.706934226130016], [28.751044712864882, 36.70747321530049], [28.75212269120584, 36.70747321530049], [28.75212269120584, 36.70801220447096], [28.75266168037632, 36.70801220447096], [28.75266168037632, 36.70855119364143], [28.75212269120584, 36.70855119364143], [28.75212269120584, 36.70801220447096], [28.751044712864882, 36.70801220447096], [28.751044712864882, 36.70855119364143], [28.75050572369443, 36.70855119364143], [28.75050572369443, 36.709090182811906], [28.749427745353472, 36.709090182811906], [28.749427745353472, 36.70962917198238], [28.747271788671583, 36.70962917198238], [28.747271788671583, 36.71070715032332], [28.746193810330652, 36.71070715032332], [28.746193810330652, 36.711246139493795], [28.74673279950113, 36.711246139493795], [28.74673279950113, 36.71178512866427], [28.746193810330652, 36.71178512866427], [28.746193810330652, 36.71232411783474], [28.745115831989693, 36.71232411783474], [28.745115831989693, 36.71178512866427], [28.745654821160173, 36.71178512866427], [28.745654821160173, 36.711246139493795], [28.742959875307832, 36.711246139493795], [28.742959875307832, 36.71178512866427], [28.741881896966873, 36.71178512866427], [28.741881896966873, 36.711246139493795], [28.741342907796394, 36.711246139493795], [28.741342907796394, 36.71178512866427], [28.740803918625943, 36.71178512866427], [28.740803918625943, 36.71232411783474], [28.742959875307832, 36.71232411783474], [28.742959875307832, 36.71340209617568], [28.741881896966873, 36.71340209617568], [28.741881896966873, 36.71394108534615], [28.740264929455464, 36.71394108534615], [28.740264929455464, 36.71340209617568], [28.739725940284984, 36.71340209617568], [28.739725940284984, 36.71394108534615], [28.739186951114505, 36.71394108534615], [28.739186951114505, 36.71340209617568], [28.738647961944054, 36.71340209617568], [28.738647961944054, 36.712863107005205], [28.737030994432644, 36.712863107005205], [28.737030994432644, 36.71178512866427], [28.736492005262164, 36.71178512866427], [28.736492005262164, 36.71232411783474], [28.735953016091685, 36.71232411783474], [28.735953016091685, 36.712863107005205], [28.734336048580275, 36.712863107005205], [28.734336048580275, 36.71178512866427], [28.733797059409795, 36.71178512866427], [28.733797059409795, 36.71070715032332], [28.734336048580275, 36.71070715032332], [28.734336048580275, 36.71016816115285], [28.735414026921205, 36.71016816115285], [28.735414026921205, 36.70962917198238], [28.738647961944054, 36.70962917198238], [28.738647961944054, 36.709090182811906], [28.740803918625943, 36.709090182811906], [28.740803918625943, 36.70962917198238], [28.742420886137353, 36.70962917198238], [28.742420886137353, 36.709090182811906], [28.745654821160173, 36.709090182811906], [28.745654821160173, 36.70855119364143], [28.746193810330652, 36.70855119364143], [28.746193810330652, 36.709090182811906], [28.747810777842062, 36.709090182811906], [28.747810777842062, 36.70801220447096], [28.74834976701254, 36.70801220447096], [28.74834976701254, 36.706934226130016], [28.74888875618302, 36.706934226130016], [28.74888875618302, 36.70639523695955], [28.749427745353472, 36.70639523695955], [28.749427745353472, 36.70585624778908], [28.74996673452395, 36.70585624778908], [28.74996673452395, 36.70531725861861], [28.75158370203536, 36.70531725861861], [28.75158370203536, 36.704778269448134], [28.75266168037632, 36.704778269448134], [28.75266168037632, 36.70423928027766], [28.75427864788773, 36.70423928027766], [28.75427864788773, 36.70370029110719], [28.75481763705821, 36.70370029110719], [28.75481763705821, 36.70316130193672], [28.75697359374007, 36.70316130193672], [28.75697359374007, 36.70208332359577], [28.75751258291055, 36.70208332359577], [28.75751258291055, 36.7015443344253], [28.75805157208103, 36.7015443344253], [28.75805157208103, 36.70100534525483], [28.75912955042196, 36.70100534525483], [28.75912955042196, 36.69992736691389], [28.7607465179334, 36.69992736691389], [28.7607465179334, 36.69938837774342], [28.76128550710385, 36.69938837774342], [28.76128550710385, 36.698849388572945], [28.76182449627433, 36.698849388572945], [28.76182449627433, 36.69831039940247]], [[28.740264929455464, 36.711246139493795], [28.740264929455464, 36.71178512866427], [28.739186951114505, 36.71178512866427], [28.739186951114505, 36.711246139493795], [28.740264929455464, 36.711246139493795]], [[28.737569983603095, 36.71070715032332], [28.737569983603095, 36.711246139493795], [28.738647961944054, 36.711246139493795], [28.738647961944054, 36.71178512866427], [28.737030994432644, 36.71178512866427], [28.737030994432644, 36.711246139493795], [28.734336048580275, 36.711246139493795], [28.734336048580275, 36.71070715032332], [28.737569983603095, 36.71070715032332]], [[28.742959875307832, 36.70962917198238], [28.742959875307832, 36.71016816115285], [28.742420886137353, 36.71016816115285], [28.742420886137353, 36.70962917198238], [28.742959875307832, 36.70962917198238]], [[28.75050572369443, 36.70747321530049], [28.75050572369443, 36.70801220447096], [28.74996673452395, 36.70801220447096], [28.74996673452395, 36.70747321530049], [28.75050572369443, 36.70747321530049]], [[28.75535662622866, 36.70585624778908], [28.75535662622866, 36.70639523695955], [28.75481763705821, 36.70639523695955], [28.75481763705821, 36.70585624778908], [28.75535662622866, 36.70585624778908]], [[28.76290247461526, 36.70585624778908], [28.76290247461526, 36.70639523695955], [28.76236348544481, 36.70639523695955], [28.76236348544481, 36.70585624778908], [28.76290247461526, 36.70585624778908]]]}, "id": "+387321+87759", "properties": {"area_ha": 177.6795366898207, "count": 617, "label": 1, "mean_dnbr": 0.3958918260728268}}, {"type": "Feature", "geometry": {"geodesic": false, "type": "Polygon", "coordinates": [[[28.76559742046763, 37.010924118276066], [28.766136409638108, 37.010924118276066], [28.766136409638108, 37.01200209661701], [28.76559742046763, 37.01200209661701], [28.76559742046763, 37.01254108578748], [28.766675398808587, 37.01254108578748], [28.766675398808587, 37.01200209661701], [28.76721438797904, 37.01200209661701], [28.76721438797904, 37.01254108578748], [28.766675398808587, 37.01254108578748], [28.766675398808587, 37.013080074957955], [28.76559742046763, 37.013080074957955], [28.76559742046763, 37.01254108578748], [28.764519442126698, 37.01254108578748], [28.764519442126698, 37.01415805329889], [28.76398045295622, 37.01415805329889], [28.76398045295622, 37.013080074957955], [28.76344146378574, 37.013080074957955], [28.76344146378574, 37.01254108578748], [28.764519442126698, 37.01254108578748], [28.764519442126698, 37.01146310744654], [28.76559742046763, 37.01146310744654], [28.76559742046763, 37.010924118276066]]]}, "id": "+387328+87179", "properties": {"area_ha": 3.7286518929414116, "count": 13, "label": 1, "mean_dnbr": 0.28339272346291144}}, {"type": "Feature", "geometry": {"geodesic": false, "type": "Polygon", "coordinates": [[[28.76290247461526, 36.71394108534615], [28.766136409638108, 36.71394108534615], [28.766136409638108, 36.71448007451662], [28.764519442126698, 36.71448007451662], [28.764519442126698, 36.715019063687095], [28.76344146378574, 36.715019063687095], [28.76344146378574, 36.71555805285757], [28.76398045295622, 36.71555805285757], [28.76398045295622, 36.71609704202804], [28.76236348544481, 36.71609704202804], [28.76236348544481, 36.71448007451662], [28.76290247461526, 36.71448007451662], [28.76290247461526, 36.71394108534615]]]}, "id": "+387328+87730", "properties": {"area_ha": 4.319064233206774, "count": 15, "label": 1, "mean_dnbr": 0.3054401557613599}}, {"type": "Feature", "geometry": {"geodesic": false, "type": "Polygon", "coordinates": [[[28.769909333831407, 36.74304650055162], [28.770448323001887, 36.74304650055162], [28.770448323001887, 36.74358548972209], [28.770987312172338, 36.74358548972209], [28.770987312172338, 36.74466346806304], [28.772065290513297, 36.74466346806304], [28.772065290513297, 36.74681942474493], [28.771526301342817, 36.74681942474493], [28.771526301342817, 36.748436392256345], [28.770987312172338, 36.748436392256345], [28.770987312172338, 36.75059234893823], [28.769909333831407, 36.75059234893823], [28.769909333831407, 36.74951437059728], [28.769370344660928, 36.74951437059728], [28.769370344660928, 36.750053359767755], [28.768292366319997, 36.750053359767755], [28.768292366319997, 36.75059234893823], [28.76721438797904, 36.75059234893823], [28.76721438797904, 36.75167032727917], [28.766675398808587, 36.75167032727917], [28.766675398808587, 36.7511313381087], [28.766136409638108, 36.7511313381087], [28.766136409638108, 36.752209316449644], [28.766675398808587, 36.752209316449644], [28.766675398808587, 36.752748305620116], [28.76559742046763, 36.752748305620116], [28.76559742046763, 36.75382628396106], [28.76344146378574, 36.75382628396106], [28.76344146378574, 36.75167032727917], [28.76398045295622, 36.75167032727917], [28.76398045295622, 36.7511313381087], [28.76559742046763, 36.7511313381087], [28.76559742046763, 36.750053359767755], [28.766136409638108, 36.750053359767755], [28.766136409638108, 36.748436392256345], [28.76559742046763, 36.748436392256345], [28.76559742046763, 36.746280435574455], [28.764519442126698, 36.746280435574455], [28.764519442126698, 36.74520245723351], [28.76505843129715, 36.74520245723351], [28.76505843129715, 36.74466346806304], [28.769370344660928, 36.74466346806304], [28.769370344660928, 36.744124478892566], [28.769909333831407, 36.744124478892566], [28.769909333831407, 36.74304650055162]]]}, "id": "+387336+87676", "properties": {"area_ha": 43.74770960113438, "count": 152, "label": 1, "mean_dnbr": 0.369294285560142}}, {"type": "Feature", "geometry": {"geodesic": false, "type": "Polygon", "coordinates": [[[28.775299225536116, 36.80880317934918], [28.776916193047526, 36.80880317934918], [28.776916193047526, 36.80934216851964], [28.777455182218006, 36.80934216851964], [28.777455182218006, 36.809881157690114], [28.776916193047526, 36.809881157690114], [28.776916193047526, 36.81042014686059], [28.775838214706596, 36.81042014686059], [28.775838214706596, 36.81095913603106], [28.775299225536116, 36.81095913603106], [28.775299225536116, 36.81042014686059], [28.774760236365637, 36.81042014686059], [28.774760236365637, 36.809881157690114], [28.775838214706596, 36.809881157690114], [28.775838214706596, 36.80934216851964], [28.775299225536116, 36.80934216851964], [28.775299225536116, 36.80880317934918]]]}, "id": "+387348+87554", "properties": {"area_ha": 3.163405237726153, "count": 11, "label": 1, "mean_dnbr": 0.18273399252398986}}, {"type": "Feature", "geometry": {"geodesic": false, "type": "Polygon", "coordinates": [[[28.777455182218006, 36.74897538142681], [28.777994171388485, 36.74897538142681], [28.777994171388485, 36.74951437059728], [28.778533160558965, 36.74951437059728], [28.778533160558965, 36.750053359767755], [28.779072149729416, 36.750053359767755], [28.779072149729416, 36.7511313381087], [28.780689117240826, 36.7511313381087], [28.780689117240826, 36.75167032727917], [28.781228106411305, 36.75167032727917], [28.781228106411305, 36.752209316449644], [28.781767095581785, 36.752209316449644], [28.781767095581785, 36.75328729479059], [28.781228106411305, 36.75328729479059], [28.781228106411305, 36.75382628396106], [28.781767095581785, 36.75382628396106], [28.781767095581785, 36.75706021898389], [28.780150128070375, 36.75706021898389], [28.780150128070375, 36.756521229813416], [28.777994171388485, 36.756521229813416], [28.777994171388485, 36.75598224064294], [28.778533160558965, 36.75598224064294], [28.778533160558965, 36.75544325147247], [28.777994171388485, 36.75544325147247], [28.777994171388485, 36.75167032727917], [28.777455182218006, 36.75167032727917], [28.777455182218006, 36.7511313381087], [28.777994171388485, 36.7511313381087], [28.777994171388485, 36.75059234893823], [28.777455182218006, 36.75059234893823], [28.777455182218006, 36.750053359767755], [28.777994171388485, 36.750053359767755], [28.777994171388485, 36.74951437059728], [28.777455182218006, 36.74951437059728], [28.777455182218006, 36.74897538142681]], [[28.779611138899895, 36.754904262302], [28.779611138899895, 36.75544325147247], [28.779072149729416, 36.75544325147247], [28.779072149729416, 36.754904262302], [28.779611138899895, 36.754904262302]]]}, "id": "+387350+87665", "properties": {"area_ha": 21.584498669077444, "count": 75, "label": 1, "mean_dnbr": 0.28936504266638613}}, {"type": "Feature", "geometry": {"geodesic": false, "type": "Polygon", "coordinates": [[[28.778533160558965, 36.704778269448134], [28.779611138899895, 36.704778269448134], [28.779611138899895, 36.70531725861861], [28.780689117240826, 36.70531725861861], [28.780689117240826, 36.70639523695955], [28.781228106411305, 36.70639523695955], [28.781228106411305, 36.70855119364143], [28.780689117240826, 36.70855119364143], [28.780689117240826, 36.70747321530049], [28.780150128070375, 36.70747321530049], [28.780150128070375, 36.706934226130016], [28.779611138899895, 36.706934226130016], [28.779611138899895, 36.70639523695955], [28.777994171388485, 36.70639523695955], [28.777994171388485, 36.70531725861861], [28.778533160558965, 36.70531725861861], [28.778533160558965, 36.704778269448134]]]}, "id": "+387353+87747", "properties": {"area_ha": 5.4714464281779085, "count": 19, "label": 1, "mean_dnbr": 0.3036781120807696}}, {"type": "Feature", "geometry": {"geodesic": false, "type": "Polygon", "coordinates": [[[28.778533160558965, 36.781314731655115], [28.781767095581785, 36.781314731655115], [28.781767095581785, 36.783470688337005], [28.781228106411305, 36.783470688337005], [28.781228106411305, 36.78670462335983], [28.780689117240826, 36.78670462335983], [28.780689117240826, 36.78616563418936], [28.780150128070375, 36.78616563418936], [28.780150128070375, 36.785087655848415], [28.779611138899895, 36.785087655848415], [28.779611138899895, 36.78400967750748], [28.778533160558965, 36.78400967750748], [28.778533160558965, 36.78293169916653], [28.779072149729416, 36.78293169916653], [28.779072149729416, 36.78185372082559], [28.778533160558965, 36.78185372082559], [28.778533160558965, 36.781314731655115]]]}, "id": "+387357+87605", "properties": {"area_ha": 10.931881371832661, "count": 38, "label": 1, "mean_dnbr": 0.3901458323094721}}, {"type": "Feature", "geometry": {"geodesic": false, "type": "Polygon", "coordinates": [[[28.782306084752264, 36.80718621183776], [28.783923052263674, 36.80718621183776], [28.783923052263674, 36.80772520100823], [28.785001030604604, 36.80772520100823], [28.785001030604604, 36.809881157690114], [28.782306084752264, 36.809881157690114], [28.782306084752264, 36.80934216851964], [28.781767095581785, 36.80934216851964], [28.781767095581785, 36.80772520100823], [28.782306084752264, 36.80772520100823], [28.782306084752264, 36.80718621183776]]]}, "id": "+387361+87557", "properties": {"area_ha": 7.4772670540841935, "count": 26, "label": 1, "mean_dnbr": 0.43612222289692426}}, {"type": "Feature", "geometry": {"geodesic": false, "type": "Polygon", "coordinates": [[[28.782306084752264, 36.81311509271295], [28.784462041434153, 36.81311509271295], [28.784462041434153, 36.81419307105389], [28.783923052263674, 36.81419307105389], [28.783923052263674, 36.814732060224365], [28.783384063093195, 36.814732060224365], [28.783384063093195, 36.81527104939483], [28.781767095581785, 36.81527104939483], [28.781767095581785, 36.81365408188342], [28.782306084752264, 36.81365408188342], [28.782306084752264, 36.81311509271295]]]}, "id": "+387362+87546", "properties": {"area_ha": 4.601054121154659, "count": 16, "label": 1, "mean_dnbr": 0.41639668368190924}}, {"type": "Feature", "geometry": {"geodesic": false, "type": "Polygon", "coordinates": [[[28.785540019775084, 36.79317249340549], [28.786079008945563, 36.79317249340549], [28.786079008945563, 36.79425047174644], [28.786617998116014, 36.79425047174644], [28.786617998116014, 36.79640642842833], [28.787156987286494, 36.79640642842833], [28.787156987286494, 36.79802339593974], [28.786617998116014, 36.79802339593974], [28.786617998116014, 36.797484406769264], [28.785540019775084, 36.797484406769264], [28.785540019775084, 36.79694541759879], [28.785001030604604, 36.79694541759879], [28.785001030604604, 36.79640642842833], [28.784462041434153, 36.79640642842833], [28.784462041434153, 36.795867439257854], [28.785001030604604, 36.795867439257854], [28.785001030604604, 36.79532845008738], [28.785540019775084, 36.79532845008738], [28.785540019775084, 36.79317249340549]]]}, "id": "+387365+87583", "properties": {"area_ha": 6.040326319279175, "count": 21, "label": 1, "mean_dnbr": 0.30084485586209625}}, {"type": "Feature", "geometry": {"geodesic": false, "type": "Polygon", "coordinates": [[[28.785001030604604, 36.74089054386974], [28.787695976456973, 36.74089054386974], [28.787695976456973, 36.74196852221068], [28.787156987286494, 36.74196852221068], [28.787156987286494, 36.74304650055162], [28.787695976456973, 36.74304650055162], [28.787695976456973, 36.746280435574455], [28.787156987286494, 36.746280435574455], [28.787156987286494, 36.74681942474493], [28.786079008945563, 36.74681942474493], [28.786079008945563, 36.746280435574455], [28.785540019775084, 36.746280435574455], [28.785540019775084, 36.74681942474493], [28.784462041434153, 36.74681942474493], [28.784462041434153, 36.746280435574455], [28.783923052263674, 36.746280435574455], [28.783923052263674, 36.742507511381156], [28.784462041434153, 36.742507511381156], [28.784462041434153, 36.74196852221068], [28.785001030604604, 36.74196852221068], [28.785001030604604, 36.74089054386974]]]}, "id": "+387368+87680", "properties": {"area_ha": 19.284568623808862, "count": 67, "label": 1, "mean_dnbr": 0.1758757101182009}}, {"type": "Feature", "geometry": {"geodesic": false, "type": "Polygon", "coordinates": [[[28.789851933138863, 36.787782601700776], [28.790929911479793, 36.787782601700776], [28.790929911479793, 36.78832159087125], [28.791468900650273, 36.78832159087125], [28.791468900650273, 36.78886058004172], [28.792007889820752, 36.78886058004172], [28.792007889820752, 36.78939956921219], [28.791468900650273, 36.78939956921219], [28.791468900650273, 36.789938558382666], [28.792007889820752, 36.789938558382666], [28.792007889820752, 36.79047754755314], [28.793085868161683, 36.79047754755314], [28.793085868161683, 36.7910165367236], [28.792546878991203, 36.7910165367236], [28.792546878991203, 36.79209451506455], [28.792007889820752, 36.79209451506455], [28.792007889820752, 36.791555525894076], [28.791468900650273, 36.791555525894076], [28.791468900650273, 36.7910165367236], [28.790929911479793, 36.7910165367236], [28.790929911479793, 36.79209451506455], [28.790390922309342, 36.79209451506455], [28.790390922309342, 36.7910165367236], [28.789851933138863, 36.7910165367236], [28.789851933138863, 36.79209451506455], [28.789312943968383, 36.79209451506455], [28.789312943968383, 36.79263350423502], [28.788773954797904, 36.79263350423502], [28.788773954797904, 36.791555525894076], [28.788234965627453, 36.791555525894076], [28.788234965627453, 36.7910165367236], [28.786079008945563, 36.7910165367236], [28.786079008945563, 36.79047754755314], [28.785540019775084, 36.79047754755314], [28.785540019775084, 36.789938558382666], [28.785001030604604, 36.789938558382666], [28.785001030604604, 36.78939956921219], [28.785540019775084, 36.78939956921219], [28.785540019775084, 36.78886058004172], [28.787695976456973, 36.78886058004172], [28.787695976456973, 36.78832159087125], [28.788234965627453, 36.78832159087125], [28.788234965627453, 36.78886058004172], [28.788773954797904, 36.78886058004172], [28.788773954797904, 36.789938558382666], [28.789312943968383, 36.789938558382666], [28.789312943968383, 36.7910165367236], [28.789851933138863, 36.7910165367236], [28.789851933138863, 36.789938558382666], [28.790390922309342, 36.789938558382666], [28.790390922309342, 36.78886058004172], [28.789851933138863, 36.78886058004172], [28.789851933138863, 36.78939956921219], [28.789312943968383, 36.78939956921219], [28.789312943968383, 36.78832159087125], [28.789851933138863, 36.78832159087125], [28.789851933138863, 36.787782601700776]], [[28.787156987286494, 36.789938558382666], [28.787156987286494, 36.79047754755314], [28.786617998116014, 36.79047754755314], [28.786617998116014, 36.789938558382666], [28.787156987286494, 36.789938558382666]], [[28.790929911479793, 36.789938558382666], [28.790929911479793, 36.79047754755314], [28.790390922309342, 36.79047754755314], [28.790390922309342, 36.789938558382666], [28.790929911479793, 36.789938558382666]], [[28.787695976456973, 36.78939956921219], [28.787695976456973, 36.789938558382666], [28.787156987286494, 36.789938558382666], [28.787156987286494, 36.78939956921219], [28.787695976456973, 36.78939956921219]], [[28.791468900650273, 36.78886058004172], [28.791468900650273, 36.78939956921219], [28.790929911479793, 36.78939956921219], [28.790929911479793, 36.78886058004172], [28.791468900650273, 36.78886058004172]], [[28.790929911479793, 36.78832159087125], [28.790929911479793, 36.78886058004172], [28.790390922309342, 36.78886058004172], [28.790390922309342, 36.78832159087125], [28.790929911479793, 36.78832159087125]]]}, "id": "+387374+87593", "properties": {"area_ha": 15.82108808968672, "count": 55, "label": 1, "mean_dnbr": 0.2117329858590667}}, {"type": "Feature", "geometry": {"geodesic": false, "type": "Polygon", "coordinates": [[[28.798475759866392, 36.74358548972209], [28.80009272737783, 36.74358548972209], [28.80009272737783, 36.744124478892566], [28.79955373820735, 36.744124478892566], [28.79955373820735, 36.74789740308587], [28.79631980318453, 36.74789740308587], [28.79631980318453, 36.7473584139154], [28.795241824843572, 36.7473584139154], [28.795241824843572, 36.74681942474493], [28.79578081401405, 36.74681942474493], [28.79578081401405, 36.744124478892566], [28.796858792354982, 36.744124478892566], [28.796858792354982, 36.74466346806304], [28.79793677069594, 36.74466346806304], [28.79793677069594, 36.744124478892566], [28.798475759866392, 36.744124478892566], [28.798475759866392, 36.74358548972209]]]}, "id": "+387391+87675", "properties": {"area_ha": 14.391123757498427, "count": 50, "label": 1, "mean_dnbr": 0.313253204766871}}, {"type": "Feature", "geometry": {"geodesic": false, "type": "Polygon", "coordinates": [[[28.80170969488924, 36.719330977050866], [28.80386565157113, 36.719330977050866], [28.80386565157113, 36.71986996622134], [28.80440464074158, 36.71986996622134], [28.80440464074158, 36.723642890414645], [28.80494362991206, 36.723642890414645], [28.80494362991206, 36.72795480377842], [28.80440464074158, 36.72795480377842], [28.80440464074158, 36.72687682543747], [28.80386565157113, 36.72687682543747], [28.80386565157113, 36.72849379294889], [28.80440464074158, 36.72849379294889], [28.80440464074158, 36.729571771289834], [28.80063171654828, 36.729571771289834], [28.80063171654828, 36.72849379294889], [28.80009272737783, 36.72849379294889], [28.80009272737783, 36.726337836267], [28.79955373820735, 36.726337836267], [28.79955373820735, 36.723642890414645], [28.79901474903687, 36.723642890414645], [28.79901474903687, 36.72202592290323], [28.80009272737783, 36.72202592290323], [28.80009272737783, 36.721486933732756], [28.80170969488924, 36.721486933732756], [28.80170969488924, 36.72094794456228], [28.80063171654828, 36.72094794456228], [28.80063171654828, 36.72040895539181], [28.80009272737783, 36.72040895539181], [28.80009272737783, 36.72094794456228], [28.79955373820735, 36.72094794456228], [28.79955373820735, 36.72040895539181], [28.80009272737783, 36.72040895539181], [28.80009272737783, 36.71986996622134], [28.80170969488924, 36.71986996622134], [28.80170969488924, 36.719330977050866]], [[28.80278767323017, 36.72849379294889], [28.80278767323017, 36.72903278211936], [28.80170969488924, 36.72903278211936], [28.80170969488924, 36.72849379294889], [28.80278767323017, 36.72849379294889]]]}, "id": "+387398+87720", "properties": {"area_ha": 45.200719589253346, "count": 157, "label": 1, "mean_dnbr": 0.3719922247258499}}, {"type": "Feature", "geometry": {"geodesic": false, "type": "Polygon", "coordinates": [[[28.818418359173847, 36.79478946091691], [28.818957348344327, 36.79478946091691], [28.818957348344327, 36.79532845008738], [28.820035326685286, 36.79532845008738], [28.820035326685286, 36.79694541759879], [28.818418359173847, 36.79694541759879], [28.818418359173847, 36.795867439257854], [28.817879370003396, 36.795867439257854], [28.817879370003396, 36.79532845008738], [28.818418359173847, 36.79532845008738], [28.818418359173847, 36.79478946091691]]]}, "id": "+387426+87580", "properties": {"area_ha": 3.1639785521609327, "count": 11, "label": 1, "mean_dnbr": 0.25685071043207913}}, {"type": "Feature", "geometry": {"geodesic": false, "type": "Polygon", "coordinates": [[[29.1741512116852, 36.809881157690114], [29.17469020085565, 36.809881157690114], [29.17469020085565, 36.81095913603106], [29.17522919002613, 36.81095913603106], [29.17522919002613, 36.81149812520153], [29.17576817919661, 36.81149812520153], [29.17576817919661, 36.812037114372], [29.17630716836709, 36.812037114372], [29.17630716836709, 36.812576103542476], [29.17576817919661, 36.812576103542476], [29.17576817919661, 36.81311509271295], [29.17522919002613, 36.81311509271295], [29.17522919002613, 36.812576103542476], [29.17469020085565, 36.812576103542476], [29.17469020085565, 36.81419307105389], [29.1741512116852, 36.81419307105389], [29.1741512116852, 36.812576103542476], [29.17469020085565, 36.812576103542476], [29.17469020085565, 36.81149812520153], [29.1741512116852, 36.81149812520153], [29.1741512116852, 36.81095913603106], [29.17307323334424, 36.81095913603106], [29.17307323334424, 36.81042014686059], [29.1741512116852, 36.81042014686059], [29.1741512116852, 36.809881157690114]]]}, "id": "+388086+87552", "properties": {"area_ha": 4.3136186857643155, "count": 15, "label": 1, "mean_dnbr": 0.21040779354402178}}, {"type": "Feature", "geometry": {"geodesic": false, "type": "Polygon", "coordinates": [[[29.17738514670802, 36.5624851284436], [29.180080092560388, 36.5624851284436], [29.180080092560388, 36.56356310678454], [29.18061908173084, 36.56356310678454], [29.18061908173084, 36.564102095955015], [29.180080092560388, 36.564102095955015], [29.180080092560388, 36.56464108512549], [29.17954110338991, 36.56464108512549], [29.17954110338991, 36.564102095955015], [29.17900211421943, 36.564102095955015], [29.17900211421943, 36.56464108512549], [29.1779241358785, 36.56464108512549], [29.1779241358785, 36.56302411761407], [29.17738514670802, 36.56302411761407], [29.17738514670802, 36.5624851284436]], [[29.17900211421943, 36.56302411761407], [29.17900211421943, 36.564102095955015], [29.17846312504895, 36.564102095955015], [29.17846312504895, 36.56302411761407], [29.17900211421943, 36.56302411761407]]]}, "id": "+388096+88011", "properties": {"area_ha": 4.3275622584129385, "count": 15, "label": 1, "mean_dnbr": 0.23812160894710882}}, {"type": "Feature", "geometry": {"geodesic": false, "type": "Polygon", "coordinates": [[[29.22805012873235, 36.88965155491993], [29.229667096243787, 36.88965155491993], [29.229667096243787, 36.891268522431346], [29.22858911790283, 36.891268522431346], [29.22858911790283, 36.89180751160182], [29.22805012873235, 36.89180751160182], [29.22805012873235, 36.891268522431346], [29.22697215039142, 36.891268522431346], [29.22697215039142, 36.890729533260874], [29.22858911790283, 36.890729533260874], [29.22858911790283, 36.8901905440904], [29.22805012873235, 36.8901905440904], [29.22805012873235, 36.88965155491993]]]}, "id": "+388188+87404", "properties": {"area_ha": 3.1600582360644855, "count": 11, "label": 1, "mean_dnbr": 0.2876255400508772}}, {"type": "Feature", "geometry": {"geodesic": false, "type": "Polygon", "coordinates": [[[29.231284063755197, 36.903126284181724], [29.232362042096128, 36.903126284181724], [29.232362042096128, 36.903665273352196], [29.233440020437087, 36.903665273352196], [29.233440020437087, 36.90420426252267], [29.234517998778017, 36.90420426252267], [29.234517998778017, 36.90528224086361], [29.233440020437087, 36.90528224086361], [29.233440020437087, 36.90420426252267], [29.232362042096128, 36.90420426252267], [29.232362042096128, 36.90474325169314], [29.231823052925677, 36.90474325169314], [29.231823052925677, 36.90528224086361], [29.230745074584718, 36.90528224086361], [29.230745074584718, 36.90420426252267], [29.231823052925677, 36.90420426252267], [29.231823052925677, 36.903665273352196], [29.231284063755197, 36.903665273352196], [29.231284063755197, 36.903126284181724]]]}, "id": "+388193+87379", "properties": {"area_ha": 4.0211745716051475, "count": 14, "label": 1, "mean_dnbr": 0.25259375265776096}}, {"type": "Feature", "geometry": {"geodesic": false, "type": "Polygon", "coordinates": [[[29.295423775041314, 36.86701400976012], [29.297579731723204, 36.86701400976012], [29.297579731723204, 36.86755299893059], [29.297040742552753, 36.86755299893059], [29.297040742552753, 36.868091988101064], [29.298118720893683, 36.868091988101064], [29.298118720893683, 36.86916996644201], [29.294345796700384, 36.86916996644201], [29.294345796700384, 36.86755299893059], [29.293806807529904, 36.86755299893059], [29.293806807529904, 36.86701400976012], [29.294345796700384, 36.86701400976012], [29.294345796700384, 36.86755299893059], [29.295423775041314, 36.86755299893059], [29.295423775041314, 36.86701400976012]]]}, "id": "+388314+87446", "properties": {"area_ha": 6.896738878163311, "count": 24, "label": 1, "mean_dnbr": 0.5204650102143309}}, {"type": "Feature", "geometry": {"geodesic": false, "type": "Polygon", "coordinates": [[[29.31428839600784, 36.52960678904483], [29.31536637434877, 36.52960678904483], [29.31536637434877, 36.53068476738577], [29.31428839600784, 36.53068476738577], [29.31428839600784, 36.53176274572671], [29.31482738517832, 36.53176274572671], [29.31482738517832, 36.5339187024086], [29.31428839600784, 36.5339187024086], [29.31428839600784, 36.532840724067654], [29.31374940683736, 36.532840724067654], [29.31374940683736, 36.53068476738577], [29.31428839600784, 36.53068476738577], [29.31428839600784, 36.52960678904483]]]}, "id": "+388347+88072", "properties": {"area_ha": 3.4634883087912858, "count": 12, "label": 1, "mean_dnbr": 0.3271519071518302}}, {"type": "Feature", "geometry": {"geodesic": false, "type": "Polygon", "coordinates": [[[29.324529190246807, 36.44282953259888], [29.325607168587737, 36.44282953259888], [29.325607168587737, 36.44390751093982], [29.326146157758217, 36.44390751093982], [29.326146157758217, 36.444446500110296], [29.326685146928696, 36.444446500110296], [29.326685146928696, 36.44498548928077], [29.327224136099147, 36.44498548928077], [29.327224136099147, 36.44606346762171], [29.327763125269627, 36.44606346762171], [29.327763125269627, 36.446602456792185], [29.327224136099147, 36.446602456792185], [29.327224136099147, 36.44714144596266], [29.325607168587737, 36.44714144596266], [29.325607168587737, 36.446602456792185], [29.326146157758217, 36.446602456792185], [29.326146157758217, 36.44606346762171], [29.326685146928696, 36.44606346762171], [29.326685146928696, 36.44498548928077], [29.326146157758217, 36.44498548928077], [29.326146157758217, 36.444446500110296], [29.325607168587737, 36.444446500110296], [29.325607168587737, 36.44390751093982], [29.324529190246807, 36.44390751093982], [29.324529190246807, 36.44282953259888]]]}, "id": "+388366+88233", "properties": {"area_ha": 4.045246615393389, "count": 14, "label": 1, "mean_dnbr": 0.26809116958734547}}, {"type": "Feature", "geometry": {"geodesic": false, "type": "Polygon", "coordinates": [[[29.328841103610557, 36.456843251031145], [29.329380092781037, 36.456843251031145], [29.329380092781037, 36.45738224020162], [29.330997060292447, 36.45738224020162], [29.330997060292447, 36.45792122937209], [29.330458071121996, 36.45792122937209], [29.330458071121996, 36.458999207713035], [29.330997060292447, 36.458999207713035], [29.330997060292447, 36.460616175224445], [29.331536049462926, 36.460616175224445], [29.331536049462926, 36.46115516439492], [29.329380092781037, 36.46115516439492], [29.329380092781037, 36.46007718605397], [29.329919081951516, 36.46007718605397], [29.329919081951516, 36.45846021854256], [29.329380092781037, 36.45846021854256], [29.329380092781037, 36.45738224020162], [29.328841103610557, 36.45738224020162], [29.328841103610557, 36.456843251031145]]]}, "id": "+388373+88207", "properties": {"area_ha": 5.200085745616093, "count": 18, "label": 1, "mean_dnbr": 0.24748602835688496}}]}