{"type": "FeatureCollection", "columns": {"area_ha": "Number", "count": "Long<0, 4294967295>", "label": "Byte<0, 1>", "mean_dnbr": "Object", "system:index": "String"}, "features": [{"type": "Feature", "geometry": {"geodesic": false, "type": "Polygon", "coordinates": [[[28.376447239387062, 37.031944695924466], [28.379681174409882, 37.031944695924466], [28.379681174409882, 37.0330226742654], [28.376447239387062, 37.0330226742654], [28.376447239387062, 37.031944695924466]]]}, "id": "+386611+87140", "properties": {"area_ha": 3.4409250613449824, "count": 12, "label": 1, "mean_dnbr": 0.18386522924402102}}, {"type": "Feature", "geometry": {"geodesic": false, "type": "Polygon", "coordinates": [[[28.38668803362603, 37.02817177173116], [28.38884399030789, 37.02817177173116], [28.38884399030789, 37.02871076090163], [28.38830500113744, 37.02871076090163], [28.38830500113744, 37.029788739242576], [28.38722702279648, 37.029788739242576], [28.38722702279648, 37.03032772841305], [28.38668803362603, 37.03032772841305], [28.38668803362603, 37.02817177173116]]]}, "id": "+386628+87147", "properties": {"area_ha": 3.1543189363799677, "count": 11, "label": 1, "mean_dnbr": 0.4402433711542609}}, {"type": "Feature", "geometry": {"geodesic": false, "type": "Polygon", "coordinates": [[[28.43304110228658, 37.01631400998078], [28.43411908062754, 37.01631400998078], [28.43411908062754, 37.0179309774922], [28.43465806979799, 37.0179309774922], [28.43465806979799, 37.019008955833144], [28.43411908062754, 37.019008955833144], [28.43411908062754, 37.019547945003616], [28.43358009145706, 37.019547945003616], [28.43358009145706, 37.019008955833144], [28.43304110228658, 37.019008955833144], [28.43304110228658, 37.01631400998078]]]}, "id": "+386712+87169", "properties": {"area_ha": 3.728383372050529, "count": 13, "label": 1, "mean_dnbr": 0.2437696691306603}}, {"type": "Feature", "geometry": {"geodesic": false, "type": "Polygon", "coordinates": [[[28.446515831548368, 37.007151194082766], [28.447054820718847, 37.007151194082766], [28.447054820718847, 37.00769018325324], [28.447593809889327, 37.00769018325324], [28.447593809889327, 37.008229172423704], [28.448132799059806, 37.008229172423704], [28.448132799059806, 37.00930715076465], [28.447593809889327, 37.00930715076465], [28.447593809889327, 37.00984613993512], [28.447054820718847, 37.00984613993512], [28.447054820718847, 37.010924118276066], [28.445976842377917, 37.010924118276066], [28.445976842377917, 37.01038512910559], [28.444898864036958, 37.01038512910559], [28.444898864036958, 37.00984613993512], [28.445437853207437, 37.00984613993512], [28.445437853207437, 37.00930715076465], [28.445976842377917, 37.00930715076465], [28.445976842377917, 37.008768161594176], [28.447054820718847, 37.008768161594176], [28.447054820718847, 37.008229172423704], [28.446515831548368, 37.008229172423704], [28.446515831548368, 37.007151194082766]], [[28.447054820718847, 37.00930715076465], [28.447054820718847, 37.00984613993512], [28.446515831548368, 37.00984613993512], [28.446515831548368, 37.00930715076465], [28.447054820718847, 37.00930715076465]]]}, "id": "+386736+87186", "properties": {"area_ha": 5.162964990995041, "count": 18, "label": 1, "mean_dnbr": 0.22537856100693066}}, {"type": "Feature", "geometry": {"geodesic": false, "type": "Polygon", "coordinates": [[[28.454061679934995, 37.010924118276066], [28.455139658275925, 37.010924118276066], [28.455139658275925, 37.01146310744654], [28.454600669105446, 37.01146310744654], [28.454600669105446, 37.013080074957955], [28.455139658275925, 37.013080074957955], [28.455139658275925, 37.01361906412843], [28.455678647446405, 37.01361906412843], [28.455678647446405, 37.01523603163984], [28.455139658275925, 37.01523603163984], [28.455139658275925, 37.01415805329889], [28.454600669105446, 37.01415805329889], [28.454600669105446, 37.01361906412843], [28.454061679934995, 37.01361906412843], [28.454061679934995, 37.01254108578748], [28.453522690764515, 37.01254108578748], [28.453522690764515, 37.01146310744654], [28.454061679934995, 37.01146310744654], [28.454061679934995, 37.010924118276066]]]}, "id": "+386751+87179", "properties": {"area_ha": 3.7286315511002357, "count": 13, "label": 1, "mean_dnbr": 0.20816596515571942}}, {"type": "Feature", "geometry": {"geodesic": false, "type": "Polygon", "coordinates": [[[28.48155012762905, 37.008768161594176], [28.4820891167995, 37.008768161594176], [28.4820891167995, 37.01038512910559], [28.48101113845857, 37.01038512910559], [28.48101113845857, 37.010924118276066], [28.48047214928809, 37.010924118276066], [28.48047214928809, 37.01038512910559], [28.47939417094716, 37.01038512910559], [28.47939417094716, 37.010924118276066], [28.4783161926062, 37.010924118276066], [28.4783161926062, 37.00984613993512], [28.47669922509479, 37.00984613993512], [28.47669922509479, 37.010924118276066], [28.47508225758338, 37.010924118276066], [28.47508225758338, 37.01038512910559], [28.4745432684129, 37.01038512910559], [28.4745432684129, 37.00984613993512], [28.47669922509479, 37.00984613993512], [28.47669922509479, 37.00930715076465], [28.47723821426527, 37.00930715076465], [28.47723821426527, 37.008768161594176], [28.47777720343575, 37.008768161594176], [28.47777720343575, 37.00930715076465], [28.47939417094716, 37.00930715076465], [28.47939417094716, 37.00984613993512], [28.48101113845857, 37.00984613993512], [28.48101113845857, 37.00930715076465], [28.48155012762905, 37.00930715076465], [28.48155012762905, 37.008768161594176]]]}, "id": "+386801+87183", "properties": {"area_ha": 7.457538528987719, "count": 26, "label": 1, "mean_dnbr": 0.1918666052048821}}, {"type": "Feature", "geometry": {"geodesic": false, "type": "Polygon", "coordinates": [[[28.631389117020177, 36.96672700629738], [28.631928106190657, 36.96672700629738], [28.631928106190657, 36.967265995467855], [28.632467095361108, 36.967265995467855], [28.632467095361108, 36.96780498463833], [28.631389117020177, 36.96780498463833], [28.631389117020177, 36.969421952149744], [28.630850127849698, 36.969421952149744], [28.630850127849698, 36.96888296297927], [28.62869417116781, 36.96888296297927], [28.62869417116781, 36.9683439738088], [28.630311138679218, 36.9683439738088], [28.630311138679218, 36.96780498463833], [28.631389117020177, 36.96780498463833], [28.631389117020177, 36.96672700629738]]]}, "id": "+387079+87261", "properties": {"area_ha": 3.1568521991333465, "count": 11, "label": 1, "mean_dnbr": 0.2789896791439845}}, {"type": "Feature", "geometry": {"geodesic": false, "type": "Polygon", "coordinates": [[[28.640012943747735, 36.96780498463833], [28.641629911259145, 36.96780498463833], [28.641629911259145, 36.9683439738088], [28.642168900429596, 36.9683439738088], [28.642168900429596, 36.969421952149744], [28.641090922088665, 36.969421952149744], [28.641090922088665, 36.97049993049069], [28.640551932918186, 36.97049993049069], [28.640551932918186, 36.97103891966116], [28.640012943747735, 36.97103891966116], [28.640012943747735, 36.969421952149744], [28.639473954577255, 36.969421952149744], [28.639473954577255, 36.9683439738088], [28.640012943747735, 36.9683439738088], [28.640012943747735, 36.96780498463833]]]}, "id": "+387097+87259", "properties": {"area_ha": 5.165690715841056, "count": 18, "label": 1, "mean_dnbr": 0.23151908382480715}}, {"type": "Feature", "geometry": {"geodesic": false, "type": "Polygon", "coordinates": [[[29.229667096243787, 36.868630977271536], [29.23020608541424, 36.868630977271536], [29.23020608541424, 36.869708955612474], [29.229667096243787, 36.869708955612474], [29.229667096243787, 36.87078693395342], [29.229128107073308, 36.87078693395342], [29.229128107073308, 36.87132592312389], [29.229667096243787, 36.87132592312389], [29.229667096243787, 36.87186491229436], [29.22858911790283, 36.87186491229436], [29.22858911790283, 36.87132592312389], [29.227511139561898, 36.87132592312389], [29.227511139561898, 36.87078693395342], [29.22697215039142, 36.87078693395342], [29.22697215039142, 36.870247944782946], [29.22858911790283, 36.870247944782946], [29.22858911790283, 36.869708955612474], [29.229128107073308, 36.869708955612474], [29.229128107073308, 36.86916996644201], [29.229667096243787, 36.86916996644201], [29.229667096243787, 36.868630977271536]]]}, "id": "+388189+87443", "properties": {"area_ha": 4.310314935486887, "count": 15, "label": 1, "mean_dnbr": 0.2492418894134836}}]}