{"type": "FeatureCollection", "columns": {"area_ha": "Number", "count": "Long<0, 4294967295>", "label": "Byte<0, 1>", "mean_dnbr": "Object", "system:index": "String"}, "features": [{"type": "Feature", "geometry": {"geodesic": false, "type": "Polygon", "coordinates": [[[30.304411502164385, 38.743774301342626], [30.306028469675795, 38.743774301342626], [30.306028469675795, 38.74431329051309], [30.308184426357684, 38.74431329051309], [30.308184426357684, 38.74485227968356], [30.308723415528135, 38.74485227968356], [30.308723415528135, 38.74593025802451], [30.306567458846246, 38.74593025802451], [30.306567458846246, 38.74700823636545], [30.308184426357684, 38.74700823636545], [30.308184426357684, 38.747547225535925], [30.308723415528135, 38.747547225535925], [30.308723415528135, 38.7480862147064], [30.307645437187205, 38.7480862147064], [30.307645437187205, 38.747547225535925], [30.306567458846246, 38.747547225535925], [30.306567458846246, 38.74700823636545], [30.304950491334836, 38.74700823636545], [30.304950491334836, 38.74593025802451], [30.303333523823426, 38.74593025802451], [30.303333523823426, 38.74431329051309], [30.304411502164385, 38.74431329051309], [30.304411502164385, 38.743774301342626]], [[30.306567458846246, 38.74485227968356], [30.306567458846246, 38.74593025802451], [30.306028469675795, 38.74593025802451], [30.306028469675795, 38.74485227968356], [30.306567458846246, 38.74485227968356]]]}, "id": "+390185+83964", "properties": {"area_ha": 11.486093803357337, "count": 41, "label": 1, "mean_dnbr": 0.19807284795128058}}, {"type": "Feature", "geometry": {"geodesic": false, "type": "Polygon", "coordinates": [[[30.312496339721434, 38.76479487899102], [30.313035328891914, 38.76479487899102], [30.313035328891914, 38.76587285733196], [30.313574318062393, 38.76587285733196], [30.313574318062393, 38.766411846502436], [30.314113307232873, 38.766411846502436], [30.314113307232873, 38.76695083567291], [30.314652296403324, 38.76695083567291], [30.314652296403324, 38.76910679235479], [30.315730274744283, 38.76910679235479], [30.315730274744283, 38.76964578152526], [30.316269263914762, 38.76964578152526], [30.316269263914762, 38.76910679235479], [30.317347242255693, 38.76910679235479], [30.317347242255693, 38.76964578152526], [30.317886231426172, 38.76964578152526], [30.317886231426172, 38.77072375986621], [30.317347242255693, 38.77072375986621], [30.317347242255693, 38.77180173820715], [30.317886231426172, 38.77180173820715], [30.317886231426172, 38.77126274903668], [30.318425220596623, 38.77126274903668], [30.318425220596623, 38.77180173820715], [30.317886231426172, 38.77180173820715], [30.317886231426172, 38.7728797165481], [30.318425220596623, 38.7728797165481], [30.318425220596623, 38.77341870571857], [30.317886231426172, 38.77341870571857], [30.317886231426172, 38.77395769488904], [30.318964209767103, 38.77395769488904], [30.318964209767103, 38.772340727377625], [30.32004218810806, 38.772340727377625], [30.32004218810806, 38.77126274903668], [30.319503198937582, 38.77126274903668], [30.319503198937582, 38.77180173820715], [30.318964209767103, 38.77180173820715], [30.318964209767103, 38.77126274903668], [30.319503198937582, 38.77126274903668], [30.319503198937582, 38.77072375986621], [30.32004218810806, 38.77072375986621], [30.32004218810806, 38.77126274903668], [30.320581177278513, 38.77126274903668], [30.320581177278513, 38.77072375986621], [30.32165915561947, 38.77072375986621], [30.32165915561947, 38.77126274903668], [30.322737133960402, 38.77126274903668], [30.322737133960402, 38.77180173820715], [30.32327612313088, 38.77180173820715], [30.32327612313088, 38.772340727377625], [30.32219814478995, 38.772340727377625], [30.32219814478995, 38.7728797165481], [30.322737133960402, 38.7728797165481], [30.322737133960402, 38.77341870571857], [30.32165915561947, 38.77341870571857], [30.32165915561947, 38.77503567322998], [30.32219814478995, 38.77503567322998], [30.32219814478995, 38.77557466240045], [30.322737133960402, 38.77557466240045], [30.322737133960402, 38.776652640741396], [30.32327612313088, 38.776652640741396], [30.32327612313088, 38.77719162991187], [30.324354101471812, 38.77719162991187], [30.324354101471812, 38.77773061908234], [30.32489309064229, 38.77773061908234], [30.32489309064229, 38.77826960825281], [30.32543207981277, 38.77826960825281], [30.32543207981277, 38.77773061908234], [30.3265100581537, 38.77773061908234], [30.3265100581537, 38.77934758659376], [30.32704904732418, 38.77934758659376], [30.32704904732418, 38.78096455410517], [30.32758803649466, 38.78096455410517], [30.32758803649466, 38.782581521616585], [30.32812702566514, 38.782581521616585], [30.32812702566514, 38.78312051078706], [30.32866601483559, 38.78312051078706], [30.32866601483559, 38.78365949995753], [30.32920500400607, 38.78365949995753], [30.32920500400607, 38.784198489128], [30.32758803649466, 38.784198489128], [30.32758803649466, 38.784737478298474], [30.32597106898325, 38.784737478298474], [30.32597106898325, 38.784198489128], [30.32489309064229, 38.784198489128], [30.32489309064229, 38.78365949995753], [30.32597106898325, 38.78365949995753], [30.32597106898325, 38.784198489128], [30.32758803649466, 38.784198489128], [30.32758803649466, 38.78312051078706], [30.32704904732418, 38.78312051078706], [30.32704904732418, 38.78096455410517], [30.3265100581537, 38.78096455410517], [30.3265100581537, 38.780425564934696], [30.32219814478995, 38.780425564934696], [30.32219814478995, 38.782581521616585], [30.322737133960402, 38.782581521616585], [30.322737133960402, 38.78204253244611], [30.32327612313088, 38.78204253244611], [30.32327612313088, 38.782581521616585], [30.322737133960402, 38.782581521616585], [30.322737133960402, 38.78312051078706], [30.321120166448992, 38.78312051078706], [30.321120166448992, 38.77988657576423], [30.320581177278513, 38.77988657576423], [30.320581177278513, 38.78096455410517], [30.32004218810806, 38.78096455410517], [30.32004218810806, 38.780425564934696], [30.318964209767103, 38.780425564934696], [30.318964209767103, 38.78096455410517], [30.318425220596623, 38.78096455410517], [30.318425220596623, 38.77988657576423], [30.318964209767103, 38.77988657576423], [30.318964209767103, 38.77934758659376], [30.317886231426172, 38.77934758659376], [30.317886231426172, 38.77988657576423], [30.314652296403324, 38.77988657576423], [30.314652296403324, 38.77934758659376], [30.311957350550983, 38.77934758659376], [30.311957350550983, 38.77826960825281], [30.311418361380504, 38.77826960825281], [30.311418361380504, 38.77719162991187], [30.310879372210024, 38.77719162991187], [30.310879372210024, 38.776113651570924], [30.311418361380504, 38.776113651570924], [30.311418361380504, 38.77557466240045], [30.311957350550983, 38.77557466240045], [30.311957350550983, 38.77719162991187], [30.313574318062393, 38.77719162991187], [30.313574318062393, 38.77773061908234], [30.315730274744283, 38.77773061908234], [30.315730274744283, 38.77826960825281], [30.316269263914762, 38.77826960825281], [30.316269263914762, 38.778808597423286], [30.318964209767103, 38.778808597423286], [30.318964209767103, 38.77826960825281], [30.318425220596623, 38.77826960825281], [30.318425220596623, 38.77773061908234], [30.318964209767103, 38.77773061908234], [30.318964209767103, 38.776652640741396], [30.318425220596623, 38.776652640741396], [30.318425220596623, 38.776113651570924], [30.318964209767103, 38.776113651570924], [30.318964209767103, 38.776652640741396], [30.319503198937582, 38.776652640741396], [30.319503198937582, 38.776113651570924], [30.32004218810806, 38.776113651570924], [30.32004218810806, 38.776652640741396], [30.319503198937582, 38.776652640741396], [30.319503198937582, 38.77719162991187], [30.32004218810806, 38.77719162991187], [30.32004218810806, 38.77826960825281], [30.321120166448992, 38.77826960825281], [30.321120166448992, 38.77719162991187], [30.32219814478995, 38.77719162991187], [30.32219814478995, 38.776652640741396], [30.32165915561947, 38.776652640741396], [30.32165915561947, 38.776113651570924], [30.321120166448992, 38.776113651570924], [30.321120166448992, 38.77557466240045], [30.32165915561947, 38.77557466240045], [30.32165915561947, 38.77503567322998], [30.321120166448992, 38.77503567322998], [30.321120166448992, 38.77449668405951], [30.320581177278513, 38.77449668405951], [30.320581177278513, 38.77395769488904], [30.32004218810806, 38.77395769488904], [30.32004218810806, 38.77449668405951], [30.319503198937582, 38.77449668405951], [30.319503198937582, 38.77503567322998], [30.32004218810806, 38.77503567322998], [30.32004218810806, 38.77557466240045], [30.318425220596623, 38.77557466240045], [30.318425220596623, 38.77503567322998], [30.317886231426172, 38.77503567322998], [30.317886231426172, 38.77449668405951], [30.316808253085213, 38.77449668405951], [30.316808253085213, 38.77395769488904], [30.315191285573803, 38.77395769488904], [30.315191285573803, 38.77341870571857], [30.314652296403324, 38.77341870571857], [30.314652296403324, 38.77180173820715], [30.315730274744283, 38.77180173820715], [30.315730274744283, 38.772340727377625], [30.316269263914762, 38.772340727377625], [30.316269263914762, 38.77341870571857], [30.316808253085213, 38.77341870571857], [30.316808253085213, 38.7728797165481], [30.317347242255693, 38.7728797165481], [30.317347242255693, 38.77180173820715], [30.316269263914762, 38.77180173820715], [30.316269263914762, 38.77126274903668], [30.315730274744283, 38.77126274903668], [30.315730274744283, 38.77072375986621], [30.314652296403324, 38.77072375986621], [30.314652296403324, 38.77126274903668], [30.314113307232873, 38.77126274903668], [30.314113307232873, 38.77072375986621], [30.314652296403324, 38.77072375986621], [30.314652296403324, 38.76964578152526], [30.314113307232873, 38.76964578152526], [30.314113307232873, 38.770184770695735], [30.313035328891914, 38.770184770695735], [30.313035328891914, 38.76964578152526], [30.314113307232873, 38.76964578152526], [30.314113307232873, 38.76856780318432], [30.312496339721434, 38.76856780318432], [30.312496339721434, 38.76802881401385], [30.311418361380504, 38.76802881401385], [30.311418361380504, 38.76748982484338], [30.312496339721434, 38.76748982484338], [30.312496339721434, 38.76695083567291], [30.313035328891914, 38.76695083567291], [30.313035328891914, 38.76748982484338], [30.313574318062393, 38.76748982484338], [30.313574318062393, 38.766411846502436], [30.313035328891914, 38.766411846502436], [30.313035328891914, 38.76587285733196], [30.311957350550983, 38.76587285733196], [30.311957350550983, 38.76533386816149], [30.312496339721434, 38.76533386816149], [30.312496339721434, 38.76479487899102]], [[30.32219814478995, 38.77934758659376], [30.32219814478995, 38.77988657576423], [30.321120166448992, 38.77988657576423], [30.321120166448992, 38.77934758659376], [30.32219814478995, 38.77934758659376]], [[30.317886231426172, 38.7728797165481], [30.317886231426172, 38.77341870571857], [30.317347242255693, 38.77341870571857], [30.317347242255693, 38.7728797165481], [30.317886231426172, 38.7728797165481]], [[30.316808253085213, 38.770184770695735], [30.316808253085213, 38.77072375986621], [30.315730274744283, 38.77072375986621], [30.315730274744283, 38.770184770695735], [30.316808253085213, 38.770184770695735]]]}, "id": "+390198+83925", "properties": {"area_ha": 75.32773773237275, "count": 269, "label": 1, "mean_dnbr": 0.20957324176006203}}, {"type": "Feature", "geometry": {"geodesic": false, "type": "Polygon", "coordinates": [[[30.314113307232873, 38.77449668405951], [30.315191285573803, 38.77449668405951], [30.315191285573803, 38.77503567322998], [30.315730274744283, 38.77503567322998], [30.315730274744283, 38.776652640741396], [30.314652296403324, 38.776652640741396], [30.314652296403324, 38.77719162991187], [30.314113307232873, 38.77719162991187], [30.314113307232873, 38.77557466240045], [30.314652296403324, 38.77557466240045], [30.314652296403324, 38.77503567322998], [30.314113307232873, 38.77503567322998], [30.314113307232873, 38.77449668405951]]]}, "id": "+390202+83907", "properties": {"area_ha": 3.0803280504804724, "count": 11, "label": 1, "mean_dnbr": 0.27316766372114776}}, {"type": "Feature", "geometry": {"geodesic": false, "type": "Polygon", "coordinates": [[[30.316808253085213, 38.76479487899102], [30.317886231426172, 38.76479487899102], [30.317886231426172, 38.76533386816149], [30.317347242255693, 38.76533386816149], [30.317347242255693, 38.766411846502436], [30.317886231426172, 38.766411846502436], [30.317886231426172, 38.76695083567291], [30.318425220596623, 38.76695083567291], [30.318425220596623, 38.76802881401385], [30.315730274744283, 38.76802881401385], [30.315730274744283, 38.76748982484338], [30.316269263914762, 38.76748982484338], [30.316269263914762, 38.76695083567291], [30.316808253085213, 38.76695083567291], [30.316808253085213, 38.76587285733196], [30.315730274744283, 38.76587285733196], [30.315730274744283, 38.76533386816149], [30.316808253085213, 38.76533386816149], [30.316808253085213, 38.76479487899102]]]}, "id": "+390207+83925", "properties": {"area_ha": 4.761125374908901, "count": 17, "label": 1, "mean_dnbr": 0.25470177298611146}}, {"type": "Feature", "geometry": {"geodesic": false, "type": "Polygon", "coordinates": [[[30.321120166448992, 38.78365949995753], [30.32219814478995, 38.78365949995753], [30.32219814478995, 38.784198489128], [30.32165915561947, 38.784198489128], [30.32165915561947, 38.784737478298474], [30.322737133960402, 38.784737478298474], [30.322737133960402, 38.78527646746895], [30.32381511230136, 38.78527646746895], [30.32381511230136, 38.78581545663942], [30.3265100581537, 38.78581545663942], [30.3265100581537, 38.78689343498036], [30.32597106898325, 38.78689343498036], [30.32597106898325, 38.78743242415083], [30.32543207981277, 38.78743242415083], [30.32543207981277, 38.78689343498036], [30.32489309064229, 38.78689343498036], [30.32489309064229, 38.78743242415083], [30.32381511230136, 38.78743242415083], [30.32381511230136, 38.7879714133213], [30.32327612313088, 38.7879714133213], [30.32327612313088, 38.789049391662246], [30.322737133960402, 38.789049391662246], [30.322737133960402, 38.79012737000319], [30.321120166448992, 38.79012737000319], [30.321120166448992, 38.78958838083272], [30.320581177278513, 38.78958838083272], [30.320581177278513, 38.788510402491774], [30.32004218810806, 38.788510402491774], [30.32004218810806, 38.7879714133213], [30.319503198937582, 38.7879714133213], [30.319503198937582, 38.78743242415083], [30.317886231426172, 38.78743242415083], [30.317886231426172, 38.7879714133213], [30.317347242255693, 38.7879714133213], [30.317347242255693, 38.78743242415083], [30.317886231426172, 38.78743242415083], [30.317886231426172, 38.78635444580989], [30.317347242255693, 38.78635444580989], [30.317347242255693, 38.78581545663942], [30.317886231426172, 38.78581545663942], [30.317886231426172, 38.78635444580989], [30.318964209767103, 38.78635444580989], [30.318964209767103, 38.78689343498036], [30.32004218810806, 38.78689343498036], [30.32004218810806, 38.78635444580989], [30.321120166448992, 38.78635444580989], [30.321120166448992, 38.78689343498036], [30.320581177278513, 38.78689343498036], [30.320581177278513, 38.78743242415083], [30.32004218810806, 38.78743242415083], [30.32004218810806, 38.7879714133213], [30.320581177278513, 38.7879714133213], [30.320581177278513, 38.788510402491774], [30.321120166448992, 38.788510402491774], [30.321120166448992, 38.789049391662246], [30.32165915561947, 38.789049391662246], [30.32165915561947, 38.7879714133213], [30.322737133960402, 38.7879714133213], [30.322737133960402, 38.78743242415083], [30.32327612313088, 38.78743242415083], [30.32327612313088, 38.78689343498036], [30.322737133960402, 38.78689343498036], [30.322737133960402, 38.78581545663942], [30.321120166448992, 38.78581545663942], [30.321120166448992, 38.78365949995753]], [[30.32219814478995, 38.789049391662246], [30.32219814478995, 38.78958838083272], [30.32165915561947, 38.78958838083272], [30.32165915561947, 38.789049391662246], [30.32219814478995, 38.789049391662246]]]}, "id": "+390215+83890", "properties": {"area_ha": 15.9591888748763, "count": 57, "label": 1, "mean_dnbr": 0.21783272655611463}}, {"type": "Feature", "geometry": {"geodesic": false, "type": "Polygon", "coordinates": [[[30.32489309064229, 38.7518591388997], [30.32543207981277, 38.7518591388997], [30.32543207981277, 38.75293711724064], [30.32489309064229, 38.75293711724064], [30.32489309064229, 38.75455408475206], [30.32597106898325, 38.75455408475206], [30.32597106898325, 38.754015095581586], [30.3265100581537, 38.754015095581586], [30.3265100581537, 38.753476106411114], [30.32758803649466, 38.753476106411114], [30.32758803649466, 38.754015095581586], [30.32812702566514, 38.754015095581586], [30.32812702566514, 38.756171052263475], [30.32920500400607, 38.756171052263475], [30.32920500400607, 38.75724903060441], [30.32812702566514, 38.75724903060441], [30.32812702566514, 38.757788019774885], [30.32866601483559, 38.757788019774885], [30.32866601483559, 38.75832700894536], [30.32974399317655, 38.75832700894536], [30.32974399317655, 38.759943976456775], [30.330282982347, 38.759943976456775], [30.330282982347, 38.76048296562725], [30.32866601483559, 38.76048296562725], [30.32866601483559, 38.759943976456775], [30.32812702566514, 38.759943976456775], [30.32812702566514, 38.7594049872863], [30.32866601483559, 38.7594049872863], [30.32866601483559, 38.75832700894536], [30.32812702566514, 38.75832700894536], [30.32812702566514, 38.75886599811583], [30.32758803649466, 38.75886599811583], [30.32758803649466, 38.759943976456775], [30.32704904732418, 38.759943976456775], [30.32704904732418, 38.75832700894536], [30.32758803649466, 38.75832700894536], [30.32758803649466, 38.75724903060441], [30.32597106898325, 38.75724903060441], [30.32597106898325, 38.757788019774885], [30.32543207981277, 38.757788019774885], [30.32543207981277, 38.75832700894536], [30.32489309064229, 38.75832700894536], [30.32489309064229, 38.757788019774885], [30.32381511230136, 38.757788019774885], [30.32381511230136, 38.75671004143394], [30.32165915561947, 38.75671004143394], [30.32165915561947, 38.755632063093], [30.32219814478995, 38.755632063093], [30.32219814478995, 38.75509307392253], [30.320581177278513, 38.75509307392253], [30.320581177278513, 38.755632063093], [30.321120166448992, 38.755632063093], [30.321120166448992, 38.75671004143394], [30.320581177278513, 38.75671004143394], [30.320581177278513, 38.755632063093], [30.32004218810806, 38.755632063093], [30.32004218810806, 38.75455408475206], [30.319503198937582, 38.75455408475206], [30.319503198937582, 38.754015095581586], [30.320581177278513, 38.754015095581586], [30.320581177278513, 38.75455408475206], [30.321120166448992, 38.75455408475206], [30.321120166448992, 38.753476106411114], [30.32165915561947, 38.753476106411114], [30.32165915561947, 38.754015095581586], [30.32381511230136, 38.754015095581586], [30.32381511230136, 38.753476106411114], [30.322737133960402, 38.753476106411114], [30.322737133960402, 38.75293711724064], [30.32219814478995, 38.75293711724064], [30.32219814478995, 38.75239812807017], [30.322737133960402, 38.75239812807017], [30.322737133960402, 38.7518591388997], [30.32381511230136, 38.7518591388997], [30.32381511230136, 38.75239812807017], [30.324354101471812, 38.75239812807017], [30.324354101471812, 38.75293711724064], [30.32489309064229, 38.75293711724064], [30.32489309064229, 38.7518591388997]], [[30.3265100581537, 38.756171052263475], [30.3265100581537, 38.75671004143394], [30.32597106898325, 38.75671004143394], [30.32597106898325, 38.756171052263475], [30.3265100581537, 38.756171052263475]], [[30.32812702566514, 38.756171052263475], [30.32812702566514, 38.75724903060441], [30.32758803649466, 38.75724903060441], [30.32758803649466, 38.75671004143394], [30.32704904732418, 38.75671004143394], [30.32704904732418, 38.756171052263475], [30.32812702566514, 38.756171052263475]], [[30.32597106898325, 38.755632063093], [30.32597106898325, 38.756171052263475], [30.32543207981277, 38.756171052263475], [30.32543207981277, 38.755632063093], [30.32597106898325, 38.755632063093]], [[30.32543207981277, 38.75509307392253], [30.32543207981277, 38.755632063093], [30.32381511230136, 38.755632063093], [30.32381511230136, 38.75509307392253], [30.32543207981277, 38.75509307392253]], [[30.32327612313088, 38.75455408475206], [30.32327612313088, 38.755632063093], [30.322737133960402, 38.755632063093], [30.322737133960402, 38.75509307392253], [30.32219814478995, 38.75509307392253], [30.32219814478995, 38.75455408475206], [30.32327612313088, 38.75455408475206]], [[30.324354101471812, 38.754015095581586], [30.324354101471812, 38.75455408475206], [30.32381511230136, 38.75455408475206], [30.32381511230136, 38.754015095581586], [30.324354101471812, 38.754015095581586]]]}, "id": "+390221+83949", "properties": {"area_ha": 29.41136746121677, "count": 105, "label": 1, "mean_dnbr": 0.21297310141628542}}, {"type": "Feature", "geometry": {"geodesic": false, "type": "Polygon", "coordinates": [[[30.32381511230136, 38.809530980140174], [30.32597106898325, 38.809530980140174], [30.32597106898325, 38.810069969310646], [30.3265100581537, 38.810069969310646], [30.3265100581537, 38.81060895848111], [30.32704904732418, 38.81060895848111], [30.32704904732418, 38.811686936822056], [30.3265100581537, 38.811686936822056], [30.3265100581537, 38.81060895848111], [30.32543207981277, 38.81060895848111], [30.32543207981277, 38.810069969310646], [30.32489309064229, 38.810069969310646], [30.32489309064229, 38.811147947651584], [30.324354101471812, 38.811147947651584], [30.324354101471812, 38.81060895848111], [30.32381511230136, 38.81060895848111], [30.32381511230136, 38.809530980140174]]]}, "id": "+390222+83842", "properties": {"area_ha": 3.078829795448054, "count": 11, "label": 1, "mean_dnbr": 0.22215037793607292}}, {"type": "Feature", "geometry": {"geodesic": false, "type": "Polygon", "coordinates": [[[30.32597106898325, 38.76856780318432], [30.3265100581537, 38.76856780318432], [30.3265100581537, 38.76910679235479], [30.32758803649466, 38.76910679235479], [30.32758803649466, 38.76964578152526], [30.32812702566514, 38.76964578152526], [30.32812702566514, 38.77072375986621], [30.32704904732418, 38.77072375986621], [30.32704904732418, 38.77126274903668], [30.3265100581537, 38.77126274903668], [30.3265100581537, 38.77180173820715], [30.32543207981277, 38.77180173820715], [30.32543207981277, 38.77072375986621], [30.32489309064229, 38.77072375986621], [30.32489309064229, 38.76910679235479], [30.32543207981277, 38.76910679235479], [30.32543207981277, 38.76964578152526], [30.32597106898325, 38.76964578152526], [30.32597106898325, 38.76856780318432]], [[30.32704904732418, 38.76964578152526], [30.32704904732418, 38.77072375986621], [30.3265100581537, 38.77072375986621], [30.3265100581537, 38.770184770695735], [30.32597106898325, 38.770184770695735], [30.32597106898325, 38.76964578152526], [30.32704904732418, 38.76964578152526]]]}, "id": "+390223+83918", "properties": {"area_ha": 5.320983242696886, "count": 19, "label": 1, "mean_dnbr": 0.23603089655738277}}, {"type": "Feature", "geometry": {"geodesic": false, "type": "Polygon", "coordinates": [[[30.344296700779267, 38.77719162991187], [30.345374679120226, 38.77719162991187], [30.345374679120226, 38.77934758659376], [30.345913668290706, 38.77934758659376], [30.345913668290706, 38.77988657576423], [30.345374679120226, 38.77988657576423], [30.345374679120226, 38.780425564934696], [30.345913668290706, 38.780425564934696], [30.345913668290706, 38.78204253244611], [30.345374679120226, 38.78204253244611], [30.345374679120226, 38.78312051078706], [30.344296700779267, 38.78312051078706], [30.344296700779267, 38.784198489128], [30.344835689949747, 38.784198489128], [30.344835689949747, 38.784737478298474], [30.343757711608816, 38.784737478298474], [30.343757711608816, 38.78365949995753], [30.342679733267858, 38.78365949995753], [30.342679733267858, 38.78312051078706], [30.343218722438337, 38.78312051078706], [30.343218722438337, 38.78096455410517], [30.342140744097378, 38.78096455410517], [30.342140744097378, 38.780425564934696], [30.342679733267858, 38.780425564934696], [30.342679733267858, 38.77934758659376], [30.343218722438337, 38.77934758659376], [30.343218722438337, 38.77988657576423], [30.343757711608816, 38.77988657576423], [30.343757711608816, 38.77934758659376], [30.344296700779267, 38.77934758659376], [30.344296700779267, 38.77826960825281], [30.343757711608816, 38.77826960825281], [30.343757711608816, 38.778808597423286], [30.343218722438337, 38.778808597423286], [30.343218722438337, 38.77826960825281], [30.343757711608816, 38.77826960825281], [30.343757711608816, 38.77773061908234], [30.344296700779267, 38.77773061908234], [30.344296700779267, 38.77719162991187]], [[30.344835689949747, 38.78150354327564], [30.344835689949747, 38.782581521616585], [30.343757711608816, 38.782581521616585], [30.343757711608816, 38.78150354327564], [30.344835689949747, 38.78150354327564]], [[30.345374679120226, 38.77934758659376], [30.345374679120226, 38.77988657576423], [30.344835689949747, 38.77988657576423], [30.344835689949747, 38.77934758659376], [30.345374679120226, 38.77934758659376]]]}, "id": "+390258+83902", "properties": {"area_ha": 12.880467610573895, "count": 46, "label": 1, "mean_dnbr": 0.20528821758575036}}, {"type": "Feature", "geometry": {"geodesic": false, "type": "Polygon", "coordinates": [[[30.345374679120226, 38.79929018590121], [30.345913668290706, 38.79929018590121], [30.345913668290706, 38.801446142583096], [30.343218722438337, 38.801446142583096], [30.343218722438337, 38.80090715341262], [30.341062765756448, 38.80090715341262], [30.341062765756448, 38.80198513175357], [30.339984787415517, 38.80198513175357], [30.339984787415517, 38.80090715341262], [30.341062765756448, 38.80090715341262], [30.341062765756448, 38.80036816424215], [30.342140744097378, 38.80036816424215], [30.342140744097378, 38.79929018590121], [30.342679733267858, 38.79929018590121], [30.342679733267858, 38.80036816424215], [30.343218722438337, 38.80036816424215], [30.343218722438337, 38.80090715341262], [30.343757711608816, 38.80090715341262], [30.343757711608816, 38.80036816424215], [30.344835689949747, 38.80036816424215], [30.344835689949747, 38.79982917507168], [30.345374679120226, 38.79982917507168], [30.345374679120226, 38.79929018590121]]]}, "id": "+390259+83861", "properties": {"area_ha": 6.158519247068051, "count": 22, "label": 1, "mean_dnbr": 0.19880685361356806}}, {"type": "Feature", "geometry": {"geodesic": false, "type": "Polygon", "coordinates": [[[30.346452657461157, 38.759943976456775], [30.347530635802116, 38.759943976456775], [30.347530635802116, 38.762099933138664], [30.346452657461157, 38.762099933138664], [30.346452657461157, 38.76156094396819], [30.345374679120226, 38.76156094396819], [30.345374679120226, 38.76102195479772], [30.344835689949747, 38.76102195479772], [30.344835689949747, 38.76048296562725], [30.345913668290706, 38.76048296562725], [30.345913668290706, 38.76102195479772], [30.346452657461157, 38.76102195479772], [30.346452657461157, 38.759943976456775]]]}, "id": "+390262+83934", "properties": {"area_ha": 3.361053793396418, "count": 12, "label": 1, "mean_dnbr": 0.27252876054786374}}, {"type": "Feature", "geometry": {"geodesic": false, "type": "Polygon", "coordinates": [[[30.346991646631636, 38.80198513175357], [30.348069624972567, 38.80198513175357], [30.348069624972567, 38.80252412092404], [30.349147603313526, 38.80252412092404], [30.349147603313526, 38.80306311009451], [30.349686592484005, 38.80306311009451], [30.349686592484005, 38.803602099264985], [30.349147603313526, 38.803602099264985], [30.349147603313526, 38.80306311009451], [30.348069624972567, 38.80306311009451], [30.348069624972567, 38.803602099264985], [30.347530635802116, 38.803602099264985], [30.347530635802116, 38.80468007760592], [30.346991646631636, 38.80468007760592], [30.346991646631636, 38.803602099264985], [30.346452657461157, 38.803602099264985], [30.346452657461157, 38.80306311009451], [30.347530635802116, 38.80306311009451], [30.347530635802116, 38.80252412092404], [30.346991646631636, 38.80252412092404], [30.346991646631636, 38.80198513175357]]]}, "id": "+390263+83856", "properties": {"area_ha": 3.0791455839596815, "count": 11, "label": 1, "mean_dnbr": 0.20677247545649777}}, {"type": "Feature", "geometry": {"geodesic": false, "type": "Polygon", "coordinates": [[[30.348069624972567, 38.75024217138829], [30.349147603313526, 38.75024217138829], [30.349147603313526, 38.751320149729224], [30.348608614143046, 38.751320149729224], [30.348608614143046, 38.75239812807017], [30.347530635802116, 38.75239812807017], [30.347530635802116, 38.75293711724064], [30.348069624972567, 38.75293711724064], [30.348069624972567, 38.753476106411114], [30.346991646631636, 38.753476106411114], [30.346991646631636, 38.75293711724064], [30.346452657461157, 38.75293711724064], [30.346452657461157, 38.7518591388997], [30.348069624972567, 38.7518591388997], [30.348069624972567, 38.75024217138829]]]}, "id": "+390265+83952", "properties": {"area_ha": 3.641603986705569, "count": 13, "label": 1, "mean_dnbr": 0.2572168250037704}}, {"type": "Feature", "geometry": {"geodesic": false, "type": "Polygon", "coordinates": [[[30.349147603313526, 38.7631779114796], [30.349686592484005, 38.7631779114796], [30.349686592484005, 38.763716900650074], [30.350225581654456, 38.763716900650074], [30.350225581654456, 38.76425588982055], [30.349686592484005, 38.76425588982055], [30.349686592484005, 38.76479487899102], [30.348608614143046, 38.76479487899102], [30.348608614143046, 38.76533386816149], [30.348069624972567, 38.76533386816149], [30.348069624972567, 38.76587285733196], [30.347530635802116, 38.76587285733196], [30.347530635802116, 38.76533386816149], [30.346991646631636, 38.76533386816149], [30.346991646631636, 38.763716900650074], [30.347530635802116, 38.763716900650074], [30.347530635802116, 38.76425588982055], [30.349686592484005, 38.76425588982055], [30.349686592484005, 38.763716900650074], [30.349147603313526, 38.763716900650074], [30.349147603313526, 38.7631779114796]]]}, "id": "+390266+83928", "properties": {"area_ha": 3.3608808739167393, "count": 12, "label": 1, "mean_dnbr": 0.19788118633374288}}, {"type": "Feature", "geometry": {"geodesic": false, "type": "Polygon", "coordinates": [[[30.349686592484005, 38.76533386816149], [30.350764570824936, 38.76533386816149], [30.350764570824936, 38.76695083567291], [30.350225581654456, 38.76695083567291], [30.350225581654456, 38.76802881401385], [30.349147603313526, 38.76802881401385], [30.349147603313526, 38.766411846502436], [30.349686592484005, 38.766411846502436], [30.349686592484005, 38.76533386816149]]]}, "id": "+390268+83924", "properties": {"area_ha": 3.0807216214336126, "count": 11, "label": 1, "mean_dnbr": 0.2662768196660083}}, {"type": "Feature", "geometry": {"geodesic": false, "type": "Polygon", "coordinates": [[[30.356693451700124, 38.815998850185835], [30.357771430041083, 38.815998850185835], [30.357771430041083, 38.81707682852677], [30.358310419211534, 38.81707682852677], [30.358310419211534, 38.81653783935631], [30.359927386722944, 38.81653783935631], [30.359927386722944, 38.81707682852677], [30.360466375893424, 38.81707682852677], [30.360466375893424, 38.817615817697245], [30.357771430041083, 38.817615817697245], [30.357771430041083, 38.81707682852677], [30.356693451700124, 38.81707682852677], [30.356693451700124, 38.815998850185835]]]}, "id": "+390281+83830", "properties": {"area_ha": 3.358428677948555, "count": 12, "label": 1, "mean_dnbr": 0.28989832650427677}}, {"type": "Feature", "geometry": {"geodesic": false, "type": "Polygon", "coordinates": [[[30.365317278427682, 38.754015095581586], [30.365856267598133, 38.754015095581586], [30.365856267598133, 38.755632063093], [30.365317278427682, 38.755632063093], [30.365317278427682, 38.75724903060441], [30.364778289257202, 38.75724903060441], [30.364778289257202, 38.756171052263475], [30.363700310916272, 38.756171052263475], [30.363700310916272, 38.75724903060441], [30.364239300086723, 38.75724903060441], [30.364239300086723, 38.757788019774885], [30.363700310916272, 38.757788019774885], [30.363700310916272, 38.75832700894536], [30.363161321745793, 38.75832700894536], [30.363161321745793, 38.757788019774885], [30.363700310916272, 38.757788019774885], [30.363700310916272, 38.75724903060441], [30.362622332575313, 38.75724903060441], [30.362622332575313, 38.75671004143394], [30.361544354234383, 38.75671004143394], [30.361544354234383, 38.756171052263475], [30.363700310916272, 38.756171052263475], [30.363700310916272, 38.755632063093], [30.364239300086723, 38.755632063093], [30.364239300086723, 38.75455408475206], [30.365317278427682, 38.75455408475206], [30.365317278427682, 38.754015095581586]]]}, "id": "+390296+83945", "properties": {"area_ha": 5.602140478840796, "count": 20, "label": 1, "mean_dnbr": 0.21360773445042022}}, {"type": "Feature", "geometry": {"geodesic": false, "type": "Polygon", "coordinates": [[[30.3723241376438, 38.9119389225298], [30.37286312681428, 38.9119389225298], [30.37286312681428, 38.91355589004121], [30.3723241376438, 38.91355589004121], [30.3723241376438, 38.914633868382154], [30.37070717013239, 38.914633868382154], [30.37070717013239, 38.91355589004121], [30.37124615930287, 38.91355589004121], [30.37124615930287, 38.913016900870744], [30.3723241376438, 38.913016900870744], [30.3723241376438, 38.9119389225298]]]}, "id": "+390309+83652", "properties": {"area_ha": 3.074370371193127, "count": 11, "label": 1, "mean_dnbr": 0.17932921097648202}}, {"type": "Feature", "geometry": {"geodesic": false, "type": "Polygon", "coordinates": [[[30.37178514847332, 38.90277610663178], [30.37286312681428, 38.90277610663178], [30.37286312681428, 38.90385408497272], [30.3723241376438, 38.90385408497272], [30.3723241376438, 38.90601004165461], [30.37070717013239, 38.90601004165461], [30.37070717013239, 38.90547105248414], [30.37124615930287, 38.90547105248414], [30.37124615930287, 38.904932063313666], [30.37178514847332, 38.904932063313666], [30.37178514847332, 38.904393074143194], [30.37124615930287, 38.904393074143194], [30.37124615930287, 38.90331509580225], [30.37178514847332, 38.90331509580225], [30.37178514847332, 38.90277610663178]]]}, "id": "+390309+83669", "properties": {"area_ha": 3.633815673155494, "count": 13, "label": 1, "mean_dnbr": 0.27151127443440076}}, {"type": "Feature", "geometry": {"geodesic": false, "type": "Polygon", "coordinates": [[[30.3723241376438, 38.71197394028479], [30.37340211598476, 38.71197394028479], [30.37340211598476, 38.71305191862574], [30.37286312681428, 38.71305191862574], [30.37286312681428, 38.71466888613715], [30.3723241376438, 38.71466888613715], [30.3723241376438, 38.71520787530762], [30.37178514847332, 38.71520787530762], [30.37178514847332, 38.71305191862574], [30.37124615930287, 38.71305191862574], [30.37124615930287, 38.712512929455265], [30.37178514847332, 38.712512929455265], [30.37178514847332, 38.71305191862574], [30.3723241376438, 38.71305191862574], [30.3723241376438, 38.71197394028479]]]}, "id": "+390310+84023", "properties": {"area_ha": 3.3632944227278405, "count": 12, "label": 1, "mean_dnbr": 0.38208328824006005}}, {"type": "Feature", "geometry": {"geodesic": false, "type": "Polygon", "coordinates": [[[30.37286312681428, 38.91786780340499], [30.37394110515521, 38.91786780340499], [30.37394110515521, 38.92056274925734], [30.37286312681428, 38.92056274925734], [30.37286312681428, 38.92002376008687], [30.37340211598476, 38.92002376008687], [30.37340211598476, 38.9194847709164], [30.3723241376438, 38.9194847709164], [30.3723241376438, 38.91840679257546], [30.37286312681428, 38.91840679257546], [30.37286312681428, 38.91786780340499]]]}, "id": "+390311+83641", "properties": {"area_ha": 3.074129227914424, "count": 11, "label": 1, "mean_dnbr": 0.162510542717223}}, {"type": "Feature", "geometry": {"geodesic": false, "type": "Polygon", "coordinates": [[[30.37286312681428, 38.90708801999555], [30.37448009432569, 38.90708801999555], [30.37448009432569, 38.90762700916602], [30.37286312681428, 38.90762700916602], [30.37286312681428, 38.908704987506965], [30.37340211598476, 38.908704987506965], [30.37340211598476, 38.90924397667744], [30.37394110515521, 38.90924397667744], [30.37394110515521, 38.90978296584791], [30.37448009432569, 38.90978296584791], [30.37448009432569, 38.91032195501838], [30.37394110515521, 38.91032195501838], [30.37394110515521, 38.90978296584791], [30.37340211598476, 38.90978296584791], [30.37340211598476, 38.91032195501838], [30.37286312681428, 38.91032195501838], [30.37286312681428, 38.910860944188855], [30.37394110515521, 38.910860944188855], [30.37394110515521, 38.91139993335933], [30.37286312681428, 38.91139993335933], [30.37286312681428, 38.910860944188855], [30.3723241376438, 38.910860944188855], [30.3723241376438, 38.90978296584791], [30.37124615930287, 38.90978296584791], [30.37124615930287, 38.90924397667744], [30.37178514847332, 38.90924397667744], [30.37178514847332, 38.90762700916602], [30.37286312681428, 38.90762700916602], [30.37286312681428, 38.90708801999555]]]}, "id": "+390312+83661", "properties": {"area_ha": 5.86961491829243, "count": 21, "label": 1, "mean_dnbr": 0.18202242899744797}}, {"type": "Feature", "geometry": {"geodesic": false, "type": "Polygon", "coordinates": [[[30.37448009432569, 38.77773061908234], [30.37555807266665, 38.77773061908234], [30.37555807266665, 38.77826960825281], [30.37663605100758, 38.77826960825281], [30.37663605100758, 38.77934758659376], [30.37717504017806, 38.77934758659376], [30.37717504017806, 38.780425564934696], [30.3760970618371, 38.780425564934696], [30.3760970618371, 38.78096455410517], [30.37555807266665, 38.78096455410517], [30.37555807266665, 38.77988657576423], [30.37501908349617, 38.77988657576423], [30.37501908349617, 38.77934758659376], [30.37394110515521, 38.77934758659376], [30.37394110515521, 38.77826960825281], [30.37448009432569, 38.77826960825281], [30.37448009432569, 38.77773061908234]]]}, "id": "+390314+83901", "properties": {"area_ha": 5.60033019127824, "count": 20, "label": 1, "mean_dnbr": 0.34589237161122777}}, {"type": "Feature", "geometry": {"geodesic": false, "type": "Polygon", "coordinates": [[[30.37501908349617, 38.753476106411114], [30.37555807266665, 38.753476106411114], [30.37555807266665, 38.75455408475206], [30.37501908349617, 38.75455408475206], [30.37501908349617, 38.755632063093], [30.37394110515521, 38.755632063093], [30.37394110515521, 38.75509307392253], [30.37340211598476, 38.75509307392253], [30.37340211598476, 38.753476106411114], [30.37394110515521, 38.753476106411114], [30.37394110515521, 38.754015095581586], [30.37501908349617, 38.754015095581586], [30.37501908349617, 38.753476106411114]]]}, "id": "+390314+83946", "properties": {"area_ha": 3.0812462616442042, "count": 11, "label": 1, "mean_dnbr": 0.2840434376278575}}, {"type": "Feature", "geometry": {"geodesic": false, "type": "Polygon", "coordinates": [[[30.38256493188277, 38.945895240269515], [30.383103921053248, 38.945895240269515], [30.383103921053248, 38.94643422943999], [30.383642910223728, 38.94643422943999], [30.383642910223728, 38.94697321861046], [30.38202594271229, 38.94697321861046], [30.38202594271229, 38.94643422943999], [30.381486953541838, 38.94643422943999], [30.381486953541838, 38.94697321861046], [30.38094796437136, 38.94697321861046], [30.38094796437136, 38.948051196951404], [30.38040897520088, 38.948051196951404], [30.38040897520088, 38.94751220778093], [30.3798699860304, 38.94751220778093], [30.3798699860304, 38.94643422943999], [30.38094796437136, 38.94643422943999], [30.38094796437136, 38.945895240269515], [30.38202594271229, 38.945895240269515], [30.38202594271229, 38.94643422943999], [30.38256493188277, 38.94643422943999], [30.38256493188277, 38.945895240269515]]]}, "id": "+390328+83589", "properties": {"area_ha": 3.3522898287435985, "count": 12, "label": 1, "mean_dnbr": 0.18546776129544326}}, {"type": "Feature", "geometry": {"geodesic": false, "type": "Polygon", "coordinates": [[[30.38256493188277, 38.75671004143394], [30.384720888564658, 38.75671004143394], [30.384720888564658, 38.75832700894536], [30.385259877735137, 38.75832700894536], [30.385259877735137, 38.75886599811583], [30.38418189939418, 38.75886599811583], [30.38418189939418, 38.757788019774885], [30.38256493188277, 38.757788019774885], [30.38256493188277, 38.75671004143394]]]}, "id": "+390331+83940", "properties": {"area_ha": 3.081111898764645, "count": 11, "label": 1, "mean_dnbr": 0.23814852841519712}}, {"type": "Feature", "geometry": {"geodesic": false, "type": "Polygon", "coordinates": [[[30.38202594271229, 38.7631779114796], [30.385259877735137, 38.7631779114796], [30.385259877735137, 38.763716900650074], [30.384720888564658, 38.763716900650074], [30.384720888564658, 38.76425588982055], [30.38202594271229, 38.76425588982055], [30.38202594271229, 38.76533386816149], [30.381486953541838, 38.76533386816149], [30.381486953541838, 38.76587285733196], [30.38202594271229, 38.76587285733196], [30.38202594271229, 38.766411846502436], [30.38094796437136, 38.766411846502436], [30.38094796437136, 38.76695083567291], [30.38040897520088, 38.76695083567291], [30.38040897520088, 38.76748982484338], [30.3798699860304, 38.76748982484338], [30.3798699860304, 38.76695083567291], [30.38040897520088, 38.76695083567291], [30.38040897520088, 38.76587285733196], [30.37933099685995, 38.76587285733196], [30.37933099685995, 38.76533386816149], [30.38040897520088, 38.76533386816149], [30.38040897520088, 38.76425588982055], [30.38202594271229, 38.76425588982055], [30.38202594271229, 38.7631779114796]]]}, "id": "+390332+83928", "properties": {"area_ha": 7.281888719618919, "count": 26, "label": 1, "mean_dnbr": 0.3013642528665586}}, {"type": "Feature", "geometry": {"geodesic": false, "type": "Polygon", "coordinates": [[[30.394422693633146, 38.91247791170027], [30.394961682803626, 38.91247791170027], [30.394961682803626, 38.913016900870744], [30.395500671974105, 38.913016900870744], [30.395500671974105, 38.91355589004121], [30.396039661144556, 38.91355589004121], [30.396039661144556, 38.915172857552626], [30.394961682803626, 38.915172857552626], [30.394961682803626, 38.914633868382154], [30.394422693633146, 38.914633868382154], [30.394422693633146, 38.915172857552626], [30.393344715292216, 38.915172857552626], [30.393344715292216, 38.914633868382154], [30.392805726121736, 38.914633868382154], [30.392805726121736, 38.91409487921168], [30.393344715292216, 38.91409487921168], [30.393344715292216, 38.91355589004121], [30.394422693633146, 38.91355589004121], [30.394422693633146, 38.91247791170027]], [[30.395500671974105, 38.91355589004121], [30.395500671974105, 38.91409487921168], [30.394961682803626, 38.91409487921168], [30.394961682803626, 38.91355589004121], [30.395500671974105, 38.91355589004121]]]}, "id": "+390350+83651", "properties": {"area_ha": 4.75125970163335, "count": 17, "label": 1, "mean_dnbr": 0.28433648222819685}}, {"type": "Feature", "geometry": {"geodesic": false, "type": "Polygon", "coordinates": [[[30.398195617826445, 38.80198513175357], [30.399273596167404, 38.80198513175357], [30.399273596167404, 38.80414108843546], [30.398734606996925, 38.80414108843546], [30.398734606996925, 38.805219066776395], [30.398195617826445, 38.805219066776395], [30.398195617826445, 38.80414108843546], [30.397656628655966, 38.80414108843546], [30.397656628655966, 38.803602099264985], [30.398195617826445, 38.803602099264985], [30.398195617826445, 38.80198513175357]]]}, "id": "+390358+83856", "properties": {"area_ha": 3.079133522173288, "count": 11, "label": 1, "mean_dnbr": 0.29180976522404706}}, {"type": "Feature", "geometry": {"geodesic": false, "type": "Polygon", "coordinates": [[[30.405202477042593, 38.927569608473476], [30.405741466213044, 38.927569608473476], [30.405741466213044, 38.92864758681442], [30.407358433724482, 38.92864758681442], [30.407358433724482, 38.92918657598489], [30.404124498701634, 38.92918657598489], [30.404124498701634, 38.929725565155366], [30.403585509531155, 38.929725565155366], [30.403585509531155, 38.92918657598489], [30.402507531190224, 38.92918657598489], [30.402507531190224, 38.92864758681442], [30.403046520360704, 38.92864758681442], [30.403046520360704, 38.92810859764395], [30.404124498701634, 38.92810859764395], [30.404124498701634, 38.92864758681442], [30.405202477042593, 38.92864758681442], [30.405202477042593, 38.927569608473476]]]}, "id": "+390370+83623", "properties": {"area_ha": 3.912014659626371, "count": 14, "label": 1, "mean_dnbr": 0.2715842725702527}}, {"type": "Feature", "geometry": {"geodesic": false, "type": "Polygon", "coordinates": [[[30.410053379576823, 38.92056274925734], [30.410592368747302, 38.92056274925734], [30.410592368747302, 38.92164072759829], [30.41113135791778, 38.92164072759829], [30.41113135791778, 38.92217971676876], [30.411670347088233, 38.92217971676876], [30.411670347088233, 38.92271870593923], [30.41274832542919, 38.92271870593923], [30.41274832542919, 38.923257695109704], [30.411670347088233, 38.923257695109704], [30.411670347088233, 38.92271870593923], [30.410053379576823, 38.92271870593923], [30.410053379576823, 38.92379668428018], [30.409514390406343, 38.92379668428018], [30.409514390406343, 38.92487466262112], [30.408975401235892, 38.92487466262112], [30.408975401235892, 38.92541365179159], [30.408436412065413, 38.92541365179159], [30.408436412065413, 38.92595264096206], [30.408975401235892, 38.92595264096206], [30.408975401235892, 38.92649163013253], [30.407358433724482, 38.92649163013253], [30.407358433724482, 38.92487466262112], [30.407897422894933, 38.92487466262112], [30.407897422894933, 38.92433567345065], [30.408436412065413, 38.92433567345065], [30.408436412065413, 38.923257695109704], [30.409514390406343, 38.923257695109704], [30.409514390406343, 38.92271870593923], [30.410053379576823, 38.92271870593923], [30.410053379576823, 38.92056274925734]]]}, "id": "+390379+83636", "properties": {"area_ha": 7.2656410471006065, "count": 26, "label": 1, "mean_dnbr": 0.33593585789029334}}, {"type": "Feature", "geometry": {"geodesic": false, "type": "Polygon", "coordinates": [[[30.41274832542919, 38.92595264096206], [30.4143652929406, 38.92595264096206], [30.4143652929406, 38.92649163013253], [30.415443271281532, 38.92649163013253], [30.415443271281532, 38.927569608473476], [30.4143652929406, 38.927569608473476], [30.4143652929406, 38.927030619303004], [30.413826303770122, 38.927030619303004], [30.413826303770122, 38.92810859764395], [30.41490428211108, 38.92810859764395], [30.41490428211108, 38.92864758681442], [30.413826303770122, 38.92864758681442], [30.413826303770122, 38.92918657598489], [30.410592368747302, 38.92918657598489], [30.410592368747302, 38.929725565155366], [30.408975401235892, 38.929725565155366], [30.408975401235892, 38.92864758681442], [30.409514390406343, 38.92864758681442], [30.409514390406343, 38.92918657598489], [30.410592368747302, 38.92918657598489], [30.410592368747302, 38.92864758681442], [30.41113135791778, 38.92864758681442], [30.41113135791778, 38.927569608473476], [30.410592368747302, 38.927569608473476], [30.410592368747302, 38.927030619303004], [30.41113135791778, 38.927030619303004], [30.41113135791778, 38.92649163013253], [30.412209336258712, 38.92649163013253], [30.412209336258712, 38.927030619303004], [30.41274832542919, 38.927030619303004], [30.41274832542919, 38.92595264096206]]]}, "id": "+390386+83626", "properties": {"area_ha": 11.177298587234391, "count": 40, "label": 1, "mean_dnbr": 0.3286085189429602}}, {"type": "Feature", "geometry": {"geodesic": false, "type": "Polygon", "coordinates": [[[30.41759922796342, 38.900620149949894], [30.41867720630438, 38.900620149949894], [30.41867720630438, 38.90115913912036], [30.4181382171339, 38.90115913912036], [30.4181382171339, 38.90169812829083], [30.41759922796342, 38.90169812829083], [30.41759922796342, 38.902237117461304], [30.41652124962249, 38.902237117461304], [30.41652124962249, 38.90331509580225], [30.41706023879297, 38.90331509580225], [30.41706023879297, 38.90385408497272], [30.41759922796342, 38.90385408497272], [30.41759922796342, 38.90547105248414], [30.4181382171339, 38.90547105248414], [30.4181382171339, 38.90762700916602], [30.41759922796342, 38.90762700916602], [30.41759922796342, 38.90708801999555], [30.41706023879297, 38.90708801999555], [30.41706023879297, 38.904932063313666], [30.41652124962249, 38.904932063313666], [30.41652124962249, 38.90385408497272], [30.413826303770122, 38.90385408497272], [30.413826303770122, 38.904393074143194], [30.41328731459967, 38.904393074143194], [30.41328731459967, 38.90331509580225], [30.413826303770122, 38.90331509580225], [30.413826303770122, 38.90277610663178], [30.4143652929406, 38.90277610663178], [30.4143652929406, 38.902237117461304], [30.41652124962249, 38.902237117461304], [30.41652124962249, 38.90115913912036], [30.41759922796342, 38.90115913912036], [30.41759922796342, 38.900620149949894]], [[30.415443271281532, 38.90277610663178], [30.415443271281532, 38.90331509580225], [30.41490428211108, 38.90331509580225], [30.41490428211108, 38.90277610663178], [30.415443271281532, 38.90277610663178]]]}, "id": "+390394+83673", "properties": {"area_ha": 9.783449890391488, "count": 35, "label": 1, "mean_dnbr": 0.28495203314884865}}, {"type": "Feature", "geometry": {"geodesic": false, "type": "Polygon", "coordinates": [[[30.41867720630438, 38.904932063313666], [30.41921619547486, 38.904932063313666], [30.41921619547486, 38.90601004165461], [30.42029417381579, 38.90601004165461], [30.42029417381579, 38.90654903082508], [30.42245013049768, 38.90654903082508], [30.42245013049768, 38.90601004165461], [30.42298911966816, 38.90601004165461], [30.42298911966816, 38.90762700916602], [30.42137215215672, 38.90762700916602], [30.42137215215672, 38.90708801999555], [30.41921619547486, 38.90708801999555], [30.41921619547486, 38.90654903082508], [30.41867720630438, 38.90654903082508], [30.41867720630438, 38.904932063313666]]]}, "id": "+390395+83665", "properties": {"area_ha": 4.472249320960299, "count": 16, "label": 1, "mean_dnbr": 0.35627957923495146}}, {"type": "Feature", "geometry": {"geodesic": false, "type": "Polygon", "coordinates": [[[30.42083316298627, 38.93511545686008], [30.4219111413272, 38.93511545686008], [30.4219111413272, 38.935654446030554], [30.42245013049768, 38.935654446030554], [30.42245013049768, 38.93619343520103], [30.42298911966816, 38.93619343520103], [30.42298911966816, 38.935654446030554], [30.42352810883861, 38.935654446030554], [30.42352810883861, 38.93834939188291], [30.4219111413272, 38.93834939188291], [30.4219111413272, 38.937271413541964], [30.42137215215672, 38.937271413541964], [30.42137215215672, 38.93834939188291], [30.42029417381579, 38.93834939188291], [30.42029417381579, 38.935654446030554], [30.42083316298627, 38.935654446030554], [30.42083316298627, 38.93511545686008]]]}, "id": "+390400+83609", "properties": {"area_ha": 8.102495176560856, "count": 29, "label": 1, "mean_dnbr": 0.30360386298235653}}, {"type": "Feature", "geometry": {"geodesic": false, "type": "Polygon", "coordinates": [[[30.42298911966816, 38.91625083589357], [30.42514507635005, 38.91625083589357], [30.42514507635005, 38.91678982506404], [30.4256840655205, 38.91678982506404], [30.4256840655205, 38.91840679257546], [30.42514507635005, 38.91840679257546], [30.42514507635005, 38.91894578174593], [30.42622305469098, 38.91894578174593], [30.42622305469098, 38.9194847709164], [30.42730103303191, 38.9194847709164], [30.42730103303191, 38.92056274925734], [30.42622305469098, 38.92056274925734], [30.42622305469098, 38.92002376008687], [30.4256840655205, 38.92002376008687], [30.4256840655205, 38.9194847709164], [30.42406709800909, 38.9194847709164], [30.42406709800909, 38.91840679257546], [30.42352810883861, 38.91840679257546], [30.42352810883861, 38.917328814234516], [30.42298911966816, 38.917328814234516], [30.42298911966816, 38.91786780340499], [30.42245013049768, 38.91786780340499], [30.42245013049768, 38.917328814234516], [30.42137215215672, 38.917328814234516], [30.42137215215672, 38.91786780340499], [30.42083316298627, 38.91786780340499], [30.42083316298627, 38.917328814234516], [30.42029417381579, 38.917328814234516], [30.42029417381579, 38.91678982506404], [30.42137215215672, 38.91678982506404], [30.42137215215672, 38.91625083589357], [30.42245013049768, 38.91625083589357], [30.42245013049768, 38.917328814234516], [30.42298911966816, 38.917328814234516], [30.42298911966816, 38.91625083589357]]]}, "id": "+390406+83644", "properties": {"area_ha": 10.060950104111056, "count": 36, "label": 1, "mean_dnbr": 0.33279671605307126}}, {"type": "Feature", "geometry": {"geodesic": false, "type": "Polygon", "coordinates": [[[30.42784002220239, 38.923257695109704], [30.428918000543348, 38.923257695109704], [30.428918000543348, 38.92433567345065], [30.42730103303191, 38.92433567345065], [30.42730103303191, 38.92487466262112], [30.42514507635005, 38.92487466262112], [30.42514507635005, 38.92433567345065], [30.4256840655205, 38.92433567345065], [30.4256840655205, 38.92379668428018], [30.42784002220239, 38.92379668428018], [30.42784002220239, 38.923257695109704]]]}, "id": "+390413+83631", "properties": {"area_ha": 3.353358599422795, "count": 12, "label": 1, "mean_dnbr": 0.28946383262803377}}, {"type": "Feature", "geometry": {"geodesic": false, "type": "Polygon", "coordinates": [[[30.42837901137287, 38.72383170203517], [30.428918000543348, 38.72383170203517], [30.428918000543348, 38.72437069120564], [30.430534968054758, 38.72437069120564], [30.430534968054758, 38.72598765871706], [30.431073957225237, 38.72598765871706], [30.431073957225237, 38.724909680376115], [30.432690924736647, 38.724909680376115], [30.432690924736647, 38.72544866954659], [30.432151935566168, 38.72544866954659], [30.432151935566168, 38.72598765871706], [30.4332299139071, 38.72598765871706], [30.4332299139071, 38.726526647887525], [30.433768903077578, 38.726526647887525], [30.433768903077578, 38.72760462622847], [30.434307892248057, 38.72760462622847], [30.434307892248057, 38.72814361539894], [30.433768903077578, 38.72814361539894], [30.433768903077578, 38.72760462622847], [30.432690924736647, 38.72760462622847], [30.432690924736647, 38.72814361539894], [30.431073957225237, 38.72814361539894], [30.431073957225237, 38.72760462622847], [30.432151935566168, 38.72760462622847], [30.432151935566168, 38.726526647887525], [30.430534968054758, 38.726526647887525], [30.430534968054758, 38.72760462622847], [30.42999597888428, 38.72760462622847], [30.42999597888428, 38.72814361539894], [30.4294569897138, 38.72814361539894], [30.4294569897138, 38.72760462622847], [30.42999597888428, 38.72760462622847], [30.42999597888428, 38.727065637058], [30.4294569897138, 38.727065637058], [30.4294569897138, 38.726526647887525], [30.430534968054758, 38.726526647887525], [30.430534968054758, 38.72598765871706], [30.42999597888428, 38.72598765871706], [30.42999597888428, 38.72544866954659], [30.428918000543348, 38.72544866954659], [30.428918000543348, 38.72437069120564], [30.42837901137287, 38.72437069120564], [30.42837901137287, 38.72383170203517]]]}, "id": "+390413+84001", "properties": {"area_ha": 8.967174219806195, "count": 32, "label": 1, "mean_dnbr": 0.2939419461498951}}, {"type": "Feature", "geometry": {"geodesic": false, "type": "Polygon", "coordinates": [[[30.432690924736647, 38.9194847709164], [30.4332299139071, 38.9194847709164], [30.4332299139071, 38.921101738427815], [30.432151935566168, 38.921101738427815], [30.432151935566168, 38.92217971676876], [30.43161294639569, 38.92217971676876], [30.43161294639569, 38.92271870593923], [30.42999597888428, 38.92271870593923], [30.42999597888428, 38.92164072759829], [30.428918000543348, 38.92164072759829], [30.428918000543348, 38.92271870593923], [30.42730103303191, 38.92271870593923], [30.42730103303191, 38.923257695109704], [30.42676204386146, 38.923257695109704], [30.42676204386146, 38.92271870593923], [30.42730103303191, 38.92271870593923], [30.42730103303191, 38.92164072759829], [30.42784002220239, 38.92164072759829], [30.42784002220239, 38.921101738427815], [30.428918000543348, 38.921101738427815], [30.428918000543348, 38.92056274925734], [30.42999597888428, 38.92056274925734], [30.42999597888428, 38.921101738427815], [30.431073957225237, 38.921101738427815], [30.431073957225237, 38.92164072759829], [30.43161294639569, 38.92164072759829], [30.43161294639569, 38.921101738427815], [30.432151935566168, 38.921101738427815], [30.432151935566168, 38.92056274925734], [30.432690924736647, 38.92056274925734], [30.432690924736647, 38.9194847709164]]]}, "id": "+390421+83638", "properties": {"area_ha": 7.545325560660365, "count": 27, "label": 1, "mean_dnbr": 0.28735538984656744}}, {"type": "Feature", "geometry": {"geodesic": false, "type": "Polygon", "coordinates": [[[30.432151935566168, 38.89684722575659], [30.434846881418537, 38.89684722575659], [30.434846881418537, 38.89738621492706], [30.434307892248057, 38.89738621492706], [30.434307892248057, 38.89792520409753], [30.433768903077578, 38.89792520409753], [30.433768903077578, 38.898464193268005], [30.4332299139071, 38.898464193268005], [30.4332299139071, 38.89900318243848], [30.432151935566168, 38.89900318243848], [30.432151935566168, 38.898464193268005], [30.43161294639569, 38.898464193268005], [30.43161294639569, 38.89738621492706], [30.432151935566168, 38.89738621492706], [30.432151935566168, 38.89684722575659]], [[30.4332299139071, 38.89792520409753], [30.4332299139071, 38.898464193268005], [30.432690924736647, 38.898464193268005], [30.432690924736647, 38.89792520409753], [30.4332299139071, 38.89792520409753]]]}, "id": "+390424+83680", "properties": {"area_ha": 4.193244648931106, "count": 15, "label": 1, "mean_dnbr": 0.3369045542311363}}, {"type": "Feature", "geometry": {"geodesic": false, "type": "Polygon", "coordinates": [[[30.438080816441357, 38.91786780340499], [30.438619805611836, 38.91786780340499], [30.438619805611836, 38.9194847709164], [30.438080816441357, 38.9194847709164], [30.438080816441357, 38.92002376008687], [30.437002838100426, 38.92002376008687], [30.437002838100426, 38.9194847709164], [30.435924859759467, 38.9194847709164], [30.435924859759467, 38.91840679257546], [30.437541827270877, 38.91840679257546], [30.437541827270877, 38.9194847709164], [30.438080816441357, 38.9194847709164], [30.438080816441357, 38.91786780340499]]]}, "id": "+390431+83641", "properties": {"area_ha": 3.074131546095093, "count": 11, "label": 1, "mean_dnbr": 0.2861981306170571}}, {"type": "Feature", "geometry": {"geodesic": false, "type": "Polygon", "coordinates": [[[30.445087675657476, 38.89954217160895], [30.445626664827955, 38.89954217160895], [30.445626664827955, 38.90008116077942], [30.446165653998435, 38.90008116077942], [30.446165653998435, 38.900620149949894], [30.445626664827955, 38.900620149949894], [30.445626664827955, 38.90115913912036], [30.445087675657476, 38.90115913912036], [30.445087675657476, 38.90169812829083], [30.444548686487025, 38.90169812829083], [30.444548686487025, 38.902237117461304], [30.443470708146066, 38.902237117461304], [30.443470708146066, 38.90277610663178], [30.442931718975615, 38.90277610663178], [30.442931718975615, 38.902237117461304], [30.443470708146066, 38.902237117461304], [30.443470708146066, 38.90169812829083], [30.442931718975615, 38.90169812829083], [30.442931718975615, 38.90115913912036], [30.445087675657476, 38.90115913912036], [30.445087675657476, 38.89954217160895]]]}, "id": "+390444+83675", "properties": {"area_ha": 3.074897461961629, "count": 11, "label": 1, "mean_dnbr": 0.38796678336849016}}, {"type": "Feature", "geometry": {"geodesic": false, "type": "Polygon", "coordinates": [[[30.445087675657476, 38.745391268854036], [30.445626664827955, 38.745391268854036], [30.445626664827955, 38.74593025802451], [30.446704643168914, 38.74593025802451], [30.446704643168914, 38.74646924719498], [30.448321610680324, 38.74646924719498], [30.448321610680324, 38.74700823636545], [30.447782621509845, 38.74700823636545], [30.447782621509845, 38.7480862147064], [30.447243632339365, 38.7480862147064], [30.447243632339365, 38.747547225535925], [30.446165653998435, 38.747547225535925], [30.446165653998435, 38.74700823636545], [30.445626664827955, 38.74700823636545], [30.445626664827955, 38.747547225535925], [30.444009697316545, 38.747547225535925], [30.444009697316545, 38.7480862147064], [30.443470708146066, 38.7480862147064], [30.443470708146066, 38.74862520387687], [30.442931718975615, 38.74862520387687], [30.442931718975615, 38.74916419304734], [30.442392729805135, 38.74916419304734], [30.442392729805135, 38.74700823636545], [30.442931718975615, 38.74700823636545], [30.442931718975615, 38.747547225535925], [30.444009697316545, 38.747547225535925], [30.444009697316545, 38.74700823636545], [30.445087675657476, 38.74700823636545], [30.445087675657476, 38.745391268854036]]]}, "id": "+390444+83961", "properties": {"area_ha": 6.723409254141102, "count": 24, "label": 1, "mean_dnbr": 0.3682957049216951}}, {"type": "Feature", "geometry": {"geodesic": false, "type": "Polygon", "coordinates": [[[30.445626664827955, 38.91786780340499], [30.446704643168914, 38.91786780340499], [30.446704643168914, 38.91840679257546], [30.447243632339365, 38.91840679257546], [30.447243632339365, 38.91894578174593], [30.447782621509845, 38.91894578174593], [30.447782621509845, 38.9194847709164], [30.444548686487025, 38.9194847709164], [30.444548686487025, 38.91894578174593], [30.445087675657476, 38.91894578174593], [30.445087675657476, 38.91840679257546], [30.445626664827955, 38.91840679257546], [30.445626664827955, 38.91786780340499]]]}, "id": "+390446+83641", "properties": {"area_ha": 3.3536290160017, "count": 12, "label": 1, "mean_dnbr": 0.33970597283894055}}, {"type": "Feature", "geometry": {"geodesic": false, "type": "Polygon", "coordinates": [[[30.451016556532664, 38.929725565155366], [30.452633524044103, 38.929725565155366], [30.452633524044103, 38.93026455432584], [30.451016556532664, 38.93026455432584], [30.451016556532664, 38.931342532666775], [30.449938578191734, 38.931342532666775], [30.449938578191734, 38.93080354349631], [30.449399589021255, 38.93080354349631], [30.449399589021255, 38.931342532666775], [30.448321610680324, 38.931342532666775], [30.448321610680324, 38.93080354349631], [30.448860599850804, 38.93080354349631], [30.448860599850804, 38.93026455432584], [30.451016556532664, 38.93026455432584], [30.451016556532664, 38.929725565155366]]]}, "id": "+390457+83619", "properties": {"area_ha": 3.0736266573407005, "count": 11, "label": 1, "mean_dnbr": 0.23054677369323273}}, {"type": "Feature", "geometry": {"geodesic": false, "type": "Polygon", "coordinates": [[[30.452094534873623, 38.73568946378555], [30.452633524044103, 38.73568946378555], [30.452633524044103, 38.737306431296965], [30.454789480725992, 38.737306431296965], [30.454789480725992, 38.73676744212649], [30.455328469896443, 38.73676744212649], [30.455328469896443, 38.737306431296965], [30.454789480725992, 38.737306431296965], [30.454789480725992, 38.73784542046744], [30.452094534873623, 38.73784542046744], [30.452094534873623, 38.7383844096379], [30.449938578191734, 38.7383844096379], [30.449938578191734, 38.73946238797885], [30.449399589021255, 38.73946238797885], [30.449399589021255, 38.7383844096379], [30.448860599850804, 38.7383844096379], [30.448860599850804, 38.73784542046744], [30.452094534873623, 38.73784542046744], [30.452094534873623, 38.73568946378555]]]}, "id": "+390457+83979", "properties": {"area_ha": 4.763038783395293, "count": 17, "label": 1, "mean_dnbr": 0.31980343452174403}}, {"type": "Feature", "geometry": {"geodesic": false, "type": "Polygon", "coordinates": [[[30.451555545703144, 38.900620149949894], [30.453711502385033, 38.900620149949894], [30.453711502385033, 38.902237117461304], [30.454250491555513, 38.902237117461304], [30.454250491555513, 38.90277610663178], [30.453172513214554, 38.90277610663178], [30.453172513214554, 38.902237117461304], [30.452633524044103, 38.902237117461304], [30.452633524044103, 38.90277610663178], [30.452094534873623, 38.90277610663178], [30.452094534873623, 38.90331509580225], [30.451016556532664, 38.90331509580225], [30.451016556532664, 38.90277610663178], [30.452094534873623, 38.90277610663178], [30.452094534873623, 38.902237117461304], [30.451555545703144, 38.902237117461304], [30.451555545703144, 38.900620149949894]]]}, "id": "+390459+83673", "properties": {"area_ha": 4.7520788328238694, "count": 17, "label": 1, "mean_dnbr": 0.32217106307059507}}, {"type": "Feature", "geometry": {"geodesic": false, "type": "Polygon", "coordinates": [[[30.452633524044103, 38.72598765871706], [30.453711502385033, 38.72598765871706], [30.453711502385033, 38.726526647887525], [30.455328469896443, 38.726526647887525], [30.455328469896443, 38.72760462622847], [30.454789480725992, 38.72760462622847], [30.454789480725992, 38.72814361539894], [30.453711502385033, 38.72814361539894], [30.453711502385033, 38.72760462622847], [30.452633524044103, 38.72760462622847], [30.452633524044103, 38.72814361539894], [30.451555545703144, 38.72814361539894], [30.451555545703144, 38.728682604569414], [30.451016556532664, 38.728682604569414], [30.451016556532664, 38.72814361539894], [30.450477567362213, 38.72814361539894], [30.450477567362213, 38.727065637058], [30.451555545703144, 38.727065637058], [30.451555545703144, 38.726526647887525], [30.452633524044103, 38.726526647887525], [30.452633524044103, 38.72598765871706]]]}, "id": "+390459+83997", "properties": {"area_ha": 7.005503435089859, "count": 25, "label": 1, "mean_dnbr": 0.36323238121786905}}, {"type": "Feature", "geometry": {"geodesic": false, "type": "Polygon", "coordinates": [[[30.454250491555513, 38.91678982506404], [30.454789480725992, 38.91678982506404], [30.454789480725992, 38.917328814234516], [30.456406448237402, 38.917328814234516], [30.456406448237402, 38.91786780340499], [30.457484426578333, 38.91786780340499], [30.457484426578333, 38.91840679257546], [30.458023415748812, 38.91840679257546], [30.458023415748812, 38.91894578174593], [30.456406448237402, 38.91894578174593], [30.456406448237402, 38.9194847709164], [30.455867459066923, 38.9194847709164], [30.455867459066923, 38.92002376008687], [30.455328469896443, 38.92002376008687], [30.455328469896443, 38.91894578174593], [30.456406448237402, 38.91894578174593], [30.456406448237402, 38.91840679257546], [30.455328469896443, 38.91840679257546], [30.455328469896443, 38.91786780340499], [30.454250491555513, 38.91786780340499], [30.454250491555513, 38.91678982506404]]]}, "id": "+390461+83643", "properties": {"area_ha": 4.192042927735557, "count": 15, "label": 1, "mean_dnbr": 0.2748716179722702}}, {"type": "Feature", "geometry": {"geodesic": false, "type": "Polygon", "coordinates": [[[30.454789480725992, 38.896308236586115], [30.455328469896443, 38.896308236586115], [30.455328469896443, 38.89684722575659], [30.457484426578333, 38.89684722575659], [30.457484426578333, 38.89792520409753], [30.455867459066923, 38.89792520409753], [30.455867459066923, 38.898464193268005], [30.454789480725992, 38.898464193268005], [30.454789480725992, 38.896308236586115]]]}, "id": "+390462+83681", "properties": {"area_ha": 3.634167017361425, "count": 13, "label": 1, "mean_dnbr": 0.28070939949146334}}, {"type": "Feature", "geometry": {"geodesic": false, "type": "Polygon", "coordinates": [[[30.456406448237402, 38.732994517933186], [30.457484426578333, 38.732994517933186], [30.457484426578333, 38.73407249627413], [30.458023415748812, 38.73407249627413], [30.458023415748812, 38.7346114854446], [30.456945437407853, 38.7346114854446], [30.456945437407853, 38.735150474615075], [30.455867459066923, 38.735150474615075], [30.455867459066923, 38.7346114854446], [30.455328469896443, 38.7346114854446], [30.455328469896443, 38.735150474615075], [30.454789480725992, 38.735150474615075], [30.454789480725992, 38.73568946378555], [30.454250491555513, 38.73568946378555], [30.454250491555513, 38.735150474615075], [30.453172513214554, 38.735150474615075], [30.453172513214554, 38.7346114854446], [30.453711502385033, 38.7346114854446], [30.453711502385033, 38.73353350710366], [30.455867459066923, 38.73353350710366], [30.455867459066923, 38.73407249627413], [30.456945437407853, 38.73407249627413], [30.456945437407853, 38.73353350710366], [30.456406448237402, 38.73353350710366], [30.456406448237402, 38.732994517933186]]]}, "id": "+390466+83984", "properties": {"area_ha": 6.164231394453772, "count": 22, "label": 1, "mean_dnbr": 0.3268160331235242}}, {"type": "Feature", "geometry": {"geodesic": false, "type": "Polygon", "coordinates": [[[30.455867459066923, 38.93188152183725], [30.459640383260222, 38.93188152183725], [30.459640383260222, 38.93295950017819], [30.455867459066923, 38.93295950017819], [30.455867459066923, 38.93188152183725]]]}, "id": "+390470+83615", "properties": {"area_ha": 3.9117936731817164, "count": 14, "label": 1, "mean_dnbr": 0.25638721734164754}}, {"type": "Feature", "geometry": {"geodesic": false, "type": "Polygon", "coordinates": [[[30.459640383260222, 39.01758079994225], [30.4601793724307, 39.01758079994225], [30.4601793724307, 39.018658778283196], [30.459640383260222, 39.018658778283196], [30.459640383260222, 39.01919776745367], [30.4601793724307, 39.01919776745367], [30.4601793724307, 39.02027574579461], [30.46071836160118, 39.02027574579461], [30.46071836160118, 39.020814734965086], [30.459101394089743, 39.020814734965086], [30.459101394089743, 39.01973675662414], [30.45856240491929, 39.01973675662414], [30.45856240491929, 39.018658778283196], [30.459640383260222, 39.018658778283196], [30.459640383260222, 39.01758079994225]]]}, "id": "+390471+83456", "properties": {"area_ha": 3.3488468338747635, "count": 12, "label": 1, "mean_dnbr": 0.26034130157393803}}, {"type": "Feature", "geometry": {"geodesic": false, "type": "Polygon", "coordinates": [[[30.46071836160118, 38.89954217160895], [30.461257350771632, 38.89954217160895], [30.461257350771632, 38.90008116077942], [30.46179633994211, 38.90008116077942], [30.46179633994211, 38.902237117461304], [30.461257350771632, 38.902237117461304], [30.461257350771632, 38.90169812829083], [30.46071836160118, 38.90169812829083], [30.46071836160118, 38.90115913912036], [30.4601793724307, 38.90115913912036], [30.4601793724307, 38.900620149949894], [30.459640383260222, 38.900620149949894], [30.459640383260222, 38.90008116077942], [30.46071836160118, 38.90008116077942], [30.46071836160118, 38.89954217160895]]]}, "id": "+390473+83675", "properties": {"area_ha": 3.0749217000202833, "count": 11, "label": 1, "mean_dnbr": 0.2723433543943877}}, {"type": "Feature", "geometry": {"geodesic": false, "type": "Polygon", "coordinates": [[[30.463952296624, 38.73622845295602], [30.46449128579448, 38.73622845295602], [30.46449128579448, 38.73676744212649], [30.46556926413541, 38.73676744212649], [30.46556926413541, 38.737306431296965], [30.46610825330589, 38.737306431296965], [30.46610825330589, 38.73676744212649], [30.46664724247637, 38.73676744212649], [30.46664724247637, 38.737306431296965], [30.46718623164682, 38.737306431296965], [30.46718623164682, 38.7383844096379], [30.46664724247637, 38.7383844096379], [30.46664724247637, 38.738923398808375], [30.46718623164682, 38.738923398808375], [30.46718623164682, 38.73946238797885], [30.46664724247637, 38.73946238797885], [30.46664724247637, 38.738923398808375], [30.46610825330589, 38.738923398808375], [30.46610825330589, 38.7383844096379], [30.46556926413541, 38.7383844096379], [30.46556926413541, 38.73784542046744], [30.46449128579448, 38.73784542046744], [30.46449128579448, 38.7383844096379], [30.463952296624, 38.7383844096379], [30.463952296624, 38.73784542046744], [30.46233532911259, 38.73784542046744], [30.46233532911259, 38.737306431296965], [30.463952296624, 38.737306431296965], [30.463952296624, 38.73622845295602]]]}, "id": "+390479+83978", "properties": {"area_ha": 5.6035899977358605, "count": 20, "label": 1, "mean_dnbr": 0.32293446529016295}}, {"type": "Feature", "geometry": {"geodesic": false, "type": "Polygon", "coordinates": [[[30.463952296624, 38.96314289372461], [30.46503027496493, 38.96314289372461], [30.46503027496493, 38.96368188289508], [30.46556926413541, 38.96368188289508], [30.46556926413541, 38.964759861236026], [30.46610825330589, 38.964759861236026], [30.46610825330589, 38.9652988504065], [30.46718623164682, 38.9652988504065], [30.46718623164682, 38.964759861236026], [30.4677252208173, 38.964759861236026], [30.4677252208173, 38.9652988504065], [30.46718623164682, 38.9652988504065], [30.46718623164682, 38.96583783957697], [30.46556926413541, 38.96583783957697], [30.46556926413541, 38.9652988504065], [30.46449128579448, 38.9652988504065], [30.46449128579448, 38.964759861236026], [30.463952296624, 38.964759861236026], [30.463952296624, 38.96314289372461]]]}, "id": "+390480+83557", "properties": {"area_ha": 4.189307289851494, "count": 15, "label": 1, "mean_dnbr": 0.20644404240523181}}, {"type": "Feature", "geometry": {"geodesic": false, "type": "Polygon", "coordinates": [[[30.4677252208173, 38.72598765871706], [30.46826420998778, 38.72598765871706], [30.46826420998778, 38.726526647887525], [30.46934218832871, 38.726526647887525], [30.46934218832871, 38.728682604569414], [30.46988117749919, 38.728682604569414], [30.46988117749919, 38.72922159373989], [30.46880319915823, 38.72922159373989], [30.46880319915823, 38.72760462622847], [30.4677252208173, 38.72760462622847], [30.4677252208173, 38.72598765871706]]]}, "id": "+390486+83997", "properties": {"area_ha": 3.082412040461445, "count": 11, "label": 1, "mean_dnbr": 0.2808989311150683}}, {"type": "Feature", "geometry": {"geodesic": false, "type": "Polygon", "coordinates": [[[30.47365410169249, 38.867202821380644], [30.476349047544858, 38.867202821380644], [30.476349047544858, 38.86828079972159], [30.4752710692039, 38.86828079972159], [30.4752710692039, 38.86774181055112], [30.47473208003342, 38.86774181055112], [30.47473208003342, 38.86881978889206], [30.47419309086297, 38.86881978889206], [30.47419309086297, 38.86828079972159], [30.47203713418108, 38.86828079972159], [30.47203713418108, 38.86774181055112], [30.47365410169249, 38.86774181055112], [30.47365410169249, 38.867202821380644]]]}, "id": "+390501+83735", "properties": {"area_ha": 3.6356763345650824, "count": 13, "label": 1, "mean_dnbr": 0.23187424568346965}}, {"type": "Feature", "geometry": {"geodesic": false, "type": "Polygon", "coordinates": [[[30.489284787636166, 38.964759861236026], [30.490362765977125, 38.964759861236026], [30.490362765977125, 38.9652988504065], [30.489823776806645, 38.9652988504065], [30.489823776806645, 38.96583783957697], [30.490362765977125, 38.96583783957697], [30.490362765977125, 38.96637682874744], [30.488745798465686, 38.96637682874744], [30.488745798465686, 38.966915817917915], [30.489284787636166, 38.966915817917915], [30.489284787636166, 38.96745480708838], [30.488206809295235, 38.96745480708838], [30.488206809295235, 38.96799379625885], [30.487128830954276, 38.96799379625885], [30.487128830954276, 38.96745480708838], [30.486589841783797, 38.96745480708838], [30.486589841783797, 38.968532785429325], [30.486050852613346, 38.968532785429325], [30.486050852613346, 38.96799379625885], [30.485511863442866, 38.96799379625885], [30.485511863442866, 38.968532785429325], [30.484972874272387, 38.968532785429325], [30.484972874272387, 38.96799379625885], [30.485511863442866, 38.96799379625885], [30.485511863442866, 38.96745480708838], [30.486050852613346, 38.96745480708838], [30.486050852613346, 38.966915817917915], [30.486589841783797, 38.966915817917915], [30.486589841783797, 38.96583783957697], [30.487128830954276, 38.96583783957697], [30.487128830954276, 38.966915817917915], [30.487667820124756, 38.966915817917915], [30.487667820124756, 38.96637682874744], [30.488206809295235, 38.96637682874744], [30.488206809295235, 38.96583783957697], [30.488745798465686, 38.96583783957697], [30.488745798465686, 38.9652988504065], [30.489284787636166, 38.9652988504065], [30.489284787636166, 38.964759861236026]]]}, "id": "+390527+83554", "properties": {"area_ha": 6.702687376402256, "count": 24, "label": 1, "mean_dnbr": 0.1921093282349105}}, {"type": "Feature", "geometry": {"geodesic": false, "type": "Polygon", "coordinates": [[[30.489823776806645, 38.819771774379134], [30.490362765977125, 38.819771774379134], [30.490362765977125, 38.82031076354961], [30.491440744318055, 38.82031076354961], [30.491440744318055, 38.82084975272008], [30.491979733488535, 38.82084975272008], [30.491979733488535, 38.82138874189055], [30.492518722658986, 38.82138874189055], [30.492518722658986, 38.821927731061024], [30.493057711829465, 38.821927731061024], [30.493057711829465, 38.822466720231496], [30.492518722658986, 38.822466720231496], [30.492518722658986, 38.82300570940196], [30.491440744318055, 38.82300570940196], [30.491440744318055, 38.821927731061024], [30.491979733488535, 38.821927731061024], [30.491979733488535, 38.82138874189055], [30.490901755147576, 38.82138874189055], [30.490901755147576, 38.82084975272008], [30.490362765977125, 38.82084975272008], [30.490362765977125, 38.82031076354961], [30.489823776806645, 38.82031076354961], [30.489823776806645, 38.819771774379134]]]}, "id": "+390527+83823", "properties": {"area_ha": 3.078351196185217, "count": 11, "label": 1, "mean_dnbr": 0.2546984449717169}}, {"type": "Feature", "geometry": {"geodesic": false, "type": "Polygon", "coordinates": [[[30.488745798465686, 38.792822315855545], [30.490362765977125, 38.792822315855545], [30.490362765977125, 38.79336130502602], [30.490901755147576, 38.79336130502602], [30.490901755147576, 38.794978272537435], [30.489284787636166, 38.794978272537435], [30.489284787636166, 38.79390029419649], [30.488745798465686, 38.79390029419649], [30.488745798465686, 38.79443928336696], [30.487667820124756, 38.79443928336696], [30.487667820124756, 38.79551726170791], [30.486589841783797, 38.79551726170791], [30.486589841783797, 38.79443928336696], [30.487128830954276, 38.79443928336696], [30.487128830954276, 38.79336130502602], [30.488745798465686, 38.79336130502602], [30.488745798465686, 38.792822315855545]]]}, "id": "+390527+83873", "properties": {"area_ha": 6.439033511780806, "count": 23, "label": 1, "mean_dnbr": 0.39498486635076513}}, {"type": "Feature", "geometry": {"geodesic": false, "type": "Polygon", "coordinates": [[[30.491979733488535, 38.79228332668508], [30.494674679340875, 38.79228332668508], [30.494674679340875, 38.792822315855545], [30.494135690170424, 38.792822315855545], [30.494135690170424, 38.79336130502602], [30.492518722658986, 38.79336130502602], [30.492518722658986, 38.79390029419649], [30.491979733488535, 38.79390029419649], [30.491979733488535, 38.79336130502602], [30.491440744318055, 38.79336130502602], [30.491440744318055, 38.792822315855545], [30.491979733488535, 38.792822315855545], [30.491979733488535, 38.79228332668508]]]}, "id": "+390535+83874", "properties": {"area_ha": 3.0795790773378235, "count": 11, "label": 1, "mean_dnbr": 0.3030402823830344}}, {"type": "Feature", "geometry": {"geodesic": false, "type": "Polygon", "coordinates": [[[30.503298506068433, 38.87852159396055], [30.504376484409363, 38.87852159396055], [30.504376484409363, 38.880138561471966], [30.503837495238912, 38.880138561471966], [30.503837495238912, 38.88175552898338], [30.503298506068433, 38.88175552898338], [30.503298506068433, 38.882294518153856], [30.501681538557023, 38.882294518153856], [30.501681538557023, 38.88337249649479], [30.500603560216064, 38.88337249649479], [30.500603560216064, 38.882294518153856], [30.501681538557023, 38.882294518153856], [30.501681538557023, 38.88175552898338], [30.502220527727502, 38.88175552898338], [30.502220527727502, 38.880138561471966], [30.502759516897953, 38.880138561471966], [30.502759516897953, 38.879599572301494], [30.503298506068433, 38.879599572301494], [30.503298506068433, 38.87852159396055]]]}, "id": "+390553+83714", "properties": {"area_ha": 6.431181593635534, "count": 23, "label": 1, "mean_dnbr": 0.19932795301081402}}, {"type": "Feature", "geometry": {"geodesic": false, "type": "Polygon", "coordinates": [[[30.504376484409363, 38.828395601106685], [30.504915473579842, 38.828395601106685], [30.504915473579842, 38.82893459027715], [30.505454462750322, 38.82893459027715], [30.505454462750322, 38.82947357944762], [30.506532441091252, 38.82947357944762], [30.506532441091252, 38.83109054695904], [30.504915473579842, 38.83109054695904], [30.504915473579842, 38.83055155778857], [30.505454462750322, 38.83055155778857], [30.505454462750322, 38.830012568618095], [30.504915473579842, 38.830012568618095], [30.504915473579842, 38.82947357944762], [30.504376484409363, 38.82947357944762], [30.504376484409363, 38.828395601106685]]]}, "id": "+390554+83807", "properties": {"area_ha": 3.077990222161396, "count": 11, "label": 1, "mean_dnbr": 0.2586556185989042}}, {"type": "Feature", "geometry": {"geodesic": false, "type": "Polygon", "coordinates": [[[30.5059934519208, 39.14370426583263], [30.506532441091252, 39.14370426583263], [30.506532441091252, 39.14478224417358], [30.5059934519208, 39.14478224417358], [30.5059934519208, 39.14532123334405], [30.504376484409363, 39.14532123334405], [30.504376484409363, 39.144243255003104], [30.504915473579842, 39.144243255003104], [30.504915473579842, 39.14316527666216], [30.505454462750322, 39.14316527666216], [30.505454462750322, 39.14262628749169], [30.5059934519208, 39.14262628749169], [30.5059934519208, 39.14370426583263]]]}, "id": "+390556+83224", "properties": {"area_ha": 3.62151036264096, "count": 13, "label": 1, "mean_dnbr": 0.3054722688532379}}, {"type": "Feature", "geometry": {"geodesic": false, "type": "Polygon", "coordinates": [[[30.51030536528458, 38.88121653981291], [30.51084435445503, 38.88121653981291], [30.51084435445503, 38.88175552898338], [30.51138334362551, 38.88175552898338], [30.51138334362551, 38.882294518153856], [30.51300031113692, 38.882294518153856], [30.51300031113692, 38.88337249649479], [30.51192233279599, 38.88337249649479], [30.51192233279599, 38.883911485665266], [30.51138334362551, 38.883911485665266], [30.51138334362551, 38.88337249649479], [30.51084435445503, 38.88337249649479], [30.51084435445503, 38.88283350732433], [30.51138334362551, 38.88283350732433], [30.51138334362551, 38.882294518153856], [30.51030536528458, 38.882294518153856], [30.51030536528458, 38.88121653981291]]]}, "id": "+390565+83709", "properties": {"area_ha": 3.0757060154189304, "count": 11, "label": 1, "mean_dnbr": 0.18245515373341545}}, {"type": "Feature", "geometry": {"geodesic": false, "type": "Polygon", "coordinates": [[[30.51084435445503, 39.07255769533037], [30.51138334362551, 39.07255769533037], [30.51138334362551, 39.07309668450084], [30.51192233279599, 39.07309668450084], [30.51192233279599, 39.07363567367131], [30.51246132196644, 39.07363567367131], [30.51246132196644, 39.074174662841784], [30.51192233279599, 39.074174662841784], [30.51192233279599, 39.07525264118273], [30.51030536528458, 39.07525264118273], [30.51030536528458, 39.07471365201226], [30.51084435445503, 39.07471365201226], [30.51084435445503, 39.074174662841784], [30.51030536528458, 39.074174662841784], [30.51030536528458, 39.07363567367131], [30.51138334362551, 39.07363567367131], [30.51138334362551, 39.07309668450084], [30.51084435445503, 39.07309668450084], [30.51084435445503, 39.07255769533037]]]}, "id": "+390566+83354", "properties": {"area_ha": 3.0674028353398395, "count": 11, "label": 1, "mean_dnbr": 0.2356711265727848}}, {"type": "Feature", "geometry": {"geodesic": false, "type": "Polygon", "coordinates": [[[30.51138334362551, 38.902237117461304], [30.5135393003074, 38.902237117461304], [30.5135393003074, 38.90277610663178], [30.51300031113692, 38.90277610663178], [30.51300031113692, 38.90331509580225], [30.51084435445503, 38.90331509580225], [30.51084435445503, 38.904393074143194], [30.51030536528458, 38.904393074143194], [30.51030536528458, 38.90547105248414], [30.5097663761141, 38.90547105248414], [30.5097663761141, 38.90601004165461], [30.50814940860269, 38.90601004165461], [30.50814940860269, 38.904932063313666], [30.50761041943221, 38.904932063313666], [30.50761041943221, 38.90331509580225], [30.50814940860269, 38.90331509580225], [30.50814940860269, 38.90277610663178], [30.508688397773142, 38.90277610663178], [30.508688397773142, 38.90385408497272], [30.50814940860269, 38.90385408497272], [30.50814940860269, 38.904932063313666], [30.5097663761141, 38.904932063313666], [30.5097663761141, 38.90331509580225], [30.51030536528458, 38.90331509580225], [30.51030536528458, 38.90277610663178], [30.51138334362551, 38.90277610663178], [30.51138334362551, 38.902237117461304]]]}, "id": "+390570+83670", "properties": {"area_ha": 7.26767565599339, "count": 26, "label": 1, "mean_dnbr": 0.21668007262496483}}, {"type": "Feature", "geometry": {"geodesic": false, "type": "Polygon", "coordinates": [[[30.5135393003074, 38.828395601106685], [30.51515626781881, 38.828395601106685], [30.51515626781881, 38.82893459027715], [30.51569525698929, 38.82893459027715], [30.51569525698929, 38.830012568618095], [30.51461727864833, 38.830012568618095], [30.51461727864833, 38.83055155778857], [30.51407828947788, 38.83055155778857], [30.51407828947788, 38.830012568618095], [30.5135393003074, 38.830012568618095], [30.5135393003074, 38.82947357944762], [30.51300031113692, 38.82947357944762], [30.51300031113692, 38.82893459027715], [30.5135393003074, 38.82893459027715], [30.5135393003074, 38.828395601106685]]]}, "id": "+390573+83807", "properties": {"area_ha": 3.6376518023508737, "count": 13, "label": 1, "mean_dnbr": 0.27416010437389193}}, {"type": "Feature", "geometry": {"geodesic": false, "type": "Polygon", "coordinates": [[[30.51839020284163, 38.87259271308536], [30.51892919201211, 38.87259271308536], [30.51892919201211, 38.873670691426305], [30.51839020284163, 38.873670691426305], [30.51839020284163, 38.87420968059678], [30.51892919201211, 38.87420968059678], [30.51892919201211, 38.87474866976725], [30.5173122245007, 38.87474866976725], [30.5173122245007, 38.87528765893772], [30.51677323533022, 38.87528765893772], [30.51677323533022, 38.87313170225583], [30.51839020284163, 38.87313170225583], [30.51839020284163, 38.87259271308536]]]}, "id": "+390580+83725", "properties": {"area_ha": 3.63537296855992, "count": 13, "label": 1, "mean_dnbr": 0.2257647747330497}}, {"type": "Feature", "geometry": {"geodesic": false, "type": "Polygon", "coordinates": [[[30.51946818118259, 38.90654903082508], [30.52054615952352, 38.90654903082508], [30.52054615952352, 38.90708801999555], [30.520007170353068, 38.90708801999555], [30.520007170353068, 38.90762700916602], [30.51946818118259, 38.90762700916602], [30.51946818118259, 38.908704987506965], [30.51785121367118, 38.908704987506965], [30.51785121367118, 38.90924397667744], [30.51677323533022, 38.90924397667744], [30.51677323533022, 38.908704987506965], [30.51785121367118, 38.908704987506965], [30.51785121367118, 38.90708801999555], [30.51946818118259, 38.90708801999555], [30.51946818118259, 38.90654903082508]]]}, "id": "+390583+83662", "properties": {"area_ha": 3.913147384922602, "count": 14, "label": 1, "mean_dnbr": 0.18849326246402257}}, {"type": "Feature", "geometry": {"geodesic": false, "type": "Polygon", "coordinates": [[[30.521624137864478, 39.33396744300915], [30.523780094546368, 39.33396744300915], [30.523780094546368, 39.335045421350095], [30.523241105375888, 39.335045421350095], [30.523241105375888, 39.33558441052056], [30.52431908371682, 39.33558441052056], [30.52431908371682, 39.33612339969103], [30.523780094546368, 39.33612339969103], [30.523780094546368, 39.336662388861505], [30.52270211620541, 39.336662388861505], [30.52270211620541, 39.33720137803198], [30.51946818118259, 39.33720137803198], [30.51946818118259, 39.33612339969103], [30.51892919201211, 39.33612339969103], [30.51892919201211, 39.33558441052056], [30.51839020284163, 39.33558441052056], [30.51839020284163, 39.335045421350095], [30.51785121367118, 39.335045421350095], [30.51785121367118, 39.33612339969103], [30.51839020284163, 39.33612339969103], [30.51839020284163, 39.33720137803198], [30.51785121367118, 39.33720137803198], [30.51785121367118, 39.33774036720245], [30.51677323533022, 39.33774036720245], [30.51677323533022, 39.33827935637292], [30.51623424615977, 39.33827935637292], [30.51623424615977, 39.33774036720245], [30.51515626781881, 39.33774036720245], [30.51515626781881, 39.33720137803198], [30.51461727864833, 39.33720137803198], [30.51461727864833, 39.336662388861505], [30.51407828947788, 39.336662388861505], [30.51407828947788, 39.33720137803198], [30.5135393003074, 39.33720137803198], [30.5135393003074, 39.336662388861505], [30.51300031113692, 39.336662388861505], [30.51300031113692, 39.33612339969103], [30.51192233279599, 39.33612339969103], [30.51192233279599, 39.33558441052056], [30.51300031113692, 39.33558441052056], [30.51300031113692, 39.33612339969103], [30.5135393003074, 39.33612339969103], [30.5135393003074, 39.336662388861505], [30.51407828947788, 39.336662388861505], [30.51407828947788, 39.33612339969103], [30.51461727864833, 39.33612339969103], [30.51461727864833, 39.336662388861505], [30.51515626781881, 39.336662388861505], [30.51515626781881, 39.33720137803198], [30.51569525698929, 39.33720137803198], [30.51569525698929, 39.336662388861505], [30.51623424615977, 39.336662388861505], [30.51623424615977, 39.33774036720245], [30.51677323533022, 39.33774036720245], [30.51677323533022, 39.336662388861505], [30.5173122245007, 39.336662388861505], [30.5173122245007, 39.33450643217962], [30.521624137864478, 39.33450643217962], [30.521624137864478, 39.33396744300915]], [[30.521624137864478, 39.33558441052056], [30.521624137864478, 39.33612339969103], [30.520007170353068, 39.33612339969103], [30.520007170353068, 39.33558441052056], [30.521624137864478, 39.33558441052056]]]}, "id": "+390589+82869", "properties": {"area_ha": 18.058092912490405, "count": 65, "label": 1, "mean_dnbr": 0.30448197991606063}}, {"type": "Feature", "geometry": {"geodesic": false, "type": "Polygon", "coordinates": [[[30.52431908371682, 39.44715516880821], [30.527014029569187, 39.44715516880821], [30.527014029569187, 39.44769415797868], [30.526475040398708, 39.44769415797868], [30.526475040398708, 39.44823314714915], [30.525936051228257, 39.44823314714915], [30.525936051228257, 39.4493111254901], [30.525397062057777, 39.4493111254901], [30.525397062057777, 39.44985011466056], [30.525936051228257, 39.44985011466056], [30.525936051228257, 39.450389103831036], [30.52431908371682, 39.450389103831036], [30.52431908371682, 39.45092809300151], [30.523780094546368, 39.45092809300151], [30.523780094546368, 39.44985011466056], [30.52431908371682, 39.44985011466056], [30.52431908371682, 39.448772136319626], [30.52270211620541, 39.448772136319626], [30.52270211620541, 39.44769415797868], [30.522163127034958, 39.44769415797868], [30.522163127034958, 39.44715516880821], [30.523780094546368, 39.44715516880821], [30.523780094546368, 39.44769415797868], [30.52431908371682, 39.44769415797868], [30.52431908371682, 39.44715516880821]]]}, "id": "+390595+82659", "properties": {"area_ha": 8.598441067484726, "count": 31, "label": 1, "mean_dnbr": 0.3662113701764837}}, {"type": "Feature", "geometry": {"geodesic": false, "type": "Polygon", "coordinates": [[[30.532942910444376, 39.3215706920883], [30.534020888785335, 39.3215706920883], [30.534020888785335, 39.324265637940655], [30.532403921273897, 39.324265637940655], [30.532403921273897, 39.32372664877018], [30.532942910444376, 39.32372664877018], [30.532942910444376, 39.3215706920883]]]}, "id": "+390608+82892", "properties": {"area_ha": 3.0565563142603867, "count": 11, "label": 1, "mean_dnbr": 0.30132133085379015}}, {"type": "Feature", "geometry": {"geodesic": false, "type": "Polygon", "coordinates": [[[30.537254823808155, 38.86450787552829], [30.537793812978634, 38.86450787552829], [30.537793812978634, 38.865046864698755], [30.538332802149085, 38.865046864698755], [30.538332802149085, 38.86558585386923], [30.538871791319565, 38.86558585386923], [30.538871791319565, 38.8661248430397], [30.539410780490044, 38.8661248430397], [30.539410780490044, 38.86774181055112], [30.536715834637675, 38.86774181055112], [30.536715834637675, 38.867202821380644], [30.536176845467196, 38.867202821380644], [30.536176845467196, 38.8661248430397], [30.536715834637675, 38.8661248430397], [30.536715834637675, 38.865046864698755], [30.537254823808155, 38.865046864698755], [30.537254823808155, 38.86450787552829]]]}, "id": "+390615+83740", "properties": {"area_ha": 6.991850537107864, "count": 25, "label": 1, "mean_dnbr": 0.2867106485074066}}, {"type": "Feature", "geometry": {"geodesic": false, "type": "Polygon", "coordinates": [[[30.545339661365233, 38.85318910294838], [30.545878650535712, 38.85318910294838], [30.545878650535712, 38.85372809211885], [30.547495618047122, 38.85372809211885], [30.547495618047122, 38.85426708128932], [30.548034607217573, 38.85426708128932], [30.548034607217573, 38.85372809211885], [30.549112585558532, 38.85372809211885], [30.549112585558532, 38.85426708128932], [30.550729553069942, 38.85426708128932], [30.550729553069942, 38.854806070459794], [30.547495618047122, 38.854806070459794], [30.547495618047122, 38.85426708128932], [30.545339661365233, 38.85426708128932], [30.545339661365233, 38.85318910294838]]]}, "id": "+390630+83761", "properties": {"area_ha": 3.6364053418156885, "count": 13, "label": 1, "mean_dnbr": 0.2651745800740676}}, {"type": "Feature", "geometry": {"geodesic": false, "type": "Polygon", "coordinates": [[[30.55342449892231, 38.915172857552626], [30.553963488092762, 38.915172857552626], [30.553963488092762, 38.91625083589357], [30.55342449892231, 38.91625083589357], [30.55342449892231, 38.91786780340499], [30.553963488092762, 38.91786780340499], [30.553963488092762, 38.91894578174593], [30.55288550975183, 38.91894578174593], [30.55288550975183, 38.91786780340499], [30.552346520581352, 38.91786780340499], [30.552346520581352, 38.91678982506404], [30.5518075314109, 38.91678982506404], [30.5518075314109, 38.9157118467231], [30.55342449892231, 38.9157118467231], [30.55342449892231, 38.915172857552626]]]}, "id": "+390645+83646", "properties": {"area_ha": 4.4715917569218435, "count": 16, "label": 1, "mean_dnbr": 0.2440861112300738}}, {"type": "Feature", "geometry": {"geodesic": false, "type": "Polygon", "coordinates": [[[30.55342449892231, 38.86450787552829], [30.55450247726324, 38.86450787552829], [30.55450247726324, 38.86558585386923], [30.55504146643372, 38.86558585386923], [30.55504146643372, 38.86666383221017], [30.55450247726324, 38.86666383221017], [30.55450247726324, 38.867202821380644], [30.553963488092762, 38.867202821380644], [30.553963488092762, 38.86666383221017], [30.55288550975183, 38.86666383221017], [30.55288550975183, 38.8661248430397], [30.552346520581352, 38.8661248430397], [30.552346520581352, 38.86558585386923], [30.55288550975183, 38.86558585386923], [30.55288550975183, 38.8661248430397], [30.55450247726324, 38.8661248430397], [30.55450247726324, 38.86558585386923], [30.55342449892231, 38.86558585386923], [30.55342449892231, 38.86450787552829]]]}, "id": "+390646+83740", "properties": {"area_ha": 3.0764327581921314, "count": 11, "label": 1, "mean_dnbr": 0.2584716886736683}}, {"type": "Feature", "geometry": {"geodesic": false, "type": "Polygon", "coordinates": [[[30.55611944477465, 38.846721232902716], [30.55827540145654, 38.846721232902716], [30.55827540145654, 38.84779921124366], [30.5593533797975, 38.84779921124366], [30.5593533797975, 38.84833820041413], [30.55827540145654, 38.84833820041413], [30.55827540145654, 38.84779921124366], [30.55611944477465, 38.84779921124366], [30.55611944477465, 38.84833820041413], [30.55773641228609, 38.84833820041413], [30.55773641228609, 38.848877189584606], [30.55611944477465, 38.848877189584606], [30.55611944477465, 38.84995516792555], [30.55719742311561, 38.84995516792555], [30.55719742311561, 38.851033146266495], [30.55611944477465, 38.851033146266495], [30.55611944477465, 38.84995516792555], [30.5555804556042, 38.84995516792555], [30.5555804556042, 38.848877189584606], [30.55611944477465, 38.848877189584606], [30.55611944477465, 38.84833820041413], [30.55504146643372, 38.84833820041413], [30.55504146643372, 38.84779921124366], [30.55611944477465, 38.84779921124366], [30.55611944477465, 38.846721232902716]]]}, "id": "+390653+83773", "properties": {"area_ha": 5.874632949136612, "count": 21, "label": 1, "mean_dnbr": 0.24331028299893956}}, {"type": "Feature", "geometry": {"geodesic": false, "type": "Polygon", "coordinates": [[[30.55827540145654, 38.86073495133498], [30.55989236896795, 38.86073495133498], [30.55989236896795, 38.861273940505455], [30.5593533797975, 38.861273940505455], [30.5593533797975, 38.86181292967593], [30.55989236896795, 38.86181292967593], [30.55989236896795, 38.8623519188464], [30.56043135813843, 38.8623519188464], [30.56043135813843, 38.86181292967593], [30.56097034730891, 38.86181292967593], [30.56097034730891, 38.861273940505455], [30.56150933647939, 38.861273940505455], [30.56150933647939, 38.86181292967593], [30.56204832564984, 38.86181292967593], [30.56204832564984, 38.8623519188464], [30.56150933647939, 38.8623519188464], [30.56150933647939, 38.86181292967593], [30.56097034730891, 38.86181292967593], [30.56097034730891, 38.86289090801687], [30.5593533797975, 38.86289090801687], [30.5593533797975, 38.86181292967593], [30.55827540145654, 38.86181292967593], [30.55827540145654, 38.86073495133498]]]}, "id": "+390656+83747", "properties": {"area_ha": 3.3563020484012376, "count": 12, "label": 1, "mean_dnbr": 0.21407048070533458}}, {"type": "Feature", "geometry": {"geodesic": false, "type": "Polygon", "coordinates": [[[30.56474327150221, 39.42613459115981], [30.5668992281841, 39.42613459115981], [30.5668992281841, 39.42667358033028], [30.56636023901362, 39.42667358033028], [30.56636023901362, 39.4282905478417], [30.56582124984314, 39.4282905478417], [30.56582124984314, 39.42882953701217], [30.56528226067269, 39.42882953701217], [30.56528226067269, 39.42936852618264], [30.56420428233173, 39.42936852618264], [30.56420428233173, 39.42882953701217], [30.56366529316128, 39.42882953701217], [30.56366529316128, 39.42936852618264], [30.56258731482032, 39.42936852618264], [30.56258731482032, 39.429907515353115], [30.56150933647939, 39.429907515353115], [30.56150933647939, 39.42882953701217], [30.56258731482032, 39.42882953701217], [30.56258731482032, 39.4282905478417], [30.56366529316128, 39.4282905478417], [30.56366529316128, 39.42721256950075], [30.56420428233173, 39.42721256950075], [30.56420428233173, 39.42667358033028], [30.56474327150221, 39.42667358033028], [30.56474327150221, 39.42613459115981]]]}, "id": "+390669+82698", "properties": {"area_ha": 8.878427141693242, "count": 32, "label": 1, "mean_dnbr": 0.3726872582720367}}]}