{"type": "FeatureCollection", "columns": {"area_ha": "Number", "count": "Long<0, 4294967295>", "label": "Byte<0, 1>", "mean_dnbr": "Object", "system:index": "String"}, "features": [{"type": "Feature", "geometry": {"geodesic": false, "type": "Polygon", "coordinates": [[[28.094555903230344, 39.81744072892227], [28.095633881571302, 39.81744072892227], [28.095633881571302, 39.818518707263216], [28.096711859912233, 39.818518707263216], [28.096711859912233, 39.81905769643369], [28.096172870741754, 39.81905769643369], [28.096172870741754, 39.81959668560416], [28.095633881571302, 39.81959668560416], [28.095633881571302, 39.820674663945105], [28.095094892400823, 39.820674663945105], [28.095094892400823, 39.81959668560416], [28.094555903230344, 39.81959668560416], [28.094555903230344, 39.81744072892227]]]}, "id": "+386084+81972", "properties": {"area_ha": 3.586546808972633, "count": 13, "label": 1, "mean_dnbr": 0.22744368418074137}}, {"type": "Feature", "geometry": {"geodesic": false, "type": "Polygon", "coordinates": [[[28.099406805764602, 39.824447588138405], [28.100484784105532, 39.824447588138405], [28.100484784105532, 39.82552556647935], [28.099945794935053, 39.82552556647935], [28.099945794935053, 39.82606455564982], [28.099406805764602, 39.82606455564982], [28.099406805764602, 39.82714253399077], [28.097250849082712, 39.82714253399077], [28.097250849082712, 39.82606455564982], [28.096711859912233, 39.82606455564982], [28.096711859912233, 39.82552556647935], [28.097789838253192, 39.82552556647935], [28.097789838253192, 39.82498657730888], [28.098328827423643, 39.82498657730888], [28.098328827423643, 39.82606455564982], [28.098867816594122, 39.82606455564982], [28.098867816594122, 39.82498657730888], [28.099406805764602, 39.82498657730888], [28.099406805764602, 39.824447588138405]]]}, "id": "+386093+81959", "properties": {"area_ha": 5.241346251628098, "count": 19, "label": 1, "mean_dnbr": 0.2529801622306071}}, {"type": "Feature", "geometry": {"geodesic": false, "type": "Polygon", "coordinates": [[[28.099945794935053, 39.83468838237737], [28.10102377327601, 39.83468838237737], [28.10102377327601, 39.835227371547845], [28.10371871912838, 39.835227371547845], [28.10371871912838, 39.83630534988878], [28.10479669746931, 39.83630534988878], [28.10479669746931, 39.836844339059255], [28.10587467581024, 39.836844339059255], [28.10587467581024, 39.83738332822973], [28.1069526541512, 39.83738332822973], [28.1069526541512, 39.8379223174002], [28.10587467581024, 39.8379223174002], [28.10587467581024, 39.83846130657067], [28.10533568663979, 39.83846130657067], [28.10533568663979, 39.839000295741144], [28.10371871912838, 39.839000295741144], [28.10371871912838, 39.839539284911616], [28.1031797299579, 39.839539284911616], [28.1031797299579, 39.84007827408209], [28.10264074078742, 39.84007827408209], [28.10264074078742, 39.84061726325256], [28.10371871912838, 39.84061726325256], [28.10371871912838, 39.84115625242303], [28.10156276244649, 39.84115625242303], [28.10156276244649, 39.84061726325256], [28.10102377327601, 39.84061726325256], [28.10102377327601, 39.839539284911616], [28.10156276244649, 39.839539284911616], [28.10156276244649, 39.839000295741144], [28.100484784105532, 39.839000295741144], [28.100484784105532, 39.83846130657067], [28.10156276244649, 39.83846130657067], [28.10156276244649, 39.8379223174002], [28.10264074078742, 39.8379223174002], [28.10264074078742, 39.83738332822973], [28.10156276244649, 39.83738332822973], [28.10156276244649, 39.836844339059255], [28.10102377327601, 39.836844339059255], [28.10102377327601, 39.8379223174002], [28.100484784105532, 39.8379223174002], [28.100484784105532, 39.83576636071831], [28.099945794935053, 39.83576636071831], [28.099945794935053, 39.83468838237737]], [[28.10264074078742, 39.83846130657067], [28.10264074078742, 39.839000295741144], [28.102101751616942, 39.839000295741144], [28.102101751616942, 39.83846130657067], [28.10264074078742, 39.83846130657067]]]}, "id": "+386094+81940", "properties": {"area_ha": 19.85850075149791, "count": 72, "label": 1, "mean_dnbr": 0.20807878776585295}}, {"type": "Feature", "geometry": {"geodesic": false, "type": "Polygon", "coordinates": [[[28.10749164332168, 39.83846130657067], [28.10803063249213, 39.83846130657067], [28.10803063249213, 39.839000295741144], [28.10856962166261, 39.839000295741144], [28.10856962166261, 39.839539284911616], [28.10964760000357, 39.839539284911616], [28.10964760000357, 39.84007827408209], [28.10910861083309, 39.84007827408209], [28.10910861083309, 39.84061726325256], [28.1107255783445, 39.84061726325256], [28.1107255783445, 39.8416952415935], [28.11126456751498, 39.8416952415935], [28.11126456751498, 39.84223423076397], [28.1107255783445, 39.84223423076397], [28.1107255783445, 39.8416952415935], [28.11018658917402, 39.8416952415935], [28.11018658917402, 39.84277321993444], [28.1107255783445, 39.84277321993444], [28.1107255783445, 39.843312209104916], [28.11018658917402, 39.843312209104916], [28.11018658917402, 39.84385119827539], [28.10910861083309, 39.84385119827539], [28.10910861083309, 39.84439018744586], [28.10856962166261, 39.84439018744586], [28.10856962166261, 39.84492917661633], [28.10803063249213, 39.84492917661633], [28.10803063249213, 39.84385119827539], [28.10910861083309, 39.84385119827539], [28.10910861083309, 39.84277321993444], [28.10964760000357, 39.84277321993444], [28.10964760000357, 39.8416952415935], [28.10856962166261, 39.8416952415935], [28.10856962166261, 39.84115625242303], [28.10910861083309, 39.84115625242303], [28.10910861083309, 39.84061726325256], [28.1069526541512, 39.84061726325256], [28.1069526541512, 39.84007827408209], [28.10856962166261, 39.84007827408209], [28.10856962166261, 39.839539284911616], [28.10749164332168, 39.839539284911616], [28.10749164332168, 39.83846130657067]]]}, "id": "+386107+81933", "properties": {"area_ha": 7.446525920344974, "count": 27, "label": 1, "mean_dnbr": 0.15393566345923068}}, {"type": "Feature", "geometry": {"geodesic": false, "type": "Polygon", "coordinates": [[[28.117193448390168, 39.83253242569548], [28.11773243756062, 39.83253242569548], [28.11773243756062, 39.83361040403643], [28.1182714267311, 39.83361040403643], [28.1182714267311, 39.8341493932069], [28.11773243756062, 39.8341493932069], [28.11773243756062, 39.835227371547845], [28.117193448390168, 39.835227371547845], [28.117193448390168, 39.83468838237737], [28.11665445921969, 39.83468838237737], [28.11665445921969, 39.8341493932069], [28.11503749170828, 39.8341493932069], [28.11503749170828, 39.83361040403643], [28.115576480878758, 39.83361040403643], [28.115576480878758, 39.833071414865955], [28.11503749170828, 39.833071414865955], [28.11503749170828, 39.83253242569548], [28.11611547004921, 39.83253242569548], [28.11611547004921, 39.83361040403643], [28.11665445921969, 39.83361040403643], [28.11665445921969, 39.833071414865955], [28.117193448390168, 39.833071414865955], [28.117193448390168, 39.83253242569548]]]}, "id": "+386125+81944", "properties": {"area_ha": 4.137433511797991, "count": 15, "label": 1, "mean_dnbr": 0.19753808690507144}}, {"type": "Feature", "geometry": {"geodesic": false, "type": "Polygon", "coordinates": [[[28.124200307606287, 39.830915458184066], [28.125817275117697, 39.830915458184066], [28.125817275117697, 39.83145444735454], [28.126356264288177, 39.83145444735454], [28.126356264288177, 39.83253242569548], [28.124200307606287, 39.83253242569548], [28.124200307606287, 39.833071414865955], [28.123122329265357, 39.833071414865955], [28.123122329265357, 39.83361040403643], [28.122583340094877, 39.83361040403643], [28.122583340094877, 39.83468838237737], [28.122044350924398, 39.83468838237737], [28.122044350924398, 39.83361040403643], [28.122583340094877, 39.83361040403643], [28.122583340094877, 39.833071414865955], [28.122044350924398, 39.833071414865955], [28.122044350924398, 39.83253242569548], [28.122583340094877, 39.83253242569548], [28.122583340094877, 39.833071414865955], [28.123122329265357, 39.833071414865955], [28.123122329265357, 39.83199343652501], [28.124200307606287, 39.83199343652501], [28.124200307606287, 39.830915458184066]]]}, "id": "+386140+81947", "properties": {"area_ha": 5.240855854211616, "count": 19, "label": 1, "mean_dnbr": 0.1847794480573262}}, {"type": "Feature", "geometry": {"geodesic": false, "type": "Polygon", "coordinates": [[[28.126895253458656, 39.83253242569548], [28.127973231799587, 39.83253242569548], [28.127973231799587, 39.83361040403643], [28.128512220970066, 39.83361040403643], [28.128512220970066, 39.83468838237737], [28.127434242629135, 39.83468838237737], [28.127434242629135, 39.835227371547845], [28.127973231799587, 39.835227371547845], [28.127973231799587, 39.83630534988878], [28.127434242629135, 39.83630534988878], [28.127434242629135, 39.83738332822973], [28.127973231799587, 39.83738332822973], [28.127973231799587, 39.8379223174002], [28.128512220970066, 39.8379223174002], [28.128512220970066, 39.83846130657067], [28.127973231799587, 39.83846130657067], [28.127973231799587, 39.8379223174002], [28.126895253458656, 39.8379223174002], [28.126895253458656, 39.83738332822973], [28.126356264288177, 39.83738332822973], [28.126356264288177, 39.836844339059255], [28.125278285947246, 39.836844339059255], [28.125278285947246, 39.83630534988878], [28.124739296776767, 39.83630534988878], [28.124739296776767, 39.836844339059255], [28.124200307606287, 39.836844339059255], [28.124200307606287, 39.8379223174002], [28.122044350924398, 39.8379223174002], [28.122044350924398, 39.836844339059255], [28.122583340094877, 39.836844339059255], [28.122583340094877, 39.83630534988878], [28.123122329265357, 39.83630534988878], [28.123122329265357, 39.836844339059255], [28.123661318435808, 39.836844339059255], [28.123661318435808, 39.83576636071831], [28.125278285947246, 39.83576636071831], [28.125278285947246, 39.83630534988878], [28.125817275117697, 39.83630534988878], [28.125817275117697, 39.83576636071831], [28.126356264288177, 39.83576636071831], [28.126356264288177, 39.83468838237737], [28.127434242629135, 39.83468838237737], [28.127434242629135, 39.8341493932069], [28.127973231799587, 39.8341493932069], [28.127973231799587, 39.83361040403643], [28.127434242629135, 39.83361040403643], [28.127434242629135, 39.833071414865955], [28.126895253458656, 39.833071414865955], [28.126895253458656, 39.83253242569548]]]}, "id": "+386144+81944", "properties": {"area_ha": 10.481126269832084, "count": 38, "label": 1, "mean_dnbr": 0.19927280364587904}}, {"type": "Feature", "geometry": {"geodesic": false, "type": "Polygon", "coordinates": [[[28.127973231799587, 39.830915458184066], [28.128512220970066, 39.830915458184066], [28.128512220970066, 39.83145444735454], [28.130129188481476, 39.83145444735454], [28.130129188481476, 39.83199343652501], [28.129590199310996, 39.83199343652501], [28.129590199310996, 39.83253242569548], [28.130129188481476, 39.83253242569548], [28.130129188481476, 39.833071414865955], [28.131746155992886, 39.833071414865955], [28.131746155992886, 39.83253242569548], [28.132824134333845, 39.83253242569548], [28.132824134333845, 39.833071414865955], [28.134441101845255, 39.833071414865955], [28.134441101845255, 39.83361040403643], [28.134980091015734, 39.83361040403643], [28.134980091015734, 39.8341493932069], [28.135519080186185, 39.8341493932069], [28.135519080186185, 39.83468838237737], [28.133902112674775, 39.83468838237737], [28.133902112674775, 39.83361040403643], [28.131207166822435, 39.83361040403643], [28.131207166822435, 39.83468838237737], [28.131746155992886, 39.83468838237737], [28.131746155992886, 39.83630534988878], [28.132285145163365, 39.83630534988878], [28.132285145163365, 39.83576636071831], [28.132824134333845, 39.83576636071831], [28.132824134333845, 39.835227371547845], [28.133363123504324, 39.835227371547845], [28.133363123504324, 39.83576636071831], [28.132824134333845, 39.83576636071831], [28.132824134333845, 39.83630534988878], [28.132285145163365, 39.83630534988878], [28.132285145163365, 39.8379223174002], [28.130668177651955, 39.8379223174002], [28.130668177651955, 39.83738332822973], [28.130129188481476, 39.83738332822973], [28.130129188481476, 39.83630534988878], [28.129590199310996, 39.83630534988878], [28.129590199310996, 39.83576636071831], [28.129051210140545, 39.83576636071831], [28.129051210140545, 39.836844339059255], [28.128512220970066, 39.836844339059255], [28.128512220970066, 39.83576636071831], [28.129051210140545, 39.83576636071831], [28.129051210140545, 39.835227371547845], [28.129590199310996, 39.835227371547845], [28.129590199310996, 39.8341493932069], [28.130129188481476, 39.8341493932069], [28.130129188481476, 39.833071414865955], [28.129590199310996, 39.833071414865955], [28.129590199310996, 39.83361040403643], [28.129051210140545, 39.83361040403643], [28.129051210140545, 39.833071414865955], [28.128512220970066, 39.833071414865955], [28.128512220970066, 39.83199343652501], [28.126895253458656, 39.83199343652501], [28.126895253458656, 39.83145444735454], [28.127973231799587, 39.83145444735454], [28.127973231799587, 39.830915458184066]], [[28.130668177651955, 39.8341493932069], [28.130668177651955, 39.83468838237737], [28.130129188481476, 39.83468838237737], [28.130129188481476, 39.8341493932069], [28.130668177651955, 39.8341493932069]]]}, "id": "+386145+81947", "properties": {"area_ha": 16.549540901800658, "count": 60, "label": 1, "mean_dnbr": 0.21846701008736844}}, {"type": "Feature", "geometry": {"geodesic": false, "type": "Polygon", "coordinates": [[[28.129590199310996, 39.88535336440171], [28.130129188481476, 39.88535336440171], [28.130129188481476, 39.88589235357218], [28.131207166822435, 39.88589235357218], [28.131207166822435, 39.886970331913126], [28.130668177651955, 39.886970331913126], [28.130668177651955, 39.88858729942454], [28.130129188481476, 39.88858729942454], [28.130129188481476, 39.889126288595016], [28.129590199310996, 39.889126288595016], [28.129590199310996, 39.886431342742654], [28.129051210140545, 39.886431342742654], [28.129051210140545, 39.88589235357218], [28.129590199310996, 39.88589235357218], [28.129590199310996, 39.88535336440171]]]}, "id": "+386148+81846", "properties": {"area_ha": 4.134214830765814, "count": 15, "label": 1, "mean_dnbr": 0.28948652226847854}}, {"type": "Feature", "geometry": {"geodesic": false, "type": "Polygon", "coordinates": [[[28.127434242629135, 39.87080065679898], [28.130129188481476, 39.87080065679898], [28.130129188481476, 39.871878635139915], [28.129590199310996, 39.871878635139915], [28.129590199310996, 39.874034591821804], [28.130668177651955, 39.874034591821804], [28.130668177651955, 39.87349560265133], [28.131207166822435, 39.87349560265133], [28.131207166822435, 39.874034591821804], [28.130668177651955, 39.874034591821804], [28.130668177651955, 39.874573580992276], [28.131746155992886, 39.874573580992276], [28.131746155992886, 39.874034591821804], [28.132285145163365, 39.874034591821804], [28.132285145163365, 39.87349560265133], [28.132824134333845, 39.87349560265133], [28.132824134333845, 39.87241762431039], [28.134980091015734, 39.87241762431039], [28.134980091015734, 39.87295661348086], [28.135519080186185, 39.87295661348086], [28.135519080186185, 39.87349560265133], [28.134980091015734, 39.87349560265133], [28.134980091015734, 39.874034591821804], [28.134441101845255, 39.874034591821804], [28.134441101845255, 39.87349560265133], [28.133363123504324, 39.87349560265133], [28.133363123504324, 39.874034591821804], [28.133902112674775, 39.874034591821804], [28.133902112674775, 39.87565155933322], [28.134441101845255, 39.87565155933322], [28.134441101845255, 39.87511257016275], [28.135519080186185, 39.87511257016275], [28.135519080186185, 39.874573580992276], [28.136597058527144, 39.874573580992276], [28.136597058527144, 39.87511257016275], [28.137136047697624, 39.87511257016275], [28.137136047697624, 39.87565155933322], [28.137675036868075, 39.87565155933322], [28.137675036868075, 39.876729537674166], [28.134980091015734, 39.876729537674166], [28.134980091015734, 39.87619054850369], [28.133902112674775, 39.87619054850369], [28.133902112674775, 39.87565155933322], [28.132824134333845, 39.87565155933322], [28.132824134333845, 39.87511257016275], [28.131746155992886, 39.87511257016275], [28.131746155992886, 39.87565155933322], [28.132285145163365, 39.87565155933322], [28.132285145163365, 39.87619054850369], [28.132824134333845, 39.87619054850369], [28.132824134333845, 39.876729537674166], [28.131207166822435, 39.876729537674166], [28.131207166822435, 39.87726852684464], [28.132285145163365, 39.87726852684464], [28.132285145163365, 39.8778075160151], [28.132824134333845, 39.8778075160151], [28.132824134333845, 39.878346505185576], [28.132285145163365, 39.878346505185576], [28.132285145163365, 39.87888549435605], [28.130129188481476, 39.87888549435605], [28.130129188481476, 39.8778075160151], [28.130668177651955, 39.8778075160151], [28.130668177651955, 39.87726852684464], [28.128512220970066, 39.87726852684464], [28.128512220970066, 39.876729537674166], [28.129051210140545, 39.876729537674166], [28.129051210140545, 39.87619054850369], [28.128512220970066, 39.87619054850369], [28.128512220970066, 39.87565155933322], [28.129590199310996, 39.87565155933322], [28.129590199310996, 39.87511257016275], [28.129051210140545, 39.87511257016275], [28.129051210140545, 39.874573580992276], [28.127434242629135, 39.874573580992276], [28.127434242629135, 39.874034591821804], [28.126356264288177, 39.874034591821804], [28.126356264288177, 39.87349560265133], [28.127434242629135, 39.87349560265133], [28.127434242629135, 39.87241762431039], [28.126895253458656, 39.87241762431039], [28.126895253458656, 39.871878635139915], [28.129051210140545, 39.871878635139915], [28.129051210140545, 39.87133964596945], [28.127434242629135, 39.87133964596945], [28.127434242629135, 39.87080065679898]], [[28.133363123504324, 39.874573580992276], [28.133363123504324, 39.87511257016275], [28.132824134333845, 39.87511257016275], [28.132824134333845, 39.874573580992276], [28.133363123504324, 39.874573580992276]], [[28.134980091015734, 39.87295661348086], [28.134980091015734, 39.87349560265133], [28.134441101845255, 39.87349560265133], [28.134441101845255, 39.87295661348086], [28.134980091015734, 39.87295661348086]]]}, "id": "+386148+81873", "properties": {"area_ha": 30.874294654818147, "count": 112, "label": 1, "mean_dnbr": 0.22374318433249446}}, {"type": "Feature", "geometry": {"geodesic": false, "type": "Polygon", "coordinates": [[[28.132285145163365, 39.67892051211104], [28.133902112674775, 39.67892051211104], [28.133902112674775, 39.68053747962246], [28.132285145163365, 39.68053747962246], [28.132285145163365, 39.68107646879293], [28.131746155992886, 39.68107646879293], [28.131746155992886, 39.68053747962246], [28.131207166822435, 39.68053747962246], [28.131207166822435, 39.67892051211104], [28.131746155992886, 39.67892051211104], [28.131746155992886, 39.679459501281514], [28.132285145163365, 39.679459501281514], [28.132285145163365, 39.67892051211104]]]}, "id": "+386155+82229", "properties": {"area_ha": 4.146684878264908, "count": 15, "label": 1, "mean_dnbr": 0.17571834782257187}}, {"type": "Feature", "geometry": {"geodesic": false, "type": "Polygon", "coordinates": [[[28.137136047697624, 39.849241089980104], [28.138753015209033, 39.849241089980104], [28.138753015209033, 39.84978007915058], [28.139292004379513, 39.84978007915058], [28.139292004379513, 39.85031906832105], [28.139830993549964, 39.85031906832105], [28.139830993549964, 39.85085805749152], [28.140369982720443, 39.85085805749152], [28.140369982720443, 39.85247502500294], [28.139292004379513, 39.85247502500294], [28.139292004379513, 39.851936035832466], [28.138753015209033, 39.851936035832466], [28.138753015209033, 39.851397046661994], [28.138214026038554, 39.851397046661994], [28.138214026038554, 39.85031906832105], [28.137675036868075, 39.85031906832105], [28.137675036868075, 39.84978007915058], [28.137136047697624, 39.84978007915058], [28.137136047697624, 39.849241089980104]]]}, "id": "+386164+81913", "properties": {"area_ha": 4.963679875558442, "count": 18, "label": 1, "mean_dnbr": 0.25736633940976666}}, {"type": "Feature", "geometry": {"geodesic": false, "type": "Polygon", "coordinates": [[[28.138753015209033, 39.87996347269699], [28.140369982720443, 39.87996347269699], [28.140369982720443, 39.880502461867465], [28.140908971890923, 39.880502461867465], [28.140908971890923, 39.88104145103794], [28.141986950231853, 39.88104145103794], [28.141986950231853, 39.88158044020841], [28.143064928572812, 39.88158044020841], [28.143064928572812, 39.88211942937888], [28.142525939402333, 39.88211942937888], [28.142525939402333, 39.882658418549354], [28.141447961061374, 39.882658418549354], [28.141447961061374, 39.88319740771983], [28.140908971890923, 39.88319740771983], [28.140908971890923, 39.88211942937888], [28.139830993549964, 39.88211942937888], [28.139830993549964, 39.88319740771983], [28.139292004379513, 39.88319740771983], [28.139292004379513, 39.88211942937888], [28.137675036868075, 39.88211942937888], [28.137675036868075, 39.88158044020841], [28.138214026038554, 39.88158044020841], [28.138214026038554, 39.88104145103794], [28.138753015209033, 39.88104145103794], [28.138753015209033, 39.87996347269699]], [[28.140369982720443, 39.880502461867465], [28.140369982720443, 39.88104145103794], [28.139830993549964, 39.88104145103794], [28.139830993549964, 39.880502461867465], [28.140369982720443, 39.880502461867465]]]}, "id": "+386167+81856", "properties": {"area_ha": 7.993454540318065, "count": 29, "label": 1, "mean_dnbr": 0.17597719391996894}}, {"type": "Feature", "geometry": {"geodesic": false, "type": "Polygon", "coordinates": [[[28.141447961061374, 39.817979718092744], [28.142525939402333, 39.817979718092744], [28.142525939402333, 39.81905769643369], [28.144142906913743, 39.81905769643369], [28.144142906913743, 39.820674663945105], [28.143603917743263, 39.820674663945105], [28.143603917743263, 39.82121365311558], [28.142525939402333, 39.82121365311558], [28.142525939402333, 39.82013567477463], [28.141447961061374, 39.82013567477463], [28.141447961061374, 39.820674663945105], [28.141986950231853, 39.820674663945105], [28.141986950231853, 39.82121365311558], [28.140369982720443, 39.82121365311558], [28.140369982720443, 39.820674663945105], [28.139830993549964, 39.820674663945105], [28.139830993549964, 39.81959668560416], [28.139292004379513, 39.81959668560416], [28.139292004379513, 39.81905769643369], [28.139830993549964, 39.81905769643369], [28.139830993549964, 39.818518707263216], [28.140369982720443, 39.818518707263216], [28.140369982720443, 39.81959668560416], [28.140908971890923, 39.81959668560416], [28.140908971890923, 39.81905769643369], [28.141447961061374, 39.81905769643369], [28.141447961061374, 39.817979718092744]], [[28.141447961061374, 39.81959668560416], [28.141447961061374, 39.82013567477463], [28.140908971890923, 39.82013567477463], [28.140908971890923, 39.81959668560416], [28.141447961061374, 39.81959668560416]]]}, "id": "+386171+81971", "properties": {"area_ha": 8.55242319924466, "count": 31, "label": 1, "mean_dnbr": 0.2104917667602883}}, {"type": "Feature", "geometry": {"geodesic": false, "type": "Polygon", "coordinates": [[[28.141986950231853, 39.8131288155585], [28.142525939402333, 39.8131288155585], [28.142525939402333, 39.81366780472897], [28.143064928572812, 39.81366780472897], [28.143064928572812, 39.814206793899444], [28.142525939402333, 39.814206793899444], [28.142525939402333, 39.81474578306992], [28.143064928572812, 39.81474578306992], [28.143064928572812, 39.81528477224039], [28.142525939402333, 39.81528477224039], [28.142525939402333, 39.816362750581334], [28.140908971890923, 39.816362750581334], [28.140908971890923, 39.81582376141086], [28.141986950231853, 39.81582376141086], [28.141986950231853, 39.81474578306992], [28.141447961061374, 39.81474578306992], [28.141447961061374, 39.814206793899444], [28.140908971890923, 39.814206793899444], [28.140908971890923, 39.81366780472897], [28.141447961061374, 39.81366780472897], [28.141447961061374, 39.814206793899444], [28.141986950231853, 39.814206793899444], [28.141986950231853, 39.8131288155585]]]}, "id": "+386171+81980", "properties": {"area_ha": 3.31085608555096, "count": 12, "label": 1, "mean_dnbr": 0.17394917550003186}}, {"type": "Feature", "geometry": {"geodesic": false, "type": "Polygon", "coordinates": [[[28.143064928572812, 39.787257335375855], [28.143603917743263, 39.787257335375855], [28.143603917743263, 39.789413292057745], [28.144142906913743, 39.789413292057745], [28.144142906913743, 39.79049127039869], [28.143603917743263, 39.79049127039869], [28.143603917743263, 39.78995228122822], [28.143064928572812, 39.78995228122822], [28.143064928572812, 39.7883353137168], [28.142525939402333, 39.7883353137168], [28.142525939402333, 39.78779632454633], [28.140369982720443, 39.78779632454633], [28.140369982720443, 39.787257335375855], [28.142525939402333, 39.787257335375855], [28.142525939402333, 39.78779632454633], [28.143064928572812, 39.78779632454633], [28.143064928572812, 39.787257335375855]]]}, "id": "+386173+82028", "properties": {"area_ha": 3.3121260179371, "count": 12, "label": 1, "mean_dnbr": 0.1795706567227584}}, {"type": "Feature", "geometry": {"geodesic": false, "type": "Polygon", "coordinates": [[[28.143603917743263, 39.79103025956916], [28.144142906913743, 39.79103025956916], [28.144142906913743, 39.791569248739634], [28.1452208852547, 39.791569248739634], [28.1452208852547, 39.79264722708058], [28.144681896084222, 39.79264722708058], [28.144681896084222, 39.79210823791011], [28.144142906913743, 39.79210823791011], [28.144142906913743, 39.79318621625105], [28.144681896084222, 39.79318621625105], [28.144681896084222, 39.79372520542152], [28.144142906913743, 39.79372520542152], [28.144142906913743, 39.79318621625105], [28.142525939402333, 39.79318621625105], [28.142525939402333, 39.79264722708058], [28.143064928572812, 39.79264722708058], [28.143064928572812, 39.791569248739634], [28.143603917743263, 39.791569248739634], [28.143603917743263, 39.79103025956916]]]}, "id": "+386174+82021", "properties": {"area_ha": 3.3119397962873207, "count": 12, "label": 1, "mean_dnbr": 0.17167007256875755}}, {"type": "Feature", "geometry": {"geodesic": false, "type": "Polygon", "coordinates": [[[28.1452208852547, 39.706947948975575], [28.145759874425153, 39.706947948975575], [28.145759874425153, 39.70748693814605], [28.147376841936563, 39.70748693814605], [28.147376841936563, 39.70802592731652], [28.147915831107042, 39.70802592731652], [28.147915831107042, 39.70910390565746], [28.1452208852547, 39.70910390565746], [28.1452208852547, 39.70802592731652], [28.145759874425153, 39.70802592731652], [28.145759874425153, 39.70748693814605], [28.1452208852547, 39.70748693814605], [28.1452208852547, 39.706947948975575]]]}, "id": "+386177+82177", "properties": {"area_ha": 3.8686541522891225, "count": 14, "label": 1, "mean_dnbr": 0.2057424969286759}}, {"type": "Feature", "geometry": {"geodesic": false, "type": "Polygon", "coordinates": [[[28.145759874425153, 39.85948188421907], [28.14683785276611, 39.85948188421907], [28.14683785276611, 39.86002087338954], [28.147915831107042, 39.86002087338954], [28.147915831107042, 39.86109885173048], [28.147376841936563, 39.86109885173048], [28.147376841936563, 39.861637840900954], [28.14683785276611, 39.861637840900954], [28.14683785276611, 39.86217683007143], [28.145759874425153, 39.86217683007143], [28.145759874425153, 39.86055986256001], [28.146298863595632, 39.86055986256001], [28.146298863595632, 39.86002087338954], [28.145759874425153, 39.86002087338954], [28.145759874425153, 39.85948188421907]]]}, "id": "+386179+81894", "properties": {"area_ha": 3.8600765316981653, "count": 14, "label": 1, "mean_dnbr": 0.24401189276874677}}, {"type": "Feature", "geometry": {"geodesic": false, "type": "Polygon", "coordinates": [[[28.14683785276611, 39.85247502500294], [28.147376841936563, 39.85247502500294], [28.147376841936563, 39.85301401417341], [28.14845482027752, 39.85301401417341], [28.14845482027752, 39.85463098168482], [28.147376841936563, 39.85463098168482], [28.147376841936563, 39.85409199251435], [28.14683785276611, 39.85409199251435], [28.14683785276611, 39.85463098168482], [28.146298863595632, 39.85463098168482], [28.146298863595632, 39.85409199251435], [28.145759874425153, 39.85409199251435], [28.145759874425153, 39.853553003343876], [28.144142906913743, 39.853553003343876], [28.144142906913743, 39.85409199251435], [28.143064928572812, 39.85409199251435], [28.143064928572812, 39.85301401417341], [28.143603917743263, 39.85301401417341], [28.143603917743263, 39.85247502500294], [28.145759874425153, 39.85247502500294], [28.145759874425153, 39.853553003343876], [28.146298863595632, 39.853553003343876], [28.146298863595632, 39.85301401417341], [28.14683785276611, 39.85301401417341], [28.14683785276611, 39.85247502500294]], [[28.14683785276611, 39.853553003343876], [28.14683785276611, 39.85409199251435], [28.146298863595632, 39.85409199251435], [28.146298863595632, 39.853553003343876], [28.14683785276611, 39.853553003343876]]]}, "id": "+386180+81907", "properties": {"area_ha": 6.342234298693617, "count": 23, "label": 1, "mean_dnbr": 0.18735756007213591}}, {"type": "Feature", "geometry": {"geodesic": false, "type": "Polygon", "coordinates": [[[28.15168875530034, 40.00500896024643], [28.15222774447082, 40.00500896024643], [28.15222774447082, 40.00608693858737], [28.15330572281175, 40.00608693858737], [28.15330572281175, 40.0055479494169], [28.15384471198223, 40.0055479494169], [28.15384471198223, 40.00770390609879], [28.15330572281175, 40.00770390609879], [28.15330572281175, 40.006625927757845], [28.1527667336413, 40.006625927757845], [28.1527667336413, 40.00824289526926], [28.15168875530034, 40.00824289526926], [28.15168875530034, 40.00716491692832], [28.15222774447082, 40.00716491692832], [28.15222774447082, 40.00608693858737], [28.15168875530034, 40.00608693858737], [28.15168875530034, 40.00500896024643]]]}, "id": "+386189+81624", "properties": {"area_ha": 3.576722535225053, "count": 13, "label": 1, "mean_dnbr": 0.17043659557104984}}, {"type": "Feature", "geometry": {"geodesic": false, "type": "Polygon", "coordinates": [[[28.15492269032319, 39.835227371547845], [28.1565396578346, 39.835227371547845], [28.1565396578346, 39.83576636071831], [28.15600066866412, 39.83576636071831], [28.15600066866412, 39.836844339059255], [28.15492269032319, 39.836844339059255], [28.15492269032319, 39.83846130657067], [28.15384471198223, 39.83846130657067], [28.15384471198223, 39.8379223174002], [28.15330572281175, 39.8379223174002], [28.15330572281175, 39.83846130657067], [28.149532798618452, 39.83846130657067], [28.149532798618452, 39.8379223174002], [28.148993809448, 39.8379223174002], [28.148993809448, 39.83846130657067], [28.14845482027752, 39.83846130657067], [28.14845482027752, 39.839000295741144], [28.147915831107042, 39.839000295741144], [28.147915831107042, 39.839539284911616], [28.147376841936563, 39.839539284911616], [28.147376841936563, 39.839000295741144], [28.147915831107042, 39.839000295741144], [28.147915831107042, 39.83846130657067], [28.14845482027752, 39.83846130657067], [28.14845482027752, 39.83738332822973], [28.148993809448, 39.83738332822973], [28.148993809448, 39.83630534988878], [28.149532798618452, 39.83630534988878], [28.149532798618452, 39.83738332822973], [28.15168875530034, 39.83738332822973], [28.15168875530034, 39.836844339059255], [28.15222774447082, 39.836844339059255], [28.15222774447082, 39.83630534988878], [28.15492269032319, 39.83630534988878], [28.15492269032319, 39.835227371547845]]]}, "id": "+386197+81939", "properties": {"area_ha": 12.135839186415664, "count": 44, "label": 1, "mean_dnbr": 0.1794242511017786}}, {"type": "Feature", "geometry": {"geodesic": false, "type": "Polygon", "coordinates": [[[28.1565396578346, 39.78995228122822], [28.15707864700508, 39.78995228122822], [28.15707864700508, 39.79049127039869], [28.15815662534601, 39.79049127039869], [28.15815662534601, 39.79103025956916], [28.15869561451649, 39.79103025956916], [28.15869561451649, 39.791569248739634], [28.15977359285742, 39.791569248739634], [28.15977359285742, 39.79210823791011], [28.15815662534601, 39.79210823791011], [28.15815662534601, 39.79103025956916], [28.15492269032319, 39.79103025956916], [28.15492269032319, 39.79210823791011], [28.15384471198223, 39.79210823791011], [28.15384471198223, 39.791569248739634], [28.1527667336413, 39.791569248739634], [28.1527667336413, 39.79103025956916], [28.15438370115271, 39.79103025956916], [28.15438370115271, 39.79049127039869], [28.1565396578346, 39.79049127039869], [28.1565396578346, 39.78995228122822]]]}, "id": "+386198+82023", "properties": {"area_ha": 4.968006040072771, "count": 18, "label": 1, "mean_dnbr": 0.2290381485991586}}, {"type": "Feature", "geometry": {"geodesic": false, "type": "Polygon", "coordinates": [[[28.15600066866412, 39.79911509712624], [28.15815662534601, 39.79911509712624], [28.15815662534601, 39.799654086296705], [28.15761763617553, 39.799654086296705], [28.15761763617553, 39.80127105380812], [28.15707864700508, 39.80127105380812], [28.15707864700508, 39.799654086296705], [28.15600066866412, 39.799654086296705], [28.15600066866412, 39.80019307546718], [28.15546167949364, 39.80019307546718], [28.15546167949364, 39.80073206463765], [28.15492269032319, 39.80073206463765], [28.15492269032319, 39.801810042978595], [28.15384471198223, 39.801810042978595], [28.15384471198223, 39.80127105380812], [28.15438370115271, 39.80127105380812], [28.15438370115271, 39.80019307546718], [28.15492269032319, 39.80019307546718], [28.15492269032319, 39.799654086296705], [28.15600066866412, 39.799654086296705], [28.15600066866412, 39.79911509712624]]]}, "id": "+386200+82006", "properties": {"area_ha": 3.8634758928124233, "count": 14, "label": 1, "mean_dnbr": 0.17183710287113654}}, {"type": "Feature", "geometry": {"geodesic": false, "type": "Polygon", "coordinates": [[[28.15815662534601, 39.94572015149454], [28.15869561451649, 39.94572015149454], [28.15869561451649, 39.946798129835486], [28.15977359285742, 39.946798129835486], [28.15977359285742, 39.94733711900596], [28.1603125820279, 39.94733711900596], [28.1603125820279, 39.9484150973469], [28.15923460368694, 39.9484150973469], [28.15923460368694, 39.94787610817643], [28.15869561451649, 39.94787610817643], [28.15869561451649, 39.94733711900596], [28.15707864700508, 39.94733711900596], [28.15707864700508, 39.946798129835486], [28.15815662534601, 39.946798129835486], [28.15815662534601, 39.94572015149454]]]}, "id": "+386201+81734", "properties": {"area_ha": 3.304468943804635, "count": 12, "label": 1, "mean_dnbr": 0.17914225875814824}}, {"type": "Feature", "geometry": {"geodesic": false, "type": "Polygon", "coordinates": [[[28.15869561451649, 39.98668332845039], [28.15923460368694, 39.98668332845039], [28.15923460368694, 39.98722231762086], [28.16139056036883, 39.98722231762086], [28.16139056036883, 39.987761306791334], [28.16192954953931, 39.987761306791334], [28.16192954953931, 39.98830029596181], [28.16085157119838, 39.98830029596181], [28.16085157119838, 39.987761306791334], [28.1603125820279, 39.987761306791334], [28.1603125820279, 39.98830029596181], [28.15869561451649, 39.98830029596181], [28.15869561451649, 39.98668332845039]]]}, "id": "+386202+81658", "properties": {"area_ha": 3.0273001972964586, "count": 11, "label": 1, "mean_dnbr": 0.18105435341515094}}, {"type": "Feature", "geometry": {"geodesic": false, "type": "Polygon", "coordinates": [[[28.16085157119838, 39.969435674995296], [28.16192954953931, 39.969435674995296], [28.16192954953931, 39.97051365333624], [28.16139056036883, 39.97051365333624], [28.16139056036883, 39.97213062084766], [28.15977359285742, 39.97213062084766], [28.15977359285742, 39.97051365333624], [28.1603125820279, 39.97051365333624], [28.1603125820279, 39.96997466416577], [28.16085157119838, 39.96997466416577], [28.16085157119838, 39.969435674995296]]]}, "id": "+386207+81690", "properties": {"area_ha": 3.8538824353910814, "count": 14, "label": 1, "mean_dnbr": 0.2255147591079301}}, {"type": "Feature", "geometry": {"geodesic": false, "type": "Polygon", "coordinates": [[[28.166241462903088, 40.01201581946256], [28.166780452073567, 40.01201581946256], [28.166780452073567, 40.012554808633034], [28.167319441244018, 40.012554808633034], [28.167319441244018, 40.01471076531492], [28.166780452073567, 40.01471076531492], [28.166780452073567, 40.015249754485396], [28.16570247373261, 40.015249754485396], [28.16570247373261, 40.01417177614445], [28.16516348456213, 40.01417177614445], [28.16516348456213, 40.013093797803506], [28.16570247373261, 40.013093797803506], [28.16570247373261, 40.012554808633034], [28.166241462903088, 40.012554808633034], [28.166241462903088, 40.01201581946256]]]}, "id": "+386216+81611", "properties": {"area_ha": 4.676777585390999, "count": 17, "label": 1, "mean_dnbr": 0.49208343974357865}}, {"type": "Feature", "geometry": {"geodesic": false, "type": "Polygon", "coordinates": [[[28.175943267971576, 39.9408692489603], [28.176482257142055, 39.9408692489603], [28.176482257142055, 39.94140823813077], [28.177021246312535, 39.94140823813077], [28.177021246312535, 39.94194722730124], [28.177560235482986, 39.94194722730124], [28.177560235482986, 39.943025205642186], [28.179177202994396, 39.943025205642186], [28.179177202994396, 39.944103183983124], [28.178638213823945, 39.944103183983124], [28.178638213823945, 39.94625914066501], [28.178099224653465, 39.94625914066501], [28.178099224653465, 39.946798129835486], [28.176482257142055, 39.946798129835486], [28.176482257142055, 39.94625914066501], [28.177021246312535, 39.94625914066501], [28.177021246312535, 39.94518116232407], [28.177560235482986, 39.94518116232407], [28.177560235482986, 39.94356419481266], [28.177021246312535, 39.94356419481266], [28.177021246312535, 39.942486216471714], [28.176482257142055, 39.942486216471714], [28.176482257142055, 39.94194722730124], [28.175943267971576, 39.94194722730124], [28.175943267971576, 39.9408692489603]]]}, "id": "+386234+81743", "properties": {"area_ha": 7.159998931687998, "count": 26, "label": 1, "mean_dnbr": 0.23784065355043746}}, {"type": "Feature", "geometry": {"geodesic": false, "type": "Polygon", "coordinates": [[[28.175404278801096, 39.971591631677185], [28.177560235482986, 39.971591631677185], [28.177560235482986, 39.97266961001813], [28.177021246312535, 39.97266961001813], [28.177021246312535, 39.9732085991886], [28.175404278801096, 39.9732085991886], [28.175404278801096, 39.971591631677185]]]}, "id": "+386236+81686", "properties": {"area_ha": 3.027979106735362, "count": 11, "label": 1, "mean_dnbr": 0.22246904927922187}}, {"type": "Feature", "geometry": {"geodesic": false, "type": "Polygon", "coordinates": [[[28.180255181335355, 40.05082303973653], [28.180794170505834, 40.05082303973653], [28.180794170505834, 40.05190101807747], [28.181333159676285, 40.05190101807747], [28.181333159676285, 40.052440007247945], [28.182950127187723, 40.052440007247945], [28.182950127187723, 40.05297899641841], [28.181333159676285, 40.05297899641841], [28.181333159676285, 40.05351798558888], [28.180794170505834, 40.05351798558888], [28.180794170505834, 40.05297899641841], [28.179177202994396, 40.05297899641841], [28.179177202994396, 40.052440007247945], [28.180255181335355, 40.052440007247945], [28.180255181335355, 40.05082303973653]]]}, "id": "+386242+81539", "properties": {"area_ha": 3.299382181213078, "count": 12, "label": 1, "mean_dnbr": 0.16178742083338335}}, {"type": "Feature", "geometry": {"geodesic": false, "type": "Polygon", "coordinates": [[[28.182950127187723, 40.01848368950822], [28.184567094699133, 40.01848368950822], [28.184567094699133, 40.019022678678695], [28.184028105528654, 40.019022678678695], [28.184028105528654, 40.01956166784917], [28.185106083869584, 40.01956166784917], [28.185106083869584, 40.02010065701964], [28.184567094699133, 40.02010065701964], [28.184567094699133, 40.02063964619011], [28.182950127187723, 40.02063964619011], [28.182950127187723, 40.01848368950822]]]}, "id": "+386249+81599", "properties": {"area_ha": 3.300968539975734, "count": 12, "label": 1, "mean_dnbr": 0.3224096282587916}}, {"type": "Feature", "geometry": {"geodesic": false, "type": "Polygon", "coordinates": [[[28.186184062210543, 39.81582376141086], [28.188340018892433, 39.81582376141086], [28.188340018892433, 39.816362750581334], [28.192112943085732, 39.816362750581334], [28.192112943085732, 39.816901739751806], [28.19265193225621, 39.816901739751806], [28.19265193225621, 39.81744072892227], [28.193190921426662, 39.81744072892227], [28.193190921426662, 39.817979718092744], [28.193729910597142, 39.817979718092744], [28.193729910597142, 39.81744072892227], [28.1948078889381, 39.81744072892227], [28.1948078889381, 39.818518707263216], [28.19642485644951, 39.818518707263216], [28.19642485644951, 39.817979718092744], [28.196963845619962, 39.817979718092744], [28.196963845619962, 39.81744072892227], [28.20073676981329, 39.81744072892227], [28.20073676981329, 39.817979718092744], [28.20127575898374, 39.817979718092744], [28.20127575898374, 39.818518707263216], [28.20289272649515, 39.818518707263216], [28.20289272649515, 39.81905769643369], [28.20343171566563, 39.81905769643369], [28.20343171566563, 39.81959668560416], [28.20397070483611, 39.81959668560416], [28.20397070483611, 39.82013567477463], [28.20289272649515, 39.82013567477463], [28.20289272649515, 39.820674663945105], [28.2023537373247, 39.820674663945105], [28.2023537373247, 39.82013567477463], [28.20127575898374, 39.82013567477463], [28.20127575898374, 39.820674663945105], [28.19588586727903, 39.820674663945105], [28.19588586727903, 39.82013567477463], [28.19642485644951, 39.82013567477463], [28.19642485644951, 39.81959668560416], [28.193190921426662, 39.81959668560416], [28.193190921426662, 39.81905769643369], [28.19265193225621, 39.81905769643369], [28.19265193225621, 39.81959668560416], [28.192112943085732, 39.81959668560416], [28.192112943085732, 39.81905769643369], [28.19265193225621, 39.81905769643369], [28.19265193225621, 39.818518707263216], [28.190495975574322, 39.818518707263216], [28.190495975574322, 39.81905769643369], [28.191573953915253, 39.81905769643369], [28.191573953915253, 39.81959668560416], [28.190495975574322, 39.81959668560416], [28.190495975574322, 39.81905769643369], [28.189417997233363, 39.81905769643369], [28.189417997233363, 39.81959668560416], [28.188879008062912, 39.81959668560416], [28.188879008062912, 39.81905769643369], [28.189417997233363, 39.81905769643369], [28.189417997233363, 39.818518707263216], [28.188340018892433, 39.818518707263216], [28.188340018892433, 39.81905769643369], [28.187262040551474, 39.81905769643369], [28.187262040551474, 39.81959668560416], [28.186723051381023, 39.81959668560416], [28.186723051381023, 39.82013567477463], [28.186184062210543, 39.82013567477463], [28.186184062210543, 39.81905769643369], [28.185106083869584, 39.81905769643369], [28.185106083869584, 39.818518707263216], [28.185645073040064, 39.818518707263216], [28.185645073040064, 39.817979718092744], [28.185106083869584, 39.817979718092744], [28.185106083869584, 39.81744072892227], [28.185645073040064, 39.81744072892227], [28.185645073040064, 39.816901739751806], [28.184567094699133, 39.816901739751806], [28.184567094699133, 39.81582376141086], [28.185645073040064, 39.81582376141086], [28.185645073040064, 39.816362750581334], [28.186184062210543, 39.816362750581334], [28.186184062210543, 39.81582376141086]], [[28.190495975574322, 39.817979718092744], [28.190495975574322, 39.818518707263216], [28.189956986403843, 39.818518707263216], [28.189956986403843, 39.817979718092744], [28.190495975574322, 39.817979718092744]], [[28.189956986403843, 39.81744072892227], [28.189956986403843, 39.817979718092744], [28.189417997233363, 39.817979718092744], [28.189417997233363, 39.81744072892227], [28.189956986403843, 39.81744072892227]]]}, "id": "+386256+81975", "properties": {"area_ha": 43.86658282839839, "count": 159, "label": 1, "mean_dnbr": 0.27950957989618763}}, {"type": "Feature", "geometry": {"geodesic": false, "type": "Polygon", "coordinates": [[[28.20073676981329, 40.01956166784917], [28.20181474815422, 40.01956166784917], [28.20181474815422, 40.02063964619011], [28.20343171566563, 40.02063964619011], [28.20343171566563, 40.021178635360585], [28.20450969400659, 40.021178635360585], [28.20450969400659, 40.02171762453106], [28.2023537373247, 40.02171762453106], [28.2023537373247, 40.02225661370153], [28.20127575898374, 40.02225661370153], [28.20127575898374, 40.02171762453106], [28.20181474815422, 40.02171762453106], [28.20181474815422, 40.02063964619011], [28.20019778064281, 40.02063964619011], [28.20019778064281, 40.02010065701964], [28.20073676981329, 40.02010065701964], [28.20073676981329, 40.01956166784917]]]}, "id": "+386281+81597", "properties": {"area_ha": 4.126134092645318, "count": 15, "label": 1, "mean_dnbr": 0.1938130832534639}}, {"type": "Feature", "geometry": {"geodesic": false, "type": "Polygon", "coordinates": [[[28.20073676981329, 40.03573134296332], [28.2023537373247, 40.03573134296332], [28.2023537373247, 40.03627033213379], [28.20289272649515, 40.03627033213379], [28.20289272649515, 40.03680932130426], [28.20343171566563, 40.03680932130426], [28.20343171566563, 40.037887299645206], [28.2023537373247, 40.037887299645206], [28.2023537373247, 40.03842628881568], [28.20127575898374, 40.03842628881568], [28.20127575898374, 40.037887299645206], [28.20073676981329, 40.037887299645206], [28.20073676981329, 40.03573134296332]]]}, "id": "+386282+81567", "properties": {"area_ha": 5.225196882537339, "count": 19, "label": 1, "mean_dnbr": 0.2010040692257529}}, {"type": "Feature", "geometry": {"geodesic": false, "type": "Polygon", "coordinates": [[[28.20073676981329, 40.02980246208813], [28.20343171566563, 40.02980246208813], [28.20343171566563, 40.03249740794049], [28.20181474815422, 40.03249740794049], [28.20181474815422, 40.03195841877002], [28.20127575898374, 40.03195841877002], [28.20127575898374, 40.0303414512586], [28.20073676981329, 40.0303414512586], [28.20073676981329, 40.02980246208813]]]}, "id": "+386284+81578", "properties": {"area_ha": 5.500682972078222, "count": 20, "label": 1, "mean_dnbr": 0.19413224722515396}}, {"type": "Feature", "geometry": {"geodesic": false, "type": "Polygon", "coordinates": [[[28.20450969400659, 39.82013567477463], [28.20504868317704, 39.82013567477463], [28.20504868317704, 39.820674663945105], [28.20450969400659, 39.820674663945105], [28.20450969400659, 39.82175264228605], [28.20397070483611, 39.82175264228605], [28.20397070483611, 39.82229163145652], [28.20289272649515, 39.82229163145652], [28.20289272649515, 39.822830620626995], [28.2023537373247, 39.822830620626995], [28.2023537373247, 39.82336960979747], [28.20181474815422, 39.82336960979747], [28.20181474815422, 39.82390859896793], [28.20073676981329, 39.82390859896793], [28.20073676981329, 39.824447588138405], [28.19750283479044, 39.824447588138405], [28.19750283479044, 39.82390859896793], [28.19588586727903, 39.82390859896793], [28.19588586727903, 39.822830620626995], [28.1948078889381, 39.822830620626995], [28.1948078889381, 39.82175264228605], [28.196963845619962, 39.82175264228605], [28.196963845619962, 39.82121365311558], [28.20343171566563, 39.82121365311558], [28.20343171566563, 39.82175264228605], [28.20397070483611, 39.82175264228605], [28.20397070483611, 39.820674663945105], [28.20450969400659, 39.820674663945105], [28.20450969400659, 39.82013567477463]]]}, "id": "+386287+81967", "properties": {"area_ha": 20.966219564847158, "count": 76, "label": 1, "mean_dnbr": 0.2642259302715244}}, {"type": "Feature", "geometry": {"geodesic": false, "type": "Polygon", "coordinates": [[[28.20666565068848, 40.03195841877002], [28.20720463985893, 40.03195841877002], [28.20720463985893, 40.03303639711096], [28.20828261819989, 40.03303639711096], [28.20828261819989, 40.033575386281434], [28.20936059654082, 40.033575386281434], [28.20936059654082, 40.03411437545191], [28.209899585711298, 40.03411437545191], [28.209899585711298, 40.035192353792844], [28.20936059654082, 40.035192353792844], [28.20936059654082, 40.03573134296332], [28.20828261819989, 40.03573134296332], [28.20828261819989, 40.035192353792844], [28.20774362902941, 40.035192353792844], [28.20774362902941, 40.03411437545191], [28.20720463985893, 40.03411437545191], [28.20720463985893, 40.033575386281434], [28.206126661518, 40.033575386281434], [28.206126661518, 40.03303639711096], [28.20397070483611, 40.03303639711096], [28.20397070483611, 40.03249740794049], [28.20666565068848, 40.03249740794049], [28.20666565068848, 40.03195841877002]]]}, "id": "+386291+81574", "properties": {"area_ha": 6.875579711720378, "count": 25, "label": 1, "mean_dnbr": 0.21088523684970187}}, {"type": "Feature", "geometry": {"geodesic": false, "type": "Polygon", "coordinates": [[[28.221218358291196, 40.00339199273502], [28.222835325802606, 40.00339199273502], [28.222835325802606, 40.004469971075956], [28.222296336632155, 40.004469971075956], [28.222296336632155, 40.00500896024643], [28.222835325802606, 40.00500896024643], [28.222835325802606, 40.0055479494169], [28.223374314973086, 40.0055479494169], [28.223374314973086, 40.00608693858737], [28.222835325802606, 40.00608693858737], [28.222835325802606, 40.0055479494169], [28.222296336632155, 40.0055479494169], [28.222296336632155, 40.00500896024643], [28.220679369120717, 40.00500896024643], [28.220679369120717, 40.00393098190549], [28.221218358291196, 40.00393098190549], [28.221218358291196, 40.00339199273502]]]}, "id": "+386320+81627", "properties": {"area_ha": 3.3017034900009987, "count": 12, "label": 1, "mean_dnbr": 0.20189147705603033}}, {"type": "Feature", "geometry": {"geodesic": false, "type": "Polygon", "coordinates": [[[28.221218358291196, 40.09717610839709], [28.224991282484496, 40.09717610839709], [28.224991282484496, 40.09879307590851], [28.221757347461676, 40.09879307590851], [28.221757347461676, 40.09825408673804], [28.221218358291196, 40.09825408673804], [28.221218358291196, 40.09717610839709]]]}, "id": "+386324+81453", "properties": {"area_ha": 5.495279535324382, "count": 20, "label": 1, "mean_dnbr": 0.34187843027723114}}, {"type": "Feature", "geometry": {"geodesic": false, "type": "Polygon", "coordinates": [[[28.228764206677795, 40.186648310695396], [28.229303195848274, 40.186648310695396], [28.229303195848274, 40.18718729986587], [28.231459152530164, 40.18718729986587], [28.231459152530164, 40.18772628903634], [28.232537130871094, 40.18772628903634], [28.232537130871094, 40.18826527820681], [28.233076120041574, 40.18826527820681], [28.233076120041574, 40.18772628903634], [28.233615109212053, 40.18772628903634], [28.233615109212053, 40.18826527820681], [28.235232076723463, 40.18826527820681], [28.235232076723463, 40.1904212348887], [28.232537130871094, 40.1904212348887], [28.232537130871094, 40.190960224059175], [28.230920163359684, 40.190960224059175], [28.230920163359684, 40.1904212348887], [28.230381174189233, 40.1904212348887], [28.230381174189233, 40.18988224571823], [28.229842185018754, 40.18988224571823], [28.229842185018754, 40.18934325654776], [28.229303195848274, 40.18934325654776], [28.229303195848274, 40.188804267377286], [28.228764206677795, 40.188804267377286], [28.228764206677795, 40.186648310695396]]]}, "id": "+386332+81287", "properties": {"area_ha": 16.189413785020196, "count": 59, "label": 1, "mean_dnbr": 0.1861987969531098}}, {"type": "Feature", "geometry": {"geodesic": false, "type": "Polygon", "coordinates": [[[28.234154098382533, 40.20281798580955], [28.234693087552984, 40.20281798580955], [28.234693087552984, 40.20335697498002], [28.235232076723463, 40.20335697498002], [28.235232076723463, 40.20389596415049], [28.234693087552984, 40.20389596415049], [28.234693087552984, 40.20443495332096], [28.235232076723463, 40.20443495332096], [28.235232076723463, 40.20551293166191], [28.235771065893942, 40.20551293166191], [28.235771065893942, 40.20605192083238], [28.235232076723463, 40.20605192083238], [28.235232076723463, 40.20659091000285], [28.234693087552984, 40.20659091000285], [28.234693087552984, 40.20605192083238], [28.234154098382533, 40.20605192083238], [28.234154098382533, 40.20551293166191], [28.231459152530164, 40.20551293166191], [28.231459152530164, 40.204973942491435], [28.230920163359684, 40.204973942491435], [28.230920163359684, 40.20335697498002], [28.231459152530164, 40.20335697498002], [28.231459152530164, 40.20281798580955], [28.231998141700643, 40.20281798580955], [28.231998141700643, 40.20335697498002], [28.234154098382533, 40.20335697498002], [28.234154098382533, 40.20281798580955]], [[28.233076120041574, 40.20389596415049], [28.233076120041574, 40.204973942491435], [28.231459152530164, 40.204973942491435], [28.231459152530164, 40.20443495332096], [28.231998141700643, 40.20443495332096], [28.231998141700643, 40.20389596415049], [28.233076120041574, 40.20389596415049]]]}, "id": "+386342+81257", "properties": {"area_ha": 8.504355596611354, "count": 31, "label": 1, "mean_dnbr": 0.32912094572175465}}, {"type": "Feature", "geometry": {"geodesic": false, "type": "Polygon", "coordinates": [[[28.233076120041574, 40.238391271060685], [28.235232076723463, 40.238391271060685], [28.235232076723463, 40.23893026023116], [28.235771065893942, 40.23893026023116], [28.235771065893942, 40.240008238572095], [28.236310055064422, 40.240008238572095], [28.236310055064422, 40.24108621691304], [28.235232076723463, 40.24108621691304], [28.235232076723463, 40.24054722774257], [28.234693087552984, 40.24054722774257], [28.234693087552984, 40.240008238572095], [28.234154098382533, 40.240008238572095], [28.234154098382533, 40.23946924940162], [28.233615109212053, 40.23946924940162], [28.233615109212053, 40.23893026023116], [28.233076120041574, 40.23893026023116], [28.233076120041574, 40.238391271060685]]]}, "id": "+386343+81191", "properties": {"area_ha": 4.387066021747407, "count": 16, "label": 1, "mean_dnbr": 0.38871461853250316}}, {"type": "Feature", "geometry": {"geodesic": false, "type": "Polygon", "coordinates": [[[28.24008297925772, 40.25995083787955], [28.24169994676913, 40.25995083787955], [28.24169994676913, 40.261028816220495], [28.24277792511006, 40.261028816220495], [28.24277792511006, 40.26210679456144], [28.24223893593961, 40.26210679456144], [28.24223893593961, 40.26264578373191], [28.24169994676913, 40.26264578373191], [28.24169994676913, 40.263184772902385], [28.240621968428172, 40.263184772902385], [28.240621968428172, 40.26156780539097], [28.24008297925772, 40.26156780539097], [28.24008297925772, 40.261028816220495], [28.239543990087242, 40.261028816220495], [28.239543990087242, 40.26048982705002], [28.24008297925772, 40.26048982705002], [28.24008297925772, 40.25995083787955]]]}, "id": "+386355+81151", "properties": {"area_ha": 5.756167742295367, "count": 21, "label": 1, "mean_dnbr": 0.2985439670662826}}, {"type": "Feature", "geometry": {"geodesic": false, "type": "Polygon", "coordinates": [[[28.24116095759865, 40.25509993534531], [28.24169994676913, 40.25509993534531], [28.24169994676913, 40.25617791368625], [28.24116095759865, 40.25617791368625], [28.24116095759865, 40.25671690285672], [28.240621968428172, 40.25671690285672], [28.240621968428172, 40.25779488119766], [28.238466011746283, 40.25779488119766], [28.238466011746283, 40.25671690285672], [28.237927022575832, 40.25671690285672], [28.237927022575832, 40.25617791368625], [28.238466011746283, 40.25617791368625], [28.238466011746283, 40.25671690285672], [28.239543990087242, 40.25671690285672], [28.239543990087242, 40.25563892451578], [28.24116095759865, 40.25563892451578], [28.24116095759865, 40.25509993534531]]]}, "id": "+386355+81160", "properties": {"area_ha": 4.660091681823038, "count": 17, "label": 1, "mean_dnbr": 0.24176228049443368}}, {"type": "Feature", "geometry": {"geodesic": false, "type": "Polygon", "coordinates": [[[28.24008297925772, 40.23461834686738], [28.24169994676913, 40.23461834686738], [28.24169994676913, 40.23569632520832], [28.24277792511006, 40.23569632520832], [28.24277792511006, 40.236235314378796], [28.240621968428172, 40.236235314378796], [28.240621968428172, 40.23677430354927], [28.24169994676913, 40.23677430354927], [28.24169994676913, 40.23731329271974], [28.24223893593961, 40.23731329271974], [28.24223893593961, 40.23785228189021], [28.24277792511006, 40.23785228189021], [28.24277792511006, 40.240008238572095], [28.240621968428172, 40.240008238572095], [28.240621968428172, 40.24054722774257], [28.24008297925772, 40.24054722774257], [28.24008297925772, 40.240008238572095], [28.239543990087242, 40.240008238572095], [28.239543990087242, 40.23946924940162], [28.239005000916762, 40.23946924940162], [28.239005000916762, 40.23893026023116], [28.238466011746283, 40.23893026023116], [28.238466011746283, 40.238391271060685], [28.237927022575832, 40.238391271060685], [28.237927022575832, 40.23785228189021], [28.236849044234873, 40.23785228189021], [28.236849044234873, 40.23731329271974], [28.236310055064422, 40.23731329271974], [28.236310055064422, 40.23677430354927], [28.237388033405352, 40.23677430354927], [28.237388033405352, 40.236235314378796], [28.238466011746283, 40.236235314378796], [28.238466011746283, 40.23569632520832], [28.239005000916762, 40.23569632520832], [28.239005000916762, 40.23515733603785], [28.24008297925772, 40.23515733603785], [28.24008297925772, 40.23461834686738]], [[28.240621968428172, 40.23677430354927], [28.240621968428172, 40.23731329271974], [28.239543990087242, 40.23731329271974], [28.239543990087242, 40.23785228189021], [28.239005000916762, 40.23785228189021], [28.239005000916762, 40.23731329271974], [28.238466011746283, 40.23731329271974], [28.238466011746283, 40.23677430354927], [28.240621968428172, 40.23677430354927]]]}, "id": "+386355+81198", "properties": {"area_ha": 18.64561995639171, "count": 68, "label": 1, "mean_dnbr": 0.4345047413497622}}, {"type": "Feature", "geometry": {"geodesic": false, "type": "Polygon", "coordinates": [[[28.240621968428172, 40.22707249848078], [28.24169994676913, 40.22707249848078], [28.24169994676913, 40.227611487651245], [28.24223893593961, 40.227611487651245], [28.24223893593961, 40.22815047682172], [28.24439489262147, 40.22815047682172], [28.24439489262147, 40.22868946599219], [28.24547287096243, 40.22868946599219], [28.24547287096243, 40.23030643350361], [28.24385590345102, 40.23030643350361], [28.24385590345102, 40.229767444333135], [28.24277792511006, 40.229767444333135], [28.24277792511006, 40.22922845516266], [28.240621968428172, 40.22922845516266], [28.240621968428172, 40.22868946599219], [28.24008297925772, 40.22868946599219], [28.24008297925772, 40.22815047682172], [28.240621968428172, 40.22815047682172], [28.240621968428172, 40.22707249848078]]]}, "id": "+386355+81212", "properties": {"area_ha": 8.227070137459943, "count": 30, "label": 1, "mean_dnbr": 0.297728464081852}}, {"type": "Feature", "geometry": {"geodesic": false, "type": "Polygon", "coordinates": [[[28.24169994676913, 40.13975625286436], [28.24385590345102, 40.13975625286436], [28.24385590345102, 40.141373220375776], [28.24116095759865, 40.141373220375776], [28.24116095759865, 40.140834231205304], [28.240621968428172, 40.140834231205304], [28.240621968428172, 40.14029524203483], [28.24169994676913, 40.14029524203483], [28.24169994676913, 40.13975625286436]]]}, "id": "+386359+81374", "properties": {"area_ha": 4.118891421947271, "count": 15, "label": 1, "mean_dnbr": 0.2135102786306793}}, {"type": "Feature", "geometry": {"geodesic": false, "type": "Polygon", "coordinates": [[[28.24493388179195, 40.19958405078672], [28.24655084930336, 40.19958405078672], [28.24655084930336, 40.20012303995719], [28.24708983847384, 40.20012303995719], [28.24708983847384, 40.20066202912766], [28.24762882764432, 40.20066202912766], [28.24762882764432, 40.20227899663908], [28.2481678168148, 40.20227899663908], [28.2481678168148, 40.20281798580955], [28.24708983847384, 40.20281798580955], [28.24708983847384, 40.20335697498002], [28.2481678168148, 40.20335697498002], [28.2481678168148, 40.20389596415049], [28.25032377349666, 40.20389596415049], [28.25032377349666, 40.20443495332096], [28.25086276266714, 40.20443495332096], [28.25086276266714, 40.20659091000285], [28.25032377349666, 40.20659091000285], [28.25032377349666, 40.207129899173324], [28.24978478432621, 40.207129899173324], [28.24978478432621, 40.20820787751427], [28.24870680598525, 40.20820787751427], [28.24870680598525, 40.2076688883438], [28.2481678168148, 40.2076688883438], [28.2481678168148, 40.207129899173324], [28.24708983847384, 40.207129899173324], [28.24708983847384, 40.20659091000285], [28.24655084930336, 40.20659091000285], [28.24655084930336, 40.20605192083238], [28.24601186013291, 40.20605192083238], [28.24601186013291, 40.20443495332096], [28.24547287096243, 40.20443495332096], [28.24547287096243, 40.20389596415049], [28.24493388179195, 40.20389596415049], [28.24493388179195, 40.20335697498002], [28.24547287096243, 40.20335697498002], [28.24547287096243, 40.20281798580955], [28.24655084930336, 40.20281798580955], [28.24655084930336, 40.20227899663908], [28.24547287096243, 40.20227899663908], [28.24547287096243, 40.20174000746861], [28.24331691428054, 40.20174000746861], [28.24331691428054, 40.20066202912766], [28.24493388179195, 40.20066202912766], [28.24493388179195, 40.19958405078672]]]}, "id": "+386364+81263", "properties": {"area_ha": 25.787578879021318, "count": 94, "label": 1, "mean_dnbr": 0.19935621721144822}}, {"type": "Feature", "geometry": {"geodesic": false, "type": "Polygon", "coordinates": [[[28.24493388179195, 40.23569632520832], [28.24762882764432, 40.23569632520832], [28.24762882764432, 40.236235314378796], [28.24655084930336, 40.236235314378796], [28.24655084930336, 40.23677430354927], [28.24547287096243, 40.23677430354927], [28.24547287096243, 40.23731329271974], [28.24439489262147, 40.23731329271974], [28.24439489262147, 40.236235314378796], [28.24493388179195, 40.236235314378796], [28.24493388179195, 40.23569632520832]]]}, "id": "+386366+81196", "properties": {"area_ha": 3.0162441175704755, "count": 11, "label": 1, "mean_dnbr": 0.40857391038602947}}, {"type": "Feature", "geometry": {"geodesic": false, "type": "Polygon", "coordinates": [[[28.24547287096243, 40.138678274523414], [28.24762882764432, 40.138678274523414], [28.24762882764432, 40.13921726369389], [28.2481678168148, 40.13921726369389], [28.2481678168148, 40.13975625286436], [28.24762882764432, 40.13975625286436], [28.24762882764432, 40.140834231205304], [28.24655084930336, 40.140834231205304], [28.24655084930336, 40.13975625286436], [28.24601186013291, 40.13975625286436], [28.24601186013291, 40.13921726369389], [28.24547287096243, 40.13921726369389], [28.24547287096243, 40.138678274523414]]]}, "id": "+386366+81376", "properties": {"area_ha": 3.295152491275665, "count": 12, "label": 1, "mean_dnbr": 0.259325631012194}}, {"type": "Feature", "geometry": {"geodesic": false, "type": "Polygon", "coordinates": [[[28.24655084930336, 40.108494880977], [28.24762882764432, 40.108494880977], [28.24762882764432, 40.10903387014747], [28.2481678168148, 40.10903387014747], [28.2481678168148, 40.10957285931794], [28.24870680598525, 40.10957285931794], [28.24870680598525, 40.110111848488415], [28.2481678168148, 40.110111848488415], [28.2481678168148, 40.11065083765889], [28.24708983847384, 40.11065083765889], [28.24708983847384, 40.10957285931794], [28.24601186013291, 40.10957285931794], [28.24601186013291, 40.10903387014747], [28.24655084930336, 40.10903387014747], [28.24655084930336, 40.108494880977]]]}, "id": "+386366+81432", "properties": {"area_ha": 3.02189684586296, "count": 11, "label": 1, "mean_dnbr": 0.26267714465003705}}, {"type": "Feature", "geometry": {"geodesic": false, "type": "Polygon", "coordinates": [[[28.24547287096243, 40.254560946174834], [28.2481678168148, 40.254560946174834], [28.2481678168148, 40.25509993534531], [28.24870680598525, 40.25509993534531], [28.24870680598525, 40.25671690285672], [28.24601186013291, 40.25671690285672], [28.24601186013291, 40.25563892451578], [28.24547287096243, 40.25563892451578], [28.24547287096243, 40.254560946174834]]]}, "id": "+386367+81161", "properties": {"area_ha": 5.756665971594039, "count": 21, "label": 1, "mean_dnbr": 0.3695649669076636}}, {"type": "Feature", "geometry": {"geodesic": false, "type": "Polygon", "coordinates": [[[28.25032377349666, 40.25294397866342], [28.25301871934903, 40.25294397866342], [28.25301871934903, 40.25563892451578], [28.2519407410081, 40.25563892451578], [28.2519407410081, 40.25509993534531], [28.25032377349666, 40.25509993534531], [28.25032377349666, 40.254560946174834], [28.25086276266714, 40.254560946174834], [28.25086276266714, 40.25348296783389], [28.25032377349666, 40.25348296783389], [28.25032377349666, 40.25294397866342]]]}, "id": "+386376+81164", "properties": {"area_ha": 5.4826485337152, "count": 20, "label": 1, "mean_dnbr": 0.17377427134011741}}, {"type": "Feature", "geometry": {"geodesic": false, "type": "Polygon", "coordinates": [[[28.255713665201398, 40.221682606776056], [28.25679164354233, 40.221682606776056], [28.25679164354233, 40.22222159594653], [28.257869621883287, 40.22222159594653], [28.257869621883287, 40.222760585117], [28.257330632712808, 40.222760585117], [28.257330632712808, 40.22437755262842], [28.25679164354233, 40.22437755262842], [28.25679164354233, 40.22491654179889], [28.25625265437185, 40.22491654179889], [28.25625265437185, 40.22437755262842], [28.25463568686044, 40.22437755262842], [28.25463568686044, 40.223838563457946], [28.254096697689988, 40.223838563457946], [28.254096697689988, 40.22329957428747], [28.25517467603092, 40.22329957428747], [28.25517467603092, 40.222760585117], [28.255713665201398, 40.222760585117], [28.255713665201398, 40.221682606776056]]]}, "id": "+386383+81222", "properties": {"area_ha": 6.033673684522947, "count": 22, "label": 1, "mean_dnbr": 0.27642931304711854}}, {"type": "Feature", "geometry": {"geodesic": false, "type": "Polygon", "coordinates": [[[28.25840861105374, 40.25024903281106], [28.258947600224218, 40.25024903281106], [28.258947600224218, 40.250788021981535], [28.259486589394697, 40.250788021981535], [28.259486589394697, 40.25132701115201], [28.261103556906107, 40.25132701115201], [28.261103556906107, 40.25186600032247], [28.260564567735628, 40.25186600032247], [28.260564567735628, 40.25348296783389], [28.260025578565177, 40.25348296783389], [28.260025578565177, 40.252404989492945], [28.259486589394697, 40.252404989492945], [28.259486589394697, 40.25186600032247], [28.258947600224218, 40.25186600032247], [28.258947600224218, 40.25132701115201], [28.25840861105374, 40.25132701115201], [28.25840861105374, 40.25024903281106]]]}, "id": "+386387+81169", "properties": {"area_ha": 3.0155669277996333, "count": 11, "label": 1, "mean_dnbr": 0.3295864186598758}}, {"type": "Feature", "geometry": {"geodesic": false, "type": "Polygon", "coordinates": [[[28.25840861105374, 40.24539813027682], [28.258947600224218, 40.24539813027682], [28.258947600224218, 40.24701509778823], [28.260025578565177, 40.24701509778823], [28.260025578565177, 40.248632065299645], [28.260564567735628, 40.248632065299645], [28.260564567735628, 40.24917105447012], [28.261103556906107, 40.24917105447012], [28.261103556906107, 40.25024903281106], [28.260025578565177, 40.25024903281106], [28.260025578565177, 40.24971004364059], [28.259486589394697, 40.24971004364059], [28.259486589394697, 40.248632065299645], [28.257869621883287, 40.248632065299645], [28.257869621883287, 40.24917105447012], [28.25679164354233, 40.24917105447012], [28.25679164354233, 40.248632065299645], [28.25625265437185, 40.248632065299645], [28.25625265437185, 40.24809307612917], [28.257869621883287, 40.24809307612917], [28.257869621883287, 40.24701509778823], [28.25840861105374, 40.24701509778823], [28.25840861105374, 40.246476108617756], [28.257869621883287, 40.246476108617756], [28.257869621883287, 40.245937119447284], [28.25840861105374, 40.245937119447284], [28.25840861105374, 40.24539813027682]]]}, "id": "+386387+81178", "properties": {"area_ha": 7.676405310507686, "count": 28, "label": 1, "mean_dnbr": 0.4056006687907876}}, {"type": "Feature", "geometry": {"geodesic": false, "type": "Polygon", "coordinates": [[[28.257330632712808, 40.2189876609237], [28.258947600224218, 40.2189876609237], [28.258947600224218, 40.22114361760559], [28.257869621883287, 40.22114361760559], [28.257869621883287, 40.22060462843512], [28.257330632712808, 40.22060462843512], [28.257330632712808, 40.22006563926465], [28.25679164354233, 40.22006563926465], [28.25679164354233, 40.219526650094174], [28.257330632712808, 40.219526650094174], [28.257330632712808, 40.2189876609237]]]}, "id": "+386387+81227", "properties": {"area_ha": 3.291253931578272, "count": 12, "label": 1, "mean_dnbr": 0.28579803262976605}}, {"type": "Feature", "geometry": {"geodesic": false, "type": "Polygon", "coordinates": [[[28.261103556906107, 40.19635011576389], [28.262181535247038, 40.19635011576389], [28.262181535247038, 40.1979670832753], [28.259486589394697, 40.1979670832753], [28.259486589394697, 40.196889104934364], [28.261103556906107, 40.196889104934364], [28.261103556906107, 40.19635011576389]]]}, "id": "+386393+81269", "properties": {"area_ha": 3.2923670021380107, "count": 12, "label": 1, "mean_dnbr": 0.16658647887663858}}, {"type": "Feature", "geometry": {"geodesic": false, "type": "Polygon", "coordinates": [[[28.263259513587997, 40.25509993534531], [28.263798502758476, 40.25509993534531], [28.263798502758476, 40.25563892451578], [28.264337491928927, 40.25563892451578], [28.264337491928927, 40.257255892027196], [28.263798502758476, 40.257255892027196], [28.263798502758476, 40.25671690285672], [28.263259513587997, 40.25671690285672], [28.263259513587997, 40.25779488119766], [28.263798502758476, 40.25779488119766], [28.263798502758476, 40.25833387036813], [28.263259513587997, 40.25833387036813], [28.263259513587997, 40.258872859538606], [28.262720524417517, 40.258872859538606], [28.262720524417517, 40.25779488119766], [28.262181535247038, 40.25779488119766], [28.262181535247038, 40.25671690285672], [28.262720524417517, 40.25671690285672], [28.262720524417517, 40.25563892451578], [28.263259513587997, 40.25563892451578], [28.263259513587997, 40.25509993534531]]]}, "id": "+386396+81160", "properties": {"area_ha": 4.111828065169059, "count": 15, "label": 1, "mean_dnbr": 0.23494508887880097}}, {"type": "Feature", "geometry": {"geodesic": false, "type": "Polygon", "coordinates": [[[28.262720524417517, 40.1580818846604], [28.263798502758476, 40.1580818846604], [28.263798502758476, 40.15862087383087], [28.264337491928927, 40.15862087383087], [28.264337491928927, 40.16023784134229], [28.264876481099407, 40.16023784134229], [28.264876481099407, 40.1618548088537], [28.265415470269886, 40.1618548088537], [28.265415470269886, 40.16454975470606], [28.265954459440366, 40.16454975470606], [28.265954459440366, 40.165627733047], [28.264337491928927, 40.165627733047], [28.264337491928927, 40.163471776365114], [28.263798502758476, 40.163471776365114], [28.263798502758476, 40.16239379802417], [28.263259513587997, 40.16239379802417], [28.263259513587997, 40.16077683051276], [28.262720524417517, 40.16077683051276], [28.262720524417517, 40.1580818846604]]]}, "id": "+386396+81340", "properties": {"area_ha": 11.254774472461634, "count": 41, "label": 1, "mean_dnbr": 0.25964105703142776}}, {"type": "Feature", "geometry": {"geodesic": false, "type": "Polygon", "coordinates": [[[28.262181535247038, 40.20928585585521], [28.264337491928927, 40.20928585585521], [28.264337491928927, 40.20982484502568], [28.264876481099407, 40.20982484502568], [28.264876481099407, 40.210902823366624], [28.265954459440366, 40.210902823366624], [28.265954459440366, 40.211441812537096], [28.266493448610817, 40.211441812537096], [28.266493448610817, 40.21198080170757], [28.265415470269886, 40.21198080170757], [28.265415470269886, 40.21251979087804], [28.263798502758476, 40.21251979087804], [28.263798502758476, 40.21198080170757], [28.262720524417517, 40.21198080170757], [28.262720524417517, 40.211441812537096], [28.262181535247038, 40.211441812537096], [28.262181535247038, 40.210902823366624], [28.261642546076587, 40.210902823366624], [28.261642546076587, 40.20982484502568], [28.262181535247038, 40.20982484502568], [28.262181535247038, 40.20928585585521]]]}, "id": "+386397+81245", "properties": {"area_ha": 9.052163448188018, "count": 33, "label": 1, "mean_dnbr": 0.22414957698684285}}, {"type": "Feature", "geometry": {"geodesic": false, "type": "Polygon", "coordinates": [[[28.268110416122227, 40.25509993534531], [28.268649405292706, 40.25509993534531], [28.268649405292706, 40.25671690285672], [28.269188394463185, 40.25671690285672], [28.269188394463185, 40.25779488119766], [28.269727383633665, 40.25779488119766], [28.269727383633665, 40.25941184870908], [28.269188394463185, 40.25941184870908], [28.269188394463185, 40.25995083787955], [28.268649405292706, 40.25995083787955], [28.268649405292706, 40.258872859538606], [28.268110416122227, 40.258872859538606], [28.268110416122227, 40.25509993534531]]]}, "id": "+386405+81160", "properties": {"area_ha": 4.385890636586136, "count": 16, "label": 1, "mean_dnbr": 0.3450385659604331}}, {"type": "Feature", "geometry": {"geodesic": false, "type": "Polygon", "coordinates": [[[28.270805361974595, 40.10957285931794], [28.271344351145075, 40.10957285931794], [28.271344351145075, 40.110111848488415], [28.272422329486005, 40.110111848488415], [28.272422329486005, 40.11065083765889], [28.273500307826964, 40.11065083765889], [28.273500307826964, 40.11280679434077], [28.272961318656485, 40.11280679434077], [28.272961318656485, 40.11334578351124], [28.271344351145075, 40.11334578351124], [28.271344351145075, 40.11280679434077], [28.270805361974595, 40.11280679434077], [28.270805361974595, 40.10957285931794]]]}, "id": "+386410+81430", "properties": {"area_ha": 7.417152711628701, "count": 27, "label": 1, "mean_dnbr": 0.577152794039037}}, {"type": "Feature", "geometry": {"geodesic": false, "type": "Polygon", "coordinates": [[[28.272422329486005, 40.27180859962993], [28.274039296997415, 40.27180859962993], [28.274039296997415, 40.2723475888004], [28.275656264508854, 40.2723475888004], [28.275656264508854, 40.27288657797087], [28.275117275338374, 40.27288657797087], [28.275117275338374, 40.27396455631182], [28.274578286167895, 40.27396455631182], [28.274578286167895, 40.27504253465276], [28.273500307826964, 40.27504253465276], [28.273500307826964, 40.273425567141345], [28.272961318656485, 40.273425567141345], [28.272961318656485, 40.27288657797087], [28.272422329486005, 40.27288657797087], [28.272422329486005, 40.27180859962993]]]}, "id": "+386415+81129", "properties": {"area_ha": 5.481111809739726, "count": 20, "label": 1, "mean_dnbr": 0.3930920748988757}}, {"type": "Feature", "geometry": {"geodesic": false, "type": "Polygon", "coordinates": [[[28.273500307826964, 40.26534072958427], [28.274039296997415, 40.26534072958427], [28.274039296997415, 40.266957697095684], [28.275117275338374, 40.266957697095684], [28.275117275338374, 40.2685746646071], [28.272961318656485, 40.2685746646071], [28.272961318656485, 40.26587971875474], [28.273500307826964, 40.26587971875474], [28.273500307826964, 40.26534072958427]]]}, "id": "+386415+81141", "properties": {"area_ha": 4.6593582862576355, "count": 17, "label": 1, "mean_dnbr": 0.32890176592976805}}, {"type": "Feature", "geometry": {"geodesic": false, "type": "Polygon", "coordinates": [[[28.272422329486005, 40.23569632520832], [28.274578286167895, 40.23569632520832], [28.274578286167895, 40.23677430354927], [28.272422329486005, 40.23677430354927], [28.272422329486005, 40.23785228189021], [28.272961318656485, 40.23785228189021], [28.272961318656485, 40.238391271060685], [28.271883340315554, 40.238391271060685], [28.271883340315554, 40.23785228189021], [28.271344351145075, 40.23785228189021], [28.271344351145075, 40.23731329271974], [28.271883340315554, 40.23731329271974], [28.271883340315554, 40.23677430354927], [28.272422329486005, 40.23677430354927], [28.272422329486005, 40.23569632520832]]]}, "id": "+386416+81196", "properties": {"area_ha": 3.564642534986784, "count": 13, "label": 1, "mean_dnbr": 0.32952085133594466}}, {"type": "Feature", "geometry": {"geodesic": false, "type": "Polygon", "coordinates": [[[28.274578286167895, 40.27665950216417], [28.275117275338374, 40.27665950216417], [28.275117275338374, 40.27773748050512], [28.275656264508854, 40.27773748050512], [28.275656264508854, 40.27827646967559], [28.276195253679305, 40.27827646967559], [28.276195253679305, 40.28043242635748], [28.275117275338374, 40.28043242635748], [28.275117275338374, 40.279354448016534], [28.274578286167895, 40.279354448016534], [28.274578286167895, 40.27665950216417]]]}, "id": "+386417+81120", "properties": {"area_ha": 3.8364646210384388, "count": 14, "label": 1, "mean_dnbr": 0.2320247377350856}}, {"type": "Feature", "geometry": {"geodesic": false, "type": "Polygon", "coordinates": [[[28.272961318656485, 40.225994520139835], [28.275117275338374, 40.225994520139835], [28.275117275338374, 40.22707249848078], [28.275656264508854, 40.22707249848078], [28.275656264508854, 40.22815047682172], [28.276195253679305, 40.22815047682172], [28.276195253679305, 40.22707249848078], [28.278890199531673, 40.22707249848078], [28.278890199531673, 40.227611487651245], [28.278351210361194, 40.227611487651245], [28.278351210361194, 40.22868946599219], [28.277812221190743, 40.22868946599219], [28.277812221190743, 40.22922845516266], [28.275117275338374, 40.22922845516266], [28.275117275338374, 40.22707249848078], [28.274578286167895, 40.22707249848078], [28.274578286167895, 40.22815047682172], [28.274039296997415, 40.22815047682172], [28.274039296997415, 40.22868946599219], [28.274578286167895, 40.22868946599219], [28.274578286167895, 40.22922845516266], [28.273500307826964, 40.22922845516266], [28.273500307826964, 40.22815047682172], [28.272422329486005, 40.22815047682172], [28.272422329486005, 40.22707249848078], [28.271883340315554, 40.22707249848078], [28.271883340315554, 40.22653350931031], [28.272961318656485, 40.22653350931031], [28.272961318656485, 40.225994520139835]]]}, "id": "+386417+81214", "properties": {"area_ha": 11.792313297925924, "count": 43, "label": 1, "mean_dnbr": 0.38580600363598105}}, {"type": "Feature", "geometry": {"geodesic": false, "type": "Polygon", "coordinates": [[[28.279429188702153, 40.08154542245342], [28.279968177872604, 40.08154542245342], [28.279968177872604, 40.08208441162389], [28.280507167043083, 40.08208441162389], [28.280507167043083, 40.083162389964826], [28.281585145384042, 40.083162389964826], [28.281585145384042, 40.08477935747624], [28.282124134554493, 40.08477935747624], [28.282124134554493, 40.085318346646716], [28.283202112895452, 40.085318346646716], [28.283202112895452, 40.08639632498766], [28.282663123724973, 40.08639632498766], [28.282663123724973, 40.087474303328605], [28.284819080406862, 40.087474303328605], [28.284819080406862, 40.08855228166955], [28.28535806957734, 40.08855228166955], [28.28535806957734, 40.09016924918096], [28.285897058747793, 40.09016924918096], [28.285897058747793, 40.09070823835143], [28.286436047918272, 40.09070823835143], [28.286436047918272, 40.091247227521905], [28.284280091236383, 40.091247227521905], [28.284280091236383, 40.09178621669238], [28.285897058747793, 40.09178621669238], [28.285897058747793, 40.09232520586285], [28.286436047918272, 40.09232520586285], [28.286436047918272, 40.09286419503332], [28.285897058747793, 40.09286419503332], [28.285897058747793, 40.093403184203794], [28.28751402625923, 40.093403184203794], [28.28751402625923, 40.093942173374266], [28.28697503708875, 40.093942173374266], [28.28697503708875, 40.09448116254474], [28.28751402625923, 40.09448116254474], [28.28751402625923, 40.095020151715204], [28.288053015429682, 40.095020151715204], [28.288053015429682, 40.09609813005615], [28.28751402625923, 40.09609813005615], [28.28751402625923, 40.09663711922662], [28.284819080406862, 40.09663711922662], [28.284819080406862, 40.09609813005615], [28.284280091236383, 40.09609813005615], [28.284280091236383, 40.095559140885676], [28.28374110206593, 40.095559140885676], [28.28374110206593, 40.09609813005615], [28.282663123724973, 40.09609813005615], [28.282663123724973, 40.095559140885676], [28.28374110206593, 40.095559140885676], [28.28374110206593, 40.095020151715204], [28.282663123724973, 40.095020151715204], [28.282663123724973, 40.09448116254474], [28.28374110206593, 40.09448116254474], [28.28374110206593, 40.095020151715204], [28.284280091236383, 40.095020151715204], [28.284280091236383, 40.093403184203794], [28.28374110206593, 40.093403184203794], [28.28374110206593, 40.093942173374266], [28.281585145384042, 40.093942173374266], [28.281585145384042, 40.093403184203794], [28.282124134554493, 40.093403184203794], [28.282124134554493, 40.09286419503332], [28.284280091236383, 40.09286419503332], [28.284280091236383, 40.09178621669238], [28.283202112895452, 40.09178621669238], [28.283202112895452, 40.091247227521905], [28.28374110206593, 40.091247227521905], [28.28374110206593, 40.09070823835143], [28.284280091236383, 40.09070823835143], [28.284280091236383, 40.08963026001049], [28.283202112895452, 40.08963026001049], [28.283202112895452, 40.09016924918096], [28.281046156213563, 40.09016924918096], [28.281046156213563, 40.09070823835143], [28.282663123724973, 40.09070823835143], [28.282663123724973, 40.09178621669238], [28.281585145384042, 40.09178621669238], [28.281585145384042, 40.091247227521905], [28.281046156213563, 40.091247227521905], [28.281046156213563, 40.09070823835143], [28.280507167043083, 40.09070823835143], [28.280507167043083, 40.08855228166955], [28.279968177872604, 40.08855228166955], [28.279968177872604, 40.08801329249908], [28.278890199531673, 40.08801329249908], [28.278890199531673, 40.08693531415813], [28.279429188702153, 40.08693531415813], [28.279429188702153, 40.08639632498766], [28.279968177872604, 40.08639632498766], [28.279968177872604, 40.08693531415813], [28.280507167043083, 40.08693531415813], [28.280507167043083, 40.08585733581719], [28.281046156213563, 40.08585733581719], [28.281046156213563, 40.085318346646716], [28.279968177872604, 40.085318346646716], [28.279968177872604, 40.08262340079436], [28.279429188702153, 40.08262340079436], [28.279429188702153, 40.08154542245342]], [[28.281046156213563, 40.087474303328605], [28.281046156213563, 40.08801329249908], [28.280507167043083, 40.08801329249908], [28.280507167043083, 40.087474303328605], [28.281046156213563, 40.087474303328605]]]}, "id": "+386426+81482", "properties": {"area_ha": 43.14293115358015, "count": 157, "label": 1, "mean_dnbr": 0.2819130380125896}}, {"type": "Feature", "geometry": {"geodesic": false, "type": "Polygon", "coordinates": [[[28.279429188702153, 40.207129899173324], [28.281046156213563, 40.207129899173324], [28.281046156213563, 40.2076688883438], [28.282124134554493, 40.2076688883438], [28.282124134554493, 40.20820787751427], [28.283202112895452, 40.20820787751427], [28.283202112895452, 40.20928585585521], [28.282124134554493, 40.20928585585521], [28.282124134554493, 40.20874686668474], [28.281046156213563, 40.20874686668474], [28.281046156213563, 40.20820787751427], [28.279968177872604, 40.20820787751427], [28.279968177872604, 40.2076688883438], [28.279429188702153, 40.2076688883438], [28.279429188702153, 40.207129899173324]]]}, "id": "+386428+81249", "properties": {"area_ha": 3.5661477629262897, "count": 13, "label": 1, "mean_dnbr": 0.1650912964453968}}, {"type": "Feature", "geometry": {"geodesic": false, "type": "Polygon", "coordinates": [[[28.279429188702153, 40.20066202912766], [28.281046156213563, 40.20066202912766], [28.281046156213563, 40.201201018298136], [28.281585145384042, 40.201201018298136], [28.281585145384042, 40.20174000746861], [28.282124134554493, 40.20174000746861], [28.282124134554493, 40.20389596415049], [28.281046156213563, 40.20389596415049], [28.281046156213563, 40.204973942491435], [28.279968177872604, 40.204973942491435], [28.279968177872604, 40.20389596415049], [28.279429188702153, 40.20389596415049], [28.279429188702153, 40.20443495332096], [28.278351210361194, 40.20443495332096], [28.278351210361194, 40.204973942491435], [28.277273232020264, 40.204973942491435], [28.277273232020264, 40.20443495332096], [28.276734242849784, 40.20443495332096], [28.276734242849784, 40.20281798580955], [28.277812221190743, 40.20281798580955], [28.277812221190743, 40.20227899663908], [28.278351210361194, 40.20227899663908], [28.278351210361194, 40.20174000746861], [28.278890199531673, 40.20174000746861], [28.278890199531673, 40.201201018298136], [28.279429188702153, 40.201201018298136], [28.279429188702153, 40.20066202912766]]]}, "id": "+386428+81261", "properties": {"area_ha": 14.814370206358834, "count": 54, "label": 1, "mean_dnbr": 0.3133877442155495}}, {"type": "Feature", "geometry": {"geodesic": false, "type": "Polygon", "coordinates": [[[28.282124134554493, 40.25132701115201], [28.283202112895452, 40.25132701115201], [28.283202112895452, 40.25186600032247], [28.28374110206593, 40.25186600032247], [28.28374110206593, 40.25348296783389], [28.283202112895452, 40.25348296783389], [28.283202112895452, 40.25509993534531], [28.279968177872604, 40.25509993534531], [28.279968177872604, 40.25348296783389], [28.281585145384042, 40.25348296783389], [28.281585145384042, 40.252404989492945], [28.282124134554493, 40.252404989492945], [28.282124134554493, 40.25132701115201]]]}, "id": "+386432+81167", "properties": {"area_ha": 8.498213869481697, "count": 31, "label": 1, "mean_dnbr": 0.34615671031696954}}, {"type": "Feature", "geometry": {"geodesic": false, "type": "Polygon", "coordinates": [[[28.283202112895452, 40.22868946599219], [28.28374110206593, 40.22868946599219], [28.28374110206593, 40.23030643350361], [28.283202112895452, 40.23030643350361], [28.283202112895452, 40.23138441184455], [28.282663123724973, 40.23138441184455], [28.282663123724973, 40.231923401015024], [28.282124134554493, 40.231923401015024], [28.282124134554493, 40.229767444333135], [28.282663123724973, 40.229767444333135], [28.282663123724973, 40.22922845516266], [28.283202112895452, 40.22922845516266], [28.283202112895452, 40.22868946599219]]]}, "id": "+386433+81209", "properties": {"area_ha": 3.016525559469171, "count": 11, "label": 1, "mean_dnbr": 0.2179966557765946}}, {"type": "Feature", "geometry": {"geodesic": false, "type": "Polygon", "coordinates": [[[28.28374110206593, 40.190960224059175], [28.286436047918272, 40.190960224059175], [28.286436047918272, 40.19149921322964], [28.28697503708875, 40.19149921322964], [28.28697503708875, 40.19203820240011], [28.286436047918272, 40.19203820240011], [28.286436047918272, 40.192577191570585], [28.285897058747793, 40.192577191570585], [28.285897058747793, 40.19311618074106], [28.284819080406862, 40.19311618074106], [28.284819080406862, 40.194194159082], [28.28374110206593, 40.194194159082], [28.28374110206593, 40.194733148252475], [28.283202112895452, 40.194733148252475], [28.283202112895452, 40.19527213742295], [28.282124134554493, 40.19527213742295], [28.282124134554493, 40.19581112659342], [28.281585145384042, 40.19581112659342], [28.281585145384042, 40.19635011576389], [28.281046156213563, 40.19635011576389], [28.281046156213563, 40.196889104934364], [28.280507167043083, 40.196889104934364], [28.280507167043083, 40.19742809410483], [28.278351210361194, 40.19742809410483], [28.278351210361194, 40.196889104934364], [28.277812221190743, 40.196889104934364], [28.277812221190743, 40.19527213742295], [28.278890199531673, 40.19527213742295], [28.278890199531673, 40.194733148252475], [28.279429188702153, 40.194733148252475], [28.279429188702153, 40.194194159082], [28.280507167043083, 40.194194159082], [28.280507167043083, 40.19365516991153], [28.281046156213563, 40.19365516991153], [28.281046156213563, 40.19311618074106], [28.281585145384042, 40.19311618074106], [28.281585145384042, 40.192577191570585], [28.282124134554493, 40.192577191570585], [28.282124134554493, 40.19203820240011], [28.283202112895452, 40.19203820240011], [28.283202112895452, 40.19149921322964], [28.28374110206593, 40.19149921322964], [28.28374110206593, 40.190960224059175]]]}, "id": "+386438+81279", "properties": {"area_ha": 23.047575343156076, "count": 84, "label": 1, "mean_dnbr": 0.2814069892085955}}, {"type": "Feature", "geometry": {"geodesic": false, "type": "Polygon", "coordinates": [[[28.285897058747793, 40.26156780539097], [28.28697503708875, 40.26156780539097], [28.28697503708875, 40.26210679456144], [28.28751402625923, 40.26210679456144], [28.28751402625923, 40.263184772902385], [28.28697503708875, 40.263184772902385], [28.28697503708875, 40.26264578373191], [28.286436047918272, 40.26264578373191], [28.286436047918272, 40.26372376207285], [28.284819080406862, 40.26372376207285], [28.284819080406862, 40.26264578373191], [28.284280091236383, 40.26264578373191], [28.284280091236383, 40.26210679456144], [28.285897058747793, 40.26210679456144], [28.285897058747793, 40.26156780539097]]]}, "id": "+386439+81148", "properties": {"area_ha": 4.1114759432898165, "count": 15, "label": 1, "mean_dnbr": 0.3231289524376411}}, {"type": "Feature", "geometry": {"geodesic": false, "type": "Polygon", "coordinates": [[[28.286436047918272, 40.211441812537096], [28.28697503708875, 40.211441812537096], [28.28697503708875, 40.21198080170757], [28.288053015429682, 40.21198080170757], [28.288053015429682, 40.21305878004851], [28.28751402625923, 40.21305878004851], [28.28751402625923, 40.213597769218985], [28.285897058747793, 40.213597769218985], [28.285897058747793, 40.21251979087804], [28.286436047918272, 40.21251979087804], [28.286436047918272, 40.211441812537096]]]}, "id": "+386439+81241", "properties": {"area_ha": 3.017310795242492, "count": 11, "label": 1, "mean_dnbr": 0.19349019040407656}}, {"type": "Feature", "geometry": {"geodesic": false, "type": "Polygon", "coordinates": [[[28.285897058747793, 40.078850476601055], [28.28751402625923, 40.078850476601055], [28.28751402625923, 40.08046744411247], [28.28697503708875, 40.08046744411247], [28.28697503708875, 40.081006433282944], [28.284280091236383, 40.081006433282944], [28.284280091236383, 40.08046744411247], [28.28374110206593, 40.08046744411247], [28.28374110206593, 40.079928454942], [28.28535806957734, 40.079928454942], [28.28535806957734, 40.07938946577153], [28.285897058747793, 40.07938946577153], [28.285897058747793, 40.078850476601055]]]}, "id": "+386440+81487", "properties": {"area_ha": 5.221909068203283, "count": 19, "label": 1, "mean_dnbr": 0.2748682581939724}}, {"type": "Feature", "geometry": {"geodesic": false, "type": "Polygon", "coordinates": [[[28.28859200460016, 40.19365516991153], [28.28913099377064, 40.19365516991153], [28.28913099377064, 40.194194159082], [28.28966998294112, 40.194194159082], [28.28966998294112, 40.19635011576389], [28.28913099377064, 40.19635011576389], [28.28913099377064, 40.196889104934364], [28.28859200460016, 40.196889104934364], [28.28859200460016, 40.19742809410483], [28.288053015429682, 40.19742809410483], [28.288053015429682, 40.1979670832753], [28.28751402625923, 40.1979670832753], [28.28751402625923, 40.198506072445774], [28.28697503708875, 40.198506072445774], [28.28697503708875, 40.199045061616246], [28.286436047918272, 40.199045061616246], [28.286436047918272, 40.19958405078672], [28.285897058747793, 40.19958405078672], [28.285897058747793, 40.198506072445774], [28.28535806957734, 40.198506072445774], [28.28535806957734, 40.1979670832753], [28.285897058747793, 40.1979670832753], [28.285897058747793, 40.19742809410483], [28.28697503708875, 40.19742809410483], [28.28697503708875, 40.19635011576389], [28.285897058747793, 40.19635011576389], [28.285897058747793, 40.196889104934364], [28.28535806957734, 40.196889104934364], [28.28535806957734, 40.19742809410483], [28.284819080406862, 40.19742809410483], [28.284819080406862, 40.19635011576389], [28.285897058747793, 40.19635011576389], [28.285897058747793, 40.19581112659342], [28.286436047918272, 40.19581112659342], [28.286436047918272, 40.19527213742295], [28.28751402625923, 40.19527213742295], [28.28751402625923, 40.194733148252475], [28.288053015429682, 40.194733148252475], [28.288053015429682, 40.194194159082], [28.28859200460016, 40.194194159082], [28.28859200460016, 40.19365516991153]], [[28.28751402625923, 40.19581112659342], [28.28751402625923, 40.19635011576389], [28.28697503708875, 40.19635011576389], [28.28697503708875, 40.19581112659342], [28.28751402625923, 40.19581112659342]], [[28.28859200460016, 40.19527213742295], [28.28859200460016, 40.19581112659342], [28.288053015429682, 40.19581112659342], [28.288053015429682, 40.19527213742295], [28.28859200460016, 40.19527213742295]], [[28.28913099377064, 40.194194159082], [28.28913099377064, 40.194733148252475], [28.28859200460016, 40.194733148252475], [28.28859200460016, 40.194194159082], [28.28913099377064, 40.194194159082]]]}, "id": "+386443+81274", "properties": {"area_ha": 10.700275508443216, "count": 39, "label": 1, "mean_dnbr": 0.17106294959863377}}]}