{"type": "FeatureCollection", "columns": {"area_ha": "Number", "count": "Long<0, 4294967295>", "label": "Byte<0, 1>", "mean_dnbr": "Object", "system:index": "String"}, "features": [{"type": "Feature", "geometry": {"geodesic": false, "type": "Polygon", "coordinates": [[[28.090782979037044, 39.659516901974065], [28.092399946548454, 39.659516901974065], [28.092399946548454, 39.66005589114454], [28.092938935718934, 39.66005589114454], [28.092938935718934, 39.66167285865595], [28.091321968207524, 39.66167285865595], [28.091321968207524, 39.661133869485475], [28.090782979037044, 39.661133869485475], [28.090782979037044, 39.659516901974065]]]}, "id": "+386078+82265", "properties": {"area_ha": 3.871317311145347, "count": 14, "label": 1, "mean_dnbr": 0.3139439452409554}}, {"type": "Feature", "geometry": {"geodesic": false, "type": "Polygon", "coordinates": [[[28.125817275117697, 39.81528477224039], [28.126356264288177, 39.81528477224039], [28.126356264288177, 39.81582376141086], [28.126895253458656, 39.81582376141086], [28.126895253458656, 39.816362750581334], [28.126356264288177, 39.816362750581334], [28.126356264288177, 39.81582376141086], [28.125817275117697, 39.81582376141086], [28.125817275117697, 39.816901739751806], [28.126356264288177, 39.816901739751806], [28.126356264288177, 39.81744072892227], [28.125817275117697, 39.81744072892227], [28.125817275117697, 39.816901739751806], [28.125278285947246, 39.816901739751806], [28.125278285947246, 39.816362750581334], [28.122583340094877, 39.816362750581334], [28.122583340094877, 39.81528477224039], [28.123122329265357, 39.81528477224039], [28.123122329265357, 39.81582376141086], [28.123661318435808, 39.81582376141086], [28.123661318435808, 39.81528477224039], [28.125278285947246, 39.81528477224039], [28.125278285947246, 39.81582376141086], [28.125817275117697, 39.81582376141086], [28.125817275117697, 39.81528477224039]]]}, "id": "+386141+81976", "properties": {"area_ha": 3.8626070604098968, "count": 14, "label": 1, "mean_dnbr": 0.247294277160658}}, {"type": "Feature", "geometry": {"geodesic": false, "type": "Polygon", "coordinates": [[[28.132285145163365, 39.82822051233171], [28.133363123504324, 39.82822051233171], [28.133363123504324, 39.828759501502184], [28.134980091015734, 39.828759501502184], [28.134980091015734, 39.829298490672656], [28.133363123504324, 39.829298490672656], [28.133363123504324, 39.83037646901359], [28.132285145163365, 39.83037646901359], [28.132285145163365, 39.82983747984312], [28.131746155992886, 39.82983747984312], [28.131746155992886, 39.829298490672656], [28.132285145163365, 39.829298490672656], [28.132285145163365, 39.82822051233171]]]}, "id": "+386154+81952", "properties": {"area_ha": 3.310159549361029, "count": 12, "label": 1, "mean_dnbr": 0.2715605120729999}}, {"type": "Feature", "geometry": {"geodesic": false, "type": "Polygon", "coordinates": [[[28.137675036868075, 39.8627158192419], [28.139292004379513, 39.8627158192419], [28.139292004379513, 39.86487177592379], [28.137136047697624, 39.86487177592379], [28.137136047697624, 39.863793797582844], [28.137675036868075, 39.863793797582844], [28.137675036868075, 39.8627158192419]]]}, "id": "+386165+81888", "properties": {"area_ha": 3.859909903119012, "count": 14, "label": 1, "mean_dnbr": 0.3839655059258529}}, {"type": "Feature", "geometry": {"geodesic": false, "type": "Polygon", "coordinates": [[[28.140908971890923, 39.70802592731652], [28.142525939402333, 39.70802592731652], [28.142525939402333, 39.70856491648699], [28.144142906913743, 39.70856491648699], [28.144142906913743, 39.70964289482793], [28.141986950231853, 39.70964289482793], [28.141986950231853, 39.7101818839984], [28.140908971890923, 39.7101818839984], [28.140908971890923, 39.70802592731652]]]}, "id": "+386171+82175", "properties": {"area_ha": 4.697589164862927, "count": 17, "label": 1, "mean_dnbr": 0.3003020596272453}}, {"type": "Feature", "geometry": {"geodesic": false, "type": "Polygon", "coordinates": [[[28.141447961061374, 39.70317502478227], [28.142525939402333, 39.70317502478227], [28.142525939402333, 39.70371401395274], [28.143603917743263, 39.70371401395274], [28.143603917743263, 39.704791992293686], [28.141986950231853, 39.704791992293686], [28.141986950231853, 39.70533098146416], [28.141447961061374, 39.70533098146416], [28.141447961061374, 39.704791992293686], [28.140908971890923, 39.704791992293686], [28.140908971890923, 39.70371401395274], [28.141447961061374, 39.70371401395274], [28.141447961061374, 39.70317502478227]]]}, "id": "+386171+82184", "properties": {"area_ha": 3.592527209053045, "count": 13, "label": 1, "mean_dnbr": 0.2926077394938055}}, {"type": "Feature", "geometry": {"geodesic": false, "type": "Polygon", "coordinates": [[[28.15061077695941, 39.80666094551284], [28.15168875530034, 39.80666094551284], [28.15168875530034, 39.80989488053567], [28.15007178778893, 39.80989488053567], [28.15007178778893, 39.8093558913652], [28.149532798618452, 39.8093558913652], [28.149532798618452, 39.80773892385378], [28.15007178778893, 39.80773892385378], [28.15007178778893, 39.80719993468331], [28.15061077695941, 39.80719993468331], [28.15061077695941, 39.80666094551284]]]}, "id": "+386188+81992", "properties": {"area_ha": 5.51860998711836, "count": 20, "label": 1, "mean_dnbr": 0.5011378765331367}}, {"type": "Feature", "geometry": {"geodesic": false, "type": "Polygon", "coordinates": [[[28.171092365437346, 39.96081184826775], [28.172170343778276, 39.96081184826775], [28.172170343778276, 39.96242881577916], [28.171631354607797, 39.96242881577916], [28.171631354607797, 39.96350679412011], [28.171092365437346, 39.96350679412011], [28.171092365437346, 39.962967804949635], [28.170553376266867, 39.962967804949635], [28.170553376266867, 39.961350837438225], [28.171092365437346, 39.961350837438225], [28.171092365437346, 39.96081184826775]]]}, "id": "+386226+81706", "properties": {"area_ha": 3.028440268704068, "count": 11, "label": 1, "mean_dnbr": 0.1883315077429282}}, {"type": "Feature", "geometry": {"geodesic": false, "type": "Polygon", "coordinates": [[[28.172170343778276, 39.725812569942086], [28.174326300460166, 39.725812569942086], [28.174326300460166, 39.72689054828303], [28.172170343778276, 39.72689054828303], [28.172170343778276, 39.727429537453496], [28.171631354607797, 39.727429537453496], [28.171631354607797, 39.72689054828303], [28.171092365437346, 39.72689054828303], [28.171092365437346, 39.72635155911256], [28.172170343778276, 39.72635155911256], [28.172170343778276, 39.725812569942086]]]}, "id": "+386230+82142", "properties": {"area_ha": 3.038847106397427, "count": 11, "label": 1, "mean_dnbr": 0.16670093666980593}}, {"type": "Feature", "geometry": {"geodesic": false, "type": "Polygon", "coordinates": [[[28.180794170505834, 40.016866721996806], [28.181333159676285, 40.016866721996806], [28.181333159676285, 40.01794470033775], [28.184567094699133, 40.01794470033775], [28.184567094699133, 40.019022678678695], [28.184028105528654, 40.019022678678695], [28.184028105528654, 40.02010065701964], [28.182950127187723, 40.02010065701964], [28.182950127187723, 40.019022678678695], [28.180794170505834, 40.019022678678695], [28.180794170505834, 40.016866721996806]]]}, "id": "+386243+81602", "properties": {"area_ha": 5.501681846472716, "count": 20, "label": 1, "mean_dnbr": 0.28101240410166317}}, {"type": "Feature", "geometry": {"geodesic": false, "type": "Polygon", "coordinates": [[[28.185106083869584, 40.02063964619011], [28.186723051381023, 40.02063964619011], [28.186723051381023, 40.02171762453106], [28.186184062210543, 40.02171762453106], [28.186184062210543, 40.021178635360585], [28.185645073040064, 40.021178635360585], [28.185645073040064, 40.02171762453106], [28.185106083869584, 40.02171762453106], [28.185106083869584, 40.022795602871994], [28.184567094699133, 40.022795602871994], [28.184567094699133, 40.02387358121294], [28.183489116358174, 40.02387358121294], [28.183489116358174, 40.02333459204247], [28.182950127187723, 40.02333459204247], [28.182950127187723, 40.02387358121294], [28.181872148846765, 40.02387358121294], [28.181872148846765, 40.022795602871994], [28.182411138017244, 40.022795602871994], [28.182411138017244, 40.02225661370153], [28.184567094699133, 40.02225661370153], [28.184567094699133, 40.021178635360585], [28.185106083869584, 40.021178635360585], [28.185106083869584, 40.02063964619011]]]}, "id": "+386253+81595", "properties": {"area_ha": 5.776447761651015, "count": 21, "label": 1, "mean_dnbr": 0.3006301414134506}}, {"type": "Feature", "geometry": {"geodesic": false, "type": "Polygon", "coordinates": [[[28.20073676981329, 40.03573134296332], [28.2023537373247, 40.03573134296332], [28.2023537373247, 40.03627033213379], [28.20289272649515, 40.03627033213379], [28.20289272649515, 40.037348310474734], [28.2023537373247, 40.037348310474734], [28.2023537373247, 40.037887299645206], [28.20073676981329, 40.037887299645206], [28.20073676981329, 40.03680932130426], [28.20127575898374, 40.03680932130426], [28.20127575898374, 40.03627033213379], [28.20073676981329, 40.03627033213379], [28.20073676981329, 40.03573134296332]]]}, "id": "+386282+81567", "properties": {"area_ha": 3.5751471355998845, "count": 13, "label": 1, "mean_dnbr": 0.2648291337015507}}, {"type": "Feature", "geometry": {"geodesic": false, "type": "Polygon", "coordinates": [[[28.206126661518, 40.03249740794049], [28.20774362902941, 40.03249740794049], [28.20774362902941, 40.03303639711096], [28.20828261819989, 40.03303639711096], [28.20828261819989, 40.033575386281434], [28.20936059654082, 40.033575386281434], [28.20936059654082, 40.03411437545191], [28.209899585711298, 40.03411437545191], [28.209899585711298, 40.03465336462237], [28.20828261819989, 40.03465336462237], [28.20828261819989, 40.03411437545191], [28.20720463985893, 40.03411437545191], [28.20720463985893, 40.033575386281434], [28.20666565068848, 40.033575386281434], [28.20666565068848, 40.03303639711096], [28.206126661518, 40.03303639711096], [28.206126661518, 40.03249740794049]]]}, "id": "+386292+81573", "properties": {"area_ha": 3.57531667412412, "count": 13, "label": 1, "mean_dnbr": 0.2685232425729433}}, {"type": "Feature", "geometry": {"geodesic": false, "type": "Polygon", "coordinates": [[[28.222835325802606, 40.11765769687502], [28.226069260825454, 40.11765769687502], [28.226069260825454, 40.118735675215966], [28.223374314973086, 40.118735675215966], [28.223374314973086, 40.11927466438643], [28.222296336632155, 40.11927466438643], [28.222296336632155, 40.1198136535569], [28.221757347461676, 40.1198136535569], [28.221757347461676, 40.11819668604549], [28.222835325802606, 40.11819668604549], [28.222835325802606, 40.11765769687502]]]}, "id": "+386326+81415", "properties": {"area_ha": 4.94426530932471, "count": 18, "label": 1, "mean_dnbr": 0.4630524833296558}}, {"type": "Feature", "geometry": {"geodesic": false, "type": "Polygon", "coordinates": [[[28.225530271654975, 39.97913748006379], [28.226069260825454, 39.97913748006379], [28.226069260825454, 39.97967646923426], [28.227147239166385, 39.97967646923426], [28.227147239166385, 39.9807544475752], [28.227686228336864, 39.9807544475752], [28.227686228336864, 39.981832425916146], [28.226608249995905, 39.981832425916146], [28.226608249995905, 39.98129343674567], [28.226069260825454, 39.98129343674567], [28.226069260825454, 39.9807544475752], [28.225530271654975, 39.9807544475752], [28.225530271654975, 39.97913748006379]]]}, "id": "+386326+81672", "properties": {"area_ha": 3.3028566316829258, "count": 12, "label": 1, "mean_dnbr": 0.26735427365571995}}, {"type": "Feature", "geometry": {"geodesic": false, "type": "Polygon", "coordinates": [[[28.231998141700643, 40.04058224549756], [28.232537130871094, 40.04058224549756], [28.232537130871094, 40.041660223838505], [28.233615109212053, 40.041660223838505], [28.233615109212053, 40.04219921300898], [28.233076120041574, 40.04219921300898], [28.233076120041574, 40.04273820217945], [28.230920163359684, 40.04273820217945], [28.230920163359684, 40.04219921300898], [28.230381174189233, 40.04219921300898], [28.230381174189233, 40.041660223838505], [28.231459152530164, 40.041660223838505], [28.231459152530164, 40.04112123466803], [28.231998141700643, 40.04112123466803], [28.231998141700643, 40.04058224549756]]]}, "id": "+386338+81558", "properties": {"area_ha": 3.574884859776972, "count": 13, "label": 1, "mean_dnbr": 0.17847028880575402}}, {"type": "Feature", "geometry": {"geodesic": false, "type": "Polygon", "coordinates": [[[28.231998141700643, 39.99099524181417], [28.232537130871094, 39.99099524181417], [28.232537130871094, 39.99153423098464], [28.231998141700643, 39.99153423098464], [28.231998141700643, 39.99207322015511], [28.232537130871094, 39.99207322015511], [28.232537130871094, 39.99261220932558], [28.233615109212053, 39.99261220932558], [28.233615109212053, 39.99315119849605], [28.233076120041574, 39.99315119849605], [28.233076120041574, 39.99369018766652], [28.231998141700643, 39.99369018766652], [28.231998141700643, 39.99315119849605], [28.231459152530164, 39.99315119849605], [28.231459152530164, 39.99261220932558], [28.230381174189233, 39.99261220932558], [28.230381174189233, 39.99207322015511], [28.230920163359684, 39.99207322015511], [28.230920163359684, 39.99153423098464], [28.231998141700643, 39.99153423098464], [28.231998141700643, 39.99099524181417]]]}, "id": "+386338+81650", "properties": {"area_ha": 3.57746969097447, "count": 13, "label": 1, "mean_dnbr": 0.22234114816788303}}, {"type": "Feature", "geometry": {"geodesic": false, "type": "Polygon", "coordinates": [[[28.231459152530164, 40.02602953789483], [28.233615109212053, 40.02602953789483], [28.233615109212053, 40.0265685270653], [28.233076120041574, 40.0265685270653], [28.233076120041574, 40.02710751623577], [28.233615109212053, 40.02710751623577], [28.233615109212053, 40.027646505406246], [28.233076120041574, 40.027646505406246], [28.233076120041574, 40.02818549457672], [28.231998141700643, 40.02818549457672], [28.231998141700643, 40.027646505406246], [28.231459152530164, 40.027646505406246], [28.231459152530164, 40.02818549457672], [28.230920163359684, 40.02818549457672], [28.230920163359684, 40.0265685270653], [28.231459152530164, 40.0265685270653], [28.231459152530164, 40.02602953789483]], [[28.232537130871094, 40.0265685270653], [28.232537130871094, 40.02710751623577], [28.231459152530164, 40.02710751623577], [28.231459152530164, 40.0265685270653], [28.232537130871094, 40.0265685270653]]]}, "id": "+386340+81585", "properties": {"area_ha": 3.8507015927226713, "count": 14, "label": 1, "mean_dnbr": 0.1753675965105881}}, {"type": "Feature", "geometry": {"geodesic": false, "type": "Polygon", "coordinates": [[[28.233615109212053, 40.17802448396785], [28.234154098382533, 40.17802448396785], [28.234154098382533, 40.178563473138325], [28.233615109212053, 40.178563473138325], [28.233615109212053, 40.1791024623088], [28.234154098382533, 40.1791024623088], [28.234154098382533, 40.17964145147926], [28.235232076723463, 40.17964145147926], [28.235232076723463, 40.18071942982021], [28.234154098382533, 40.18071942982021], [28.234154098382533, 40.18125841899068], [28.233615109212053, 40.18125841899068], [28.233615109212053, 40.18071942982021], [28.234154098382533, 40.18071942982021], [28.234154098382533, 40.180180440649735], [28.233615109212053, 40.180180440649735], [28.233615109212053, 40.1791024623088], [28.233076120041574, 40.1791024623088], [28.233076120041574, 40.178563473138325], [28.231998141700643, 40.178563473138325], [28.231998141700643, 40.180180440649735], [28.233076120041574, 40.180180440649735], [28.233076120041574, 40.18071942982021], [28.231998141700643, 40.18071942982021], [28.231998141700643, 40.180180440649735], [28.231459152530164, 40.180180440649735], [28.231459152530164, 40.1791024623088], [28.230381174189233, 40.1791024623088], [28.230381174189233, 40.178563473138325], [28.231998141700643, 40.178563473138325], [28.231998141700643, 40.17802448396785], [28.233076120041574, 40.17802448396785], [28.233076120041574, 40.178563473138325], [28.233615109212053, 40.178563473138325], [28.233615109212053, 40.17802448396785]]]}, "id": "+386341+81303", "properties": {"area_ha": 4.939828394751193, "count": 18, "label": 1, "mean_dnbr": 0.3779260926940993}}, {"type": "Feature", "geometry": {"geodesic": false, "type": "Polygon", "coordinates": [[[28.236849044234873, 39.99207322015511], [28.237927022575832, 39.99207322015511], [28.237927022575832, 39.99315119849605], [28.238466011746283, 39.99315119849605], [28.238466011746283, 39.99369018766652], [28.237927022575832, 39.99369018766652], [28.237927022575832, 39.994229176836996], [28.236310055064422, 39.994229176836996], [28.236310055064422, 39.99476816600747], [28.235771065893942, 39.99476816600747], [28.235771065893942, 39.99369018766652], [28.236849044234873, 39.99369018766652], [28.236849044234873, 39.99315119849605], [28.236310055064422, 39.99315119849605], [28.236310055064422, 39.99261220932558], [28.236849044234873, 39.99261220932558], [28.236849044234873, 39.99207322015511]], [[28.237927022575832, 39.99315119849605], [28.237927022575832, 39.99369018766652], [28.237388033405352, 39.99369018766652], [28.237388033405352, 39.99315119849605], [28.237927022575832, 39.99315119849605]]]}, "id": "+386348+81648", "properties": {"area_ha": 3.3022390428988846, "count": 12, "label": 1, "mean_dnbr": 0.18437683427430637}}, {"type": "Feature", "geometry": {"geodesic": false, "type": "Polygon", "coordinates": [[[28.24331691428054, 40.040043256327095], [28.24385590345102, 40.040043256327095], [28.24385590345102, 40.04058224549756], [28.24439489262147, 40.04058224549756], [28.24439489262147, 40.041660223838505], [28.24493388179195, 40.041660223838505], [28.24493388179195, 40.04219921300898], [28.24116095759865, 40.04219921300898], [28.24116095759865, 40.04112123466803], [28.24169994676913, 40.04112123466803], [28.24169994676913, 40.04058224549756], [28.24331691428054, 40.04058224549756], [28.24331691428054, 40.040043256327095]]]}, "id": "+386359+81559", "properties": {"area_ha": 5.224898699777845, "count": 19, "label": 1, "mean_dnbr": 0.27878378531501735}}, {"type": "Feature", "geometry": {"geodesic": false, "type": "Polygon", "coordinates": [[[28.24385590345102, 40.204973942491435], [28.24493388179195, 40.204973942491435], [28.24493388179195, 40.20551293166191], [28.24439489262147, 40.20551293166191], [28.24439489262147, 40.20605192083238], [28.24331691428054, 40.20605192083238], [28.24331691428054, 40.20659091000285], [28.24547287096243, 40.20659091000285], [28.24547287096243, 40.207129899173324], [28.24493388179195, 40.207129899173324], [28.24493388179195, 40.2076688883438], [28.24277792511006, 40.2076688883438], [28.24277792511006, 40.20605192083238], [28.24223893593961, 40.20605192083238], [28.24223893593961, 40.20551293166191], [28.24385590345102, 40.20551293166191], [28.24385590345102, 40.204973942491435]]]}, "id": "+386361+81253", "properties": {"area_ha": 4.389211963810761, "count": 16, "label": 1, "mean_dnbr": 0.24329794329799764}}, {"type": "Feature", "geometry": {"geodesic": false, "type": "Polygon", "coordinates": [[[28.24331691428054, 40.199045061616246], [28.24601186013291, 40.199045061616246], [28.24601186013291, 40.20012303995719], [28.24655084930336, 40.20012303995719], [28.24655084930336, 40.20066202912766], [28.24708983847384, 40.20066202912766], [28.24708983847384, 40.20174000746861], [28.24762882764432, 40.20174000746861], [28.24762882764432, 40.20227899663908], [28.2481678168148, 40.20227899663908], [28.2481678168148, 40.20281798580955], [28.24708983847384, 40.20281798580955], [28.24708983847384, 40.20335697498002], [28.2481678168148, 40.20335697498002], [28.2481678168148, 40.20389596415049], [28.24978478432621, 40.20389596415049], [28.24978478432621, 40.20443495332096], [28.25140175183762, 40.20443495332096], [28.25140175183762, 40.204973942491435], [28.25247973017855, 40.204973942491435], [28.25247973017855, 40.20551293166191], [28.2519407410081, 40.20551293166191], [28.2519407410081, 40.20605192083238], [28.25086276266714, 40.20605192083238], [28.25086276266714, 40.20659091000285], [28.25032377349666, 40.20659091000285], [28.25032377349666, 40.207129899173324], [28.24978478432621, 40.207129899173324], [28.24978478432621, 40.20820787751427], [28.24870680598525, 40.20820787751427], [28.24870680598525, 40.2076688883438], [28.2481678168148, 40.2076688883438], [28.2481678168148, 40.20820787751427], [28.24762882764432, 40.20820787751427], [28.24762882764432, 40.2076688883438], [28.24708983847384, 40.2076688883438], [28.24708983847384, 40.20659091000285], [28.24655084930336, 40.20659091000285], [28.24655084930336, 40.2076688883438], [28.24601186013291, 40.2076688883438], [28.24601186013291, 40.20659091000285], [28.24655084930336, 40.20659091000285], [28.24655084930336, 40.20605192083238], [28.24601186013291, 40.20605192083238], [28.24601186013291, 40.20443495332096], [28.24547287096243, 40.20443495332096], [28.24547287096243, 40.20389596415049], [28.24439489262147, 40.20389596415049], [28.24439489262147, 40.20281798580955], [28.24655084930336, 40.20281798580955], [28.24655084930336, 40.20227899663908], [28.24547287096243, 40.20227899663908], [28.24547287096243, 40.20174000746861], [28.24385590345102, 40.20174000746861], [28.24385590345102, 40.201201018298136], [28.24169994676913, 40.201201018298136], [28.24169994676913, 40.20066202912766], [28.24116095759865, 40.20066202912766], [28.24116095759865, 40.20012303995719], [28.24223893593961, 40.20012303995719], [28.24223893593961, 40.19958405078672], [28.24331691428054, 40.19958405078672], [28.24331691428054, 40.199045061616246]]]}, "id": "+386363+81264", "properties": {"area_ha": 33.46913786377908, "count": 122, "label": 1, "mean_dnbr": 0.2689578790204461}}, {"type": "Feature", "geometry": {"geodesic": false, "type": "Polygon", "coordinates": [[[28.24655084930336, 40.10526094595417], [28.24708983847384, 40.10526094595417], [28.24708983847384, 40.105799935124644], [28.2481678168148, 40.105799935124644], [28.2481678168148, 40.106338924295116], [28.24870680598525, 40.106338924295116], [28.24870680598525, 40.105799935124644], [28.24978478432621, 40.105799935124644], [28.24978478432621, 40.106338924295116], [28.24924579515573, 40.106338924295116], [28.24924579515573, 40.10687791346558], [28.24870680598525, 40.10687791346558], [28.24870680598525, 40.107416902636054], [28.24708983847384, 40.107416902636054], [28.24708983847384, 40.107955891806526], [28.24655084930336, 40.107955891806526], [28.24655084930336, 40.108494880977], [28.24601186013291, 40.108494880977], [28.24601186013291, 40.10903387014747], [28.24547287096243, 40.10903387014747], [28.24547287096243, 40.10957285931794], [28.24439489262147, 40.10957285931794], [28.24439489262147, 40.110111848488415], [28.24331691428054, 40.110111848488415], [28.24331691428054, 40.10957285931794], [28.24223893593961, 40.10957285931794], [28.24223893593961, 40.10903387014747], [28.24169994676913, 40.10903387014747], [28.24169994676913, 40.108494880977], [28.24277792511006, 40.108494880977], [28.24277792511006, 40.107416902636054], [28.24385590345102, 40.107416902636054], [28.24385590345102, 40.10687791346558], [28.24439489262147, 40.10687791346558], [28.24439489262147, 40.106338924295116], [28.24601186013291, 40.106338924295116], [28.24601186013291, 40.105799935124644], [28.24655084930336, 40.105799935124644], [28.24655084930336, 40.10526094595417]]]}, "id": "+386365+81438", "properties": {"area_ha": 15.384619372042879, "count": 56, "label": 1, "mean_dnbr": 0.5351692122449779}}, {"type": "Feature", "geometry": {"geodesic": false, "type": "Polygon", "coordinates": [[[28.254096697689988, 39.99369018766652], [28.255713665201398, 39.99369018766652], [28.255713665201398, 39.99476816600747], [28.257330632712808, 39.99476816600747], [28.257330632712808, 39.99530715517794], [28.25625265437185, 39.99530715517794], [28.25625265437185, 39.99584614434841], [28.25463568686044, 39.99584614434841], [28.25463568686044, 39.99530715517794], [28.254096697689988, 39.99530715517794], [28.254096697689988, 39.99369018766652]]]}, "id": "+386381+81645", "properties": {"area_ha": 4.127707907854726, "count": 15, "label": 1, "mean_dnbr": 0.23003099459287}}, {"type": "Feature", "geometry": {"geodesic": false, "type": "Polygon", "coordinates": [[[28.25625265437185, 40.11657971853408], [28.257330632712808, 40.11657971853408], [28.257330632712808, 40.118735675215966], [28.255713665201398, 40.118735675215966], [28.255713665201398, 40.11819668604549], [28.25517467603092, 40.11819668604549], [28.25517467603092, 40.11765769687502], [28.255713665201398, 40.11765769687502], [28.255713665201398, 40.11711870770455], [28.25625265437185, 40.11711870770455], [28.25625265437185, 40.11657971853408]]]}, "id": "+386384+81417", "properties": {"area_ha": 3.296218534655552, "count": 12, "label": 1, "mean_dnbr": 0.1867811532280031}}, {"type": "Feature", "geometry": {"geodesic": false, "type": "Polygon", "coordinates": [[[28.25355770851951, 40.093942173374266], [28.257330632712808, 40.093942173374266], [28.257330632712808, 40.095020151715204], [28.257869621883287, 40.095020151715204], [28.257869621883287, 40.095559140885676], [28.25679164354233, 40.095559140885676], [28.25679164354233, 40.09609813005615], [28.25463568686044, 40.09609813005615], [28.25463568686044, 40.09663711922662], [28.25355770851951, 40.09663711922662], [28.25355770851951, 40.09717610839709], [28.25140175183762, 40.09717610839709], [28.25140175183762, 40.09609813005615], [28.25086276266714, 40.09609813005615], [28.25086276266714, 40.095020151715204], [28.25247973017855, 40.095020151715204], [28.25247973017855, 40.09448116254474], [28.25355770851951, 40.09448116254474], [28.25355770851951, 40.093942173374266]]]}, "id": "+386384+81459", "properties": {"area_ha": 13.738719962781039, "count": 50, "label": 1, "mean_dnbr": 0.7018299131127478}}, {"type": "Feature", "geometry": {"geodesic": false, "type": "Polygon", "coordinates": [[[28.25625265437185, 40.05567394227077], [28.257330632712808, 40.05567394227077], [28.257330632712808, 40.05729090978219], [28.257869621883287, 40.05729090978219], [28.257869621883287, 40.05782989895266], [28.255713665201398, 40.05782989895266], [28.255713665201398, 40.05675192061172], [28.25625265437185, 40.05675192061172], [28.25625265437185, 40.05567394227077]]]}, "id": "+386384+81530", "properties": {"area_ha": 3.0242386849449043, "count": 11, "label": 1, "mean_dnbr": 0.24647565772704774}}, {"type": "Feature", "geometry": {"geodesic": false, "type": "Polygon", "coordinates": [[[28.257330632712808, 40.18772628903634], [28.257869621883287, 40.18772628903634], [28.257869621883287, 40.18826527820681], [28.25840861105374, 40.18826527820681], [28.25840861105374, 40.188804267377286], [28.257869621883287, 40.188804267377286], [28.257869621883287, 40.18934325654776], [28.257330632712808, 40.18934325654776], [28.257330632712808, 40.18988224571823], [28.25625265437185, 40.18988224571823], [28.25625265437185, 40.1904212348887], [28.255713665201398, 40.1904212348887], [28.255713665201398, 40.190960224059175], [28.25301871934903, 40.190960224059175], [28.25301871934903, 40.18988224571823], [28.25355770851951, 40.18988224571823], [28.25355770851951, 40.18934325654776], [28.254096697689988, 40.18934325654776], [28.254096697689988, 40.18988224571823], [28.25517467603092, 40.18988224571823], [28.25517467603092, 40.18934325654776], [28.255713665201398, 40.18934325654776], [28.255713665201398, 40.188804267377286], [28.25625265437185, 40.188804267377286], [28.25625265437185, 40.18826527820681], [28.257330632712808, 40.18826527820681], [28.257330632712808, 40.18772628903634]]]}, "id": "+386385+81285", "properties": {"area_ha": 6.85986482474287, "count": 25, "label": 1, "mean_dnbr": 0.2441827035567875}}, {"type": "Feature", "geometry": {"geodesic": false, "type": "Polygon", "coordinates": [[[28.257330632712808, 40.12143062106832], [28.257869621883287, 40.12143062106832], [28.257869621883287, 40.12196961023879], [28.25840861105374, 40.12196961023879], [28.25840861105374, 40.12358657775021], [28.257869621883287, 40.12358657775021], [28.257869621883287, 40.12412556692068], [28.257330632712808, 40.12412556692068], [28.257330632712808, 40.12358657775021], [28.25625265437185, 40.12358657775021], [28.25625265437185, 40.12304758857974], [28.255713665201398, 40.12304758857974], [28.255713665201398, 40.12196961023879], [28.257330632712808, 40.12196961023879], [28.257330632712808, 40.12143062106832]]]}, "id": "+386385+81408", "properties": {"area_ha": 4.394630607606813, "count": 16, "label": 1, "mean_dnbr": 0.3417011807696302}}, {"type": "Feature", "geometry": {"geodesic": false, "type": "Polygon", "coordinates": [[[28.257330632712808, 40.107416902636054], [28.25840861105374, 40.107416902636054], [28.25840861105374, 40.107955891806526], [28.260564567735628, 40.107955891806526], [28.260564567735628, 40.108494880977], [28.261103556906107, 40.108494880977], [28.261103556906107, 40.10903387014747], [28.260564567735628, 40.10903387014747], [28.260564567735628, 40.10957285931794], [28.259486589394697, 40.10957285931794], [28.259486589394697, 40.10903387014747], [28.25840861105374, 40.10903387014747], [28.25840861105374, 40.107955891806526], [28.257330632712808, 40.107955891806526], [28.257330632712808, 40.107416902636054]]]}, "id": "+386386+81434", "properties": {"area_ha": 3.57138101465769, "count": 13, "label": 1, "mean_dnbr": 0.2075946940397717}}, {"type": "Feature", "geometry": {"geodesic": false, "type": "Polygon", "coordinates": [[[28.257869621883287, 39.71826672155548], [28.258947600224218, 39.71826672155548], [28.258947600224218, 39.719344699896425], [28.25840861105374, 39.719344699896425], [28.25840861105374, 39.7198836890669], [28.258947600224218, 39.7198836890669], [28.258947600224218, 39.72042267823737], [28.259486589394697, 39.72042267823737], [28.259486589394697, 39.7198836890669], [28.260025578565177, 39.7198836890669], [28.260025578565177, 39.720961667407835], [28.25840861105374, 39.720961667407835], [28.25840861105374, 39.7198836890669], [28.25679164354233, 39.7198836890669], [28.25679164354233, 39.71880571072595], [28.257869621883287, 39.71880571072595], [28.257869621883287, 39.71826672155548]]]}, "id": "+386387+82156", "properties": {"area_ha": 3.868013008684624, "count": 14, "label": 1, "mean_dnbr": 0.2143590325872307}}, {"type": "Feature", "geometry": {"geodesic": false, "type": "Polygon", "coordinates": [[[28.257869621883287, 40.273425567141345], [28.259486589394697, 40.273425567141345], [28.259486589394697, 40.27396455631182], [28.260025578565177, 40.27396455631182], [28.260025578565177, 40.27504253465276], [28.259486589394697, 40.27504253465276], [28.259486589394697, 40.27558152382323], [28.25840861105374, 40.27558152382323], [28.25840861105374, 40.27450354548229], [28.257869621883287, 40.27450354548229], [28.257869621883287, 40.273425567141345]]]}, "id": "+386388+81126", "properties": {"area_ha": 3.2886079984858747, "count": 12, "label": 1, "mean_dnbr": 0.21659989336487886}}, {"type": "Feature", "geometry": {"geodesic": false, "type": "Polygon", "coordinates": [[[28.261103556906107, 40.19581112659342], [28.262720524417517, 40.19581112659342], [28.262720524417517, 40.19635011576389], [28.263259513587997, 40.19635011576389], [28.263259513587997, 40.19742809410483], [28.262181535247038, 40.19742809410483], [28.262181535247038, 40.196889104934364], [28.260564567735628, 40.196889104934364], [28.260564567735628, 40.1979670832753], [28.260025578565177, 40.1979670832753], [28.260025578565177, 40.19742809410483], [28.259486589394697, 40.19742809410483], [28.259486589394697, 40.196889104934364], [28.260025578565177, 40.196889104934364], [28.260025578565177, 40.19635011576389], [28.261103556906107, 40.19635011576389], [28.261103556906107, 40.19581112659342]]]}, "id": "+386394+81270", "properties": {"area_ha": 3.8411153250259193, "count": 14, "label": 1, "mean_dnbr": 0.2704513168135623}}, {"type": "Feature", "geometry": {"geodesic": false, "type": "Polygon", "coordinates": [[[28.262181535247038, 40.20928585585521], [28.263798502758476, 40.20928585585521], [28.263798502758476, 40.20982484502568], [28.264337491928927, 40.20982484502568], [28.264337491928927, 40.210902823366624], [28.265415470269886, 40.210902823366624], [28.265415470269886, 40.211441812537096], [28.266493448610817, 40.211441812537096], [28.266493448610817, 40.21198080170757], [28.264337491928927, 40.21198080170757], [28.264337491928927, 40.21251979087804], [28.263798502758476, 40.21251979087804], [28.263798502758476, 40.21198080170757], [28.262720524417517, 40.21198080170757], [28.262720524417517, 40.211441812537096], [28.262181535247038, 40.211441812537096], [28.262181535247038, 40.21036383419615], [28.261642546076587, 40.21036383419615], [28.261642546076587, 40.20982484502568], [28.262181535247038, 40.20982484502568], [28.262181535247038, 40.20928585585521]]]}, "id": "+386396+81245", "properties": {"area_ha": 7.132014573966955, "count": 26, "label": 1, "mean_dnbr": 0.2507580547303765}}, {"type": "Feature", "geometry": {"geodesic": false, "type": "Polygon", "coordinates": [[[28.267571426951775, 40.19527213742295], [28.268649405292706, 40.19527213742295], [28.268649405292706, 40.19581112659342], [28.269727383633665, 40.19581112659342], [28.269727383633665, 40.19635011576389], [28.269188394463185, 40.19635011576389], [28.269188394463185, 40.196889104934364], [28.268110416122227, 40.196889104934364], [28.268110416122227, 40.19742809410483], [28.267032437781296, 40.19742809410483], [28.267032437781296, 40.1979670832753], [28.266493448610817, 40.1979670832753], [28.266493448610817, 40.198506072445774], [28.265954459440366, 40.198506072445774], [28.265954459440366, 40.199045061616246], [28.264876481099407, 40.199045061616246], [28.264876481099407, 40.198506072445774], [28.265954459440366, 40.198506072445774], [28.265954459440366, 40.196889104934364], [28.267032437781296, 40.196889104934364], [28.267032437781296, 40.19581112659342], [28.267571426951775, 40.19581112659342], [28.267571426951775, 40.19527213742295]]]}, "id": "+386405+81271", "properties": {"area_ha": 5.487294508401182, "count": 20, "label": 1, "mean_dnbr": 0.3067919850978124}}, {"type": "Feature", "geometry": {"geodesic": false, "type": "Polygon", "coordinates": [[[28.269727383633665, 40.04219921300898], [28.270266372804116, 40.04219921300898], [28.270266372804116, 40.04273820217945], [28.272422329486005, 40.04273820217945], [28.272422329486005, 40.04327719134992], [28.273500307826964, 40.04327719134992], [28.273500307826964, 40.043816180520395], [28.274039296997415, 40.043816180520395], [28.274039296997415, 40.04435516969087], [28.273500307826964, 40.04435516969087], [28.273500307826964, 40.043816180520395], [28.271883340315554, 40.043816180520395], [28.271883340315554, 40.04435516969087], [28.272961318656485, 40.04435516969087], [28.272961318656485, 40.04489415886134], [28.270266372804116, 40.04489415886134], [28.270266372804116, 40.04435516969087], [28.269727383633665, 40.04435516969087], [28.269727383633665, 40.04219921300898]]]}, "id": "+386408+81555", "properties": {"area_ha": 6.324627526413918, "count": 23, "label": 1, "mean_dnbr": 0.20242697749769528}}, {"type": "Feature", "geometry": {"geodesic": false, "type": "Polygon", "coordinates": [[[28.269727383633665, 39.717188743214535], [28.270266372804116, 39.717188743214535], [28.270266372804116, 39.71826672155548], [28.269727383633665, 39.71826672155548], [28.269727383633665, 39.719344699896425], [28.268649405292706, 39.719344699896425], [28.268649405292706, 39.7198836890669], [28.267571426951775, 39.7198836890669], [28.267571426951775, 39.72042267823737], [28.267032437781296, 39.72042267823737], [28.267032437781296, 39.719344699896425], [28.267571426951775, 39.719344699896425], [28.267571426951775, 39.71880571072595], [28.268649405292706, 39.71880571072595], [28.268649405292706, 39.71826672155548], [28.269188394463185, 39.71826672155548], [28.269188394463185, 39.71772773238501], [28.269727383633665, 39.71772773238501], [28.269727383633665, 39.717188743214535]]]}, "id": "+386408+82158", "properties": {"area_ha": 3.591760114242942, "count": 13, "label": 1, "mean_dnbr": 0.258435093626234}}, {"type": "Feature", "geometry": {"geodesic": false, "type": "Polygon", "coordinates": [[[28.270805361974595, 40.01632773282633], [28.271883340315554, 40.01632773282633], [28.271883340315554, 40.01740571116728], [28.272422329486005, 40.01740571116728], [28.272422329486005, 40.01794470033775], [28.274039296997415, 40.01794470033775], [28.274039296997415, 40.01740571116728], [28.274578286167895, 40.01740571116728], [28.274578286167895, 40.01848368950822], [28.272961318656485, 40.01848368950822], [28.272961318656485, 40.01956166784917], [28.272422329486005, 40.01956166784917], [28.272422329486005, 40.019022678678695], [28.271883340315554, 40.019022678678695], [28.271883340315554, 40.01848368950822], [28.272422329486005, 40.01848368950822], [28.272422329486005, 40.01794470033775], [28.271883340315554, 40.01794470033775], [28.271883340315554, 40.01740571116728], [28.271344351145075, 40.01740571116728], [28.271344351145075, 40.016866721996806], [28.270805361974595, 40.016866721996806], [28.270805361974595, 40.01632773282633]]]}, "id": "+386411+81603", "properties": {"area_ha": 3.30104893454553, "count": 12, "label": 1, "mean_dnbr": 0.2098587257733098}}, {"type": "Feature", "geometry": {"geodesic": false, "type": "Polygon", "coordinates": [[[28.271344351145075, 40.26372376207285], [28.272961318656485, 40.26372376207285], [28.272961318656485, 40.26426275124332], [28.271883340315554, 40.26426275124332], [28.271883340315554, 40.264801740413795], [28.272422329486005, 40.264801740413795], [28.272422329486005, 40.26534072958427], [28.273500307826964, 40.26534072958427], [28.273500307826964, 40.26641870792521], [28.272961318656485, 40.26641870792521], [28.272961318656485, 40.266957697095684], [28.273500307826964, 40.266957697095684], [28.273500307826964, 40.267496686266156], [28.272422329486005, 40.267496686266156], [28.272422329486005, 40.266957697095684], [28.271883340315554, 40.266957697095684], [28.271883340315554, 40.26641870792521], [28.270805361974595, 40.26641870792521], [28.270805361974595, 40.26587971875474], [28.270266372804116, 40.26587971875474], [28.270266372804116, 40.26534072958427], [28.270805361974595, 40.26534072958427], [28.270805361974595, 40.26426275124332], [28.271344351145075, 40.26426275124332], [28.271344351145075, 40.26372376207285]]]}, "id": "+386413+81144", "properties": {"area_ha": 6.30399041196154, "count": 23, "label": 1, "mean_dnbr": 0.20266871060824793}}, {"type": "Feature", "geometry": {"geodesic": false, "type": "Polygon", "coordinates": [[[28.274039296997415, 40.22922845516266], [28.275656264508854, 40.22922845516266], [28.275656264508854, 40.229767444333135], [28.276195253679305, 40.229767444333135], [28.276195253679305, 40.23138441184455], [28.276734242849784, 40.23138441184455], [28.276734242849784, 40.231923401015024], [28.276195253679305, 40.231923401015024], [28.276195253679305, 40.232462390185496], [28.275656264508854, 40.232462390185496], [28.275656264508854, 40.23138441184455], [28.274578286167895, 40.23138441184455], [28.274578286167895, 40.23084542267408], [28.274039296997415, 40.23084542267408], [28.274039296997415, 40.22922845516266]]]}, "id": "+386418+81208", "properties": {"area_ha": 4.661880992663968, "count": 17, "label": 1, "mean_dnbr": 0.27623725488052536}}, {"type": "Feature", "geometry": {"geodesic": false, "type": "Polygon", "coordinates": [[[28.274578286167895, 39.71826672155548], [28.275656264508854, 39.71826672155548], [28.275656264508854, 39.719344699896425], [28.276195253679305, 39.719344699896425], [28.276195253679305, 39.7198836890669], [28.277273232020264, 39.7198836890669], [28.277273232020264, 39.72042267823737], [28.275117275338374, 39.72042267823737], [28.275117275338374, 39.7198836890669], [28.274578286167895, 39.7198836890669], [28.274578286167895, 39.719344699896425], [28.274039296997415, 39.719344699896425], [28.274039296997415, 39.71880571072595], [28.274578286167895, 39.71880571072595], [28.274578286167895, 39.71826672155548]]]}, "id": "+386418+82156", "properties": {"area_ha": 3.315448024712646, "count": 12, "label": 1, "mean_dnbr": 0.2634454014670684}}, {"type": "Feature", "geometry": {"geodesic": false, "type": "Polygon", "coordinates": [[[28.274578286167895, 40.28690029640314], [28.276195253679305, 40.28690029640314], [28.276195253679305, 40.28851726391455], [28.276734242849784, 40.28851726391455], [28.276734242849784, 40.28905625308502], [28.275656264508854, 40.28905625308502], [28.275656264508854, 40.289595242255494], [28.274578286167895, 40.289595242255494], [28.274578286167895, 40.28905625308502], [28.274039296997415, 40.28905625308502], [28.274039296997415, 40.28797827474408], [28.275117275338374, 40.28797827474408], [28.275117275338374, 40.28743928557361], [28.274578286167895, 40.28743928557361], [28.274578286167895, 40.28690029640314]]]}, "id": "+386419+81101", "properties": {"area_ha": 4.383911946862651, "count": 16, "label": 1, "mean_dnbr": 0.21850764915308932}}, {"type": "Feature", "geometry": {"geodesic": false, "type": "Polygon", "coordinates": [[[28.277273232020264, 40.18772628903634], [28.278351210361194, 40.18772628903634], [28.278351210361194, 40.18826527820681], [28.278890199531673, 40.18826527820681], [28.278890199531673, 40.188804267377286], [28.279429188702153, 40.188804267377286], [28.279429188702153, 40.18934325654776], [28.277812221190743, 40.18934325654776], [28.277812221190743, 40.18988224571823], [28.276734242849784, 40.18988224571823], [28.276734242849784, 40.1904212348887], [28.276195253679305, 40.1904212348887], [28.276195253679305, 40.18988224571823], [28.275117275338374, 40.18988224571823], [28.275117275338374, 40.188804267377286], [28.276734242849784, 40.188804267377286], [28.276734242849784, 40.18826527820681], [28.277273232020264, 40.18826527820681], [28.277273232020264, 40.18772628903634]]]}, "id": "+386423+81285", "properties": {"area_ha": 5.48793036094289, "count": 20, "label": 1, "mean_dnbr": 0.5334276399052877}}, {"type": "Feature", "geometry": {"geodesic": false, "type": "Polygon", "coordinates": [[[28.277812221190743, 40.02602953789483], [28.278351210361194, 40.02602953789483], [28.278351210361194, 40.02710751623577], [28.277812221190743, 40.02710751623577], [28.277812221190743, 40.02872448374718], [28.277273232020264, 40.02872448374718], [28.277273232020264, 40.029263472917656], [28.275117275338374, 40.029263472917656], [28.275117275338374, 40.02872448374718], [28.275656264508854, 40.02872448374718], [28.275656264508854, 40.02818549457672], [28.276734242849784, 40.02818549457672], [28.276734242849784, 40.027646505406246], [28.277273232020264, 40.027646505406246], [28.277273232020264, 40.02710751623577], [28.277812221190743, 40.02710751623577], [28.277812221190743, 40.02602953789483]]]}, "id": "+386423+81585", "properties": {"area_ha": 3.57560712025645, "count": 13, "label": 1, "mean_dnbr": 0.32575734162532183}}, {"type": "Feature", "geometry": {"geodesic": false, "type": "Polygon", "coordinates": [[[28.279968177872604, 40.27665950216417], [28.280507167043083, 40.27665950216417], [28.280507167043083, 40.27773748050512], [28.281585145384042, 40.27773748050512], [28.281585145384042, 40.27827646967559], [28.282124134554493, 40.27827646967559], [28.282124134554493, 40.279354448016534], [28.281585145384042, 40.279354448016534], [28.281585145384042, 40.27881545884606], [28.280507167043083, 40.27881545884606], [28.280507167043083, 40.27827646967559], [28.278890199531673, 40.27827646967559], [28.278890199531673, 40.277198491334644], [28.279968177872604, 40.277198491334644], [28.279968177872604, 40.27665950216417]]]}, "id": "+386427+81120", "properties": {"area_ha": 3.562473320881976, "count": 13, "label": 1, "mean_dnbr": 0.1554069735306702}}, {"type": "Feature", "geometry": {"geodesic": false, "type": "Polygon", "coordinates": [[[28.279429188702153, 40.20066202912766], [28.281046156213563, 40.20066202912766], [28.281046156213563, 40.20174000746861], [28.282124134554493, 40.20174000746861], [28.282124134554493, 40.20389596415049], [28.281046156213563, 40.20389596415049], [28.281046156213563, 40.20443495332096], [28.279968177872604, 40.20443495332096], [28.279968177872604, 40.20551293166191], [28.279429188702153, 40.20551293166191], [28.279429188702153, 40.20605192083238], [28.278890199531673, 40.20605192083238], [28.278890199531673, 40.204973942491435], [28.277273232020264, 40.204973942491435], [28.277273232020264, 40.20443495332096], [28.276734242849784, 40.20443495332096], [28.276734242849784, 40.20281798580955], [28.278351210361194, 40.20281798580955], [28.278351210361194, 40.20227899663908], [28.278890199531673, 40.20227899663908], [28.278890199531673, 40.20174000746861], [28.279429188702153, 40.20174000746861], [28.279429188702153, 40.20066202912766]], [[28.279429188702153, 40.20443495332096], [28.279429188702153, 40.204973942491435], [28.278890199531673, 40.204973942491435], [28.278890199531673, 40.20443495332096], [28.279429188702153, 40.20443495332096]], [[28.279968177872604, 40.20389596415049], [28.279968177872604, 40.20443495332096], [28.279429188702153, 40.20443495332096], [28.279429188702153, 40.20389596415049], [28.279968177872604, 40.20389596415049]]]}, "id": "+386428+81261", "properties": {"area_ha": 14.539981325515217, "count": 53, "label": 1, "mean_dnbr": 0.24618613723131666}}, {"type": "Feature", "geometry": {"geodesic": false, "type": "Polygon", "coordinates": [[[28.280507167043083, 39.99369018766652], [28.281046156213563, 39.99369018766652], [28.281046156213563, 39.99476816600747], [28.280507167043083, 39.99476816600747], [28.280507167043083, 39.99530715517794], [28.279968177872604, 39.99530715517794], [28.279968177872604, 39.996385133518885], [28.277812221190743, 39.996385133518885], [28.277812221190743, 39.99584614434841], [28.278351210361194, 39.99584614434841], [28.278351210361194, 39.99530715517794], [28.279968177872604, 39.99530715517794], [28.279968177872604, 39.994229176836996], [28.280507167043083, 39.994229176836996], [28.280507167043083, 39.99369018766652]]]}, "id": "+386428+81645", "properties": {"area_ha": 3.026966266867078, "count": 11, "label": 1, "mean_dnbr": 0.21280045021074867}}, {"type": "Feature", "geometry": {"geodesic": false, "type": "Polygon", "coordinates": [[[28.279968177872604, 40.213597769218985], [28.282124134554493, 40.213597769218985], [28.282124134554493, 40.21467574755993], [28.282663123724973, 40.21467574755993], [28.282663123724973, 40.21575372590087], [28.283202112895452, 40.21575372590087], [28.283202112895452, 40.21629271507134], [28.282124134554493, 40.21629271507134], [28.282124134554493, 40.21790968258276], [28.281046156213563, 40.21790968258276], [28.281046156213563, 40.21844867175323], [28.279429188702153, 40.21844867175323], [28.279429188702153, 40.21790968258276], [28.279968177872604, 40.21790968258276], [28.279968177872604, 40.217370693412285], [28.278351210361194, 40.217370693412285], [28.278351210361194, 40.21683170424181], [28.277812221190743, 40.21683170424181], [28.277812221190743, 40.21629271507134], [28.276734242849784, 40.21629271507134], [28.276734242849784, 40.21575372590087], [28.277273232020264, 40.21575372590087], [28.277273232020264, 40.2152147367304], [28.275656264508854, 40.2152147367304], [28.275656264508854, 40.21467574755993], [28.275117275338374, 40.21467574755993], [28.275117275338374, 40.21413675838946], [28.276195253679305, 40.21413675838946], [28.276195253679305, 40.21467574755993], [28.276734242849784, 40.21467574755993], [28.276734242849784, 40.21413675838946], [28.278351210361194, 40.21413675838946], [28.278351210361194, 40.21467574755993], [28.278890199531673, 40.21467574755993], [28.278890199531673, 40.2152147367304], [28.279429188702153, 40.2152147367304], [28.279429188702153, 40.21413675838946], [28.279968177872604, 40.21413675838946], [28.279968177872604, 40.213597769218985]], [[28.280507167043083, 40.2152147367304], [28.280507167043083, 40.21683170424181], [28.279968177872604, 40.21683170424181], [28.279968177872604, 40.21575372590087], [28.279429188702153, 40.21575372590087], [28.279429188702153, 40.2152147367304], [28.280507167043083, 40.2152147367304]]]}, "id": "+386430+81237", "properties": {"area_ha": 18.103035838028276, "count": 66, "label": 1, "mean_dnbr": 0.23074528926382606}}, {"type": "Feature", "geometry": {"geodesic": false, "type": "Polygon", "coordinates": [[[28.281046156213563, 40.06591473650973], [28.282124134554493, 40.06591473650973], [28.282124134554493, 40.066453725680205], [28.283202112895452, 40.066453725680205], [28.283202112895452, 40.06699271485068], [28.282124134554493, 40.06699271485068], [28.282124134554493, 40.06807069319162], [28.280507167043083, 40.06807069319162], [28.280507167043083, 40.06699271485068], [28.281046156213563, 40.06699271485068], [28.281046156213563, 40.06591473650973]]]}, "id": "+386430+81511", "properties": {"area_ha": 3.2986754105781095, "count": 12, "label": 1, "mean_dnbr": 0.15230804741538975}}, {"type": "Feature", "geometry": {"geodesic": false, "type": "Polygon", "coordinates": [[[28.281046156213563, 40.087474303328605], [28.284819080406862, 40.087474303328605], [28.284819080406862, 40.08855228166955], [28.28535806957734, 40.08855228166955], [28.28535806957734, 40.08963026001049], [28.285897058747793, 40.08963026001049], [28.285897058747793, 40.09070823835143], [28.286436047918272, 40.09070823835143], [28.286436047918272, 40.09178621669238], [28.28697503708875, 40.09178621669238], [28.28697503708875, 40.093942173374266], [28.28751402625923, 40.093942173374266], [28.28751402625923, 40.09448116254474], [28.288053015429682, 40.09448116254474], [28.288053015429682, 40.09609813005615], [28.28697503708875, 40.09609813005615], [28.28697503708875, 40.09663711922662], [28.284819080406862, 40.09663711922662], [28.284819080406862, 40.09609813005615], [28.284280091236383, 40.09609813005615], [28.284280091236383, 40.095559140885676], [28.283202112895452, 40.095559140885676], [28.283202112895452, 40.09609813005615], [28.28374110206593, 40.09609813005615], [28.28374110206593, 40.09663711922662], [28.283202112895452, 40.09663711922662], [28.283202112895452, 40.09609813005615], [28.282663123724973, 40.09609813005615], [28.282663123724973, 40.095559140885676], [28.283202112895452, 40.095559140885676], [28.283202112895452, 40.095020151715204], [28.282663123724973, 40.095020151715204], [28.282663123724973, 40.09448116254474], [28.283202112895452, 40.09448116254474], [28.283202112895452, 40.095020151715204], [28.28374110206593, 40.095020151715204], [28.28374110206593, 40.09448116254474], [28.284280091236383, 40.09448116254474], [28.284280091236383, 40.093403184203794], [28.283202112895452, 40.093403184203794], [28.283202112895452, 40.093942173374266], [28.281585145384042, 40.093942173374266], [28.281585145384042, 40.093403184203794], [28.282663123724973, 40.093403184203794], [28.282663123724973, 40.09286419503332], [28.284280091236383, 40.09286419503332], [28.284280091236383, 40.09178621669238], [28.284819080406862, 40.09178621669238], [28.284819080406862, 40.091247227521905], [28.28374110206593, 40.091247227521905], [28.28374110206593, 40.09070823835143], [28.284280091236383, 40.09070823835143], [28.284280091236383, 40.09016924918096], [28.28374110206593, 40.09016924918096], [28.28374110206593, 40.08963026001049], [28.283202112895452, 40.08963026001049], [28.283202112895452, 40.09016924918096], [28.281046156213563, 40.09016924918096], [28.281046156213563, 40.08963026001049], [28.280507167043083, 40.08963026001049], [28.280507167043083, 40.09016924918096], [28.278890199531673, 40.09016924918096], [28.278890199531673, 40.08963026001049], [28.278351210361194, 40.08963026001049], [28.278351210361194, 40.08855228166955], [28.279968177872604, 40.08855228166955], [28.279968177872604, 40.08801329249908], [28.280507167043083, 40.08801329249908], [28.280507167043083, 40.08855228166955], [28.281585145384042, 40.08855228166955], [28.281585145384042, 40.08801329249908], [28.281046156213563, 40.08801329249908], [28.281046156213563, 40.087474303328605]], [[28.284819080406862, 40.095020151715204], [28.284819080406862, 40.095559140885676], [28.284280091236383, 40.095559140885676], [28.284280091236383, 40.095020151715204], [28.284819080406862, 40.095020151715204]], [[28.279968177872604, 40.089091270840015], [28.279968177872604, 40.08963026001049], [28.279429188702153, 40.08963026001049], [28.279429188702153, 40.089091270840015], [28.279968177872604, 40.089091270840015]]]}, "id": "+386435+81471", "properties": {"area_ha": 33.79907178223498, "count": 123, "label": 1, "mean_dnbr": 0.3974314997154607}}, {"type": "Feature", "geometry": {"geodesic": false, "type": "Polygon", "coordinates": [[[28.283202112895452, 40.04219921300898], [28.284819080406862, 40.04219921300898], [28.284819080406862, 40.04327719134992], [28.284280091236383, 40.04327719134992], [28.284280091236383, 40.04543314803181], [28.284819080406862, 40.04543314803181], [28.284819080406862, 40.04651112637275], [28.28374110206593, 40.04651112637275], [28.28374110206593, 40.04543314803181], [28.282663123724973, 40.04543314803181], [28.282663123724973, 40.04435516969087], [28.283202112895452, 40.04435516969087], [28.283202112895452, 40.04219921300898]]]}, "id": "+386435+81555", "properties": {"area_ha": 5.499626787623377, "count": 20, "label": 1, "mean_dnbr": 0.27416038797234304}}, {"type": "Feature", "geometry": {"geodesic": false, "type": "Polygon", "coordinates": [[[28.284819080406862, 40.201201018298136], [28.285897058747793, 40.201201018298136], [28.285897058747793, 40.20174000746861], [28.286436047918272, 40.20174000746861], [28.286436047918272, 40.20281798580955], [28.285897058747793, 40.20281798580955], [28.285897058747793, 40.20389596415049], [28.284280091236383, 40.20389596415049], [28.284280091236383, 40.20335697498002], [28.28374110206593, 40.20335697498002], [28.28374110206593, 40.20227899663908], [28.284280091236383, 40.20227899663908], [28.284280091236383, 40.20174000746861], [28.284819080406862, 40.20174000746861], [28.284819080406862, 40.201201018298136]]]}, "id": "+386437+81260", "properties": {"area_ha": 4.938150969614586, "count": 18, "label": 1, "mean_dnbr": 0.28176713290607136}}, {"type": "Feature", "geometry": {"geodesic": false, "type": "Polygon", "coordinates": [[[28.282124134554493, 40.22006563926465], [28.286436047918272, 40.22006563926465], [28.286436047918272, 40.22114361760559], [28.283202112895452, 40.22114361760559], [28.283202112895452, 40.221682606776056], [28.282663123724973, 40.221682606776056], [28.282663123724973, 40.22114361760559], [28.282124134554493, 40.22114361760559], [28.282124134554493, 40.22006563926465]]]}, "id": "+386438+81225", "properties": {"area_ha": 4.6625347484387865, "count": 17, "label": 1, "mean_dnbr": 0.28413114483370483}}, {"type": "Feature", "geometry": {"geodesic": false, "type": "Polygon", "coordinates": [[[28.284280091236383, 40.190960224059175], [28.286436047918272, 40.190960224059175], [28.286436047918272, 40.19149921322964], [28.28697503708875, 40.19149921322964], [28.28697503708875, 40.19203820240011], [28.285897058747793, 40.19203820240011], [28.285897058747793, 40.192577191570585], [28.28535806957734, 40.192577191570585], [28.28535806957734, 40.19311618074106], [28.284280091236383, 40.19311618074106], [28.284280091236383, 40.194194159082], [28.283202112895452, 40.194194159082], [28.283202112895452, 40.194733148252475], [28.282663123724973, 40.194733148252475], [28.282663123724973, 40.19527213742295], [28.281585145384042, 40.19527213742295], [28.281585145384042, 40.19581112659342], [28.281046156213563, 40.19581112659342], [28.281046156213563, 40.19635011576389], [28.280507167043083, 40.19635011576389], [28.280507167043083, 40.196889104934364], [28.279968177872604, 40.196889104934364], [28.279968177872604, 40.19742809410483], [28.279429188702153, 40.19742809410483], [28.279429188702153, 40.19635011576389], [28.277812221190743, 40.19635011576389], [28.277812221190743, 40.19581112659342], [28.278890199531673, 40.19581112659342], [28.278890199531673, 40.19527213742295], [28.279429188702153, 40.19527213742295], [28.279429188702153, 40.194733148252475], [28.279968177872604, 40.194733148252475], [28.279968177872604, 40.194194159082], [28.281046156213563, 40.194194159082], [28.281046156213563, 40.19311618074106], [28.282124134554493, 40.19311618074106], [28.282124134554493, 40.192577191570585], [28.282663123724973, 40.192577191570585], [28.282663123724973, 40.19203820240011], [28.28374110206593, 40.19203820240011], [28.28374110206593, 40.19149921322964], [28.284280091236383, 40.19149921322964], [28.284280091236383, 40.190960224059175]], [[28.279968177872604, 40.19581112659342], [28.279968177872604, 40.19635011576389], [28.279429188702153, 40.19635011576389], [28.279429188702153, 40.19581112659342], [28.279968177872604, 40.19581112659342]]]}, "id": "+386438+81279", "properties": {"area_ha": 16.18824851129414, "count": 59, "label": 1, "mean_dnbr": 0.2519935705036027}}, {"type": "Feature", "geometry": {"geodesic": false, "type": "Polygon", "coordinates": [[[28.282663123724973, 40.163471776365114], [28.28751402625923, 40.163471776365114], [28.28751402625923, 40.16508874387653], [28.286436047918272, 40.16508874387653], [28.286436047918272, 40.16454975470606], [28.28535806957734, 40.16454975470606], [28.28535806957734, 40.164010765535586], [28.284819080406862, 40.164010765535586], [28.284819080406862, 40.16454975470606], [28.284280091236383, 40.16454975470606], [28.284280091236383, 40.164010765535586], [28.28374110206593, 40.164010765535586], [28.28374110206593, 40.16454975470606], [28.283202112895452, 40.16454975470606], [28.283202112895452, 40.16508874387653], [28.281585145384042, 40.16508874387653], [28.281585145384042, 40.166166722217476], [28.281046156213563, 40.166166722217476], [28.281046156213563, 40.16508874387653], [28.279968177872604, 40.16508874387653], [28.279968177872604, 40.165627733047], [28.280507167043083, 40.165627733047], [28.280507167043083, 40.167783689728886], [28.282124134554493, 40.167783689728886], [28.282124134554493, 40.16832267889936], [28.279429188702153, 40.16832267889936], [28.279429188702153, 40.167783689728886], [28.278351210361194, 40.167783689728886], [28.278351210361194, 40.16832267889936], [28.277273232020264, 40.16832267889936], [28.277273232020264, 40.16724470055841], [28.276734242849784, 40.16724470055841], [28.276734242849784, 40.167783689728886], [28.275117275338374, 40.167783689728886], [28.275117275338374, 40.16832267889936], [28.273500307826964, 40.16832267889936], [28.273500307826964, 40.16724470055841], [28.272422329486005, 40.16724470055841], [28.272422329486005, 40.16670571138795], [28.273500307826964, 40.16670571138795], [28.273500307826964, 40.16724470055841], [28.274578286167895, 40.16724470055841], [28.274578286167895, 40.16670571138795], [28.279968177872604, 40.16670571138795], [28.279968177872604, 40.166166722217476], [28.279429188702153, 40.166166722217476], [28.279429188702153, 40.16508874387653], [28.278890199531673, 40.16508874387653], [28.278890199531673, 40.164010765535586], [28.281585145384042, 40.164010765535586], [28.281585145384042, 40.163471776365114], [28.282124134554493, 40.163471776365114], [28.282124134554493, 40.164010765535586], [28.282663123724973, 40.164010765535586], [28.282663123724973, 40.163471776365114]]]}, "id": "+386440+81330", "properties": {"area_ha": 20.586587194341288, "count": 75, "label": 1, "mean_dnbr": 0.3127273272009494}}, {"type": "Feature", "geometry": {"geodesic": false, "type": "Polygon", "coordinates": [[[28.288053015429682, 40.242164195253984], [28.28859200460016, 40.242164195253984], [28.28859200460016, 40.24270318442446], [28.28966998294112, 40.24270318442446], [28.28966998294112, 40.244859141106346], [28.28913099377064, 40.244859141106346], [28.28913099377064, 40.245937119447284], [28.28859200460016, 40.245937119447284], [28.28859200460016, 40.2437811627654], [28.288053015429682, 40.2437811627654], [28.288053015429682, 40.242164195253984]]]}, "id": "+386442+81184", "properties": {"area_ha": 3.564270183979385, "count": 13, "label": 1, "mean_dnbr": 0.27644694885668786}}]}