{"type": "FeatureCollection", "columns": {"area_ha": "Number", "count": "Long<0, 4294967295>", "label": "Byte<0, 1>", "mean_dnbr": "Object", "system:index": "String"}, "features": [{"type": "Feature", "geometry": {"geodesic": false, "type": "Polygon", "coordinates": [[[30.860109336920715, 36.932231699387195], [30.862265293602604, 36.932231699387195], [30.862265293602604, 36.93384866689861], [30.859570347750235, 36.93384866689861], [30.859570347750235, 36.93330967772814], [30.860109336920715, 36.93330967772814], [30.860109336920715, 36.932231699387195]]]}, "id": "+391217+87325", "properties": {"area_ha": 3.732548755664444, "count": 13, "label": 1, "mean_dnbr": 0.20337697531156973}}, {"type": "Feature", "geometry": {"geodesic": false, "type": "Polygon", "coordinates": [[[30.876818001205322, 36.93061473187578], [30.878434968716732, 36.93061473187578], [30.878434968716732, 36.93169271021672], [30.87789597954628, 36.93169271021672], [30.87789597954628, 36.93277068855767], [30.8773569903758, 36.93277068855767], [30.8773569903758, 36.932231699387195], [30.87627901203487, 36.932231699387195], [30.87627901203487, 36.93115372104625], [30.876818001205322, 36.93115372104625], [30.876818001205322, 36.93061473187578]]]}, "id": "+391247+87328", "properties": {"area_ha": 3.158367709686361, "count": 11, "label": 1, "mean_dnbr": 0.21929130791821738}}, {"type": "Feature", "geometry": {"geodesic": false, "type": "Polygon", "coordinates": [[[30.8773569903758, 36.95217429869465], [30.87951294705769, 36.95217429869465], [30.87951294705769, 36.95271328786512], [30.88059092539862, 36.95271328786512], [30.88059092539862, 36.95433025537653], [30.88005193622817, 36.95433025537653], [30.88005193622817, 36.954869244547005], [30.87951294705769, 36.954869244547005], [30.87951294705769, 36.95433025537653], [30.87789597954628, 36.95433025537653], [30.87789597954628, 36.95271328786512], [30.8773569903758, 36.95271328786512], [30.8773569903758, 36.95217429869465]]]}, "id": "+391249+87288", "properties": {"area_ha": 5.740840038311837, "count": 20, "label": 1, "mean_dnbr": 0.2427730143850288}}, {"type": "Feature", "geometry": {"geodesic": false, "type": "Polygon", "coordinates": [[[30.92640500488872, 36.98235769224107], [30.92802197240013, 36.98235769224107], [30.92802197240013, 36.98397465975248], [30.9269439940592, 36.98397465975248], [30.9269439940592, 36.98505263809342], [30.92586601571827, 36.98505263809342], [30.92586601571827, 36.98451364892295], [30.92640500488872, 36.98451364892295], [30.92640500488872, 36.98235769224107]]]}, "id": "+391339+87232", "properties": {"area_ha": 3.443140726987209, "count": 12, "label": 1, "mean_dnbr": 0.25869711131541473}}, {"type": "Feature", "geometry": {"geodesic": false, "type": "Polygon", "coordinates": [[[30.964673235992223, 36.85839018303257], [30.965212225162702, 36.85839018303257], [30.965212225162702, 36.85892917220304], [30.964673235992223, 36.85892917220304], [30.964673235992223, 36.85946816137351], [30.965751214333153, 36.85946816137351], [30.965751214333153, 36.85892917220304], [30.966290203503632, 36.85892917220304], [30.966290203503632, 36.85946816137351], [30.966829192674112, 36.85946816137351], [30.966829192674112, 36.860007150543986], [30.965751214333153, 36.860007150543986], [30.965751214333153, 36.86054613971446], [30.965212225162702, 36.86054613971446], [30.965212225162702, 36.86108512888493], [30.964673235992223, 36.86108512888493], [30.964673235992223, 36.8616241180554], [30.964134246821743, 36.8616241180554], [30.964134246821743, 36.86108512888493], [30.964673235992223, 36.86108512888493], [30.964673235992223, 36.86054613971446], [30.964134246821743, 36.86054613971446], [30.964134246821743, 36.860007150543986], [30.963595257651264, 36.860007150543986], [30.963595257651264, 36.85946816137351], [30.964134246821743, 36.85946816137351], [30.964134246821743, 36.85892917220304], [30.964673235992223, 36.85892917220304], [30.964673235992223, 36.85839018303257]]]}, "id": "+391408+87462", "properties": {"area_ha": 4.023517534665993, "count": 14, "label": 1, "mean_dnbr": 0.19330652325724962}}, {"type": "Feature", "geometry": {"geodesic": false, "type": "Polygon", "coordinates": [[[30.96736818184459, 36.85946816137351], [30.967907171015042, 36.85946816137351], [30.967907171015042, 36.860007150543986], [30.970063127696932, 36.860007150543986], [30.970063127696932, 36.86054613971446], [30.969524138526452, 36.86054613971446], [30.969524138526452, 36.8616241180554], [30.970063127696932, 36.8616241180554], [30.970063127696932, 36.86108512888493], [30.97060211686741, 36.86108512888493], [30.97060211686741, 36.862163107225875], [30.968446160185522, 36.862163107225875], [30.968446160185522, 36.8616241180554], [30.967907171015042, 36.8616241180554], [30.967907171015042, 36.862163107225875], [30.96736818184459, 36.862163107225875], [30.96736818184459, 36.8616241180554], [30.966829192674112, 36.8616241180554], [30.966829192674112, 36.86108512888493], [30.966290203503632, 36.86108512888493], [30.966290203503632, 36.8616241180554], [30.965751214333153, 36.8616241180554], [30.965751214333153, 36.86108512888493], [30.966290203503632, 36.86108512888493], [30.966290203503632, 36.86054613971446], [30.96736818184459, 36.86054613971446], [30.96736818184459, 36.85946816137351]], [[30.967907171015042, 36.86054613971446], [30.967907171015042, 36.8616241180554], [30.96736818184459, 36.8616241180554], [30.96736818184459, 36.86054613971446], [30.967907171015042, 36.86054613971446]]]}, "id": "+391413+87460", "properties": {"area_ha": 6.322575074928983, "count": 22, "label": 1, "mean_dnbr": 0.24532290117182448}}, {"type": "Feature", "geometry": {"geodesic": false, "type": "Polygon", "coordinates": [[[30.97329706271978, 36.86324108556681], [30.97491403023119, 36.86324108556681], [30.97491403023119, 36.863780074737285], [30.97329706271978, 36.863780074737285], [30.97329706271978, 36.86485805307823], [30.97221908437882, 36.86485805307823], [30.97221908437882, 36.86431906390776], [30.97060211686741, 36.86431906390776], [30.97060211686741, 36.863780074737285], [30.97221908437882, 36.863780074737285], [30.97221908437882, 36.86324108556681], [30.9727580735493, 36.86324108556681], [30.9727580735493, 36.863780074737285], [30.97329706271978, 36.863780074737285], [30.97329706271978, 36.86324108556681]]]}, "id": "+391426+87453", "properties": {"area_ha": 3.1611679012576923, "count": 11, "label": 1, "mean_dnbr": 0.2995591008518908}}, {"type": "Feature", "geometry": {"geodesic": false, "type": "Polygon", "coordinates": [[[31.005636412948064, 36.91282808925021], [31.006714391289023, 36.91282808925021], [31.006714391289023, 36.91390606759116], [31.007253380459474, 36.91390606759116], [31.007253380459474, 36.9149840459321], [31.006175402118544, 36.9149840459321], [31.006175402118544, 36.915523035102574], [31.005636412948064, 36.915523035102574], [31.005636412948064, 36.91282808925021]]]}, "id": "+391485+87361", "properties": {"area_ha": 3.1590902690940954, "count": 11, "label": 1, "mean_dnbr": 0.2506433753509915}}, {"type": "Feature", "geometry": {"geodesic": false, "type": "Polygon", "coordinates": [[[31.02881294727834, 36.9187569701254], [31.02935193644882, 36.9187569701254], [31.02935193644882, 36.91929595929587], [31.0298909256193, 36.91929595929587], [31.0298909256193, 36.92037393763682], [31.03096890396023, 36.92037393763682], [31.03096890396023, 36.92145191597776], [31.02881294727834, 36.92145191597776], [31.02881294727834, 36.9187569701254]]]}, "id": "+391527+87350", "properties": {"area_ha": 3.733167282340606, "count": 13, "label": 1, "mean_dnbr": 0.357858292174721}}, {"type": "Feature", "geometry": {"geodesic": false, "type": "Polygon", "coordinates": [[[31.03150789313071, 36.94786238533087], [31.032046882301188, 36.94786238533087], [31.032046882301188, 36.94894036367182], [31.037975763176377, 36.94894036367182], [31.037975763176377, 36.94947935284229], [31.037436774005897, 36.94947935284229], [31.037436774005897, 36.95001834201276], [31.037975763176377, 36.95001834201276], [31.037975763176377, 36.950557331183234], [31.038514752346856, 36.950557331183234], [31.038514752346856, 36.951096320353706], [31.03150789313071, 36.951096320353706], [31.03150789313071, 36.950557331183234], [31.032046882301188, 36.950557331183234], [31.032046882301188, 36.94894036367182], [31.03150789313071, 36.94894036367182], [31.03150789313071, 36.94786238533087]]]}, "id": "+391532+87296", "properties": {"area_ha": 13.491675145210738, "count": 47, "label": 1, "mean_dnbr": 0.45327118679499784}}, {"type": "Feature", "geometry": {"geodesic": false, "type": "Polygon", "coordinates": [[[31.033663849812598, 36.886956609067575], [31.034202838983077, 36.886956609067575], [31.034202838983077, 36.888573576578985], [31.034741828153557, 36.888573576578985], [31.034741828153557, 36.89180751160182], [31.034202838983077, 36.89180751160182], [31.034202838983077, 36.89234650077229], [31.03312486064212, 36.89234650077229], [31.03312486064212, 36.89180751160182], [31.032585871471667, 36.89180751160182], [31.032585871471667, 36.8901905440904], [31.03312486064212, 36.8901905440904], [31.03312486064212, 36.88803458740851], [31.033663849812598, 36.88803458740851], [31.033663849812598, 36.886956609067575]]]}, "id": "+391536+87409", "properties": {"area_ha": 7.756575234279278, "count": 27, "label": 1, "mean_dnbr": 0.31325646054823886}}, {"type": "Feature", "geometry": {"geodesic": false, "type": "Polygon", "coordinates": [[[31.037436774005897, 36.91660101344352], [31.039053741517307, 36.91660101344352], [31.039053741517307, 36.91714000261399], [31.040131719858266, 36.91714000261399], [31.040131719858266, 36.9187569701254], [31.039592730687787, 36.9187569701254], [31.039592730687787, 36.919834948466345], [31.036358795664967, 36.919834948466345], [31.036358795664967, 36.91929595929587], [31.036897784835418, 36.91929595929587], [31.036897784835418, 36.9187569701254], [31.037436774005897, 36.9187569701254], [31.037436774005897, 36.91660101344352]]]}, "id": "+391545+87354", "properties": {"area_ha": 8.328068161304005, "count": 29, "label": 1, "mean_dnbr": 0.5464121408961419}}, {"type": "Feature", "geometry": {"geodesic": false, "type": "Polygon", "coordinates": [[[31.040131719858266, 36.97696780053635], [31.040670709028745, 36.97696780053635], [31.040670709028745, 36.97750678970682], [31.041209698199197, 36.97750678970682], [31.041209698199197, 36.97858476804776], [31.041748687369676, 36.97858476804776], [31.041748687369676, 36.97912375721823], [31.041209698199197, 36.97912375721823], [31.041209698199197, 36.979662746388705], [31.039053741517307, 36.979662746388705], [31.039053741517307, 36.97750678970682], [31.040131719858266, 36.97750678970682], [31.040131719858266, 36.97696780053635]]]}, "id": "+391548+87242", "properties": {"area_ha": 5.16505832415403, "count": 18, "label": 1, "mean_dnbr": 0.2798155324444978}}, {"type": "Feature", "geometry": {"geodesic": false, "type": "Polygon", "coordinates": [[[31.038514752346856, 36.89450245745417], [31.041209698199197, 36.89450245745417], [31.041209698199197, 36.89665841413606], [31.040670709028745, 36.89665841413606], [31.040670709028745, 36.897197403306535], [31.039592730687787, 36.897197403306535], [31.039592730687787, 36.89611942496559], [31.039053741517307, 36.89611942496559], [31.039053741517307, 36.895041446624646], [31.038514752346856, 36.895041446624646], [31.038514752346856, 36.89450245745417]]]}, "id": "+391549+87395", "properties": {"area_ha": 5.170660776981724, "count": 18, "label": 1, "mean_dnbr": 0.5028516611822447}}, {"type": "Feature", "geometry": {"geodesic": false, "type": "Polygon", "coordinates": [[[31.041748687369676, 36.93762159109191], [31.044443633222045, 36.93762159109191], [31.044443633222045, 36.938699569432856], [31.040131719858266, 36.938699569432856], [31.040131719858266, 36.938160580262384], [31.041748687369676, 36.938160580262384], [31.041748687369676, 36.93762159109191]]]}, "id": "+391555+87315", "properties": {"area_ha": 3.7323294051557614, "count": 13, "label": 1, "mean_dnbr": 0.3023621730953873}}, {"type": "Feature", "geometry": {"geodesic": false, "type": "Polygon", "coordinates": [[[31.043365654881086, 36.923607872659645], [31.045521611562975, 36.923607872659645], [31.045521611562975, 36.92468585100059], [31.044982622392496, 36.92468585100059], [31.044982622392496, 36.92414686183012], [31.044443633222045, 36.92414686183012], [31.044443633222045, 36.92468585100059], [31.043904644051565, 36.92468585100059], [31.043904644051565, 36.92522484017106], [31.044443633222045, 36.92522484017106], [31.044443633222045, 36.925763829341534], [31.043904644051565, 36.925763829341534], [31.043904644051565, 36.92522484017106], [31.042287676540155, 36.92522484017106], [31.042287676540155, 36.925763829341534], [31.042826665710606, 36.925763829341534], [31.042826665710606, 36.926302818512006], [31.042287676540155, 36.926302818512006], [31.042287676540155, 36.925763829341534], [31.041748687369676, 36.925763829341534], [31.041748687369676, 36.92468585100059], [31.042287676540155, 36.92468585100059], [31.042287676540155, 36.92414686183012], [31.043365654881086, 36.92414686183012], [31.043365654881086, 36.923607872659645]]]}, "id": "+391557+87341", "properties": {"area_ha": 4.594401650729858, "count": 16, "label": 1, "mean_dnbr": 0.24845921219625683}}, {"type": "Feature", "geometry": {"geodesic": false, "type": "Polygon", "coordinates": [[[31.044982622392496, 36.895041446624646], [31.047138579074385, 36.895041446624646], [31.047138579074385, 36.89558043579512], [31.048755546585795, 36.89558043579512], [31.048755546585795, 36.89665841413606], [31.046599589903934, 36.89665841413606], [31.046599589903934, 36.89611942496559], [31.046060600733455, 36.89611942496559], [31.046060600733455, 36.89665841413606], [31.044443633222045, 36.89665841413606], [31.044443633222045, 36.89558043579512], [31.044982622392496, 36.89558043579512], [31.044982622392496, 36.895041446624646]]]}, "id": "+391560+87394", "properties": {"area_ha": 5.457911644605546, "count": 19, "label": 1, "mean_dnbr": 0.4508738226779916}}, {"type": "Feature", "geometry": {"geodesic": false, "type": "Polygon", "coordinates": [[[31.051450492438164, 36.91390606759116], [31.052528470779123, 36.91390606759116], [31.052528470779123, 36.9149840459321], [31.053067459949574, 36.9149840459321], [31.053067459949574, 36.916062024273046], [31.053606449120053, 36.916062024273046], [31.053606449120053, 36.917678991784456], [31.053067459949574, 36.917678991784456], [31.053067459949574, 36.91821798095493], [31.051989481608643, 36.91821798095493], [31.051989481608643, 36.91714000261399], [31.051450492438164, 36.91714000261399], [31.051450492438164, 36.91660101344352], [31.051989481608643, 36.91660101344352], [31.051989481608643, 36.9149840459321], [31.051450492438164, 36.9149840459321], [31.051450492438164, 36.91390606759116]]]}, "id": "+391570+87359", "properties": {"area_ha": 5.743642553550014, "count": 20, "label": 1, "mean_dnbr": 0.359253076300889}}, {"type": "Feature", "geometry": {"geodesic": false, "type": "Polygon", "coordinates": [[[31.050372514097234, 36.942472493626155], [31.055223416631463, 36.942472493626155], [31.055223416631463, 36.9435504719671], [31.054684427460984, 36.9435504719671], [31.054684427460984, 36.94408946113757], [31.053067459949574, 36.94408946113757], [31.053067459949574, 36.944628450308045], [31.053606449120053, 36.944628450308045], [31.053606449120053, 36.94570642864899], [31.051989481608643, 36.94570642864899], [31.051989481608643, 36.94516743947852], [31.051450492438164, 36.94516743947852], [31.051450492438164, 36.94408946113757], [31.050911503267685, 36.94408946113757], [31.050911503267685, 36.94301148279663], [31.050372514097234, 36.94301148279663], [31.050372514097234, 36.942472493626155]]]}, "id": "+391575+87306", "properties": {"area_ha": 9.760597645114446, "count": 34, "label": 1, "mean_dnbr": 0.48830745155070426}}, {"type": "Feature", "geometry": {"geodesic": false, "type": "Polygon", "coordinates": [[[31.054684427460984, 36.86647502058965], [31.055223416631463, 36.86647502058965], [31.055223416631463, 36.86701400976012], [31.055762405801943, 36.86701400976012], [31.055762405801943, 36.86755299893059], [31.056301394972422, 36.86755299893059], [31.056301394972422, 36.868091988101064], [31.05845735165431, 36.868091988101064], [31.05845735165431, 36.868630977271536], [31.06007431916572, 36.868630977271536], [31.06007431916572, 36.86916996644201], [31.059535329995242, 36.86916996644201], [31.059535329995242, 36.869708955612474], [31.058996340824763, 36.869708955612474], [31.058996340824763, 36.87078693395342], [31.05845735165431, 36.87078693395342], [31.05845735165431, 36.87132592312389], [31.057379373313353, 36.87132592312389], [31.057379373313353, 36.87186491229436], [31.057918362483832, 36.87186491229436], [31.057918362483832, 36.87402086897625], [31.056840384142873, 36.87402086897625], [31.056840384142873, 36.87294289063531], [31.056301394972422, 36.87294289063531], [31.056301394972422, 36.87186491229436], [31.054684427460984, 36.87186491229436], [31.054684427460984, 36.87078693395342], [31.054145438290533, 36.87078693395342], [31.054145438290533, 36.869708955612474], [31.053606449120053, 36.869708955612474], [31.053606449120053, 36.868630977271536], [31.053067459949574, 36.868630977271536], [31.053067459949574, 36.86701400976012], [31.054684427460984, 36.86701400976012], [31.054684427460984, 36.86647502058965]]]}, "id": "+391575+87447", "properties": {"area_ha": 24.425325675154916, "count": 85, "label": 1, "mean_dnbr": 0.4934232252224701}}, {"type": "Feature", "geometry": {"geodesic": false, "type": "Polygon", "coordinates": [[[31.055762405801943, 36.954869244547005], [31.056301394972422, 36.954869244547005], [31.056301394972422, 36.95540823371748], [31.056840384142873, 36.95540823371748], [31.056840384142873, 36.95810317956984], [31.056301394972422, 36.95810317956984], [31.056301394972422, 36.95756419039937], [31.053606449120053, 36.95756419039937], [31.053606449120053, 36.957025201228895], [31.053067459949574, 36.957025201228895], [31.053067459949574, 36.95540823371748], [31.055762405801943, 36.95540823371748], [31.055762405801943, 36.954869244547005]]]}, "id": "+391577+87283", "properties": {"area_ha": 8.323886002876575, "count": 29, "label": 1, "mean_dnbr": 0.4933827562378516}}, {"type": "Feature", "geometry": {"geodesic": false, "type": "Polygon", "coordinates": [[[31.056840384142873, 36.92252989431871], [31.057379373313353, 36.92252989431871], [31.057379373313353, 36.92414686183012], [31.057918362483832, 36.92414686183012], [31.057918362483832, 36.923607872659645], [31.05845735165431, 36.923607872659645], [31.05845735165431, 36.925763829341534], [31.058996340824763, 36.925763829341534], [31.058996340824763, 36.926302818512006], [31.056840384142873, 36.926302818512006], [31.056840384142873, 36.92252989431871]]]}, "id": "+391579+87343", "properties": {"area_ha": 4.881549742826871, "count": 17, "label": 1, "mean_dnbr": 0.36845422452308446}}, {"type": "Feature", "geometry": {"geodesic": false, "type": "Polygon", "coordinates": [[[31.056301394972422, 36.89989234915889], [31.057379373313353, 36.89989234915889], [31.057379373313353, 36.90043133832936], [31.05845735165431, 36.90043133832936], [31.05845735165431, 36.900970327499834], [31.057918362483832, 36.900970327499834], [31.057918362483832, 36.90150931667031], [31.056840384142873, 36.90150931667031], [31.056840384142873, 36.90204830584078], [31.055762405801943, 36.90204830584078], [31.055762405801943, 36.90043133832936], [31.056301394972422, 36.90043133832936], [31.056301394972422, 36.89989234915889]]]}, "id": "+391579+87385", "properties": {"area_ha": 3.7341152272499, "count": 13, "label": 1, "mean_dnbr": 0.2577226406190527}}, {"type": "Feature", "geometry": {"geodesic": false, "type": "Polygon", "coordinates": [[[31.06330825418854, 36.92306888348918], [31.06384724335902, 36.92306888348918], [31.06384724335902, 36.92414686183012], [31.0643862325295, 36.92414686183012], [31.0643862325295, 36.92684180768248], [31.06492522169995, 36.92684180768248], [31.06492522169995, 36.92791978602342], [31.0643862325295, 36.92791978602342], [31.0643862325295, 36.92738079685295], [31.06384724335902, 36.92738079685295], [31.06384724335902, 36.92522484017106], [31.06330825418854, 36.92522484017106], [31.06330825418854, 36.92306888348918]]]}, "id": "+391591+87342", "properties": {"area_ha": 3.445766580290199, "count": 12, "label": 1, "mean_dnbr": 0.2458471175975008}}, {"type": "Feature", "geometry": {"geodesic": false, "type": "Polygon", "coordinates": [[[31.06330825418854, 36.87671581482861], [31.0643862325295, 36.87671581482861], [31.0643862325295, 36.87725480399908], [31.06492522169995, 36.87725480399908], [31.06492522169995, 36.87779379316955], [31.0643862325295, 36.87779379316955], [31.0643862325295, 36.8788717715105], [31.062769265018062, 36.8788717715105], [31.062769265018062, 36.87725480399908], [31.06330825418854, 36.87725480399908], [31.06330825418854, 36.87671581482861]]]}, "id": "+391592+87428", "properties": {"area_ha": 3.447921189693895, "count": 12, "label": 1, "mean_dnbr": 0.43141571985505645}}, {"type": "Feature", "geometry": {"geodesic": false, "type": "Polygon", "coordinates": [[[31.062769265018062, 36.8939634682837], [31.06492522169995, 36.8939634682837], [31.06492522169995, 36.89611942496559], [31.0643862325295, 36.89611942496559], [31.0643862325295, 36.89665841413606], [31.06600320004091, 36.89665841413606], [31.06600320004091, 36.897197403306535], [31.06546421087043, 36.897197403306535], [31.06546421087043, 36.89773639247701], [31.06492522169995, 36.89773639247701], [31.06492522169995, 36.897197403306535], [31.06330825418854, 36.897197403306535], [31.06330825418854, 36.89665841413606], [31.062769265018062, 36.89665841413606], [31.062769265018062, 36.89611942496559], [31.06223027584761, 36.89611942496559], [31.06223027584761, 36.895041446624646], [31.062769265018062, 36.895041446624646], [31.062769265018062, 36.8939634682837]]]}, "id": "+391593+87396", "properties": {"area_ha": 7.756000123422801, "count": 27, "label": 1, "mean_dnbr": 0.21080838743332025}}, {"type": "Feature", "geometry": {"geodesic": false, "type": "Polygon", "coordinates": [[[31.06923713506373, 36.92468585100059], [31.07085410257514, 36.92468585100059], [31.07085410257514, 36.926302818512006], [31.07031511340469, 36.926302818512006], [31.07031511340469, 36.92684180768248], [31.06977612423421, 36.92684180768248], [31.06977612423421, 36.926302818512006], [31.06869814589325, 36.926302818512006], [31.06869814589325, 36.925763829341534], [31.06923713506373, 36.925763829341534], [31.06923713506373, 36.92468585100059]]]}, "id": "+391604+87339", "properties": {"area_ha": 3.158611329902622, "count": 11, "label": 1, "mean_dnbr": 0.2030013965817254}}, {"type": "Feature", "geometry": {"geodesic": false, "type": "Polygon", "coordinates": [[[31.07354904842751, 36.870247944782946], [31.07408803759799, 36.870247944782946], [31.07408803759799, 36.87294289063531], [31.07354904842751, 36.87294289063531], [31.07354904842751, 36.87348187980578], [31.07247107008655, 36.87348187980578], [31.07247107008655, 36.872403901464835], [31.0719320809161, 36.872403901464835], [31.0719320809161, 36.87078693395342], [31.07354904842751, 36.87078693395342], [31.07354904842751, 36.870247944782946]]]}, "id": "+391610+87440", "properties": {"area_ha": 5.172279404233091, "count": 18, "label": 1, "mean_dnbr": 0.3090225468522803}}, {"type": "Feature", "geometry": {"geodesic": false, "type": "Polygon", "coordinates": [[[31.080555907643628, 36.87132592312389], [31.081094896814108, 36.87132592312389], [31.081094896814108, 36.87186491229436], [31.082172875155067, 36.87186491229436], [31.082172875155067, 36.872403901464835], [31.082711864325518, 36.872403901464835], [31.082711864325518, 36.87348187980578], [31.082172875155067, 36.87348187980578], [31.082172875155067, 36.87402086897625], [31.081633885984587, 36.87402086897625], [31.081633885984587, 36.87294289063531], [31.080555907643628, 36.87294289063531], [31.080555907643628, 36.87132592312389]]]}, "id": "+391623+87438", "properties": {"area_ha": 3.160808415810467, "count": 11, "label": 1, "mean_dnbr": 0.2794530547115339}}, {"type": "Feature", "geometry": {"geodesic": false, "type": "Polygon", "coordinates": [[[31.088101756030255, 36.865936031419174], [31.088640745200706, 36.865936031419174], [31.088640745200706, 36.86647502058965], [31.089718723541665, 36.86647502058965], [31.089718723541665, 36.86701400976012], [31.090796701882596, 36.86701400976012], [31.090796701882596, 36.86755299893059], [31.091874680223555, 36.86755299893059], [31.091874680223555, 36.868091988101064], [31.089718723541665, 36.868091988101064], [31.089718723541665, 36.86755299893059], [31.088640745200706, 36.86755299893059], [31.088640745200706, 36.86701400976012], [31.087562766859776, 36.86701400976012], [31.087562766859776, 36.86647502058965], [31.088101756030255, 36.86647502058965], [31.088101756030255, 36.865936031419174]]]}, "id": "+391637+87448", "properties": {"area_ha": 3.7357719150271667, "count": 13, "label": 1, "mean_dnbr": 0.35634794480521476}}, {"type": "Feature", "geometry": {"geodesic": false, "type": "Polygon", "coordinates": [[[31.12098009542902, 36.872403901464835], [31.12205807376995, 36.872403901464835], [31.12205807376995, 36.87294289063531], [31.123675041281388, 36.87294289063531], [31.123675041281388, 36.87402086897625], [31.1215190845995, 36.87402086897625], [31.1215190845995, 36.8750988473172], [31.11936312791761, 36.8750988473172], [31.11936312791761, 36.874559858146725], [31.11990211708806, 36.874559858146725], [31.11990211708806, 36.87402086897625], [31.12044110625854, 36.87402086897625], [31.12044110625854, 36.87294289063531], [31.12098009542902, 36.87294289063531], [31.12098009542902, 36.872403901464835]]]}, "id": "+391699+87436", "properties": {"area_ha": 6.034189287553604, "count": 21, "label": 1, "mean_dnbr": 0.4043861441501823}}, {"type": "Feature", "geometry": {"geodesic": false, "type": "Polygon", "coordinates": [[[31.124753019622318, 36.87348187980578], [31.125292008792798, 36.87348187980578], [31.125292008792798, 36.87402086897625], [31.126369987133728, 36.87402086897625], [31.126369987133728, 36.8750988473172], [31.125292008792798, 36.8750988473172], [31.125292008792798, 36.876176825658135], [31.12583099796325, 36.876176825658135], [31.12583099796325, 36.8788717715105], [31.124753019622318, 36.8788717715105], [31.124753019622318, 36.878332782340024], [31.12421403045184, 36.878332782340024], [31.12421403045184, 36.87402086897625], [31.124753019622318, 36.87402086897625], [31.124753019622318, 36.87348187980578]]]}, "id": "+391705+87434", "properties": {"area_ha": 7.757986868759705, "count": 27, "label": 1, "mean_dnbr": 0.38739717070537794}}, {"type": "Feature", "geometry": {"geodesic": false, "type": "Polygon", "coordinates": [[[31.124753019622318, 36.85839018303257], [31.125292008792798, 36.85839018303257], [31.125292008792798, 36.85892917220304], [31.12583099796325, 36.85892917220304], [31.12583099796325, 36.85946816137351], [31.126369987133728, 36.85946816137351], [31.126369987133728, 36.86108512888493], [31.126908976304207, 36.86108512888493], [31.126908976304207, 36.86270209639635], [31.125292008792798, 36.86270209639635], [31.125292008792798, 36.862163107225875], [31.12421403045184, 36.862163107225875], [31.12421403045184, 36.86108512888493], [31.123675041281388, 36.86108512888493], [31.123675041281388, 36.860007150543986], [31.12259706294043, 36.860007150543986], [31.12259706294043, 36.85946816137351], [31.123136052110908, 36.85946816137351], [31.123136052110908, 36.85892917220304], [31.124753019622318, 36.85892917220304], [31.124753019622318, 36.85839018303257]]]}, "id": "+391705+87462", "properties": {"area_ha": 10.346092528327839, "count": 36, "label": 1, "mean_dnbr": 0.4026952345310172}}, {"type": "Feature", "geometry": {"geodesic": false, "type": "Polygon", "coordinates": [[[31.12421403045184, 36.86755299893059], [31.126369987133728, 36.86755299893059], [31.126369987133728, 36.868091988101064], [31.126908976304207, 36.868091988101064], [31.126908976304207, 36.868630977271536], [31.128525943815617, 36.868630977271536], [31.128525943815617, 36.869708955612474], [31.127986954645138, 36.869708955612474], [31.127986954645138, 36.870247944782946], [31.12583099796325, 36.870247944782946], [31.12583099796325, 36.869708955612474], [31.123136052110908, 36.869708955612474], [31.123136052110908, 36.86916996644201], [31.123675041281388, 36.86916996644201], [31.123675041281388, 36.868091988101064], [31.12421403045184, 36.868091988101064], [31.12421403045184, 36.86755299893059]], [[31.127447965474687, 36.86916996644201], [31.127447965474687, 36.869708955612474], [31.126369987133728, 36.869708955612474], [31.126369987133728, 36.86916996644201], [31.127447965474687, 36.86916996644201]]]}, "id": "+391707+87445", "properties": {"area_ha": 8.908173374705655, "count": 31, "label": 1, "mean_dnbr": 0.44152453021357124}}, {"type": "Feature", "geometry": {"geodesic": false, "type": "Polygon", "coordinates": [[[31.127447965474687, 36.87078693395342], [31.129603922156576, 36.87078693395342], [31.129603922156576, 36.87186491229436], [31.129064932986097, 36.87186491229436], [31.129064932986097, 36.87294289063531], [31.127447965474687, 36.87294289063531], [31.127447965474687, 36.87078693395342]]]}, "id": "+391713+87439", "properties": {"area_ha": 4.022887234298516, "count": 14, "label": 1, "mean_dnbr": 0.36194727255435233}}, {"type": "Feature", "geometry": {"geodesic": false, "type": "Polygon", "coordinates": [[[31.130142911327027, 36.88318368487427], [31.131220889667986, 36.88318368487427], [31.131220889667986, 36.88372267404474], [31.133376846349876, 36.88372267404474], [31.133376846349876, 36.88426166321521], [31.135532803031765, 36.88426166321521], [31.135532803031765, 36.88533964155616], [31.131759878838437, 36.88533964155616], [31.131759878838437, 36.884800652385685], [31.130681900497507, 36.884800652385685], [31.130681900497507, 36.88372267404474], [31.130142911327027, 36.88372267404474], [31.130142911327027, 36.88318368487427]]]}, "id": "+391716+87416", "properties": {"area_ha": 6.6079601500008645, "count": 23, "label": 1, "mean_dnbr": 0.3215612887558011}}, {"type": "Feature", "geometry": {"geodesic": false, "type": "Polygon", "coordinates": [[[31.130681900497507, 36.888573576578985], [31.132837857179396, 36.888573576578985], [31.132837857179396, 36.88911256574946], [31.133376846349876, 36.88911256574946], [31.133376846349876, 36.891268522431346], [31.132837857179396, 36.891268522431346], [31.132837857179396, 36.89234650077229], [31.132298868008917, 36.89234650077229], [31.132298868008917, 36.89180751160182], [31.131220889667986, 36.89180751160182], [31.131220889667986, 36.88911256574946], [31.130681900497507, 36.88911256574946], [31.130681900497507, 36.888573576578985]], [[31.132837857179396, 36.8901905440904], [31.132837857179396, 36.890729533260874], [31.132298868008917, 36.890729533260874], [31.132298868008917, 36.8901905440904], [31.132837857179396, 36.8901905440904]]]}, "id": "+391719+87406", "properties": {"area_ha": 6.60743606944925, "count": 23, "label": 1, "mean_dnbr": 0.29447901204551774}}, {"type": "Feature", "geometry": {"geodesic": false, "type": "Polygon", "coordinates": [[[31.137149770543175, 36.8864176198971], [31.138766738054585, 36.8864176198971], [31.138766738054585, 36.886956609067575], [31.140383705565995, 36.886956609067575], [31.140383705565995, 36.88749559823804], [31.141461683906954, 36.88749559823804], [31.141461683906954, 36.88803458740851], [31.142000673077405, 36.88803458740851], [31.142000673077405, 36.888573576578985], [31.140922694736474, 36.888573576578985], [31.140922694736474, 36.88803458740851], [31.139305727225064, 36.88803458740851], [31.139305727225064, 36.88749559823804], [31.138227748884105, 36.88749559823804], [31.138227748884105, 36.886956609067575], [31.137149770543175, 36.886956609067575], [31.137149770543175, 36.8864176198971]]]}, "id": "+391730+87410", "properties": {"area_ha": 3.7347752360707003, "count": 13, "label": 1, "mean_dnbr": 0.22042163612082702}}, {"type": "Feature", "geometry": {"geodesic": false, "type": "Polygon", "coordinates": [[[31.187275763397025, 36.90258729501125], [31.187814752567505, 36.90258729501125], [31.187814752567505, 36.903126284181724], [31.188353741737984, 36.903126284181724], [31.188353741737984, 36.903665273352196], [31.189431720078915, 36.903665273352196], [31.189431720078915, 36.90636021920455], [31.188353741737984, 36.90636021920455], [31.188353741737984, 36.90420426252267], [31.187814752567505, 36.90420426252267], [31.187814752567505, 36.903126284181724], [31.187275763397025, 36.903126284181724], [31.187275763397025, 36.90258729501125]]]}, "id": "+391821+87380", "properties": {"area_ha": 3.733934650041042, "count": 13, "label": 1, "mean_dnbr": 0.1780051111378273}}, {"type": "Feature", "geometry": {"geodesic": false, "type": "Polygon", "coordinates": [[[31.20398442768166, 36.86270209639635], [31.20452341685214, 36.86270209639635], [31.20452341685214, 36.86324108556681], [31.20560139519307, 36.86324108556681], [31.20560139519307, 36.863780074737285], [31.20506240602259, 36.863780074737285], [31.20506240602259, 36.86485805307823], [31.20344543851118, 36.86485805307823], [31.20344543851118, 36.86324108556681], [31.20398442768166, 36.86324108556681], [31.20398442768166, 36.86270209639635]]]}, "id": "+391852+87454", "properties": {"area_ha": 3.1611712258294444, "count": 11, "label": 1, "mean_dnbr": 0.4351650178851777}}, {"type": "Feature", "geometry": {"geodesic": false, "type": "Polygon", "coordinates": [[[31.20506240602259, 36.8788717715105], [31.20667937353403, 36.8788717715105], [31.20667937353403, 36.87941076068097], [31.20721836270448, 36.87941076068097], [31.20721836270448, 36.87994974985144], [31.20775735187496, 36.87994974985144], [31.20775735187496, 36.880488739021914], [31.20937431938637, 36.880488739021914], [31.20937431938637, 36.881027728192386], [31.20667937353403, 36.881027728192386], [31.20667937353403, 36.880488739021914], [31.20506240602259, 36.880488739021914], [31.20506240602259, 36.87994974985144], [31.20452341685214, 36.87994974985144], [31.20452341685214, 36.87941076068097], [31.20506240602259, 36.87941076068097], [31.20506240602259, 36.8788717715105]]]}, "id": "+391856+87424", "properties": {"area_ha": 5.171740199704486, "count": 18, "label": 1, "mean_dnbr": 0.35831636008169954}}, {"type": "Feature", "geometry": {"geodesic": false, "type": "Polygon", "coordinates": [[[31.223927026989116, 36.83575263787276], [31.225005005330047, 36.83575263787276], [31.225005005330047, 36.837369605384175], [31.225543994500526, 36.837369605384175], [31.225543994500526, 36.83790859455465], [31.225005005330047, 36.83790859455465], [31.225005005330047, 36.83844758372512], [31.223927026989116, 36.83844758372512], [31.223927026989116, 36.837369605384175], [31.223388037818637, 36.837369605384175], [31.223388037818637, 36.8368306162137], [31.224466016159596, 36.8368306162137], [31.224466016159596, 36.83629162704323], [31.223927026989116, 36.83629162704323], [31.223927026989116, 36.83575263787276]]]}, "id": "+391890+87504", "properties": {"area_ha": 3.1622730665169083, "count": 11, "label": 1, "mean_dnbr": 0.17376035186982228}}, {"type": "Feature", "geometry": {"geodesic": false, "type": "Polygon", "coordinates": [[[31.239557712932793, 36.83898657289559], [31.240096702103273, 36.83898657289559], [31.240096702103273, 36.840603540407], [31.240635691273724, 36.840603540407], [31.240635691273724, 36.84222050791842], [31.239557712932793, 36.84222050791842], [31.239557712932793, 36.841142529577475], [31.239018723762314, 36.841142529577475], [31.239018723762314, 36.84006455123653], [31.239557712932793, 36.84006455123653], [31.239557712932793, 36.83898657289559]]]}, "id": "+391918+87498", "properties": {"area_ha": 3.1621244443128247, "count": 11, "label": 1, "mean_dnbr": 0.22973308373326204}}, {"type": "Feature", "geometry": {"geodesic": false, "type": "Polygon", "coordinates": [[[31.241713669614683, 36.840603540407], [31.242791647955613, 36.840603540407], [31.242791647955613, 36.841142529577475], [31.243330637126093, 36.841142529577475], [31.243330637126093, 36.84383747542984], [31.242791647955613, 36.84383747542984], [31.242791647955613, 36.843298486259364], [31.242252658785162, 36.843298486259364], [31.242252658785162, 36.84437646460031], [31.241174680444203, 36.84437646460031], [31.241174680444203, 36.84491545377078], [31.240635691273724, 36.84491545377078], [31.240635691273724, 36.84437646460031], [31.241174680444203, 36.84437646460031], [31.241174680444203, 36.84222050791842], [31.241713669614683, 36.84222050791842], [31.241713669614683, 36.840603540407]]]}, "id": "+391923+87495", "properties": {"area_ha": 6.324099687397541, "count": 22, "label": 1, "mean_dnbr": 0.22886285562153078}}, {"type": "Feature", "geometry": {"geodesic": false, "type": "Polygon", "coordinates": [[[31.268663128138257, 36.886956609067575], [31.269741106479216, 36.886956609067575], [31.269741106479216, 36.88749559823804], [31.271358073990626, 36.88749559823804], [31.271358073990626, 36.88803458740851], [31.270819084820147, 36.88803458740851], [31.270819084820147, 36.888573576578985], [31.270280095649667, 36.888573576578985], [31.270280095649667, 36.88911256574946], [31.269741106479216, 36.88911256574946], [31.269741106479216, 36.888573576578985], [31.269202117308737, 36.888573576578985], [31.269202117308737, 36.88803458740851], [31.268663128138257, 36.88803458740851], [31.268663128138257, 36.886956609067575]]]}, "id": "+391973+87409", "properties": {"area_ha": 3.1601724704274448, "count": 11, "label": 1, "mean_dnbr": 0.1834752454542225}}, {"type": "Feature", "geometry": {"geodesic": false, "type": "Polygon", "coordinates": [[[31.40017648573337, 36.833057692020404], [31.401793453244778, 36.833057692020404], [31.401793453244778, 36.83359668119087], [31.402332442415258, 36.83359668119087], [31.402332442415258, 36.83413567036134], [31.401793453244778, 36.83413567036134], [31.401793453244778, 36.835213648702286], [31.400715474903848, 36.835213648702286], [31.400715474903848, 36.83413567036134], [31.40017648573337, 36.83413567036134], [31.40017648573337, 36.833057692020404]]]}, "id": "+392218+87509", "properties": {"area_ha": 3.162403444810284, "count": 11, "label": 1, "mean_dnbr": 0.24179115667516743}}, {"type": "Feature", "geometry": {"geodesic": false, "type": "Polygon", "coordinates": [[[31.541930637567418, 36.73496166299455], [31.542469626737898, 36.73496166299455], [31.542469626737898, 36.73711761967643], [31.543008615908377, 36.73711761967643], [31.543008615908377, 36.737656608846905], [31.543547605078828, 36.737656608846905], [31.543547605078828, 36.73819559801738], [31.543008615908377, 36.73819559801738], [31.543008615908377, 36.73873458718785], [31.541930637567418, 36.73873458718785], [31.541930637567418, 36.73819559801738], [31.54139164839694, 36.73819559801738], [31.54139164839694, 36.73711761967643], [31.541930637567418, 36.73711761967643], [31.541930637567418, 36.736039641335495], [31.54139164839694, 36.736039641335495], [31.54139164839694, 36.73550065216502], [31.541930637567418, 36.73550065216502], [31.541930637567418, 36.73496166299455]]]}, "id": "+392479+87691", "properties": {"area_ha": 4.0299686867702285, "count": 14, "label": 1, "mean_dnbr": 0.312377667639697}}, {"type": "Feature", "geometry": {"geodesic": false, "type": "Polygon", "coordinates": [[[31.559717280192984, 36.77808079663229], [31.560795258533943, 36.77808079663229], [31.560795258533943, 36.77861978580276], [31.561334247704394, 36.77861978580276], [31.561334247704394, 36.7796977641437], [31.562412226045353, 36.7796977641437], [31.562412226045353, 36.78023675331417], [31.561873236874874, 36.78023675331417], [31.561873236874874, 36.78077574248464], [31.560795258533943, 36.78077574248464], [31.560795258533943, 36.78023675331417], [31.560256269363464, 36.78023675331417], [31.560256269363464, 36.779158774973226], [31.559178291022533, 36.779158774973226], [31.559178291022533, 36.77861978580276], [31.559717280192984, 36.77861978580276], [31.559717280192984, 36.77808079663229]]]}, "id": "+392513+87611", "properties": {"area_ha": 4.027749846975057, "count": 14, "label": 1, "mean_dnbr": 0.3190174571163228}}]}