{"type": "FeatureCollection", "columns": {"area_ha": "Number", "count": "Long<0, 4294967295>", "label": "Byte<0, 1>", "mean_dnbr": "Object", "system:index": "String"}, "features": [{"type": "Feature", "geometry": {"geodesic": false, "type": "Polygon", "coordinates": [[[30.771715112963335, 36.86485805307823], [30.773332080474773, 36.86485805307823], [30.773332080474773, 36.8653970422487], [30.773871069645224, 36.8653970422487], [30.773871069645224, 36.86647502058965], [30.774410058815704, 36.86647502058965], [30.774410058815704, 36.86701400976012], [30.773332080474773, 36.86701400976012], [30.773332080474773, 36.8653970422487], [30.772793091304294, 36.8653970422487], [30.772793091304294, 36.865936031419174], [30.772254102133815, 36.865936031419174], [30.772254102133815, 36.8653970422487], [30.771715112963335, 36.8653970422487], [30.771715112963335, 36.865936031419174], [30.771176123792884, 36.865936031419174], [30.771176123792884, 36.86647502058965], [30.770098145451925, 36.86647502058965], [30.770098145451925, 36.865936031419174], [30.769020167110995, 36.865936031419174], [30.769020167110995, 36.8653970422487], [30.769559156281474, 36.8653970422487], [30.769559156281474, 36.86485805307823], [30.770098145451925, 36.86485805307823], [30.770098145451925, 36.8653970422487], [30.770637134622405, 36.8653970422487], [30.770637134622405, 36.86485805307823], [30.771176123792884, 36.86485805307823], [30.771176123792884, 36.8653970422487], [30.771715112963335, 36.8653970422487], [30.771715112963335, 36.86485805307823]]]}, "id": "+391052+87450", "properties": {"area_ha": 4.885325944993303, "count": 17, "label": 1, "mean_dnbr": 0.18037656167482083}}, {"type": "Feature", "geometry": {"geodesic": false, "type": "Polygon", "coordinates": [[[30.801898506509758, 36.95540823371748], [30.805132441532606, 36.95540823371748], [30.805132441532606, 36.95594722288795], [30.804593452362127, 36.95594722288795], [30.804593452362127, 36.95756419039937], [30.804054463191648, 36.95756419039937], [30.804054463191648, 36.95810317956984], [30.803515474021168, 36.95810317956984], [30.803515474021168, 36.95864216874031], [30.802976484850717, 36.95864216874031], [30.802976484850717, 36.95810317956984], [30.802437495680238, 36.95810317956984], [30.802437495680238, 36.95756419039937], [30.801898506509758, 36.95756419039937], [30.801898506509758, 36.95540823371748]]]}, "id": "+391111+87282", "properties": {"area_ha": 7.175719168329899, "count": 25, "label": 1, "mean_dnbr": 0.4671179156861121}}, {"type": "Feature", "geometry": {"geodesic": false, "type": "Polygon", "coordinates": [[[30.807288398214467, 36.855695237180214], [30.808366376555426, 36.855695237180214], [30.808366376555426, 36.85677321552116], [30.808905365725906, 36.85677321552116], [30.808905365725906, 36.857851193862096], [30.808366376555426, 36.857851193862096], [30.808366376555426, 36.85839018303257], [30.807827387384947, 36.85839018303257], [30.807827387384947, 36.857312204691624], [30.807288398214467, 36.857312204691624], [30.807288398214467, 36.85677321552116], [30.806749409044016, 36.85677321552116], [30.806749409044016, 36.856234226350686], [30.807288398214467, 36.856234226350686], [30.807288398214467, 36.855695237180214]]]}, "id": "+391117+87467", "properties": {"area_ha": 3.16145848491487, "count": 11, "label": 1, "mean_dnbr": 0.409818341607584}}, {"type": "Feature", "geometry": {"geodesic": false, "type": "Polygon", "coordinates": [[[30.807827387384947, 36.851383323816435], [30.808366376555426, 36.851383323816435], [30.808366376555426, 36.85300029132785], [30.808905365725906, 36.85300029132785], [30.808905365725906, 36.8540782696688], [30.809444354896357, 36.8540782696688], [30.809444354896357, 36.85515624800974], [30.807288398214467, 36.85515624800974], [30.807288398214467, 36.85461725883927], [30.807827387384947, 36.85461725883927], [30.807827387384947, 36.851383323816435]], [[30.808905365725906, 36.8540782696688], [30.808905365725906, 36.85461725883927], [30.808366376555426, 36.85461725883927], [30.808366376555426, 36.8540782696688], [30.808905365725906, 36.8540782696688]]]}, "id": "+391117+87475", "properties": {"area_ha": 3.736429297627714, "count": 13, "label": 1, "mean_dnbr": 0.3196811682178075}}, {"type": "Feature", "geometry": {"geodesic": false, "type": "Polygon", "coordinates": [[[30.83693280259041, 36.94408946113757], [30.83801078093137, 36.94408946113757], [30.83801078093137, 36.94516743947852], [30.83747179176089, 36.94516743947852], [30.83747179176089, 36.94624541781946], [30.83693280259041, 36.94624541781946], [30.83693280259041, 36.946784406989934], [30.83639381341996, 36.946784406989934], [30.83639381341996, 36.94624541781946], [30.83585482424948, 36.94624541781946], [30.83585482424948, 36.94516743947852], [30.83639381341996, 36.94516743947852], [30.83639381341996, 36.944628450308045], [30.83693280259041, 36.944628450308045], [30.83693280259041, 36.94408946113757]]]}, "id": "+391172+87303", "properties": {"area_ha": 3.444868455282194, "count": 12, "label": 1, "mean_dnbr": 0.39959344928995355}}, {"type": "Feature", "geometry": {"geodesic": false, "type": "Polygon", "coordinates": [[[30.84717359682938, 36.99583242150286], [30.847712585999858, 36.99583242150286], [30.847712585999858, 36.99744938901427], [30.84717359682938, 36.99744938901427], [30.84717359682938, 36.99798837818474], [30.846634607658928, 36.99798837818474], [30.846634607658928, 36.998527367355216], [30.84717359682938, 36.998527367355216], [30.84717359682938, 36.99906635652569], [30.847712585999858, 36.99906635652569], [30.847712585999858, 36.99798837818474], [30.84879056434079, 36.99798837818474], [30.84879056434079, 36.998527367355216], [30.849868542681747, 36.998527367355216], [30.849868542681747, 36.99906635652569], [30.850407531852227, 36.99906635652569], [30.850407531852227, 36.998527367355216], [30.850946521022678, 36.998527367355216], [30.850946521022678, 36.99798837818474], [30.850407531852227, 36.99798837818474], [30.850407531852227, 36.9969103998438], [30.850946521022678, 36.9969103998438], [30.850946521022678, 36.99744938901427], [30.851485510193157, 36.99744938901427], [30.851485510193157, 36.99960534569616], [30.852024499363637, 36.99960534569616], [30.852024499363637, 37.000683324037105], [30.850407531852227, 37.000683324037105], [30.850407531852227, 37.00014433486663], [30.848251575170337, 37.00014433486663], [30.848251575170337, 36.99960534569616], [30.846634607658928, 36.99960534569616], [30.846634607658928, 36.99906635652569], [30.846095618488448, 36.99906635652569], [30.846095618488448, 36.99798837818474], [30.846634607658928, 36.99798837818474], [30.846634607658928, 36.99744938901427], [30.84717359682938, 36.99744938901427], [30.84717359682938, 36.9969103998438], [30.846634607658928, 36.9969103998438], [30.846634607658928, 36.996371410673326], [30.84717359682938, 36.996371410673326], [30.84717359682938, 36.99583242150286]]]}, "id": "+391190+87207", "properties": {"area_ha": 11.187969258049595, "count": 39, "label": 1, "mean_dnbr": 0.4048951997297494}}, {"type": "Feature", "geometry": {"geodesic": false, "type": "Polygon", "coordinates": [[[30.860109336920715, 36.932231699387195], [30.862265293602604, 36.932231699387195], [30.862265293602604, 36.93384866689861], [30.861726304432125, 36.93384866689861], [30.861726304432125, 36.934387656069084], [30.860109336920715, 36.934387656069084], [30.860109336920715, 36.93384866689861], [30.859570347750235, 36.93384866689861], [30.859570347750235, 36.93330967772814], [30.860109336920715, 36.93330967772814], [30.860109336920715, 36.932231699387195]]]}, "id": "+391217+87325", "properties": {"area_ha": 4.593882571761981, "count": 16, "label": 1, "mean_dnbr": 0.2807761492950309}}, {"type": "Feature", "geometry": {"geodesic": false, "type": "Polygon", "coordinates": [[[30.864960239454945, 36.953252277035595], [30.867116196136834, 36.953252277035595], [30.867116196136834, 36.95433025537653], [30.866577206966355, 36.95433025537653], [30.866577206966355, 36.95540823371748], [30.865499228625424, 36.95540823371748], [30.865499228625424, 36.954869244547005], [30.864960239454945, 36.954869244547005], [30.864960239454945, 36.953252277035595]]]}, "id": "+391226+87286", "properties": {"area_ha": 3.731502714688878, "count": 13, "label": 1, "mean_dnbr": 0.3761889734823753}}, {"type": "Feature", "geometry": {"geodesic": false, "type": "Polygon", "coordinates": [[[30.88813677378525, 36.862163107225875], [30.88975374129666, 36.862163107225875], [30.88975374129666, 36.863780074737285], [30.88921475212618, 36.863780074737285], [30.88921475212618, 36.86431906390776], [30.88813677378525, 36.86431906390776], [30.88813677378525, 36.863780074737285], [30.88759778461477, 36.863780074737285], [30.88759778461477, 36.86270209639635], [30.88813677378525, 36.86270209639635], [30.88813677378525, 36.862163107225875]]]}, "id": "+391268+87455", "properties": {"area_ha": 3.7359607660458845, "count": 13, "label": 1, "mean_dnbr": 0.30336674280286224}}, {"type": "Feature", "geometry": {"geodesic": false, "type": "Polygon", "coordinates": [[[30.88759778461477, 36.87078693395342], [30.89137070880807, 36.87078693395342], [30.89137070880807, 36.87186491229436], [30.88759778461477, 36.87186491229436], [30.88759778461477, 36.87078693395342]]]}, "id": "+391271+87439", "properties": {"area_ha": 4.02291545674983, "count": 14, "label": 1, "mean_dnbr": 0.3018424259395867}}, {"type": "Feature", "geometry": {"geodesic": false, "type": "Polygon", "coordinates": [[[30.92748298322968, 36.94732339616041], [30.93017792908202, 36.94732339616041], [30.93017792908202, 36.948401374501344], [30.92963893991157, 36.948401374501344], [30.92963893991157, 36.94894036367182], [30.92802197240013, 36.94894036367182], [30.92802197240013, 36.94786238533087], [30.92748298322968, 36.94786238533087], [30.92748298322968, 36.94732339616041]]]}, "id": "+391343+87297", "properties": {"area_ha": 3.444736864802325, "count": 12, "label": 1, "mean_dnbr": 0.3223322620960072}}, {"type": "Feature", "geometry": {"geodesic": false, "type": "Polygon", "coordinates": [[[30.97706998691308, 36.90797718671597], [30.97814796525401, 36.90797718671597], [30.97814796525401, 36.91013314339786], [30.97760897608353, 36.91013314339786], [30.97760897608353, 36.91282808925021], [30.97706998691308, 36.91282808925021], [30.97706998691308, 36.91228910007974], [30.9765309977426, 36.91228910007974], [30.9765309977426, 36.9112111217388], [30.97706998691308, 36.9112111217388], [30.97706998691308, 36.91067213256833], [30.9765309977426, 36.91067213256833], [30.9765309977426, 36.909594154227385], [30.97706998691308, 36.909594154227385], [30.97706998691308, 36.90797718671597]]]}, "id": "+391432+87370", "properties": {"area_ha": 4.882480304144025, "count": 17, "label": 1, "mean_dnbr": 0.29277994640066785}}, {"type": "Feature", "geometry": {"geodesic": false, "type": "Polygon", "coordinates": [[[30.999707532072875, 36.899353359988424], [31.000785510413834, 36.899353359988424], [31.000785510413834, 36.89989234915889], [30.999707532072875, 36.89989234915889], [30.999707532072875, 36.90043133832936], [30.997012586220535, 36.90043133832936], [30.997012586220535, 36.899353359988424], [30.999168542902396, 36.899353359988424], [30.999168542902396, 36.89989234915889], [30.999707532072875, 36.89989234915889], [30.999707532072875, 36.899353359988424]]]}, "id": "+391474+87386", "properties": {"area_ha": 3.1596872392199526, "count": 11, "label": 1, "mean_dnbr": 0.22466990801850314}}, {"type": "Feature", "geometry": {"geodesic": false, "type": "Polygon", "coordinates": [[[31.003480456266175, 36.99529343233239], [31.006175402118544, 36.99529343233239], [31.006175402118544, 36.99583242150286], [31.007792369629954, 36.99583242150286], [31.007792369629954, 36.996371410673326], [31.007253380459474, 36.996371410673326], [31.007253380459474, 36.9969103998438], [31.006175402118544, 36.9969103998438], [31.006175402118544, 36.99583242150286], [31.005097423777585, 36.99583242150286], [31.005097423777585, 36.996371410673326], [31.003480456266175, 36.996371410673326], [31.003480456266175, 36.99529343233239]]]}, "id": "+391484+87208", "properties": {"area_ha": 3.729448259849896, "count": 13, "label": 1, "mean_dnbr": 0.2135738832965789}}, {"type": "Feature", "geometry": {"geodesic": false, "type": "Polygon", "coordinates": [[[31.007792369629954, 36.91175011090927], [31.009948326311843, 36.91175011090927], [31.009948326311843, 36.91228910007974], [31.011565293823253, 36.91228910007974], [31.011565293823253, 36.91282808925021], [31.013182261334663, 36.91282808925021], [31.013182261334663, 36.913367078420684], [31.011026304652773, 36.913367078420684], [31.011026304652773, 36.91282808925021], [31.007792369629954, 36.91282808925021], [31.007792369629954, 36.91175011090927]]]}, "id": "+391491+87363", "properties": {"area_ha": 4.307956439417762, "count": 15, "label": 1, "mean_dnbr": 0.2334501238117319}}, {"type": "Feature", "geometry": {"geodesic": false, "type": "Polygon", "coordinates": [[[31.009409337141363, 36.960798125422194], [31.011565293823253, 36.960798125422194], [31.011565293823253, 36.96241509293361], [31.011026304652773, 36.96241509293361], [31.011026304652773, 36.963493071274556], [31.009409337141363, 36.963493071274556], [31.009409337141363, 36.96403206044503], [31.010487315482322, 36.96403206044503], [31.010487315482322, 36.96511003878597], [31.011026304652773, 36.96511003878597], [31.011026304652773, 36.9645710496155], [31.011565293823253, 36.9645710496155], [31.011565293823253, 36.963493071274556], [31.012104282993732, 36.963493071274556], [31.012104282993732, 36.96295408210408], [31.012643272164212, 36.96295408210408], [31.012643272164212, 36.96241509293361], [31.01426023967562, 36.96241509293361], [31.01426023967562, 36.96295408210408], [31.013182261334663, 36.96295408210408], [31.013182261334663, 36.963493071274556], [31.012643272164212, 36.963493071274556], [31.012643272164212, 36.9645710496155], [31.011565293823253, 36.9645710496155], [31.011565293823253, 36.967265995467855], [31.011026304652773, 36.967265995467855], [31.011026304652773, 36.96672700629738], [31.009409337141363, 36.96672700629738], [31.009409337141363, 36.96618801712691], [31.010487315482322, 36.96618801712691], [31.010487315482322, 36.965649027956445], [31.009409337141363, 36.965649027956445], [31.009409337141363, 36.96511003878597], [31.008331358800433, 36.96511003878597], [31.008331358800433, 36.96403206044503], [31.007792369629954, 36.96403206044503], [31.007792369629954, 36.963493071274556], [31.008331358800433, 36.963493071274556], [31.008331358800433, 36.96403206044503], [31.008870347970912, 36.96403206044503], [31.008870347970912, 36.96241509293361], [31.008331358800433, 36.96241509293361], [31.008331358800433, 36.96187610376314], [31.008870347970912, 36.96187610376314], [31.008870347970912, 36.961337114592666], [31.009409337141363, 36.961337114592666], [31.009409337141363, 36.960798125422194]], [[31.010487315482322, 36.961337114592666], [31.010487315482322, 36.96187610376314], [31.009409337141363, 36.96187610376314], [31.009409337141363, 36.961337114592666], [31.010487315482322, 36.961337114592666]]]}, "id": "+391494+87272", "properties": {"area_ha": 14.924170664144874, "count": 52, "label": 1, "mean_dnbr": 0.23659593290298706}}, {"type": "Feature", "geometry": {"geodesic": false, "type": "Polygon", "coordinates": [[[31.016955185527962, 36.97858476804776], [31.01803316386892, 36.97858476804776], [31.01803316386892, 36.979662746388705], [31.01749417469844, 36.979662746388705], [31.01749417469844, 36.98020173555918], [31.016955185527962, 36.98020173555918], [31.016955185527962, 36.98074072472965], [31.015338218016552, 36.98074072472965], [31.015338218016552, 36.98020173555918], [31.0147992288461, 36.98020173555918], [31.0147992288461, 36.98074072472965], [31.01426023967562, 36.98074072472965], [31.01426023967562, 36.98020173555918], [31.0147992288461, 36.98020173555918], [31.0147992288461, 36.97912375721823], [31.015338218016552, 36.97912375721823], [31.015338218016552, 36.979662746388705], [31.016955185527962, 36.979662746388705], [31.016955185527962, 36.97858476804776]]]}, "id": "+391506+87239", "properties": {"area_ha": 4.017194193653666, "count": 14, "label": 1, "mean_dnbr": 0.2406757768822669}}, {"type": "Feature", "geometry": {"geodesic": false, "type": "Polygon", "coordinates": [[[31.02288406640315, 36.9645710496155], [31.02450103391459, 36.9645710496155], [31.02450103391459, 36.96511003878597], [31.02396204474411, 36.96511003878597], [31.02396204474411, 36.967265995467855], [31.02342305557363, 36.967265995467855], [31.02342305557363, 36.96780498463833], [31.02288406640315, 36.96780498463833], [31.02288406640315, 36.9683439738088], [31.02180608806222, 36.9683439738088], [31.02180608806222, 36.967265995467855], [31.0223450772327, 36.967265995467855], [31.0223450772327, 36.96672700629738], [31.02288406640315, 36.96672700629738], [31.02288406640315, 36.96618801712691], [31.0223450772327, 36.96618801712691], [31.0223450772327, 36.96511003878597], [31.02288406640315, 36.96511003878597], [31.02288406640315, 36.9645710496155]]]}, "id": "+391518+87265", "properties": {"area_ha": 5.452868488576373, "count": 19, "label": 1, "mean_dnbr": 0.2577763718156866}}, {"type": "Feature", "geometry": {"geodesic": false, "type": "Polygon", "coordinates": [[[31.03150789313071, 36.92414686183012], [31.033663849812598, 36.92414686183012], [31.033663849812598, 36.925763829341534], [31.034202838983077, 36.925763829341534], [31.034202838983077, 36.926302818512006], [31.032046882301188, 36.926302818512006], [31.032046882301188, 36.925763829341534], [31.03150789313071, 36.925763829341534], [31.03150789313071, 36.92414686183012]]]}, "id": "+391535+87340", "properties": {"area_ha": 4.594371681430815, "count": 16, "label": 1, "mean_dnbr": 0.23298959618120052}}, {"type": "Feature", "geometry": {"geodesic": false, "type": "Polygon", "coordinates": [[[31.048216557415344, 36.925763829341534], [31.049294535756275, 36.925763829341534], [31.049294535756275, 36.92684180768248], [31.049833524926754, 36.92684180768248], [31.049833524926754, 36.928458775193896], [31.049294535756275, 36.928458775193896], [31.049294535756275, 36.92899776436437], [31.048755546585795, 36.92899776436437], [31.048755546585795, 36.92953675353484], [31.047677568244865, 36.92953675353484], [31.047677568244865, 36.928458775193896], [31.047138579074385, 36.928458775193896], [31.047138579074385, 36.92684180768248], [31.048216557415344, 36.92684180768248], [31.048216557415344, 36.925763829341534]], [[31.049294535756275, 36.92791978602342], [31.049294535756275, 36.928458775193896], [31.047677568244865, 36.928458775193896], [31.047677568244865, 36.92791978602342], [31.049294535756275, 36.92791978602342]]]}, "id": "+391564+87337", "properties": {"area_ha": 6.0299223715741554, "count": 21, "label": 1, "mean_dnbr": 0.3258317245119113}}, {"type": "Feature", "geometry": {"geodesic": false, "type": "Polygon", "coordinates": [[[31.052528470779123, 36.986130616434366], [31.053606449120053, 36.986130616434366], [31.053606449120053, 36.98774758394578], [31.053067459949574, 36.98774758394578], [31.053067459949574, 36.988286573116255], [31.052528470779123, 36.988286573116255], [31.052528470779123, 36.98882556228673], [31.050911503267685, 36.98882556228673], [31.050911503267685, 36.98774758394578], [31.051450492438164, 36.98774758394578], [31.051450492438164, 36.988286573116255], [31.052528470779123, 36.988286573116255], [31.052528470779123, 36.98774758394578], [31.051989481608643, 36.98774758394578], [31.051989481608643, 36.98720859477531], [31.052528470779123, 36.98720859477531], [31.052528470779123, 36.986130616434366]]]}, "id": "+391572+87225", "properties": {"area_ha": 3.4429603643831173, "count": 12, "label": 1, "mean_dnbr": 0.24075243836276905}}, {"type": "Feature", "geometry": {"geodesic": false, "type": "Polygon", "coordinates": [[[31.05845735165431, 36.94301148279663], [31.06007431916572, 36.94301148279663], [31.06007431916572, 36.94516743947852], [31.05845735165431, 36.94516743947852], [31.05845735165431, 36.94301148279663]]]}, "id": "+391584+87305", "properties": {"area_ha": 3.444925969969398, "count": 12, "label": 1, "mean_dnbr": 0.22765335955737104}}, {"type": "Feature", "geometry": {"geodesic": false, "type": "Polygon", "coordinates": [[[31.060613308336173, 36.95972014708125], [31.062769265018062, 36.95972014708125], [31.062769265018062, 36.961337114592666], [31.061152297506652, 36.961337114592666], [31.061152297506652, 36.960798125422194], [31.060613308336173, 36.960798125422194], [31.060613308336173, 36.95972014708125]]]}, "id": "+391589+87274", "properties": {"area_ha": 3.1571654491896317, "count": 11, "label": 1, "mean_dnbr": 0.3775490765822755}}, {"type": "Feature", "geometry": {"geodesic": false, "type": "Polygon", "coordinates": [[[31.06492522169995, 36.97642881136588], [31.06546421087043, 36.97642881136588], [31.06546421087043, 36.97912375721823], [31.06492522169995, 36.97912375721823], [31.06492522169995, 36.98020173555918], [31.062769265018062, 36.98020173555918], [31.062769265018062, 36.98127971390012], [31.06223027584761, 36.98127971390012], [31.06223027584761, 36.979662746388705], [31.062769265018062, 36.979662746388705], [31.062769265018062, 36.97912375721823], [31.0643862325295, 36.97912375721823], [31.0643862325295, 36.97804577887729], [31.06492522169995, 36.97804577887729], [31.06492522169995, 36.97642881136588]]]}, "id": "+391594+87243", "properties": {"area_ha": 5.165013808635, "count": 18, "label": 1, "mean_dnbr": 0.25359396742998336}}, {"type": "Feature", "geometry": {"geodesic": false, "type": "Polygon", "coordinates": [[[31.06546421087043, 36.932231699387195], [31.06708117838184, 36.932231699387195], [31.06708117838184, 36.93277068855767], [31.0681591567228, 36.93277068855767], [31.0681591567228, 36.93330967772814], [31.06654218921136, 36.93330967772814], [31.06654218921136, 36.93384866689861], [31.06708117838184, 36.93384866689861], [31.06708117838184, 36.934387656069084], [31.06654218921136, 36.934387656069084], [31.06654218921136, 36.93384866689861], [31.0643862325295, 36.93384866689861], [31.0643862325295, 36.93277068855767], [31.06492522169995, 36.93277068855767], [31.06492522169995, 36.93330967772814], [31.06546421087043, 36.93330967772814], [31.06546421087043, 36.932231699387195]]]}, "id": "+391597+87325", "properties": {"area_ha": 4.0196628385010635, "count": 14, "label": 1, "mean_dnbr": 0.22173499690237516}}, {"type": "Feature", "geometry": {"geodesic": false, "type": "Polygon", "coordinates": [[[31.06923713506373, 36.92953675353484], [31.06977612423421, 36.92953675353484], [31.06977612423421, 36.930075742705306], [31.06923713506373, 36.930075742705306], [31.06923713506373, 36.93115372104625], [31.07031511340469, 36.93115372104625], [31.07031511340469, 36.93169271021672], [31.0681591567228, 36.93169271021672], [31.0681591567228, 36.93115372104625], [31.06762016755232, 36.93115372104625], [31.06762016755232, 36.930075742705306], [31.06923713506373, 36.930075742705306], [31.06923713506373, 36.92953675353484]]]}, "id": "+391602+87330", "properties": {"area_ha": 3.158401322950537, "count": 11, "label": 1, "mean_dnbr": 0.25542797099744136}}, {"type": "Feature", "geometry": {"geodesic": false, "type": "Polygon", "coordinates": [[[31.07462702676844, 36.92684180768248], [31.0757050051094, 36.92684180768248], [31.0757050051094, 36.92738079685295], [31.076243994279878, 36.92738079685295], [31.076243994279878, 36.928458775193896], [31.07408803759799, 36.928458775193896], [31.07408803759799, 36.92738079685295], [31.07354904842751, 36.92738079685295], [31.07354904842751, 36.92684180768248], [31.07408803759799, 36.92684180768248], [31.07408803759799, 36.92738079685295], [31.07462702676844, 36.92738079685295], [31.07462702676844, 36.92684180768248]]]}, "id": "+391613+87335", "properties": {"area_ha": 3.1585338505454397, "count": 11, "label": 1, "mean_dnbr": 0.44292357003697896}}, {"type": "Feature", "geometry": {"geodesic": false, "type": "Polygon", "coordinates": [[[31.077860961791288, 36.86647502058965], [31.080016918473177, 36.86647502058965], [31.080016918473177, 36.868091988101064], [31.080555907643628, 36.868091988101064], [31.080555907643628, 36.869708955612474], [31.080016918473177, 36.869708955612474], [31.080016918473177, 36.87186491229436], [31.079477929302698, 36.87186491229436], [31.079477929302698, 36.869708955612474], [31.07893894013222, 36.869708955612474], [31.07893894013222, 36.868630977271536], [31.07839995096174, 36.868630977271536], [31.07839995096174, 36.86701400976012], [31.077860961791288, 36.86701400976012], [31.077860961791288, 36.86647502058965]]]}, "id": "+391621+87447", "properties": {"area_ha": 6.89667546049531, "count": 24, "label": 1, "mean_dnbr": 0.2658235550440525}}, {"type": "Feature", "geometry": {"geodesic": false, "type": "Polygon", "coordinates": [[[31.081094896814108, 36.8653970422487], [31.083250853495997, 36.8653970422487], [31.083250853495997, 36.86647502058965], [31.082711864325518, 36.86647502058965], [31.082711864325518, 36.86701400976012], [31.083250853495997, 36.86701400976012], [31.083250853495997, 36.86755299893059], [31.083789842666476, 36.86755299893059], [31.083789842666476, 36.868630977271536], [31.083250853495997, 36.868630977271536], [31.083250853495997, 36.86916996644201], [31.082172875155067, 36.86916996644201], [31.082172875155067, 36.86701400976012], [31.081633885984587, 36.86701400976012], [31.081633885984587, 36.865936031419174], [31.081094896814108, 36.865936031419174], [31.081094896814108, 36.8653970422487]]]}, "id": "+391627+87449", "properties": {"area_ha": 5.459964174186584, "count": 19, "label": 1, "mean_dnbr": 0.32207843083940424}}, {"type": "Feature", "geometry": {"geodesic": false, "type": "Polygon", "coordinates": [[[31.091874680223555, 36.98882556228673], [31.092413669394006, 36.98882556228673], [31.092413669394006, 36.989903540627665], [31.092952658564485, 36.989903540627665], [31.092952658564485, 36.99044252979814], [31.093491647734965, 36.99044252979814], [31.093491647734965, 36.989903540627665], [31.094030636905444, 36.989903540627665], [31.094030636905444, 36.99044252979814], [31.093491647734965, 36.99044252979814], [31.093491647734965, 36.99098151896861], [31.092952658564485, 36.99098151896861], [31.092952658564485, 36.99044252979814], [31.091874680223555, 36.99044252979814], [31.091874680223555, 36.99098151896861], [31.090796701882596, 36.99098151896861], [31.090796701882596, 36.992059497309555], [31.089718723541665, 36.992059497309555], [31.089718723541665, 36.99098151896861], [31.090796701882596, 36.99098151896861], [31.090796701882596, 36.989903540627665], [31.091874680223555, 36.989903540627665], [31.091874680223555, 36.98882556228673]]]}, "id": "+391644+87220", "properties": {"area_ha": 4.01662832926255, "count": 14, "label": 1, "mean_dnbr": 0.293379641908726}}, {"type": "Feature", "geometry": {"geodesic": false, "type": "Polygon", "coordinates": [[[31.094030636905444, 36.89234650077229], [31.094569626075895, 36.89234650077229], [31.094569626075895, 36.89288548994276], [31.094030636905444, 36.89288548994276], [31.094030636905444, 36.8939634682837], [31.093491647734965, 36.8939634682837], [31.093491647734965, 36.895041446624646], [31.094030636905444, 36.895041446624646], [31.094030636905444, 36.89558043579512], [31.092413669394006, 36.89558043579512], [31.092413669394006, 36.8939634682837], [31.092952658564485, 36.8939634682837], [31.092952658564485, 36.89342447911323], [31.092413669394006, 36.89342447911323], [31.092413669394006, 36.89234650077229], [31.092952658564485, 36.89234650077229], [31.092952658564485, 36.89288548994276], [31.094030636905444, 36.89288548994276], [31.094030636905444, 36.89234650077229]]]}, "id": "+391648+87399", "properties": {"area_ha": 4.021722908567921, "count": 14, "label": 1, "mean_dnbr": 0.23499943179833946}}, {"type": "Feature", "geometry": {"geodesic": false, "type": "Polygon", "coordinates": [[[31.094569626075895, 36.936004623580494], [31.096186593587305, 36.936004623580494], [31.096186593587305, 36.938160580262384], [31.094569626075895, 36.938160580262384], [31.094569626075895, 36.93762159109191], [31.094030636905444, 36.93762159109191], [31.094030636905444, 36.93708260192144], [31.094569626075895, 36.93708260192144], [31.094569626075895, 36.936004623580494]]]}, "id": "+391651+87318", "properties": {"area_ha": 3.732345279569563, "count": 13, "label": 1, "mean_dnbr": 0.29572691586614436}}, {"type": "Feature", "geometry": {"geodesic": false, "type": "Polygon", "coordinates": [[[31.094569626075895, 36.89773639247701], [31.096186593587305, 36.89773639247701], [31.096186593587305, 36.900970327499834], [31.095647604416854, 36.900970327499834], [31.095647604416854, 36.89989234915889], [31.094030636905444, 36.89989234915889], [31.094030636905444, 36.899353359988424], [31.094569626075895, 36.899353359988424], [31.094569626075895, 36.89773639247701]]]}, "id": "+391651+87389", "properties": {"area_ha": 4.3086998353393255, "count": 15, "label": 1, "mean_dnbr": 0.20782619545866532}}, {"type": "Feature", "geometry": {"geodesic": false, "type": "Polygon", "coordinates": [[[31.176495979987607, 36.923607872659645], [31.179190925839976, 36.923607872659645], [31.179190925839976, 36.92468585100059], [31.178112947499017, 36.92468585100059], [31.178112947499017, 36.92522484017106], [31.177034969158086, 36.92522484017106], [31.177034969158086, 36.92468585100059], [31.176495979987607, 36.92468585100059], [31.176495979987607, 36.923607872659645]]]}, "id": "+391805+87341", "properties": {"area_ha": 3.4458097149971763, "count": 12, "label": 1, "mean_dnbr": 0.19909056418215307}}, {"type": "Feature", "geometry": {"geodesic": false, "type": "Polygon", "coordinates": [[[31.247103561319392, 36.82335588695191], [31.25033749634224, 36.82335588695191], [31.25033749634224, 36.82389487612238], [31.25195446385365, 36.82389487612238], [31.25195446385365, 36.82443386529285], [31.25033749634224, 36.82443386529285], [31.25033749634224, 36.82389487612238], [31.248720528830802, 36.82389487612238], [31.248720528830802, 36.82443386529285], [31.24764255048987, 36.82443386529285], [31.24764255048987, 36.82389487612238], [31.247103561319392, 36.82389487612238], [31.247103561319392, 36.82335588695191]]]}, "id": "+391937+87527", "properties": {"area_ha": 3.162805197753415, "count": 11, "label": 1, "mean_dnbr": 0.22403963448486847}}, {"type": "Feature", "geometry": {"geodesic": false, "type": "Polygon", "coordinates": [[[31.25626637721743, 36.822277908610964], [31.25734435555836, 36.822277908610964], [31.25734435555836, 36.822816897781436], [31.25788334472884, 36.822816897781436], [31.25788334472884, 36.82443386529285], [31.25626637721743, 36.82443386529285], [31.25626637721743, 36.822277908610964]]]}, "id": "+391950+87529", "properties": {"area_ha": 3.1628448367732513, "count": 11, "label": 1, "mean_dnbr": 0.25616923272153314}}, {"type": "Feature", "geometry": {"geodesic": false, "type": "Polygon", "coordinates": [[[31.270280095649667, 36.85892917220304], [31.272436052331557, 36.85892917220304], [31.272436052331557, 36.85946816137351], [31.274053019842995, 36.85946816137351], [31.274053019842995, 36.860007150543986], [31.272975041502036, 36.860007150543986], [31.272975041502036, 36.86054613971446], [31.271897063161106, 36.86054613971446], [31.271897063161106, 36.86108512888493], [31.271358073990626, 36.86108512888493], [31.271358073990626, 36.860007150543986], [31.270280095649667, 36.860007150543986], [31.270280095649667, 36.85892917220304]]]}, "id": "+391978+87461", "properties": {"area_ha": 4.310911167616259, "count": 15, "label": 1, "mean_dnbr": 0.2815838569603091}}, {"type": "Feature", "geometry": {"geodesic": false, "type": "Polygon", "coordinates": [[[31.280520889888635, 36.835213648702286], [31.281598868229594, 36.835213648702286], [31.281598868229594, 36.83575263787276], [31.282137857400045, 36.83575263787276], [31.282137857400045, 36.8368306162137], [31.281598868229594, 36.8368306162137], [31.281598868229594, 36.837369605384175], [31.280520889888635, 36.837369605384175], [31.280520889888635, 36.8368306162137], [31.279442911547704, 36.8368306162137], [31.279442911547704, 36.83575263787276], [31.280520889888635, 36.83575263787276], [31.280520889888635, 36.835213648702286]]]}, "id": "+391995+87505", "properties": {"area_ha": 4.0247597007979445, "count": 14, "label": 1, "mean_dnbr": 0.3129332671254002}}, {"type": "Feature", "geometry": {"geodesic": false, "type": "Polygon", "coordinates": [[[31.289144716616192, 36.8292847678271], [31.289683705786672, 36.8292847678271], [31.289683705786672, 36.82982375699757], [31.290222694957123, 36.82982375699757], [31.290222694957123, 36.83036274616804], [31.289144716616192, 36.83036274616804], [31.289144716616192, 36.830901735338514], [31.288605727445713, 36.830901735338514], [31.288605727445713, 36.83144072450899], [31.289683705786672, 36.83144072450899], [31.289683705786672, 36.83197971367946], [31.290222694957123, 36.83197971367946], [31.290222694957123, 36.83251870284993], [31.290761684127602, 36.83251870284993], [31.290761684127602, 36.83359668119087], [31.289683705786672, 36.83359668119087], [31.289683705786672, 36.833057692020404], [31.288066738275234, 36.833057692020404], [31.288066738275234, 36.83413567036134], [31.287527749104783, 36.83413567036134], [31.287527749104783, 36.83359668119087], [31.283754824911483, 36.83359668119087], [31.283754824911483, 36.833057692020404], [31.283215835741004, 36.833057692020404], [31.283215835741004, 36.83251870284993], [31.286449770763824, 36.83251870284993], [31.286449770763824, 36.830901735338514], [31.287527749104783, 36.830901735338514], [31.287527749104783, 36.83036274616804], [31.288605727445713, 36.83036274616804], [31.288605727445713, 36.82982375699757], [31.289144716616192, 36.82982375699757], [31.289144716616192, 36.8292847678271]]]}, "id": "+392010+87516", "properties": {"area_ha": 14.087425051822756, "count": 49, "label": 1, "mean_dnbr": 0.4472781676603486}}, {"type": "Feature", "geometry": {"geodesic": false, "type": "Polygon", "coordinates": [[[31.334419806935813, 36.857851193862096], [31.33549778527677, 36.857851193862096], [31.33549778527677, 36.85946816137351], [31.334958796106292, 36.85946816137351], [31.334958796106292, 36.860007150543986], [31.333880817765333, 36.860007150543986], [31.333880817765333, 36.85946816137351], [31.333341828594882, 36.85946816137351], [31.333341828594882, 36.85839018303257], [31.334419806935813, 36.85839018303257], [31.334419806935813, 36.857851193862096]]]}, "id": "+392095+87463", "properties": {"area_ha": 3.4487721004104808, "count": 12, "label": 1, "mean_dnbr": 0.38937559924487375}}, {"type": "Feature", "geometry": {"geodesic": false, "type": "Polygon", "coordinates": [[[31.333880817765333, 36.843298486259364], [31.33711475278818, 36.843298486259364], [31.33711475278818, 36.84383747542984], [31.33549778527677, 36.84383747542984], [31.33549778527677, 36.84437646460031], [31.332263850253923, 36.84437646460031], [31.332263850253923, 36.84383747542984], [31.333880817765333, 36.84383747542984], [31.333880817765333, 36.843298486259364]]]}, "id": "+392098+87490", "properties": {"area_ha": 3.449453662433962, "count": 12, "label": 1, "mean_dnbr": 0.4228194494917556}}, {"type": "Feature", "geometry": {"geodesic": false, "type": "Polygon", "coordinates": [[[31.336036774447223, 36.822277908610964], [31.33711475278818, 36.822277908610964], [31.33711475278818, 36.822816897781436], [31.337653741958633, 36.822816897781436], [31.337653741958633, 36.82335588695191], [31.33711475278818, 36.82335588695191], [31.33711475278818, 36.82443386529285], [31.336575763617702, 36.82443386529285], [31.336575763617702, 36.824972854463326], [31.334419806935813, 36.824972854463326], [31.334419806935813, 36.82443386529285], [31.336036774447223, 36.82443386529285], [31.336036774447223, 36.82389487612238], [31.336575763617702, 36.82389487612238], [31.336575763617702, 36.822816897781436], [31.336036774447223, 36.822816897781436], [31.336036774447223, 36.822277908610964]]]}, "id": "+392098+87529", "properties": {"area_ha": 3.162829932582657, "count": 11, "label": 1, "mean_dnbr": 0.40107734487108143}}, {"type": "Feature", "geometry": {"geodesic": false, "type": "Polygon", "coordinates": [[[31.33549778527677, 36.95756419039937], [31.33873172029959, 36.95756419039937], [31.33873172029959, 36.95810317956984], [31.338192731129112, 36.95810317956984], [31.338192731129112, 36.95972014708125], [31.336575763617702, 36.95972014708125], [31.336575763617702, 36.96025913625172], [31.336036774447223, 36.96025913625172], [31.336036774447223, 36.95972014708125], [31.33549778527677, 36.95972014708125], [31.33549778527677, 36.959181157910784], [31.336036774447223, 36.959181157910784], [31.336036774447223, 36.95864216874031], [31.337653741958633, 36.95864216874031], [31.337653741958633, 36.95810317956984], [31.33549778527677, 36.95810317956984], [31.33549778527677, 36.95756419039937]]]}, "id": "+392101+87278", "properties": {"area_ha": 4.879358189736177, "count": 17, "label": 1, "mean_dnbr": 0.3840357429711863}}, {"type": "Feature", "geometry": {"geodesic": false, "type": "Polygon", "coordinates": [[[31.3516674603909, 36.84922736713455], [31.35274543873186, 36.84922736713455], [31.35274543873186, 36.849766356305025], [31.353284427902338, 36.849766356305025], [31.353284427902338, 36.8503053454755], [31.35274543873186, 36.8503053454755], [31.35274543873186, 36.851383323816435], [31.35112847122045, 36.851383323816435], [31.35112847122045, 36.8503053454755], [31.3516674603909, 36.8503053454755], [31.3516674603909, 36.84922736713455]]]}, "id": "+392127+87479", "properties": {"area_ha": 3.161730622433402, "count": 11, "label": 1, "mean_dnbr": 0.5149045905514611}}, {"type": "Feature", "geometry": {"geodesic": false, "type": "Polygon", "coordinates": [[[31.360291287118457, 36.834674659531814], [31.361369265459388, 36.834674659531814], [31.361369265459388, 36.835213648702286], [31.361908254629867, 36.835213648702286], [31.361908254629867, 36.83575263787276], [31.362447243800347, 36.83575263787276], [31.362447243800347, 36.83629162704323], [31.361908254629867, 36.83629162704323], [31.361908254629867, 36.83790859455465], [31.360830276288937, 36.83790859455465], [31.360830276288937, 36.8368306162137], [31.359752297947978, 36.8368306162137], [31.359752297947978, 36.837369605384175], [31.358674319607047, 36.837369605384175], [31.358674319607047, 36.8368306162137], [31.359213308777527, 36.8368306162137], [31.359213308777527, 36.83629162704323], [31.358674319607047, 36.83629162704323], [31.358674319607047, 36.83575263787276], [31.359213308777527, 36.83575263787276], [31.359213308777527, 36.83629162704323], [31.359752297947978, 36.83629162704323], [31.359752297947978, 36.835213648702286], [31.360291287118457, 36.835213648702286], [31.360291287118457, 36.834674659531814]]]}, "id": "+392143+87506", "properties": {"area_ha": 6.612107532958807, "count": 23, "label": 1, "mean_dnbr": 0.4110314087276775}}, {"type": "Feature", "geometry": {"geodesic": false, "type": "Polygon", "coordinates": [[[31.372688038039314, 36.840603540407], [31.374843994721203, 36.840603540407], [31.374843994721203, 36.84168151874795], [31.375921973062134, 36.84168151874795], [31.375921973062134, 36.84275949708889], [31.374843994721203, 36.84275949708889], [31.374843994721203, 36.84168151874795], [31.374305005550724, 36.84168151874795], [31.374305005550724, 36.84222050791842], [31.373766016380245, 36.84222050791842], [31.373766016380245, 36.84275949708889], [31.373227027209765, 36.84275949708889], [31.373227027209765, 36.84222050791842], [31.372688038039314, 36.84222050791842], [31.372688038039314, 36.840603540407]]]}, "id": "+392168+87495", "properties": {"area_ha": 4.599396759342809, "count": 16, "label": 1, "mean_dnbr": 0.36369611975687377}}, {"type": "Feature", "geometry": {"geodesic": false, "type": "Polygon", "coordinates": [[[31.375382983891654, 36.84707141045266], [31.376999951403093, 36.84707141045266], [31.376999951403093, 36.847610399623136], [31.376460962232613, 36.847610399623136], [31.376460962232613, 36.84814938879361], [31.377538940573544, 36.84814938879361], [31.377538940573544, 36.84868837796408], [31.378616918914503, 36.84868837796408], [31.378616918914503, 36.84922736713455], [31.378077929744023, 36.84922736713455], [31.378077929744023, 36.85084433464597], [31.377538940573544, 36.85084433464597], [31.377538940573544, 36.851383323816435], [31.376999951403093, 36.851383323816435], [31.376999951403093, 36.85192231298691], [31.376460962232613, 36.85192231298691], [31.376460962232613, 36.8503053454755], [31.376999951403093, 36.8503053454755], [31.376999951403093, 36.84922736713455], [31.375382983891654, 36.84922736713455], [31.375382983891654, 36.84868837796408], [31.374843994721203, 36.84868837796408], [31.374843994721203, 36.84814938879361], [31.375382983891654, 36.84814938879361], [31.375382983891654, 36.84707141045266]]]}, "id": "+392172+87483", "properties": {"area_ha": 7.473294211188878, "count": 26, "label": 1, "mean_dnbr": 0.30021102605111133}}, {"type": "Feature", "geometry": {"geodesic": false, "type": "Polygon", "coordinates": [[[31.379694897255433, 36.84275949708889], [31.381311864766843, 36.84275949708889], [31.381311864766843, 36.84383747542984], [31.380772875596392, 36.84383747542984], [31.380772875596392, 36.84491545377078], [31.379155908084954, 36.84491545377078], [31.379155908084954, 36.84437646460031], [31.378616918914503, 36.84437646460031], [31.378616918914503, 36.84383747542984], [31.377538940573544, 36.84383747542984], [31.377538940573544, 36.843298486259364], [31.378616918914503, 36.843298486259364], [31.378616918914503, 36.84383747542984], [31.379155908084954, 36.84383747542984], [31.379155908084954, 36.843298486259364], [31.379694897255433, 36.843298486259364], [31.379694897255433, 36.84275949708889]]]}, "id": "+392180+87491", "properties": {"area_ha": 4.5992735759955305, "count": 16, "label": 1, "mean_dnbr": 0.3323952625858536}}, {"type": "Feature", "geometry": {"geodesic": false, "type": "Polygon", "coordinates": [[[31.39263063734677, 36.84437646460031], [31.39316962651722, 36.84437646460031], [31.39316962651722, 36.84491545377078], [31.3937086156877, 36.84491545377078], [31.3937086156877, 36.847610399623136], [31.39263063734677, 36.847610399623136], [31.39263063734677, 36.84437646460031]]]}, "id": "+392202+87488", "properties": {"area_ha": 3.1619056195848145, "count": 11, "label": 1, "mean_dnbr": 0.5635917127188496}}, {"type": "Feature", "geometry": {"geodesic": false, "type": "Polygon", "coordinates": [[[31.39424760485818, 36.800179352621626], [31.39640356154007, 36.800179352621626], [31.39640356154007, 36.80125733096257], [31.39586457236959, 36.80125733096257], [31.39586457236959, 36.80287429847399], [31.39478659402866, 36.80287429847399], [31.39478659402866, 36.802335309303515], [31.3937086156877, 36.802335309303515], [31.3937086156877, 36.80125733096257], [31.39316962651722, 36.80125733096257], [31.39316962651722, 36.800179352621626], [31.3937086156877, 36.800179352621626], [31.3937086156877, 36.80125733096257], [31.39586457236959, 36.80125733096257], [31.39586457236959, 36.8007183417921], [31.39424760485818, 36.8007183417921], [31.39424760485818, 36.800179352621626]]]}, "id": "+392208+87570", "properties": {"area_ha": 4.889427626565059, "count": 17, "label": 1, "mean_dnbr": 0.2521123260439229}}, {"type": "Feature", "geometry": {"geodesic": false, "type": "Polygon", "coordinates": [[[31.39802052905148, 36.82389487612238], [31.39909850739241, 36.82389487612238], [31.39909850739241, 36.82443386529285], [31.39963749656289, 36.82443386529285], [31.39963749656289, 36.824972854463326], [31.39909850739241, 36.824972854463326], [31.39909850739241, 36.82605083280427], [31.39855951822196, 36.82605083280427], [31.39855951822196, 36.824972854463326], [31.39802052905148, 36.824972854463326], [31.39802052905148, 36.82605083280427], [31.39640356154007, 36.82605083280427], [31.39640356154007, 36.824972854463326], [31.39802052905148, 36.824972854463326], [31.39802052905148, 36.82389487612238]]]}, "id": "+392213+87526", "properties": {"area_ha": 3.737822102192998, "count": 13, "label": 1, "mean_dnbr": 0.3120480745675796}}, {"type": "Feature", "geometry": {"geodesic": false, "type": "Polygon", "coordinates": [[[31.39855951822196, 36.79209451506455], [31.40017648573337, 36.79209451506455], [31.40017648573337, 36.79317249340549], [31.39963749656289, 36.79317249340549], [31.39963749656289, 36.79263350423502], [31.39855951822196, 36.79263350423502], [31.39855951822196, 36.793711482575965], [31.397481539881, 36.793711482575965], [31.397481539881, 36.79425047174644], [31.39694255071052, 36.79425047174644], [31.39694255071052, 36.79317249340549], [31.39640356154007, 36.79317249340549], [31.39640356154007, 36.79209451506455], [31.39802052905148, 36.79209451506455], [31.39802052905148, 36.79263350423502], [31.39855951822196, 36.79263350423502], [31.39855951822196, 36.79209451506455]]]}, "id": "+392215+87585", "properties": {"area_ha": 4.3146856019785655, "count": 15, "label": 1, "mean_dnbr": 0.24235550351563245}}, {"type": "Feature", "geometry": {"geodesic": false, "type": "Polygon", "coordinates": [[[31.400715474903848, 36.93654361275097], [31.401793453244778, 36.93654361275097], [31.401793453244778, 36.93708260192144], [31.402332442415258, 36.93708260192144], [31.402332442415258, 36.93762159109191], [31.401793453244778, 36.93762159109191], [31.401793453244778, 36.938160580262384], [31.402332442415258, 36.938160580262384], [31.402332442415258, 36.938699569432856], [31.401793453244778, 36.938699569432856], [31.401793453244778, 36.93923855860333], [31.402332442415258, 36.93923855860333], [31.402332442415258, 36.9397775477738], [31.400715474903848, 36.9397775477738], [31.400715474903848, 36.938699569432856], [31.4012544640743, 36.938699569432856], [31.4012544640743, 36.938160580262384], [31.400715474903848, 36.938160580262384], [31.400715474903848, 36.93654361275097]]]}, "id": "+392218+87317", "properties": {"area_ha": 4.019392950276029, "count": 14, "label": 1, "mean_dnbr": 0.7574970322061306}}, {"type": "Feature", "geometry": {"geodesic": false, "type": "Polygon", "coordinates": [[[31.40287143158571, 36.82335588695191], [31.403949409926668, 36.82335588695191], [31.403949409926668, 36.8255118436338], [31.405027388267598, 36.8255118436338], [31.405027388267598, 36.82605083280427], [31.405566377438078, 36.82605083280427], [31.405566377438078, 36.82658982197474], [31.406105366608557, 36.82658982197474], [31.406105366608557, 36.82712881114521], [31.405566377438078, 36.82712881114521], [31.405566377438078, 36.82766780031568], [31.405027388267598, 36.82766780031568], [31.405027388267598, 36.82658982197474], [31.403410420756188, 36.82658982197474], [31.403410420756188, 36.82712881114521], [31.402332442415258, 36.82712881114521], [31.402332442415258, 36.82766780031568], [31.401793453244778, 36.82766780031568], [31.401793453244778, 36.82712881114521], [31.4012544640743, 36.82712881114521], [31.4012544640743, 36.82766780031568], [31.400715474903848, 36.82766780031568], [31.400715474903848, 36.82712881114521], [31.4012544640743, 36.82712881114521], [31.4012544640743, 36.82605083280427], [31.401793453244778, 36.82605083280427], [31.401793453244778, 36.824972854463326], [31.40287143158571, 36.824972854463326], [31.40287143158571, 36.82335588695191]]]}, "id": "+392222+87527", "properties": {"area_ha": 9.48822415217615, "count": 33, "label": 1, "mean_dnbr": 0.4221138253630291}}, {"type": "Feature", "geometry": {"geodesic": false, "type": "Polygon", "coordinates": [[[31.403949409926668, 36.81419307105389], [31.404488399097147, 36.81419307105389], [31.404488399097147, 36.8158100385653], [31.403949409926668, 36.8158100385653], [31.403949409926668, 36.816349027735775], [31.405027388267598, 36.816349027735775], [31.405027388267598, 36.81688801690625], [31.404488399097147, 36.81688801690625], [31.404488399097147, 36.81742700607672], [31.40287143158571, 36.81742700607672], [31.40287143158571, 36.81688801690625], [31.403410420756188, 36.81688801690625], [31.403410420756188, 36.8158100385653], [31.40287143158571, 36.8158100385653], [31.40287143158571, 36.81419307105389], [31.403410420756188, 36.81419307105389], [31.403410420756188, 36.814732060224365], [31.403949409926668, 36.814732060224365], [31.403949409926668, 36.81419307105389]]]}, "id": "+392223+87544", "properties": {"area_ha": 4.3133958846135325, "count": 15, "label": 1, "mean_dnbr": 0.4325852718771962}}, {"type": "Feature", "geometry": {"geodesic": false, "type": "Polygon", "coordinates": [[[31.409878290801856, 36.766762024052376], [31.410956269142787, 36.766762024052376], [31.410956269142787, 36.76730101322285], [31.411495258313266, 36.76730101322285], [31.411495258313266, 36.76784000239332], [31.412573236654225, 36.76784000239332], [31.412573236654225, 36.76837899156379], [31.412034247483746, 36.76837899156379], [31.412034247483746, 36.768917980734265], [31.409878290801856, 36.768917980734265], [31.409878290801856, 36.766762024052376]], [[31.411495258313266, 36.76784000239332], [31.411495258313266, 36.76837899156379], [31.410956269142787, 36.76837899156379], [31.410956269142787, 36.76784000239332], [31.411495258313266, 36.76784000239332]]]}, "id": "+392235+87632", "properties": {"area_ha": 3.7406169303998453, "count": 13, "label": 1, "mean_dnbr": 0.39248199222155394}}, {"type": "Feature", "geometry": {"geodesic": false, "type": "Polygon", "coordinates": [[[31.417963128358934, 36.76784000239332], [31.419041106699865, 36.76784000239332], [31.419041106699865, 36.76945696990474], [31.417963128358934, 36.76945696990474], [31.417963128358934, 36.77053494824568], [31.416346160847525, 36.77053494824568], [31.416346160847525, 36.76945696990474], [31.417424139188455, 36.76945696990474], [31.417424139188455, 36.768917980734265], [31.417963128358934, 36.768917980734265], [31.417963128358934, 36.76784000239332]]]}, "id": "+392250+87630", "properties": {"area_ha": 3.740548961631037, "count": 13, "label": 1, "mean_dnbr": 0.3546124774501688}}, {"type": "Feature", "geometry": {"geodesic": false, "type": "Polygon", "coordinates": [[[31.44221764103017, 36.82443386529285], [31.444373597712058, 36.82443386529285], [31.444373597712058, 36.824972854463326], [31.44491258688251, 36.824972854463326], [31.44491258688251, 36.8255118436338], [31.44383460854158, 36.8255118436338], [31.44383460854158, 36.824972854463326], [31.4432956193711, 36.824972854463326], [31.4432956193711, 36.82605083280427], [31.44221764103017, 36.82605083280427], [31.44221764103017, 36.82658982197474], [31.44167865185969, 36.82658982197474], [31.44167865185969, 36.82712881114521], [31.44006168434828, 36.82712881114521], [31.44006168434828, 36.8255118436338], [31.44113966268921, 36.8255118436338], [31.44113966268921, 36.824972854463326], [31.44221764103017, 36.824972854463326], [31.44221764103017, 36.82443386529285]]]}, "id": "+392297+87525", "properties": {"area_ha": 6.613017897460834, "count": 23, "label": 1, "mean_dnbr": 0.3987545750474753}}, {"type": "Feature", "geometry": {"geodesic": false, "type": "Polygon", "coordinates": [[[31.452997424439587, 36.76945696990474], [31.453536413610067, 36.76945696990474], [31.453536413610067, 36.77161292658663], [31.452997424439587, 36.77161292658663], [31.452997424439587, 36.7721519157571], [31.452458435269108, 36.7721519157571], [31.452458435269108, 36.77269090492757], [31.454075402780546, 36.77269090492757], [31.454075402780546, 36.77322989409804], [31.452997424439587, 36.77322989409804], [31.452997424439587, 36.77376888326851], [31.455153381121477, 36.77376888326851], [31.455153381121477, 36.7759248399504], [31.451919446098657, 36.7759248399504], [31.451919446098657, 36.77538585077993], [31.452997424439587, 36.77538585077993], [31.452997424439587, 36.77376888326851], [31.452458435269108, 36.77376888326851], [31.452458435269108, 36.77430787243898], [31.451919446098657, 36.77430787243898], [31.451919446098657, 36.77376888326851], [31.451380456928177, 36.77376888326851], [31.451380456928177, 36.77430787243898], [31.450302478587247, 36.77430787243898], [31.450302478587247, 36.77376888326851], [31.451380456928177, 36.77376888326851], [31.451380456928177, 36.7721519157571], [31.450302478587247, 36.7721519157571], [31.450302478587247, 36.77161292658663], [31.450841467757698, 36.77161292658663], [31.450841467757698, 36.77053494824568], [31.451919446098657, 36.77053494824568], [31.451919446098657, 36.771073937416155], [31.452458435269108, 36.771073937416155], [31.452458435269108, 36.77053494824568], [31.452997424439587, 36.77053494824568], [31.452997424439587, 36.76945696990474]], [[31.452997424439587, 36.771073937416155], [31.452997424439587, 36.77161292658663], [31.452458435269108, 36.77161292658663], [31.452458435269108, 36.771073937416155], [31.452997424439587, 36.771073937416155]]]}, "id": "+392314+87627", "properties": {"area_ha": 13.23511697008015, "count": 46, "label": 1, "mean_dnbr": 0.31257411557147974}}, {"type": "Feature", "geometry": {"geodesic": false, "type": "Polygon", "coordinates": [[[31.451919446098657, 36.76406707820002], [31.454075402780546, 36.76406707820002], [31.454075402780546, 36.765145056540966], [31.452458435269108, 36.765145056540966], [31.452458435269108, 36.76622303488191], [31.451919446098657, 36.76622303488191], [31.451919446098657, 36.76568404571144], [31.451380456928177, 36.76568404571144], [31.451380456928177, 36.765145056540966], [31.450841467757698, 36.765145056540966], [31.450841467757698, 36.76406707820002], [31.451380456928177, 36.76406707820002], [31.451380456928177, 36.765145056540966], [31.452458435269108, 36.765145056540966], [31.452458435269108, 36.764606067370494], [31.451919446098657, 36.764606067370494], [31.451919446098657, 36.76406707820002]]]}, "id": "+392315+87637", "properties": {"area_ha": 3.4530098743663222, "count": 12, "label": 1, "mean_dnbr": 0.2879445153087783}}, {"type": "Feature", "geometry": {"geodesic": false, "type": "Polygon", "coordinates": [[[31.456231359462436, 36.76406707820002], [31.457309337803366, 36.76406707820002], [31.457309337803366, 36.764606067370494], [31.458387316144297, 36.764606067370494], [31.458387316144297, 36.765145056540966], [31.458926305314776, 36.765145056540966], [31.458926305314776, 36.76568404571144], [31.457848326973846, 36.76568404571144], [31.457848326973846, 36.765145056540966], [31.457309337803366, 36.765145056540966], [31.457309337803366, 36.76568404571144], [31.456770348632887, 36.76568404571144], [31.456770348632887, 36.76622303488191], [31.457309337803366, 36.76622303488191], [31.457309337803366, 36.766762024052376], [31.456231359462436, 36.766762024052376], [31.456231359462436, 36.76568404571144], [31.455153381121477, 36.76568404571144], [31.455153381121477, 36.765145056540966], [31.455692370291956, 36.765145056540966], [31.455692370291956, 36.764606067370494], [31.456231359462436, 36.764606067370494], [31.456231359462436, 36.76406707820002]]]}, "id": "+392321+87637", "properties": {"area_ha": 4.603992905606326, "count": 16, "label": 1, "mean_dnbr": 0.3133979742671686}}, {"type": "Feature", "geometry": {"geodesic": false, "type": "Polygon", "coordinates": [[[31.455153381121477, 36.822816897781436], [31.457848326973846, 36.822816897781436], [31.457848326973846, 36.82335588695191], [31.458387316144297, 36.82335588695191], [31.458387316144297, 36.82389487612238], [31.458926305314776, 36.82389487612238], [31.458926305314776, 36.82335588695191], [31.459465294485256, 36.82335588695191], [31.459465294485256, 36.82443386529285], [31.460004283655735, 36.82443386529285], [31.460004283655735, 36.824972854463326], [31.459465294485256, 36.824972854463326], [31.459465294485256, 36.82443386529285], [31.455153381121477, 36.82443386529285], [31.455153381121477, 36.824972854463326], [31.454614391950997, 36.824972854463326], [31.454614391950997, 36.82443386529285], [31.454075402780546, 36.82443386529285], [31.454075402780546, 36.82389487612238], [31.455153381121477, 36.82389487612238], [31.455153381121477, 36.822816897781436]]]}, "id": "+392322+87528", "properties": {"area_ha": 6.900753100359221, "count": 24, "label": 1, "mean_dnbr": 0.43324689681331174}}, {"type": "Feature", "geometry": {"geodesic": false, "type": "Polygon", "coordinates": [[[31.457309337803366, 36.84599343211172], [31.458926305314776, 36.84599343211172], [31.458926305314776, 36.84707141045266], [31.459465294485256, 36.84707141045266], [31.459465294485256, 36.84653242128219], [31.460543272826186, 36.84653242128219], [31.460543272826186, 36.84814938879361], [31.458926305314776, 36.84814938879361], [31.458926305314776, 36.84707141045266], [31.457309337803366, 36.84707141045266], [31.457309337803366, 36.84599343211172]]]}, "id": "+392324+87485", "properties": {"area_ha": 4.024196374007464, "count": 14, "label": 1, "mean_dnbr": 0.4076758283506452}}, {"type": "Feature", "geometry": {"geodesic": false, "type": "Polygon", "coordinates": [[[31.457848326973846, 36.81904397358814], [31.458926305314776, 36.81904397358814], [31.458926305314776, 36.81958296275861], [31.459465294485256, 36.81958296275861], [31.459465294485256, 36.820660941099554], [31.458926305314776, 36.820660941099554], [31.458926305314776, 36.822277908610964], [31.456770348632887, 36.822277908610964], [31.456770348632887, 36.82173891944049], [31.457848326973846, 36.82173891944049], [31.457848326973846, 36.82119993027002], [31.458387316144297, 36.82119993027002], [31.458387316144297, 36.82012195192908], [31.457848326973846, 36.82012195192908], [31.457848326973846, 36.81904397358814]]]}, "id": "+392324+87535", "properties": {"area_ha": 4.02558114711665, "count": 14, "label": 1, "mean_dnbr": 0.31075439658260773}}, {"type": "Feature", "geometry": {"geodesic": false, "type": "Polygon", "coordinates": [[[31.458926305314776, 36.75382628396106], [31.460543272826186, 36.75382628396106], [31.460543272826186, 36.754904262302], [31.461621251167145, 36.754904262302], [31.461621251167145, 36.75544325147247], [31.461082261996665, 36.75544325147247], [31.461082261996665, 36.75598224064294], [31.460543272826186, 36.75598224064294], [31.460543272826186, 36.756521229813416], [31.460004283655735, 36.756521229813416], [31.460004283655735, 36.75598224064294], [31.459465294485256, 36.75598224064294], [31.459465294485256, 36.75544325147247], [31.458926305314776, 36.75544325147247], [31.458926305314776, 36.754904262302], [31.458387316144297, 36.754904262302], [31.458387316144297, 36.75436527313153], [31.458926305314776, 36.75436527313153], [31.458926305314776, 36.75382628396106]]]}, "id": "+392327+87656", "properties": {"area_ha": 4.604605788586503, "count": 16, "label": 1, "mean_dnbr": 0.5285829503456146}}, {"type": "Feature", "geometry": {"geodesic": false, "type": "Polygon", "coordinates": [[[31.458926305314776, 36.81365408188342], [31.461082261996665, 36.81365408188342], [31.461082261996665, 36.8158100385653], [31.458926305314776, 36.8158100385653], [31.458926305314776, 36.81688801690625], [31.459465294485256, 36.81688801690625], [31.459465294485256, 36.81742700607672], [31.458926305314776, 36.81742700607672], [31.458926305314776, 36.81688801690625], [31.457848326973846, 36.81688801690625], [31.457848326973846, 36.8158100385653], [31.458926305314776, 36.8158100385653], [31.458926305314776, 36.81527104939483], [31.460004283655735, 36.81527104939483], [31.460004283655735, 36.814732060224365], [31.458926305314776, 36.814732060224365], [31.458926305314776, 36.81365408188342]]]}, "id": "+392328+87545", "properties": {"area_ha": 5.463681727242719, "count": 19, "label": 1, "mean_dnbr": 0.4083454267627256}}, {"type": "Feature", "geometry": {"geodesic": false, "type": "Polygon", "coordinates": [[[31.460004283655735, 36.76352808902955], [31.461082261996665, 36.76352808902955], [31.461082261996665, 36.765145056540966], [31.461621251167145, 36.765145056540966], [31.461621251167145, 36.764606067370494], [31.462160240337624, 36.764606067370494], [31.462160240337624, 36.76406707820002], [31.463238218678555, 36.76406707820002], [31.463238218678555, 36.764606067370494], [31.463777207849034, 36.764606067370494], [31.463777207849034, 36.76568404571144], [31.462160240337624, 36.76568404571144], [31.462160240337624, 36.76622303488191], [31.461621251167145, 36.76622303488191], [31.461621251167145, 36.76568404571144], [31.461082261996665, 36.76568404571144], [31.461082261996665, 36.76622303488191], [31.459465294485256, 36.76622303488191], [31.459465294485256, 36.76406707820002], [31.460004283655735, 36.76406707820002], [31.460004283655735, 36.76352808902955]]]}, "id": "+392328+87638", "properties": {"area_ha": 7.48151659155736, "count": 26, "label": 1, "mean_dnbr": 0.30506863860636735}}, {"type": "Feature", "geometry": {"geodesic": false, "type": "Polygon", "coordinates": [[[31.457848326973846, 36.837369605384175], [31.462699229508075, 36.837369605384175], [31.462699229508075, 36.83844758372512], [31.461621251167145, 36.83844758372512], [31.461621251167145, 36.83898657289559], [31.461082261996665, 36.83898657289559], [31.461082261996665, 36.83952556206606], [31.461621251167145, 36.83952556206606], [31.461621251167145, 36.84006455123653], [31.460004283655735, 36.84006455123653], [31.460004283655735, 36.840603540407], [31.458387316144297, 36.840603540407], [31.458387316144297, 36.84006455123653], [31.458926305314776, 36.84006455123653], [31.458926305314776, 36.83952556206606], [31.459465294485256, 36.83952556206606], [31.459465294485256, 36.84006455123653], [31.460004283655735, 36.84006455123653], [31.460004283655735, 36.83952556206606], [31.460543272826186, 36.83952556206606], [31.460543272826186, 36.83898657289559], [31.460004283655735, 36.83898657289559], [31.460004283655735, 36.83844758372512], [31.457848326973846, 36.83844758372512], [31.457848326973846, 36.837369605384175]]]}, "id": "+392331+87501", "properties": {"area_ha": 8.33669056175092, "count": 29, "label": 1, "mean_dnbr": 0.43798873833665114}}, {"type": "Feature", "geometry": {"geodesic": false, "type": "Polygon", "coordinates": [[[31.476712947940342, 36.746280435574455], [31.47886890462223, 36.746280435574455], [31.47886890462223, 36.74681942474493], [31.47940789379271, 36.74681942474493], [31.47940789379271, 36.7473584139154], [31.478329915451752, 36.7473584139154], [31.478329915451752, 36.74789740308587], [31.47563496959941, 36.74789740308587], [31.47563496959941, 36.74681942474493], [31.476712947940342, 36.74681942474493], [31.476712947940342, 36.746280435574455]]]}, "id": "+392361+87670", "properties": {"area_ha": 4.605088622433498, "count": 16, "label": 1, "mean_dnbr": 0.2771159042139145}}, {"type": "Feature", "geometry": {"geodesic": false, "type": "Polygon", "coordinates": [[[31.48210283964505, 36.83790859455465], [31.48264182881553, 36.83790859455465], [31.48264182881553, 36.83844758372512], [31.48210283964505, 36.83844758372512], [31.48210283964505, 36.83898657289559], [31.48264182881553, 36.83898657289559], [31.48264182881553, 36.83952556206606], [31.48210283964505, 36.83952556206606], [31.48210283964505, 36.84006455123653], [31.4815638504746, 36.84006455123653], [31.4815638504746, 36.840603540407], [31.47994688296319, 36.840603540407], [31.47994688296319, 36.83952556206606], [31.48048587213364, 36.83952556206606], [31.48048587213364, 36.83898657289559], [31.4815638504746, 36.83898657289559], [31.4815638504746, 36.83844758372512], [31.48210283964505, 36.83844758372512], [31.48210283964505, 36.83790859455465]]]}, "id": "+392368+87500", "properties": {"area_ha": 3.7371197788539074, "count": 13, "label": 1, "mean_dnbr": 0.23859615941546164}}, {"type": "Feature", "geometry": {"geodesic": false, "type": "Polygon", "coordinates": [[[31.48264182881553, 36.802335309303515], [31.48318081798601, 36.802335309303515], [31.48318081798601, 36.803952276814925], [31.48371980715649, 36.803952276814925], [31.48371980715649, 36.8044912659854], [31.48318081798601, 36.8044912659854], [31.48318081798601, 36.80503025515587], [31.48210283964505, 36.80503025515587], [31.48210283964505, 36.8044912659854], [31.48102486130412, 36.8044912659854], [31.48102486130412, 36.803952276814925], [31.4815638504746, 36.803952276814925], [31.4815638504746, 36.80341328764445], [31.48210283964505, 36.80341328764445], [31.48210283964505, 36.80287429847399], [31.48264182881553, 36.80287429847399], [31.48264182881553, 36.802335309303515]]]}, "id": "+392369+87566", "properties": {"area_ha": 3.7388607395985645, "count": 13, "label": 1, "mean_dnbr": 0.3614224786603358}}, {"type": "Feature", "geometry": {"geodesic": false, "type": "Polygon", "coordinates": [[[31.49234363388402, 36.752748305620116], [31.493421612224978, 36.752748305620116], [31.493421612224978, 36.75328729479059], [31.4928826230545, 36.75328729479059], [31.4928826230545, 36.75382628396106], [31.493421612224978, 36.75382628396106], [31.493421612224978, 36.754904262302], [31.49234363388402, 36.754904262302], [31.49234363388402, 36.75436527313153], [31.491804644713568, 36.75436527313153], [31.491804644713568, 36.754904262302], [31.49018767720213, 36.754904262302], [31.49018767720213, 36.75544325147247], [31.48964868803168, 36.75544325147247], [31.48964868803168, 36.75598224064294], [31.4891096988612, 36.75598224064294], [31.4891096988612, 36.754904262302], [31.48964868803168, 36.754904262302], [31.48964868803168, 36.75382628396106], [31.49126565554309, 36.75382628396106], [31.49126565554309, 36.75328729479059], [31.49234363388402, 36.75328729479059], [31.49234363388402, 36.752748305620116]]]}, "id": "+392388+87658", "properties": {"area_ha": 6.043608228820955, "count": 21, "label": 1, "mean_dnbr": 0.30142225186663646}}, {"type": "Feature", "geometry": {"geodesic": false, "type": "Polygon", "coordinates": [[[31.495038579736388, 36.77538585077993], [31.49611655807732, 36.77538585077993], [31.49611655807732, 36.7759248399504], [31.496655547247798, 36.7759248399504], [31.496655547247798, 36.77646382912087], [31.497733525588757, 36.77646382912087], [31.497733525588757, 36.77700281829134], [31.49611655807732, 36.77700281829134], [31.49611655807732, 36.77808079663229], [31.495577568906867, 36.77808079663229], [31.495577568906867, 36.777541807461816], [31.49449959056591, 36.777541807461816], [31.49449959056591, 36.77646382912087], [31.495038579736388, 36.77646382912087], [31.495038579736388, 36.77538585077993]]]}, "id": "+392393+87616", "properties": {"area_ha": 4.31560398754065, "count": 15, "label": 1, "mean_dnbr": 0.38782331415197546}}, {"type": "Feature", "geometry": {"geodesic": false, "type": "Polygon", "coordinates": [[[31.495577568906867, 36.744124478892566], [31.49611655807732, 36.744124478892566], [31.49611655807732, 36.74520245723351], [31.49449959056591, 36.74520245723351], [31.49449959056591, 36.74681942474493], [31.495577568906867, 36.74681942474493], [31.495577568906867, 36.7473584139154], [31.496655547247798, 36.7473584139154], [31.496655547247798, 36.74681942474493], [31.497194536418277, 36.74681942474493], [31.497194536418277, 36.746280435574455], [31.496655547247798, 36.746280435574455], [31.496655547247798, 36.74520245723351], [31.497194536418277, 36.74520245723351], [31.497194536418277, 36.746280435574455], [31.498272514759208, 36.746280435574455], [31.498272514759208, 36.74681942474493], [31.498811503929687, 36.74681942474493], [31.498811503929687, 36.746280435574455], [31.499350493100167, 36.746280435574455], [31.499350493100167, 36.7473584139154], [31.498272514759208, 36.7473584139154], [31.498272514759208, 36.748436392256345], [31.499889482270618, 36.748436392256345], [31.499889482270618, 36.74789740308587], [31.500967460611577, 36.74789740308587], [31.500967460611577, 36.74951437059728], [31.497733525588757, 36.74951437059728], [31.497733525588757, 36.750053359767755], [31.497194536418277, 36.750053359767755], [31.497194536418277, 36.74951437059728], [31.496655547247798, 36.74951437059728], [31.496655547247798, 36.75059234893823], [31.495577568906867, 36.75059234893823], [31.495577568906867, 36.7511313381087], [31.495038579736388, 36.7511313381087], [31.495038579736388, 36.75059234893823], [31.49449959056591, 36.75059234893823], [31.49449959056591, 36.7511313381087], [31.49396060139543, 36.7511313381087], [31.49396060139543, 36.75059234893823], [31.4928826230545, 36.75059234893823], [31.4928826230545, 36.752209316449644], [31.491804644713568, 36.752209316449644], [31.491804644713568, 36.75167032727917], [31.49234363388402, 36.75167032727917], [31.49234363388402, 36.750053359767755], [31.491804644713568, 36.750053359767755], [31.491804644713568, 36.74897538142681], [31.4928826230545, 36.74897538142681], [31.4928826230545, 36.7473584139154], [31.493421612224978, 36.7473584139154], [31.493421612224978, 36.74681942474493], [31.49234363388402, 36.74681942474493], [31.49234363388402, 36.7473584139154], [31.491804644713568, 36.7473584139154], [31.491804644713568, 36.746280435574455], [31.49234363388402, 36.746280435574455], [31.49234363388402, 36.74574144640398], [31.493421612224978, 36.74574144640398], [31.493421612224978, 36.74520245723351], [31.49449959056591, 36.74520245723351], [31.49449959056591, 36.74466346806304], [31.495577568906867, 36.74466346806304], [31.495577568906867, 36.744124478892566]], [[31.49449959056591, 36.748436392256345], [31.49449959056591, 36.74951437059728], [31.493421612224978, 36.74951437059728], [31.493421612224978, 36.748436392256345], [31.49449959056591, 36.748436392256345]], [[31.49611655807732, 36.748436392256345], [31.49611655807732, 36.74897538142681], [31.496655547247798, 36.74897538142681], [31.496655547247798, 36.74951437059728], [31.495038579736388, 36.74951437059728], [31.495038579736388, 36.74897538142681], [31.495577568906867, 36.74897538142681], [31.495577568906867, 36.748436392256345], [31.49611655807732, 36.748436392256345]], [[31.498272514759208, 36.74681942474493], [31.498272514759208, 36.7473584139154], [31.497194536418277, 36.7473584139154], [31.497194536418277, 36.74681942474493], [31.498272514759208, 36.74681942474493]]]}, "id": "+392393+87674", "properties": {"area_ha": 28.205715867909742, "count": 98, "label": 1, "mean_dnbr": 0.3292154684148282}}, {"type": "Feature", "geometry": {"geodesic": false, "type": "Polygon", "coordinates": [[[31.500428471441097, 36.75813819732483], [31.500967460611577, 36.75813819732483], [31.500967460611577, 36.75975516483625], [31.502584428122987, 36.75975516483625], [31.502584428122987, 36.76029415400672], [31.502045438952507, 36.76029415400672], [31.502045438952507, 36.76137213234766], [31.503123417293466, 36.76137213234766], [31.503123417293466, 36.76191112151813], [31.499889482270618, 36.76191112151813], [31.499889482270618, 36.76137213234766], [31.500428471441097, 36.76137213234766], [31.500428471441097, 36.76083314317719], [31.501506449782056, 36.76083314317719], [31.501506449782056, 36.76029415400672], [31.500967460611577, 36.76029415400672], [31.500967460611577, 36.75975516483625], [31.500428471441097, 36.75975516483625], [31.500428471441097, 36.75813819732483]]]}, "id": "+392402+87648", "properties": {"area_ha": 4.6042881385086645, "count": 16, "label": 1, "mean_dnbr": 0.24740684449629455}}, {"type": "Feature", "geometry": {"geodesic": false, "type": "Polygon", "coordinates": [[[31.505279373975355, 36.754904262302], [31.506896341486765, 36.754904262302], [31.506896341486765, 36.75598224064294], [31.506357352316286, 36.75598224064294], [31.506357352316286, 36.756521229813416], [31.505279373975355, 36.756521229813416], [31.505279373975355, 36.75706021898389], [31.503662406463945, 36.75706021898389], [31.503662406463945, 36.75598224064294], [31.505279373975355, 36.75598224064294], [31.505279373975355, 36.754904262302]]]}, "id": "+392413+87654", "properties": {"area_ha": 4.028977627142824, "count": 14, "label": 1, "mean_dnbr": 0.3378646581793699}}, {"type": "Feature", "geometry": {"geodesic": false, "type": "Polygon", "coordinates": [[[31.506896341486765, 36.76837899156379], [31.507435330657245, 36.76837899156379], [31.507435330657245, 36.768917980734265], [31.507974319827696, 36.768917980734265], [31.507974319827696, 36.76945696990474], [31.509052298168655, 36.76945696990474], [31.509052298168655, 36.76999595907521], [31.510130276509585, 36.76999595907521], [31.510130276509585, 36.76945696990474], [31.511208254850544, 36.76945696990474], [31.511208254850544, 36.77053494824568], [31.509591287339134, 36.77053494824568], [31.509591287339134, 36.771073937416155], [31.508513308998175, 36.771073937416155], [31.508513308998175, 36.77053494824568], [31.507974319827696, 36.77053494824568], [31.507974319827696, 36.76999595907521], [31.507435330657245, 36.76999595907521], [31.507435330657245, 36.76945696990474], [31.506896341486765, 36.76945696990474], [31.506896341486765, 36.76837899156379]]]}, "id": "+392414+87629", "properties": {"area_ha": 4.603714439784167, "count": 16, "label": 1, "mean_dnbr": 0.34012655421107413}}, {"type": "Feature", "geometry": {"geodesic": false, "type": "Polygon", "coordinates": [[[31.507974319827696, 36.75059234893823], [31.508513308998175, 36.75059234893823], [31.508513308998175, 36.7511313381087], [31.509052298168655, 36.7511313381087], [31.509052298168655, 36.75167032727917], [31.509591287339134, 36.75167032727917], [31.509591287339134, 36.7511313381087], [31.510130276509585, 36.7511313381087], [31.510130276509585, 36.75167032727917], [31.510669265680065, 36.75167032727917], [31.510669265680065, 36.752209316449644], [31.509052298168655, 36.752209316449644], [31.509052298168655, 36.75328729479059], [31.508513308998175, 36.75328729479059], [31.508513308998175, 36.752209316449644], [31.505279373975355, 36.752209316449644], [31.505279373975355, 36.7511313381087], [31.506896341486765, 36.7511313381087], [31.506896341486765, 36.75167032727917], [31.507974319827696, 36.75167032727917], [31.507974319827696, 36.75059234893823]]]}, "id": "+392416+87662", "properties": {"area_ha": 5.46822389397081, "count": 19, "label": 1, "mean_dnbr": 0.337026670927719}}, {"type": "Feature", "geometry": {"geodesic": false, "type": "Polygon", "coordinates": [[[31.510669265680065, 36.73819559801738], [31.511747244020995, 36.73819559801738], [31.511747244020995, 36.73873458718785], [31.511208254850544, 36.73873458718785], [31.511208254850544, 36.73927357635832], [31.511747244020995, 36.73927357635832], [31.511747244020995, 36.739812565528794], [31.512286233191475, 36.739812565528794], [31.512286233191475, 36.74142953304021], [31.511208254850544, 36.74142953304021], [31.511208254850544, 36.74035155469927], [31.510669265680065, 36.74035155469927], [31.510669265680065, 36.73819559801738]]]}, "id": "+392422+87685", "properties": {"area_ha": 3.4541365444553818, "count": 12, "label": 1, "mean_dnbr": 0.3710854925363681}}, {"type": "Feature", "geometry": {"geodesic": false, "type": "Polygon", "coordinates": [[[31.513364211532434, 36.73496166299455], [31.514442189873364, 36.73496166299455], [31.514442189873364, 36.73550065216502], [31.514981179043843, 36.73550065216502], [31.514981179043843, 36.73711761967643], [31.513903200702885, 36.73711761967643], [31.513903200702885, 36.737656608846905], [31.513364211532434, 36.737656608846905], [31.513364211532434, 36.73711761967643], [31.512825222361954, 36.73711761967643], [31.512825222361954, 36.73657863050597], [31.513903200702885, 36.73657863050597], [31.513903200702885, 36.73550065216502], [31.513364211532434, 36.73550065216502], [31.513364211532434, 36.73496166299455]]]}, "id": "+392427+87691", "properties": {"area_ha": 3.166439403268325, "count": 11, "label": 1, "mean_dnbr": 0.23734957646326096}}, {"type": "Feature", "geometry": {"geodesic": false, "type": "Polygon", "coordinates": [[[31.516059157384774, 36.73280570631266], [31.517137135725733, 36.73280570631266], [31.517137135725733, 36.733883684653605], [31.517676124896184, 36.733883684653605], [31.517676124896184, 36.73496166299455], [31.517137135725733, 36.73496166299455], [31.517137135725733, 36.73550065216502], [31.517676124896184, 36.73550065216502], [31.517676124896184, 36.73711761967643], [31.518215114066663, 36.73711761967643], [31.518215114066663, 36.737656608846905], [31.517137135725733, 36.737656608846905], [31.517137135725733, 36.73711761967643], [31.516598146555253, 36.73711761967643], [31.516598146555253, 36.736039641335495], [31.517137135725733, 36.736039641335495], [31.517137135725733, 36.73550065216502], [31.516598146555253, 36.73550065216502], [31.516598146555253, 36.73496166299455], [31.516059157384774, 36.73496166299455], [31.516059157384774, 36.733883684653605], [31.515520168214323, 36.733883684653605], [31.515520168214323, 36.73334469548313], [31.516059157384774, 36.73334469548313], [31.516059157384774, 36.73280570631266]]]}, "id": "+392432+87695", "properties": {"area_ha": 5.4693965299441345, "count": 19, "label": 1, "mean_dnbr": 0.4670649820594639}}, {"type": "Feature", "geometry": {"geodesic": false, "type": "Polygon", "coordinates": [[[31.519832081578073, 36.733883684653605], [31.520910059919032, 36.733883684653605], [31.520910059919032, 36.73657863050597], [31.519832081578073, 36.73657863050597], [31.519832081578073, 36.73711761967643], [31.518754103237143, 36.73711761967643], [31.518754103237143, 36.736039641335495], [31.518215114066663, 36.736039641335495], [31.518215114066663, 36.73550065216502], [31.518754103237143, 36.73550065216502], [31.518754103237143, 36.736039641335495], [31.519832081578073, 36.736039641335495], [31.519832081578073, 36.73550065216502], [31.519293092407622, 36.73550065216502], [31.519293092407622, 36.73442267382408], [31.519832081578073, 36.73442267382408], [31.519832081578073, 36.733883684653605]]]}, "id": "+392439+87693", "properties": {"area_ha": 4.893637677350583, "count": 17, "label": 1, "mean_dnbr": 0.3481298406680271}}, {"type": "Feature", "geometry": {"geodesic": false, "type": "Polygon", "coordinates": [[[31.52306601660092, 36.74520245723351], [31.52522197328281, 36.74520245723351], [31.52522197328281, 36.746280435574455], [31.52468298411233, 36.746280435574455], [31.52468298411233, 36.74681942474493], [31.524143994941852, 36.74681942474493], [31.524143994941852, 36.7473584139154], [31.523605005771373, 36.7473584139154], [31.523605005771373, 36.74681942474493], [31.52306601660092, 36.74681942474493], [31.52306601660092, 36.74520245723351]]]}, "id": "+392447+87672", "properties": {"area_ha": 3.453853121916955, "count": 12, "label": 1, "mean_dnbr": 0.32203242423137224}}, {"type": "Feature", "geometry": {"geodesic": false, "type": "Polygon", "coordinates": [[[31.52629995162374, 36.736039641335495], [31.52953388664656, 36.736039641335495], [31.52953388664656, 36.73657863050597], [31.52683894079422, 36.73657863050597], [31.52683894079422, 36.73711761967643], [31.5273779299647, 36.73711761967643], [31.5273779299647, 36.73873458718785], [31.52629995162374, 36.73873458718785], [31.52629995162374, 36.739812565528794], [31.525760962453262, 36.739812565528794], [31.525760962453262, 36.73927357635832], [31.52522197328281, 36.73927357635832], [31.52522197328281, 36.73873458718785], [31.524143994941852, 36.73873458718785], [31.524143994941852, 36.737656608846905], [31.52522197328281, 36.737656608846905], [31.52522197328281, 36.73711761967643], [31.525760962453262, 36.73711761967643], [31.525760962453262, 36.73657863050597], [31.52629995162374, 36.73657863050597], [31.52629995162374, 36.736039641335495]]]}, "id": "+392455+87689", "properties": {"area_ha": 7.772024628373021, "count": 27, "label": 1, "mean_dnbr": 0.31665156336419337}}, {"type": "Feature", "geometry": {"geodesic": false, "type": "Polygon", "coordinates": [[[31.53384580001034, 36.752209316449644], [31.5349237783513, 36.752209316449644], [31.5349237783513, 36.752748305620116], [31.53546276752175, 36.752748305620116], [31.53546276752175, 36.75328729479059], [31.54031367005601, 36.75328729479059], [31.54031367005601, 36.75436527313153], [31.54139164839694, 36.75436527313153], [31.54139164839694, 36.75382628396106], [31.540852659226488, 36.75382628396106], [31.540852659226488, 36.75328729479059], [31.541930637567418, 36.75328729479059], [31.541930637567418, 36.75436527313153], [31.542469626737898, 36.75436527313153], [31.542469626737898, 36.75598224064294], [31.541930637567418, 36.75598224064294], [31.541930637567418, 36.75544325147247], [31.54031367005601, 36.75544325147247], [31.54031367005601, 36.75436527313153], [31.5386967025446, 36.75436527313153], [31.5386967025446, 36.75382628396106], [31.53761872420364, 36.75382628396106], [31.53761872420364, 36.75436527313153], [31.53546276752175, 36.75436527313153], [31.53546276752175, 36.75328729479059], [31.53384580001034, 36.75328729479059], [31.53384580001034, 36.752209316449644]]]}, "id": "+392465+87659", "properties": {"area_ha": 9.49707000631783, "count": 33, "label": 1, "mean_dnbr": 0.3317892956507507}}, {"type": "Feature", "geometry": {"geodesic": false, "type": "Polygon", "coordinates": [[[31.53600175669223, 36.737656608846905], [31.53654074586271, 36.737656608846905], [31.53654074586271, 36.73819559801738], [31.54031367005601, 36.73819559801738], [31.54031367005601, 36.73927357635832], [31.53977468088553, 36.73927357635832], [31.53977468088553, 36.73873458718785], [31.539235691715078, 36.73873458718785], [31.539235691715078, 36.73927357635832], [31.5386967025446, 36.73927357635832], [31.5386967025446, 36.73873458718785], [31.53707973503319, 36.73873458718785], [31.53707973503319, 36.73927357635832], [31.53654074586271, 36.73927357635832], [31.53654074586271, 36.73819559801738], [31.53600175669223, 36.73819559801738], [31.53600175669223, 36.737656608846905]]]}, "id": "+392468+87686", "properties": {"area_ha": 3.1663133314333654, "count": 11, "label": 1, "mean_dnbr": 0.2885241903726593}}, {"type": "Feature", "geometry": {"geodesic": false, "type": "Polygon", "coordinates": [[[31.545703561760718, 36.72418187958512], [31.547859518442607, 36.72418187958512], [31.547859518442607, 36.72687682543747], [31.546242550931197, 36.72687682543747], [31.546242550931197, 36.726337836267], [31.544625583419787, 36.726337836267], [31.544625583419787, 36.72687682543747], [31.543547605078828, 36.72687682543747], [31.543547605078828, 36.726337836267], [31.543008615908377, 36.726337836267], [31.543008615908377, 36.72687682543747], [31.542469626737898, 36.72687682543747], [31.542469626737898, 36.725259857926055], [31.544086594249308, 36.725259857926055], [31.544086594249308, 36.72472086875558], [31.544625583419787, 36.72472086875558], [31.544625583419787, 36.725259857926055], [31.545164572590267, 36.725259857926055], [31.545164572590267, 36.72579884709653], [31.545703561760718, 36.72579884709653], [31.545703561760718, 36.72418187958512]], [[31.544086594249308, 36.72579884709653], [31.544086594249308, 36.726337836267], [31.543547605078828, 36.726337836267], [31.543547605078828, 36.72579884709653], [31.544086594249308, 36.72579884709653]]]}, "id": "+392489+87711", "properties": {"area_ha": 9.500634500182734, "count": 33, "label": 1, "mean_dnbr": 0.36481181673625535}}, {"type": "Feature", "geometry": {"geodesic": false, "type": "Polygon", "coordinates": [[[31.561334247704394, 36.72040895539181], [31.562412226045353, 36.72040895539181], [31.562412226045353, 36.7225649120737], [31.562951215215833, 36.7225649120737], [31.562951215215833, 36.72310390124417], [31.564568182727243, 36.72310390124417], [31.564568182727243, 36.7225649120737], [31.563490204386284, 36.7225649120737], [31.563490204386284, 36.72202592290323], [31.562951215215833, 36.72202592290323], [31.562951215215833, 36.721486933732756], [31.564568182727243, 36.721486933732756], [31.564568182727243, 36.7225649120737], [31.565107171897722, 36.7225649120737], [31.565107171897722, 36.723642890414645], [31.561334247704394, 36.723642890414645], [31.561334247704394, 36.72418187958512], [31.560795258533943, 36.72418187958512], [31.560795258533943, 36.723642890414645], [31.559717280192984, 36.723642890414645], [31.559717280192984, 36.72418187958512], [31.558100312681574, 36.72418187958512], [31.558100312681574, 36.7225649120737], [31.558639301852054, 36.7225649120737], [31.558639301852054, 36.72202592290323], [31.558100312681574, 36.72202592290323], [31.558100312681574, 36.72094794456228], [31.559717280192984, 36.72094794456228], [31.559717280192984, 36.721486933732756], [31.560256269363464, 36.721486933732756], [31.560256269363464, 36.7225649120737], [31.561334247704394, 36.7225649120737], [31.561334247704394, 36.72310390124417], [31.562412226045353, 36.72310390124417], [31.562412226045353, 36.7225649120737], [31.561873236874874, 36.7225649120737], [31.561873236874874, 36.72094794456228], [31.561334247704394, 36.72094794456228], [31.561334247704394, 36.72040895539181]]]}, "id": "+392516+87718", "properties": {"area_ha": 12.955964700322763, "count": 45, "label": 1, "mean_dnbr": 0.34492303668672936}}, {"type": "Feature", "geometry": {"geodesic": false, "type": "Polygon", "coordinates": [[[31.588822695398477, 36.83575263787276], [31.589900673739407, 36.83575263787276], [31.589900673739407, 36.8368306162137], [31.589361684568928, 36.8368306162137], [31.589361684568928, 36.83790859455465], [31.590439662909887, 36.83790859455465], [31.590439662909887, 36.83844758372512], [31.589361684568928, 36.83844758372512], [31.589361684568928, 36.83790859455465], [31.587744717057518, 36.83790859455465], [31.587744717057518, 36.837369605384175], [31.58720572788704, 36.837369605384175], [31.58720572788704, 36.83575263787276], [31.587744717057518, 36.83575263787276], [31.587744717057518, 36.8368306162137], [31.588822695398477, 36.8368306162137], [31.588822695398477, 36.83575263787276]]]}, "id": "+392567+87504", "properties": {"area_ha": 4.312202304465485, "count": 15, "label": 1, "mean_dnbr": 0.2885502305622365}}, {"type": "Feature", "geometry": {"geodesic": false, "type": "Polygon", "coordinates": [[[31.610921251387794, 36.68806960516351], [31.611999229728752, 36.68806960516351], [31.611999229728752, 36.68860859433398], [31.613077208069683, 36.68860859433398], [31.613077208069683, 36.68914758350445], [31.613616197240162, 36.68914758350445], [31.613616197240162, 36.69130354018634], [31.612538218899232, 36.69130354018634], [31.612538218899232, 36.69076455101587], [31.611999229728752, 36.69076455101587], [31.611999229728752, 36.690225561845395], [31.610382262217342, 36.690225561845395], [31.610382262217342, 36.68968657267492], [31.610921251387794, 36.68968657267492], [31.610921251387794, 36.68914758350445], [31.610382262217342, 36.68914758350445], [31.610382262217342, 36.68860859433398], [31.610921251387794, 36.68860859433398], [31.610921251387794, 36.68806960516351]]]}, "id": "+392608+87778", "properties": {"area_ha": 6.6247640573713635, "count": 23, "label": 1, "mean_dnbr": 0.32570254387446973}}]}