{"type": "FeatureCollection", "columns": {"area_ha": "Number", "count": "Long<0, 4294967295>", "label": "Byte<0, 1>", "mean_dnbr": "Object", "system:index": "String"}, "features": [{"type": "Feature", "geometry": {"geodesic": false, "type": "Polygon", "coordinates": [[[30.773332080474773, 36.89558043579512], [30.773871069645224, 36.89558043579512], [30.773871069645224, 36.89611942496559], [30.773332080474773, 36.89611942496559], [30.773332080474773, 36.89665841413606], [30.772793091304294, 36.89665841413606], [30.772793091304294, 36.897197403306535], [30.772254102133815, 36.897197403306535], [30.772254102133815, 36.89773639247701], [30.771715112963335, 36.89773639247701], [30.771715112963335, 36.899353359988424], [30.770637134622405, 36.899353359988424], [30.770637134622405, 36.89989234915889], [30.770098145451925, 36.89989234915889], [30.770098145451925, 36.90043133832936], [30.769559156281474, 36.90043133832936], [30.769559156281474, 36.89989234915889], [30.769020167110995, 36.89989234915889], [30.769020167110995, 36.89881437081795], [30.770637134622405, 36.89881437081795], [30.770637134622405, 36.89827538164748], [30.770098145451925, 36.89827538164748], [30.770098145451925, 36.89773639247701], [30.770637134622405, 36.89773639247701], [30.770637134622405, 36.897197403306535], [30.772254102133815, 36.897197403306535], [30.772254102133815, 36.89665841413606], [30.772793091304294, 36.89665841413606], [30.772793091304294, 36.89611942496559], [30.773332080474773, 36.89611942496559], [30.773332080474773, 36.89558043579512]], [[30.771176123792884, 36.89773639247701], [30.771176123792884, 36.89827538164748], [30.770637134622405, 36.89827538164748], [30.770637134622405, 36.89773639247701], [30.771176123792884, 36.89773639247701]]]}, "id": "+391053+87393", "properties": {"area_ha": 5.457732635564196, "count": 19, "label": 1, "mean_dnbr": 0.3794803729354518}}, {"type": "Feature", "geometry": {"geodesic": false, "type": "Polygon", "coordinates": [[[30.801898506509758, 36.95540823371748], [30.805132441532606, 36.95540823371748], [30.805132441532606, 36.95594722288795], [30.804593452362127, 36.95594722288795], [30.804593452362127, 36.95756419039937], [30.804054463191648, 36.95756419039937], [30.804054463191648, 36.95810317956984], [30.803515474021168, 36.95810317956984], [30.803515474021168, 36.95864216874031], [30.802976484850717, 36.95864216874031], [30.802976484850717, 36.95810317956984], [30.801898506509758, 36.95810317956984], [30.801898506509758, 36.95540823371748]]]}, "id": "+391111+87282", "properties": {"area_ha": 7.462745184914826, "count": 26, "label": 1, "mean_dnbr": 0.4591769408711108}}, {"type": "Feature", "geometry": {"geodesic": false, "type": "Polygon", "coordinates": [[[30.806749409044016, 36.855695237180214], [30.808366376555426, 36.855695237180214], [30.808366376555426, 36.85677321552116], [30.808905365725906, 36.85677321552116], [30.808905365725906, 36.857851193862096], [30.808366376555426, 36.857851193862096], [30.808366376555426, 36.85946816137351], [30.807827387384947, 36.85946816137351], [30.807827387384947, 36.86054613971446], [30.806749409044016, 36.86054613971446], [30.806749409044016, 36.860007150543986], [30.807288398214467, 36.860007150543986], [30.807288398214467, 36.85892917220304], [30.806210419873537, 36.85892917220304], [30.806210419873537, 36.857312204691624], [30.806749409044016, 36.857312204691624], [30.806749409044016, 36.855695237180214]], [[30.807827387384947, 36.857312204691624], [30.807827387384947, 36.85839018303257], [30.807288398214467, 36.85839018303257], [30.807288398214467, 36.857312204691624], [30.807827387384947, 36.857312204691624]]]}, "id": "+391117+87467", "properties": {"area_ha": 7.472447080904636, "count": 26, "label": 1, "mean_dnbr": 0.3838882843391203}}, {"type": "Feature", "geometry": {"geodesic": false, "type": "Polygon", "coordinates": [[[30.83693280259041, 36.94408946113757], [30.83801078093137, 36.94408946113757], [30.83801078093137, 36.94516743947852], [30.83747179176089, 36.94516743947852], [30.83747179176089, 36.94624541781946], [30.83693280259041, 36.94624541781946], [30.83693280259041, 36.946784406989934], [30.83639381341996, 36.946784406989934], [30.83639381341996, 36.94624541781946], [30.83585482424948, 36.94624541781946], [30.83585482424948, 36.94516743947852], [30.83639381341996, 36.94516743947852], [30.83639381341996, 36.944628450308045], [30.83693280259041, 36.944628450308045], [30.83693280259041, 36.94408946113757]]]}, "id": "+391172+87303", "properties": {"area_ha": 3.4448684552824425, "count": 12, "label": 1, "mean_dnbr": 0.41087642679716735}}, {"type": "Feature", "geometry": {"geodesic": false, "type": "Polygon", "coordinates": [[[30.849868542681747, 36.9969103998438], [30.850946521022678, 36.9969103998438], [30.850946521022678, 36.99744938901427], [30.851485510193157, 36.99744938901427], [30.851485510193157, 36.99960534569616], [30.852024499363637, 36.99960534569616], [30.852024499363637, 37.000683324037105], [30.850407531852227, 37.000683324037105], [30.850407531852227, 37.00014433486663], [30.848251575170337, 37.00014433486663], [30.848251575170337, 36.99960534569616], [30.846634607658928, 36.99960534569616], [30.846634607658928, 36.99906635652569], [30.846095618488448, 36.99906635652569], [30.846095618488448, 36.99744938901427], [30.846634607658928, 36.99744938901427], [30.846634607658928, 36.998527367355216], [30.84717359682938, 36.998527367355216], [30.84717359682938, 36.99906635652569], [30.847712585999858, 36.99906635652569], [30.847712585999858, 36.99798837818474], [30.84879056434079, 36.99798837818474], [30.84879056434079, 36.998527367355216], [30.849329553511268, 36.998527367355216], [30.849329553511268, 36.99798837818474], [30.849868542681747, 36.99798837818474], [30.849868542681747, 36.99906635652569], [30.850407531852227, 36.99906635652569], [30.850407531852227, 36.998527367355216], [30.850946521022678, 36.998527367355216], [30.850946521022678, 36.99798837818474], [30.850407531852227, 36.99798837818474], [30.850407531852227, 36.99744938901427], [30.849868542681747, 36.99744938901427], [30.849868542681747, 36.9969103998438]]]}, "id": "+391196+87205", "properties": {"area_ha": 10.614203062979302, "count": 37, "label": 1, "mean_dnbr": 0.42439367352723817}}, {"type": "Feature", "geometry": {"geodesic": false, "type": "Polygon", "coordinates": [[[30.860109336920715, 36.932231699387195], [30.862265293602604, 36.932231699387195], [30.862265293602604, 36.93384866689861], [30.861726304432125, 36.93384866689861], [30.861726304432125, 36.934387656069084], [30.860109336920715, 36.934387656069084], [30.860109336920715, 36.93384866689861], [30.859570347750235, 36.93384866689861], [30.859570347750235, 36.93330967772814], [30.860109336920715, 36.93330967772814], [30.860109336920715, 36.932231699387195]]]}, "id": "+391217+87325", "properties": {"area_ha": 4.593882571758078, "count": 16, "label": 1, "mean_dnbr": 0.29313155954345044}}, {"type": "Feature", "geometry": {"geodesic": false, "type": "Polygon", "coordinates": [[[30.864960239454945, 36.953252277035595], [30.866577206966355, 36.953252277035595], [30.866577206966355, 36.95540823371748], [30.865499228625424, 36.95540823371748], [30.865499228625424, 36.954869244547005], [30.864960239454945, 36.954869244547005], [30.864960239454945, 36.953252277035595]]]}, "id": "+391225+87286", "properties": {"area_ha": 3.1574253985888756, "count": 11, "label": 1, "mean_dnbr": 0.3705070419731829}}, {"type": "Feature", "geometry": {"geodesic": false, "type": "Polygon", "coordinates": [[[30.88813677378525, 36.862163107225875], [30.88975374129666, 36.862163107225875], [30.88975374129666, 36.86270209639635], [30.89029273046711, 36.86270209639635], [30.89029273046711, 36.86324108556681], [30.88975374129666, 36.86324108556681], [30.88975374129666, 36.863780074737285], [30.88921475212618, 36.863780074737285], [30.88921475212618, 36.86431906390776], [30.88813677378525, 36.86431906390776], [30.88813677378525, 36.863780074737285], [30.88759778461477, 36.863780074737285], [30.88759778461477, 36.86324108556681], [30.88813677378525, 36.86324108556681], [30.88813677378525, 36.862163107225875]]]}, "id": "+391268+87455", "properties": {"area_ha": 3.7359607660436707, "count": 13, "label": 1, "mean_dnbr": 0.31023682452097656}}, {"type": "Feature", "geometry": {"geodesic": false, "type": "Polygon", "coordinates": [[[30.88705879544429, 36.87078693395342], [30.89137070880807, 36.87078693395342], [30.89137070880807, 36.87186491229436], [30.88759778461477, 36.87186491229436], [30.88759778461477, 36.87132592312389], [30.88705879544429, 36.87132592312389], [30.88705879544429, 36.87078693395342]]]}, "id": "+391271+87439", "properties": {"area_ha": 4.310249409063677, "count": 15, "label": 1, "mean_dnbr": 0.29399136333833586}}, {"type": "Feature", "geometry": {"geodesic": false, "type": "Polygon", "coordinates": [[[30.92748298322968, 36.94732339616041], [30.93017792908202, 36.94732339616041], [30.93017792908202, 36.948401374501344], [30.92963893991157, 36.948401374501344], [30.92963893991157, 36.94894036367182], [30.92802197240013, 36.94894036367182], [30.92802197240013, 36.94786238533087], [30.92748298322968, 36.94786238533087], [30.92748298322968, 36.94732339616041]]]}, "id": "+391343+87297", "properties": {"area_ha": 3.444736864802325, "count": 12, "label": 1, "mean_dnbr": 0.3285022348453457}}, {"type": "Feature", "geometry": {"geodesic": false, "type": "Polygon", "coordinates": [[[30.996473597050056, 36.89827538164748], [30.998090564561465, 36.89827538164748], [30.998090564561465, 36.899353359988424], [30.999168542902396, 36.899353359988424], [30.999168542902396, 36.89989234915889], [30.999707532072875, 36.89989234915889], [30.999707532072875, 36.899353359988424], [31.000785510413834, 36.899353359988424], [31.000785510413834, 36.89989234915889], [30.999707532072875, 36.89989234915889], [30.999707532072875, 36.90043133832936], [30.997551575390986, 36.90043133832936], [30.997551575390986, 36.89989234915889], [30.997012586220535, 36.89989234915889], [30.997012586220535, 36.899353359988424], [30.996473597050056, 36.899353359988424], [30.996473597050056, 36.89827538164748]]]}, "id": "+391469+87388", "properties": {"area_ha": 4.595927418186633, "count": 16, "label": 1, "mean_dnbr": 0.2585238945955146}}, {"type": "Feature", "geometry": {"geodesic": false, "type": "Polygon", "coordinates": [[[31.007792369629954, 36.91175011090927], [31.009948326311843, 36.91175011090927], [31.009948326311843, 36.91228910007974], [31.012104282993732, 36.91228910007974], [31.012104282993732, 36.91282808925021], [31.013182261334663, 36.91282808925021], [31.013182261334663, 36.913367078420684], [31.011026304652773, 36.913367078420684], [31.011026304652773, 36.91282808925021], [31.007792369629954, 36.91282808925021], [31.007792369629954, 36.91175011090927]]]}, "id": "+391491+87363", "properties": {"area_ha": 4.5951504216923205, "count": 16, "label": 1, "mean_dnbr": 0.29935879868765336}}, {"type": "Feature", "geometry": {"geodesic": false, "type": "Polygon", "coordinates": [[[31.009948326311843, 36.96025913625172], [31.011026304652773, 36.96025913625172], [31.011026304652773, 36.960798125422194], [31.011565293823253, 36.960798125422194], [31.011565293823253, 36.96241509293361], [31.011026304652773, 36.96241509293361], [31.011026304652773, 36.963493071274556], [31.010487315482322, 36.963493071274556], [31.010487315482322, 36.9645710496155], [31.011565293823253, 36.9645710496155], [31.011565293823253, 36.967265995467855], [31.011026304652773, 36.967265995467855], [31.011026304652773, 36.96672700629738], [31.009409337141363, 36.96672700629738], [31.009409337141363, 36.96511003878597], [31.008331358800433, 36.96511003878597], [31.008331358800433, 36.96403206044503], [31.007792369629954, 36.96403206044503], [31.007792369629954, 36.963493071274556], [31.008331358800433, 36.963493071274556], [31.008331358800433, 36.96403206044503], [31.008870347970912, 36.96403206044503], [31.008870347970912, 36.96241509293361], [31.008331358800433, 36.96241509293361], [31.008331358800433, 36.96187610376314], [31.008870347970912, 36.96187610376314], [31.008870347970912, 36.961337114592666], [31.009409337141363, 36.961337114592666], [31.009409337141363, 36.960798125422194], [31.009948326311843, 36.960798125422194], [31.009948326311843, 36.96025913625172]], [[31.010487315482322, 36.965649027956445], [31.010487315482322, 36.96618801712691], [31.009948326311843, 36.96618801712691], [31.009948326311843, 36.965649027956445], [31.010487315482322, 36.965649027956445]]]}, "id": "+391493+87273", "properties": {"area_ha": 14.637188438145143, "count": 51, "label": 1, "mean_dnbr": 0.2758353299549415}}, {"type": "Feature", "geometry": {"geodesic": false, "type": "Polygon", "coordinates": [[[31.012643272164212, 36.93923855860333], [31.013182261334663, 36.93923855860333], [31.013182261334663, 36.9397775477738], [31.012643272164212, 36.9397775477738], [31.012643272164212, 36.94031653694427], [31.013721250505142, 36.94031653694427], [31.013721250505142, 36.940855526114746], [31.01426023967562, 36.940855526114746], [31.01426023967562, 36.94031653694427], [31.0147992288461, 36.94031653694427], [31.0147992288461, 36.94139451528522], [31.012643272164212, 36.94139451528522], [31.012643272164212, 36.940855526114746], [31.012104282993732, 36.940855526114746], [31.012104282993732, 36.94031653694427], [31.011565293823253, 36.94031653694427], [31.011565293823253, 36.9397775477738], [31.012643272164212, 36.9397775477738], [31.012643272164212, 36.93923855860333]]]}, "id": "+391497+87312", "properties": {"area_ha": 3.15799919831948, "count": 11, "label": 1, "mean_dnbr": 0.1851742564125075}}, {"type": "Feature", "geometry": {"geodesic": false, "type": "Polygon", "coordinates": [[[31.0223450772327, 37.00014433486663], [31.02288406640315, 37.00014433486663], [31.02288406640315, 37.000683324037105], [31.0223450772327, 37.000683324037105], [31.0223450772327, 37.00122231320758], [31.02180608806222, 37.00122231320758], [31.02180608806222, 37.00176130237805], [31.02288406640315, 37.00176130237805], [31.02288406640315, 37.002300291548515], [31.02342305557363, 37.002300291548515], [31.02342305557363, 37.00176130237805], [31.02450103391459, 37.00176130237805], [31.02450103391459, 37.002300291548515], [31.02396204474411, 37.002300291548515], [31.02396204474411, 37.00283928071899], [31.02450103391459, 37.00283928071899], [31.02450103391459, 37.00337826988946], [31.02396204474411, 37.00337826988946], [31.02396204474411, 37.00283928071899], [31.02288406640315, 37.00283928071899], [31.02288406640315, 37.002300291548515], [31.02180608806222, 37.002300291548515], [31.02180608806222, 37.00176130237805], [31.02126709889174, 37.00176130237805], [31.02126709889174, 37.000683324037105], [31.0223450772327, 37.000683324037105], [31.0223450772327, 37.00014433486663]]]}, "id": "+391515+87199", "properties": {"area_ha": 3.1554531385637326, "count": 11, "label": 1, "mean_dnbr": 0.23888084348953886}}, {"type": "Feature", "geometry": {"geodesic": false, "type": "Polygon", "coordinates": [[[31.03150789313071, 36.92414686183012], [31.033663849812598, 36.92414686183012], [31.033663849812598, 36.925763829341534], [31.034202838983077, 36.925763829341534], [31.034202838983077, 36.926302818512006], [31.03150789313071, 36.926302818512006], [31.03150789313071, 36.92522484017106], [31.03096890396023, 36.92522484017106], [31.03096890396023, 36.92468585100059], [31.03150789313071, 36.92468585100059], [31.03150789313071, 36.92414686183012]]]}, "id": "+391535+87340", "properties": {"area_ha": 5.168672598227555, "count": 18, "label": 1, "mean_dnbr": 0.2609068310667589}}, {"type": "Feature", "geometry": {"geodesic": false, "type": "Polygon", "coordinates": [[[31.048216557415344, 36.925763829341534], [31.049294535756275, 36.925763829341534], [31.049294535756275, 36.92738079685295], [31.049833524926754, 36.92738079685295], [31.049833524926754, 36.92791978602342], [31.047677568244865, 36.92791978602342], [31.047677568244865, 36.928458775193896], [31.049294535756275, 36.928458775193896], [31.049294535756275, 36.92899776436437], [31.048755546585795, 36.92899776436437], [31.048755546585795, 36.92953675353484], [31.047677568244865, 36.92953675353484], [31.047677568244865, 36.928458775193896], [31.047138579074385, 36.928458775193896], [31.047138579074385, 36.92684180768248], [31.048216557415344, 36.92684180768248], [31.048216557415344, 36.925763829341534]], [[31.048755546585795, 36.92684180768248], [31.048755546585795, 36.92738079685295], [31.048216557415344, 36.92738079685295], [31.048216557415344, 36.92684180768248], [31.048755546585795, 36.92684180768248]]]}, "id": "+391564+87337", "properties": {"area_ha": 5.168506948984273, "count": 18, "label": 1, "mean_dnbr": 0.360417241597268}}, {"type": "Feature", "geometry": {"geodesic": false, "type": "Polygon", "coordinates": [[[31.05845735165431, 36.94301148279663], [31.06007431916572, 36.94301148279663], [31.06007431916572, 36.94516743947852], [31.05845735165431, 36.94516743947852], [31.05845735165431, 36.94301148279663]]]}, "id": "+391584+87305", "properties": {"area_ha": 3.4449259699625867, "count": 12, "label": 1, "mean_dnbr": 0.255838390095459}}, {"type": "Feature", "geometry": {"geodesic": false, "type": "Polygon", "coordinates": [[[31.060613308336173, 36.95972014708125], [31.062769265018062, 36.95972014708125], [31.062769265018062, 36.961337114592666], [31.061152297506652, 36.961337114592666], [31.061152297506652, 36.960798125422194], [31.060613308336173, 36.960798125422194], [31.060613308336173, 36.95972014708125]]]}, "id": "+391589+87274", "properties": {"area_ha": 3.1571654491896317, "count": 11, "label": 1, "mean_dnbr": 0.3933270185001054}}, {"type": "Feature", "geometry": {"geodesic": false, "type": "Polygon", "coordinates": [[[31.0643862325295, 36.97804577887729], [31.06546421087043, 36.97804577887729], [31.06546421087043, 36.97912375721823], [31.06492522169995, 36.97912375721823], [31.06492522169995, 36.979662746388705], [31.0643862325295, 36.979662746388705], [31.0643862325295, 36.98020173555918], [31.06384724335902, 36.98020173555918], [31.06384724335902, 36.98074072472965], [31.0643862325295, 36.98074072472965], [31.0643862325295, 36.98127971390012], [31.06330825418854, 36.98127971390012], [31.06330825418854, 36.98020173555918], [31.062769265018062, 36.98020173555918], [31.062769265018062, 36.98127971390012], [31.06223027584761, 36.98127971390012], [31.06223027584761, 36.98074072472965], [31.06169128667713, 36.98074072472965], [31.06169128667713, 36.98020173555918], [31.06223027584761, 36.98020173555918], [31.06223027584761, 36.979662746388705], [31.062769265018062, 36.979662746388705], [31.062769265018062, 36.97912375721823], [31.0643862325295, 36.97912375721823], [31.0643862325295, 36.97804577887729]]]}, "id": "+391594+87240", "properties": {"area_ha": 5.164964525545474, "count": 18, "label": 1, "mean_dnbr": 0.23524561608042147}}, {"type": "Feature", "geometry": {"geodesic": false, "type": "Polygon", "coordinates": [[[31.0681591567228, 36.92899776436437], [31.06869814589325, 36.92899776436437], [31.06869814589325, 36.92953675353484], [31.07031511340469, 36.92953675353484], [31.07031511340469, 36.93169271021672], [31.06977612423421, 36.93169271021672], [31.06977612423421, 36.932231699387195], [31.06923713506373, 36.932231699387195], [31.06923713506373, 36.93169271021672], [31.0681591567228, 36.93169271021672], [31.0681591567228, 36.93115372104625], [31.06762016755232, 36.93115372104625], [31.06762016755232, 36.930075742705306], [31.06869814589325, 36.930075742705306], [31.06869814589325, 36.92953675353484], [31.0681591567228, 36.92953675353484], [31.0681591567228, 36.92899776436437]]]}, "id": "+391600+87331", "properties": {"area_ha": 5.4554250055391655, "count": 19, "label": 1, "mean_dnbr": 0.2885086840797669}}, {"type": "Feature", "geometry": {"geodesic": false, "type": "Polygon", "coordinates": [[[31.07408803759799, 36.92684180768248], [31.0757050051094, 36.92684180768248], [31.0757050051094, 36.92738079685295], [31.076243994279878, 36.92738079685295], [31.076243994279878, 36.928458775193896], [31.07408803759799, 36.928458775193896], [31.07408803759799, 36.92684180768248]]]}, "id": "+391613+87335", "properties": {"area_ha": 3.1585319045550517, "count": 11, "label": 1, "mean_dnbr": 0.4659415343196136}}, {"type": "Feature", "geometry": {"geodesic": false, "type": "Polygon", "coordinates": [[[31.077860961791288, 36.86647502058965], [31.080016918473177, 36.86647502058965], [31.080016918473177, 36.86701400976012], [31.079477929302698, 36.86701400976012], [31.079477929302698, 36.86755299893059], [31.080016918473177, 36.86755299893059], [31.080016918473177, 36.868630977271536], [31.080555907643628, 36.868630977271536], [31.080555907643628, 36.869708955612474], [31.080016918473177, 36.869708955612474], [31.080016918473177, 36.87186491229436], [31.079477929302698, 36.87186491229436], [31.079477929302698, 36.870247944782946], [31.07893894013222, 36.870247944782946], [31.07893894013222, 36.868630977271536], [31.07839995096174, 36.868630977271536], [31.07839995096174, 36.86701400976012], [31.077860961791288, 36.86701400976012], [31.077860961791288, 36.86647502058965]]]}, "id": "+391621+87447", "properties": {"area_ha": 6.609303069042001, "count": 23, "label": 1, "mean_dnbr": 0.2939423462384647}}, {"type": "Feature", "geometry": {"geodesic": false, "type": "Polygon", "coordinates": [[[31.081094896814108, 36.8653970422487], [31.083250853495997, 36.8653970422487], [31.083250853495997, 36.865936031419174], [31.082711864325518, 36.865936031419174], [31.082711864325518, 36.86755299893059], [31.083250853495997, 36.86755299893059], [31.083250853495997, 36.868091988101064], [31.083789842666476, 36.868091988101064], [31.083789842666476, 36.868630977271536], [31.083250853495997, 36.868630977271536], [31.083250853495997, 36.86916996644201], [31.082172875155067, 36.86916996644201], [31.082172875155067, 36.86701400976012], [31.081633885984587, 36.86701400976012], [31.081633885984587, 36.865936031419174], [31.081094896814108, 36.865936031419174], [31.081094896814108, 36.8653970422487]]]}, "id": "+391627+87449", "properties": {"area_ha": 4.597863218866587, "count": 16, "label": 1, "mean_dnbr": 0.3438077009908513}}, {"type": "Feature", "geometry": {"geodesic": false, "type": "Polygon", "coordinates": [[[31.095108615246374, 36.936004623580494], [31.095647604416854, 36.936004623580494], [31.095647604416854, 36.93654361275097], [31.096186593587305, 36.93654361275097], [31.096186593587305, 36.938160580262384], [31.094569626075895, 36.938160580262384], [31.094569626075895, 36.93762159109191], [31.094030636905444, 36.93762159109191], [31.094030636905444, 36.93708260192144], [31.094569626075895, 36.93708260192144], [31.094569626075895, 36.93654361275097], [31.095108615246374, 36.93654361275097], [31.095108615246374, 36.936004623580494]]]}, "id": "+391650+87318", "properties": {"area_ha": 3.158134688429866, "count": 11, "label": 1, "mean_dnbr": 0.3147633456677023}}, {"type": "Feature", "geometry": {"geodesic": false, "type": "Polygon", "coordinates": [[[31.094569626075895, 36.89773639247701], [31.096186593587305, 36.89773639247701], [31.096186593587305, 36.900970327499834], [31.095108615246374, 36.900970327499834], [31.095108615246374, 36.89989234915889], [31.094030636905444, 36.89989234915889], [31.094030636905444, 36.899353359988424], [31.094569626075895, 36.899353359988424], [31.094569626075895, 36.89773639247701]]]}, "id": "+391651+87389", "properties": {"area_ha": 4.883181705319543, "count": 17, "label": 1, "mean_dnbr": 0.21365116648212376}}, {"type": "Feature", "geometry": {"geodesic": false, "type": "Polygon", "coordinates": [[[31.16517720740771, 36.878332782340024], [31.16679417491912, 36.878332782340024], [31.16679417491912, 36.8788717715105], [31.16841114243053, 36.8788717715105], [31.16841114243053, 36.87941076068097], [31.167333164089598, 36.87941076068097], [31.167333164089598, 36.87994974985144], [31.16625518574864, 36.87994974985144], [31.16625518574864, 36.87941076068097], [31.16517720740771, 36.87941076068097], [31.16517720740771, 36.878332782340024]]]}, "id": "+391782+87425", "properties": {"area_ha": 3.16053751807602, "count": 11, "label": 1, "mean_dnbr": 0.33576618041262835}}, {"type": "Feature", "geometry": {"geodesic": false, "type": "Polygon", "coordinates": [[[31.176495979987607, 36.923607872659645], [31.179190925839976, 36.923607872659645], [31.179190925839976, 36.92468585100059], [31.178112947499017, 36.92468585100059], [31.178112947499017, 36.92522484017106], [31.176495979987607, 36.92522484017106], [31.176495979987607, 36.923607872659645]]]}, "id": "+391805+87341", "properties": {"area_ha": 3.7329609060986755, "count": 13, "label": 1, "mean_dnbr": 0.20179620920728852}}, {"type": "Feature", "geometry": {"geodesic": false, "type": "Polygon", "coordinates": [[[31.20667937353403, 36.96403206044503], [31.20829634104544, 36.96403206044503], [31.20829634104544, 36.9645710496155], [31.20775735187496, 36.9645710496155], [31.20775735187496, 36.96618801712691], [31.20560139519307, 36.96618801712691], [31.20560139519307, 36.965649027956445], [31.20506240602259, 36.965649027956445], [31.20506240602259, 36.96618801712691], [31.20398442768166, 36.96618801712691], [31.20398442768166, 36.965649027956445], [31.20452341685214, 36.965649027956445], [31.20452341685214, 36.96511003878597], [31.20560139519307, 36.96511003878597], [31.20560139519307, 36.9645710496155], [31.20614038436355, 36.9645710496155], [31.20614038436355, 36.96511003878597], [31.20667937353403, 36.96511003878597], [31.20667937353403, 36.96403206044503]], [[31.20614038436355, 36.96511003878597], [31.20614038436355, 36.965649027956445], [31.20560139519307, 36.965649027956445], [31.20560139519307, 36.96511003878597], [31.20614038436355, 36.96511003878597]]]}, "id": "+391859+87266", "properties": {"area_ha": 4.8789576919380995, "count": 17, "label": 1, "mean_dnbr": 0.27831241055580713}}, {"type": "Feature", "geometry": {"geodesic": false, "type": "Polygon", "coordinates": [[[31.270280095649667, 36.85892917220304], [31.272436052331557, 36.85892917220304], [31.272436052331557, 36.860007150543986], [31.272975041502036, 36.860007150543986], [31.272975041502036, 36.86054613971446], [31.271897063161106, 36.86054613971446], [31.271897063161106, 36.86108512888493], [31.271358073990626, 36.86108512888493], [31.271358073990626, 36.860007150543986], [31.270280095649667, 36.860007150543986], [31.270280095649667, 36.85892917220304]]]}, "id": "+391978+87461", "properties": {"area_ha": 3.448729047703825, "count": 12, "label": 1, "mean_dnbr": 0.28916149962902093}}, {"type": "Feature", "geometry": {"geodesic": false, "type": "Polygon", "coordinates": [[[31.283754824911483, 36.83251870284993], [31.286988759934303, 36.83251870284993], [31.286988759934303, 36.83359668119087], [31.283754824911483, 36.83359668119087], [31.283754824911483, 36.83251870284993]]]}, "id": "+392005+87510", "properties": {"area_ha": 3.449939882452475, "count": 12, "label": 1, "mean_dnbr": 0.5146143765723915}}, {"type": "Feature", "geometry": {"geodesic": false, "type": "Polygon", "coordinates": [[[31.290222694957123, 36.99906635652569], [31.290761684127602, 36.99906635652569], [31.290761684127602, 37.00122231320758], [31.290222694957123, 37.00122231320758], [31.290222694957123, 37.00553422657135], [31.289683705786672, 37.00553422657135], [31.289683705786672, 37.006612204912294], [31.289144716616192, 37.006612204912294], [31.289144716616192, 37.00769018325324], [31.288066738275234, 37.00769018325324], [31.288066738275234, 37.00607321574182], [31.288605727445713, 37.00607321574182], [31.288605727445713, 37.00553422657135], [31.289144716616192, 37.00553422657135], [31.289144716616192, 37.00391725905993], [31.289683705786672, 37.00391725905993], [31.289683705786672, 37.00283928071899], [31.289144716616192, 37.00283928071899], [31.289144716616192, 37.002300291548515], [31.288605727445713, 37.002300291548515], [31.288605727445713, 37.00122231320758], [31.289683705786672, 37.00122231320758], [31.289683705786672, 37.000683324037105], [31.290222694957123, 37.000683324037105], [31.290222694957123, 37.00014433486663], [31.289683705786672, 37.00014433486663], [31.289683705786672, 36.99960534569616], [31.290222694957123, 36.99960534569616], [31.290222694957123, 36.99906635652569]]]}, "id": "+392012+87201", "properties": {"area_ha": 8.892436528974285, "count": 31, "label": 1, "mean_dnbr": 0.6348832174006186}}, {"type": "Feature", "geometry": {"geodesic": false, "type": "Polygon", "coordinates": [[[31.327412947719694, 36.85515624800974], [31.330646882742514, 36.85515624800974], [31.330646882742514, 36.855695237180214], [31.331724861083444, 36.855695237180214], [31.331724861083444, 36.856234226350686], [31.329568904401583, 36.856234226350686], [31.329568904401583, 36.855695237180214], [31.328490926060624, 36.855695237180214], [31.328490926060624, 36.856234226350686], [31.327951936890145, 36.856234226350686], [31.327951936890145, 36.855695237180214], [31.327412947719694, 36.855695237180214], [31.327412947719694, 36.85515624800974]]]}, "id": "+392086+87468", "properties": {"area_ha": 3.161493582875649, "count": 11, "label": 1, "mean_dnbr": 0.3356757094258607}}, {"type": "Feature", "geometry": {"geodesic": false, "type": "Polygon", "coordinates": [[[31.333880817765333, 36.843298486259364], [31.33711475278818, 36.843298486259364], [31.33711475278818, 36.84383747542984], [31.336036774447223, 36.84383747542984], [31.336036774447223, 36.84437646460031], [31.332263850253923, 36.84437646460031], [31.332263850253923, 36.84383747542984], [31.333880817765333, 36.84383747542984], [31.333880817765333, 36.843298486259364]]]}, "id": "+392098+87490", "properties": {"area_ha": 3.736918799899373, "count": 13, "label": 1, "mean_dnbr": 0.3457164485515096}}, {"type": "Feature", "geometry": {"geodesic": false, "type": "Polygon", "coordinates": [[[31.33549778527677, 36.95756419039937], [31.33873172029959, 36.95756419039937], [31.33873172029959, 36.95810317956984], [31.338192731129112, 36.95810317956984], [31.338192731129112, 36.95972014708125], [31.336575763617702, 36.95972014708125], [31.336575763617702, 36.96025913625172], [31.336036774447223, 36.96025913625172], [31.336036774447223, 36.95972014708125], [31.33549778527677, 36.95972014708125], [31.33549778527677, 36.959181157910784], [31.336036774447223, 36.959181157910784], [31.336036774447223, 36.95864216874031], [31.337653741958633, 36.95864216874031], [31.337653741958633, 36.95810317956984], [31.33549778527677, 36.95810317956984], [31.33549778527677, 36.95756419039937]]]}, "id": "+392101+87278", "properties": {"area_ha": 4.879358189743744, "count": 17, "label": 1, "mean_dnbr": 0.43639569802004363}}, {"type": "Feature", "geometry": {"geodesic": false, "type": "Polygon", "coordinates": [[[31.360830276288937, 36.834674659531814], [31.361369265459388, 36.834674659531814], [31.361369265459388, 36.835213648702286], [31.361908254629867, 36.835213648702286], [31.361908254629867, 36.83575263787276], [31.362447243800347, 36.83575263787276], [31.362447243800347, 36.83629162704323], [31.361908254629867, 36.83629162704323], [31.361908254629867, 36.83790859455465], [31.360830276288937, 36.83790859455465], [31.360830276288937, 36.8368306162137], [31.360291287118457, 36.8368306162137], [31.360291287118457, 36.83629162704323], [31.359752297947978, 36.83629162704323], [31.359752297947978, 36.835213648702286], [31.360830276288937, 36.835213648702286], [31.360830276288937, 36.834674659531814]]]}, "id": "+392143+87506", "properties": {"area_ha": 4.887211246569572, "count": 17, "label": 1, "mean_dnbr": 0.4663125543318508}}, {"type": "Feature", "geometry": {"geodesic": false, "type": "Polygon", "coordinates": [[[31.372688038039314, 36.840603540407], [31.374843994721203, 36.840603540407], [31.374843994721203, 36.84168151874795], [31.375921973062134, 36.84168151874795], [31.375921973062134, 36.84275949708889], [31.374843994721203, 36.84275949708889], [31.374843994721203, 36.84168151874795], [31.374305005550724, 36.84168151874795], [31.374305005550724, 36.84222050791842], [31.373766016380245, 36.84222050791842], [31.373766016380245, 36.84275949708889], [31.373227027209765, 36.84275949708889], [31.373227027209765, 36.84222050791842], [31.372688038039314, 36.84222050791842], [31.372688038039314, 36.840603540407]]]}, "id": "+392168+87495", "properties": {"area_ha": 4.599396759342809, "count": 16, "label": 1, "mean_dnbr": 0.3189006373476815}}, {"type": "Feature", "geometry": {"geodesic": false, "type": "Polygon", "coordinates": [[[31.374843994721203, 36.84814938879361], [31.376999951403093, 36.84814938879361], [31.376999951403093, 36.84922736713455], [31.378077929744023, 36.84922736713455], [31.378077929744023, 36.8503053454755], [31.378616918914503, 36.8503053454755], [31.378616918914503, 36.85084433464597], [31.378077929744023, 36.85084433464597], [31.378077929744023, 36.851383323816435], [31.376460962232613, 36.851383323816435], [31.376460962232613, 36.8503053454755], [31.376999951403093, 36.8503053454755], [31.376999951403093, 36.84922736713455], [31.375382983891654, 36.84922736713455], [31.375382983891654, 36.84868837796408], [31.374843994721203, 36.84868837796408], [31.374843994721203, 36.84814938879361]]]}, "id": "+392172+87481", "properties": {"area_ha": 5.173779363391566, "count": 18, "label": 1, "mean_dnbr": 0.34784972557153665}}, {"type": "Feature", "geometry": {"geodesic": false, "type": "Polygon", "coordinates": [[[31.39316962651722, 36.799640363451154], [31.3937086156877, 36.799640363451154], [31.3937086156877, 36.80125733096257], [31.39532558319911, 36.80125733096257], [31.39532558319911, 36.8007183417921], [31.39424760485818, 36.8007183417921], [31.39424760485818, 36.800179352621626], [31.39640356154007, 36.800179352621626], [31.39640356154007, 36.80125733096257], [31.39586457236959, 36.80125733096257], [31.39586457236959, 36.80287429847399], [31.39478659402866, 36.80287429847399], [31.39478659402866, 36.802335309303515], [31.3937086156877, 36.802335309303515], [31.3937086156877, 36.80125733096257], [31.39316962651722, 36.80125733096257], [31.39316962651722, 36.799640363451154]]]}, "id": "+392203+87571", "properties": {"area_ha": 5.464664565688424, "count": 19, "label": 1, "mean_dnbr": 0.2791669693084607}}, {"type": "Feature", "geometry": {"geodesic": false, "type": "Polygon", "coordinates": [[[31.39802052905148, 36.82389487612238], [31.39855951822196, 36.82389487612238], [31.39855951822196, 36.82443386529285], [31.39963749656289, 36.82443386529285], [31.39963749656289, 36.824972854463326], [31.39909850739241, 36.824972854463326], [31.39909850739241, 36.8255118436338], [31.39855951822196, 36.8255118436338], [31.39855951822196, 36.824972854463326], [31.39802052905148, 36.824972854463326], [31.39802052905148, 36.82605083280427], [31.39640356154007, 36.82605083280427], [31.39640356154007, 36.824972854463326], [31.39802052905148, 36.824972854463326], [31.39802052905148, 36.82389487612238]]]}, "id": "+392212+87526", "properties": {"area_ha": 3.1627713576967746, "count": 11, "label": 1, "mean_dnbr": 0.28384232785564006}}, {"type": "Feature", "geometry": {"geodesic": false, "type": "Polygon", "coordinates": [[[31.39802052905148, 36.82119993027002], [31.39963749656289, 36.82119993027002], [31.39963749656289, 36.822277908610964], [31.39909850739241, 36.822277908610964], [31.39909850739241, 36.822816897781436], [31.39802052905148, 36.822816897781436], [31.39802052905148, 36.82335588695191], [31.39694255071052, 36.82335588695191], [31.39694255071052, 36.822816897781436], [31.39640356154007, 36.822816897781436], [31.39640356154007, 36.82335588695191], [31.39532558319911, 36.82335588695191], [31.39532558319911, 36.822816897781436], [31.39640356154007, 36.822816897781436], [31.39640356154007, 36.822277908610964], [31.397481539881, 36.822277908610964], [31.397481539881, 36.82173891944049], [31.39802052905148, 36.82173891944049], [31.39802052905148, 36.82119993027002]]]}, "id": "+392214+87531", "properties": {"area_ha": 4.600561976899642, "count": 16, "label": 1, "mean_dnbr": 0.33406003700850556}}, {"type": "Feature", "geometry": {"geodesic": false, "type": "Polygon", "coordinates": [[[31.39909850739241, 36.791555525894076], [31.39963749656289, 36.791555525894076], [31.39963749656289, 36.79209451506455], [31.40017648573337, 36.79209451506455], [31.40017648573337, 36.79317249340549], [31.39909850739241, 36.79317249340549], [31.39909850739241, 36.79263350423502], [31.39855951822196, 36.79263350423502], [31.39855951822196, 36.793711482575965], [31.397481539881, 36.793711482575965], [31.397481539881, 36.79425047174644], [31.39694255071052, 36.79425047174644], [31.39694255071052, 36.79317249340549], [31.39640356154007, 36.79317249340549], [31.39640356154007, 36.791555525894076], [31.39694255071052, 36.791555525894076], [31.39694255071052, 36.79209451506455], [31.39802052905148, 36.79209451506455], [31.39802052905148, 36.79263350423502], [31.39855951822196, 36.79263350423502], [31.39855951822196, 36.79209451506455], [31.39909850739241, 36.79209451506455], [31.39909850739241, 36.791555525894076]]]}, "id": "+392214+87586", "properties": {"area_ha": 5.177635733678317, "count": 18, "label": 1, "mean_dnbr": 0.30354324083850365}}, {"type": "Feature", "geometry": {"geodesic": false, "type": "Polygon", "coordinates": [[[31.40287143158571, 36.82335588695191], [31.403949409926668, 36.82335588695191], [31.403949409926668, 36.8255118436338], [31.405027388267598, 36.8255118436338], [31.405027388267598, 36.82658982197474], [31.406105366608557, 36.82658982197474], [31.406105366608557, 36.82712881114521], [31.405027388267598, 36.82712881114521], [31.405027388267598, 36.82658982197474], [31.403410420756188, 36.82658982197474], [31.403410420756188, 36.82712881114521], [31.402332442415258, 36.82712881114521], [31.402332442415258, 36.82766780031568], [31.401793453244778, 36.82766780031568], [31.401793453244778, 36.82712881114521], [31.400715474903848, 36.82712881114521], [31.400715474903848, 36.82658982197474], [31.4012544640743, 36.82658982197474], [31.4012544640743, 36.82605083280427], [31.401793453244778, 36.82605083280427], [31.401793453244778, 36.8255118436338], [31.40287143158571, 36.8255118436338], [31.40287143158571, 36.82335588695191]]]}, "id": "+392222+87527", "properties": {"area_ha": 8.338141539825058, "count": 29, "label": 1, "mean_dnbr": 0.40087765066561953}}, {"type": "Feature", "geometry": {"geodesic": false, "type": "Polygon", "coordinates": [[[31.403949409926668, 36.81419307105389], [31.404488399097147, 36.81419307105389], [31.404488399097147, 36.8158100385653], [31.403949409926668, 36.8158100385653], [31.403949409926668, 36.816349027735775], [31.405027388267598, 36.816349027735775], [31.405027388267598, 36.81688801690625], [31.404488399097147, 36.81688801690625], [31.404488399097147, 36.81742700607672], [31.40287143158571, 36.81742700607672], [31.40287143158571, 36.81688801690625], [31.403410420756188, 36.81688801690625], [31.403410420756188, 36.8158100385653], [31.40287143158571, 36.8158100385653], [31.40287143158571, 36.81419307105389], [31.403410420756188, 36.81419307105389], [31.403410420756188, 36.814732060224365], [31.403949409926668, 36.814732060224365], [31.403949409926668, 36.81419307105389]]]}, "id": "+392223+87544", "properties": {"area_ha": 4.313395884585261, "count": 15, "label": 1, "mean_dnbr": 0.44015824827379263}}, {"type": "Feature", "geometry": {"geodesic": false, "type": "Polygon", "coordinates": [[[31.409878290801856, 36.766762024052376], [31.410956269142787, 36.766762024052376], [31.410956269142787, 36.76730101322285], [31.411495258313266, 36.76730101322285], [31.411495258313266, 36.76784000239332], [31.412573236654225, 36.76784000239332], [31.412573236654225, 36.76837899156379], [31.412034247483746, 36.76837899156379], [31.412034247483746, 36.768917980734265], [31.409878290801856, 36.768917980734265], [31.409878290801856, 36.766762024052376]], [[31.411495258313266, 36.76784000239332], [31.411495258313266, 36.76837899156379], [31.410956269142787, 36.76837899156379], [31.410956269142787, 36.76784000239332], [31.411495258313266, 36.76784000239332]]]}, "id": "+392235+87632", "properties": {"area_ha": 3.740616930408302, "count": 13, "label": 1, "mean_dnbr": 0.39817569053507723}}, {"type": "Feature", "geometry": {"geodesic": false, "type": "Polygon", "coordinates": [[[31.417424139188455, 36.76784000239332], [31.419041106699865, 36.76784000239332], [31.419041106699865, 36.76945696990474], [31.417963128358934, 36.76945696990474], [31.417963128358934, 36.77053494824568], [31.416346160847525, 36.77053494824568], [31.416346160847525, 36.76945696990474], [31.417424139188455, 36.76945696990474], [31.417424139188455, 36.76784000239332]]]}, "id": "+392250+87630", "properties": {"area_ha": 4.3160227877284765, "count": 15, "label": 1, "mean_dnbr": 0.3249122076527376}}, {"type": "Feature", "geometry": {"geodesic": false, "type": "Polygon", "coordinates": [[[31.44221764103017, 36.82443386529285], [31.444373597712058, 36.82443386529285], [31.444373597712058, 36.824972854463326], [31.44491258688251, 36.824972854463326], [31.44491258688251, 36.8255118436338], [31.44383460854158, 36.8255118436338], [31.44383460854158, 36.824972854463326], [31.4432956193711, 36.824972854463326], [31.4432956193711, 36.82605083280427], [31.44221764103017, 36.82605083280427], [31.44221764103017, 36.82658982197474], [31.44167865185969, 36.82658982197474], [31.44167865185969, 36.82712881114521], [31.44006168434828, 36.82712881114521], [31.44006168434828, 36.8255118436338], [31.44113966268921, 36.8255118436338], [31.44113966268921, 36.824972854463326], [31.44221764103017, 36.824972854463326], [31.44221764103017, 36.82443386529285]]]}, "id": "+392297+87525", "properties": {"area_ha": 6.6130178974538065, "count": 23, "label": 1, "mean_dnbr": 0.44685752371983944}}, {"type": "Feature", "geometry": {"geodesic": false, "type": "Polygon", "coordinates": [[[31.452997424439587, 36.76945696990474], [31.454075402780546, 36.76945696990474], [31.454075402780546, 36.77053494824568], [31.453536413610067, 36.77053494824568], [31.453536413610067, 36.77161292658663], [31.452997424439587, 36.77161292658663], [31.452997424439587, 36.7721519157571], [31.452458435269108, 36.7721519157571], [31.452458435269108, 36.77269090492757], [31.454075402780546, 36.77269090492757], [31.454075402780546, 36.77322989409804], [31.452997424439587, 36.77322989409804], [31.452997424439587, 36.77376888326851], [31.455153381121477, 36.77376888326851], [31.455153381121477, 36.7759248399504], [31.451919446098657, 36.7759248399504], [31.451919446098657, 36.77538585077993], [31.452458435269108, 36.77538585077993], [31.452458435269108, 36.774846861609454], [31.452997424439587, 36.774846861609454], [31.452997424439587, 36.77430787243898], [31.451919446098657, 36.77430787243898], [31.451919446098657, 36.774846861609454], [31.450302478587247, 36.774846861609454], [31.450302478587247, 36.77376888326851], [31.451380456928177, 36.77376888326851], [31.451380456928177, 36.7721519157571], [31.450302478587247, 36.7721519157571], [31.450302478587247, 36.77161292658663], [31.450841467757698, 36.77161292658663], [31.450841467757698, 36.77053494824568], [31.451919446098657, 36.77053494824568], [31.451919446098657, 36.771073937416155], [31.452458435269108, 36.771073937416155], [31.452458435269108, 36.77053494824568], [31.452997424439587, 36.77053494824568], [31.452997424439587, 36.76945696990474]], [[31.452997424439587, 36.771073937416155], [31.452997424439587, 36.77161292658663], [31.452458435269108, 36.77161292658663], [31.452458435269108, 36.771073937416155], [31.452997424439587, 36.771073937416155]]]}, "id": "+392315+87627", "properties": {"area_ha": 15.536872974637975, "count": 54, "label": 1, "mean_dnbr": 0.3462234068990594}}, {"type": "Feature", "geometry": {"geodesic": false, "type": "Polygon", "coordinates": [[[31.452997424439587, 36.76352808902955], [31.454075402780546, 36.76352808902955], [31.454075402780546, 36.765145056540966], [31.452458435269108, 36.765145056540966], [31.452458435269108, 36.76622303488191], [31.451919446098657, 36.76622303488191], [31.451919446098657, 36.76568404571144], [31.451380456928177, 36.76568404571144], [31.451380456928177, 36.765145056540966], [31.450841467757698, 36.765145056540966], [31.450841467757698, 36.76406707820002], [31.451380456928177, 36.76406707820002], [31.451380456928177, 36.765145056540966], [31.452458435269108, 36.765145056540966], [31.452458435269108, 36.764606067370494], [31.451919446098657, 36.764606067370494], [31.451919446098657, 36.76406707820002], [31.452997424439587, 36.76406707820002], [31.452997424439587, 36.76352808902955]]]}, "id": "+392315+87638", "properties": {"area_ha": 4.0285252215359115, "count": 14, "label": 1, "mean_dnbr": 0.4285367244910548}}, {"type": "Feature", "geometry": {"geodesic": false, "type": "Polygon", "coordinates": [[[31.456231359462436, 36.76406707820002], [31.457309337803366, 36.76406707820002], [31.457309337803366, 36.764606067370494], [31.458387316144297, 36.764606067370494], [31.458387316144297, 36.765145056540966], [31.458926305314776, 36.765145056540966], [31.458926305314776, 36.76622303488191], [31.458387316144297, 36.76622303488191], [31.458387316144297, 36.76568404571144], [31.457848326973846, 36.76568404571144], [31.457848326973846, 36.765145056540966], [31.457309337803366, 36.765145056540966], [31.457309337803366, 36.76568404571144], [31.456770348632887, 36.76568404571144], [31.456770348632887, 36.76622303488191], [31.457309337803366, 36.76622303488191], [31.457309337803366, 36.766762024052376], [31.456231359462436, 36.766762024052376], [31.456231359462436, 36.76568404571144], [31.455692370291956, 36.76568404571144], [31.455692370291956, 36.76622303488191], [31.454614391950997, 36.76622303488191], [31.454614391950997, 36.76568404571144], [31.455153381121477, 36.76568404571144], [31.455153381121477, 36.765145056540966], [31.455692370291956, 36.765145056540966], [31.455692370291956, 36.764606067370494], [31.456231359462436, 36.764606067370494], [31.456231359462436, 36.76406707820002]]]}, "id": "+392321+87637", "properties": {"area_ha": 5.467233220548705, "count": 19, "label": 1, "mean_dnbr": 0.3055031171813428}}, {"type": "Feature", "geometry": {"geodesic": false, "type": "Polygon", "coordinates": [[[31.457848326973846, 36.81904397358814], [31.458926305314776, 36.81904397358814], [31.458926305314776, 36.81958296275861], [31.459465294485256, 36.81958296275861], [31.459465294485256, 36.820660941099554], [31.458926305314776, 36.820660941099554], [31.458926305314776, 36.822277908610964], [31.456770348632887, 36.822277908610964], [31.456770348632887, 36.822816897781436], [31.457848326973846, 36.822816897781436], [31.457848326973846, 36.82335588695191], [31.458387316144297, 36.82335588695191], [31.458387316144297, 36.82443386529285], [31.455153381121477, 36.82443386529285], [31.455153381121477, 36.824972854463326], [31.454614391950997, 36.824972854463326], [31.454614391950997, 36.82389487612238], [31.455153381121477, 36.82389487612238], [31.455153381121477, 36.822816897781436], [31.456231359462436, 36.822816897781436], [31.456231359462436, 36.822277908610964], [31.456770348632887, 36.822277908610964], [31.456770348632887, 36.82173891944049], [31.457848326973846, 36.82173891944049], [31.457848326973846, 36.82119993027002], [31.458387316144297, 36.82119993027002], [31.458387316144297, 36.82012195192908], [31.457848326973846, 36.82012195192908], [31.457848326973846, 36.81904397358814]]]}, "id": "+392324+87535", "properties": {"area_ha": 9.776207216833711, "count": 34, "label": 1, "mean_dnbr": 0.38282713430699433}}, {"type": "Feature", "geometry": {"geodesic": false, "type": "Polygon", "coordinates": [[[31.458926305314776, 36.75382628396106], [31.460543272826186, 36.75382628396106], [31.460543272826186, 36.754904262302], [31.461621251167145, 36.754904262302], [31.461621251167145, 36.75544325147247], [31.461082261996665, 36.75544325147247], [31.461082261996665, 36.75598224064294], [31.460543272826186, 36.75598224064294], [31.460543272826186, 36.756521229813416], [31.460004283655735, 36.756521229813416], [31.460004283655735, 36.75598224064294], [31.459465294485256, 36.75598224064294], [31.459465294485256, 36.75544325147247], [31.458926305314776, 36.75544325147247], [31.458926305314776, 36.754904262302], [31.458387316144297, 36.754904262302], [31.458387316144297, 36.75436527313153], [31.458926305314776, 36.75436527313153], [31.458926305314776, 36.75382628396106]]]}, "id": "+392327+87656", "properties": {"area_ha": 4.604605788586503, "count": 16, "label": 1, "mean_dnbr": 0.5609315443609294}}, {"type": "Feature", "geometry": {"geodesic": false, "type": "Polygon", "coordinates": [[[31.460004283655735, 36.76352808902955], [31.461082261996665, 36.76352808902955], [31.461082261996665, 36.764606067370494], [31.462160240337624, 36.764606067370494], [31.462160240337624, 36.76406707820002], [31.463238218678555, 36.76406707820002], [31.463238218678555, 36.764606067370494], [31.463777207849034, 36.764606067370494], [31.463777207849034, 36.76568404571144], [31.461082261996665, 36.76568404571144], [31.461082261996665, 36.76622303488191], [31.459465294485256, 36.76622303488191], [31.459465294485256, 36.76406707820002], [31.460004283655735, 36.76406707820002], [31.460004283655735, 36.76352808902955]]]}, "id": "+392328+87638", "properties": {"area_ha": 7.481530370874066, "count": 26, "label": 1, "mean_dnbr": 0.3144861133469695}}, {"type": "Feature", "geometry": {"geodesic": false, "type": "Polygon", "coordinates": [[[31.457848326973846, 36.837369605384175], [31.462699229508075, 36.837369605384175], [31.462699229508075, 36.83844758372512], [31.461621251167145, 36.83844758372512], [31.461621251167145, 36.83898657289559], [31.461082261996665, 36.83898657289559], [31.461082261996665, 36.83952556206606], [31.461621251167145, 36.83952556206606], [31.461621251167145, 36.840603540407], [31.459465294485256, 36.840603540407], [31.459465294485256, 36.841142529577475], [31.458926305314776, 36.841142529577475], [31.458926305314776, 36.840603540407], [31.458387316144297, 36.840603540407], [31.458387316144297, 36.83952556206606], [31.460543272826186, 36.83952556206606], [31.460543272826186, 36.83898657289559], [31.460004283655735, 36.83898657289559], [31.460004283655735, 36.83844758372512], [31.457848326973846, 36.83844758372512], [31.457848326973846, 36.837369605384175]]]}, "id": "+392331+87501", "properties": {"area_ha": 10.061493245859564, "count": 35, "label": 1, "mean_dnbr": 0.46038695764831156}}, {"type": "Feature", "geometry": {"geodesic": false, "type": "Polygon", "coordinates": [[[31.476712947940342, 36.76137213234766], [31.47725193711082, 36.76137213234766], [31.47725193711082, 36.76191112151813], [31.4777909262813, 36.76191112151813], [31.4777909262813, 36.76298909985908], [31.475095980428932, 36.76298909985908], [31.475095980428932, 36.762450110688604], [31.474556991258453, 36.762450110688604], [31.474556991258453, 36.76191112151813], [31.475095980428932, 36.76191112151813], [31.475095980428932, 36.762450110688604], [31.47563496959941, 36.762450110688604], [31.47563496959941, 36.76191112151813], [31.476712947940342, 36.76191112151813], [31.476712947940342, 36.76137213234766]]]}, "id": "+392358+87642", "properties": {"area_ha": 3.1653768337317976, "count": 11, "label": 1, "mean_dnbr": 0.3918903702244195}}, {"type": "Feature", "geometry": {"geodesic": false, "type": "Polygon", "coordinates": [[[31.48264182881553, 36.802335309303515], [31.48318081798601, 36.802335309303515], [31.48318081798601, 36.803952276814925], [31.48371980715649, 36.803952276814925], [31.48371980715649, 36.8044912659854], [31.48102486130412, 36.8044912659854], [31.48102486130412, 36.803952276814925], [31.4815638504746, 36.803952276814925], [31.4815638504746, 36.80341328764445], [31.48210283964505, 36.80341328764445], [31.48210283964505, 36.80287429847399], [31.48264182881553, 36.80287429847399], [31.48264182881553, 36.802335309303515]]]}, "id": "+392369+87566", "properties": {"area_ha": 3.1636698147394355, "count": 11, "label": 1, "mean_dnbr": 0.2995357040176106}}, {"type": "Feature", "geometry": {"geodesic": false, "type": "Polygon", "coordinates": [[[31.48695374217931, 36.75598224064294], [31.48803172052024, 36.75598224064294], [31.48803172052024, 36.75706021898389], [31.48587576383838, 36.75706021898389], [31.48587576383838, 36.75759920815436], [31.48479778549742, 36.75759920815436], [31.48479778549742, 36.75706021898389], [31.48371980715649, 36.75706021898389], [31.48371980715649, 36.75759920815436], [31.48264182881553, 36.75759920815436], [31.48264182881553, 36.75706021898389], [31.48371980715649, 36.75706021898389], [31.48371980715649, 36.756521229813416], [31.48695374217931, 36.756521229813416], [31.48695374217931, 36.75598224064294]]]}, "id": "+392378+87652", "properties": {"area_ha": 4.02891951384429, "count": 14, "label": 1, "mean_dnbr": 0.2681309088129462}}, {"type": "Feature", "geometry": {"geodesic": false, "type": "Polygon", "coordinates": [[[31.4928826230545, 36.74897538142681], [31.493421612224978, 36.74897538142681], [31.493421612224978, 36.74951437059728], [31.49611655807732, 36.74951437059728], [31.49611655807732, 36.750053359767755], [31.496655547247798, 36.750053359767755], [31.496655547247798, 36.75059234893823], [31.495577568906867, 36.75059234893823], [31.495577568906867, 36.750053359767755], [31.49449959056591, 36.750053359767755], [31.49449959056591, 36.75059234893823], [31.4928826230545, 36.75059234893823], [31.4928826230545, 36.74897538142681]]]}, "id": "+392388+87665", "properties": {"area_ha": 3.4536746429010803, "count": 12, "label": 1, "mean_dnbr": 0.28072153399374955}}, {"type": "Feature", "geometry": {"geodesic": false, "type": "Polygon", "coordinates": [[[31.495038579736388, 36.77538585077993], [31.49611655807732, 36.77538585077993], [31.49611655807732, 36.7759248399504], [31.496655547247798, 36.7759248399504], [31.496655547247798, 36.77646382912087], [31.497733525588757, 36.77646382912087], [31.497733525588757, 36.77700281829134], [31.49611655807732, 36.77700281829134], [31.49611655807732, 36.77808079663229], [31.495577568906867, 36.77808079663229], [31.495577568906867, 36.777541807461816], [31.49449959056591, 36.777541807461816], [31.49449959056591, 36.77646382912087], [31.495038579736388, 36.77646382912087], [31.495038579736388, 36.77538585077993]]]}, "id": "+392393+87616", "properties": {"area_ha": 4.31560398754065, "count": 15, "label": 1, "mean_dnbr": 0.3810353401169895}}, {"type": "Feature", "geometry": {"geodesic": false, "type": "Polygon", "coordinates": [[[31.496655547247798, 36.74574144640398], [31.497194536418277, 36.74574144640398], [31.497194536418277, 36.746280435574455], [31.497733525588757, 36.746280435574455], [31.497733525588757, 36.7473584139154], [31.498272514759208, 36.7473584139154], [31.498272514759208, 36.74681942474493], [31.498811503929687, 36.74681942474493], [31.498811503929687, 36.746280435574455], [31.499350493100167, 36.746280435574455], [31.499350493100167, 36.7473584139154], [31.498272514759208, 36.7473584139154], [31.498272514759208, 36.748436392256345], [31.499350493100167, 36.748436392256345], [31.499350493100167, 36.74789740308587], [31.500967460611577, 36.74789740308587], [31.500967460611577, 36.74951437059728], [31.496655547247798, 36.74951437059728], [31.496655547247798, 36.74897538142681], [31.49611655807732, 36.74897538142681], [31.49611655807732, 36.748436392256345], [31.495577568906867, 36.748436392256345], [31.495577568906867, 36.74897538142681], [31.49449959056591, 36.74897538142681], [31.49449959056591, 36.748436392256345], [31.49396060139543, 36.748436392256345], [31.49396060139543, 36.74789740308587], [31.495038579736388, 36.74789740308587], [31.495038579736388, 36.74681942474493], [31.496655547247798, 36.74681942474493], [31.496655547247798, 36.74574144640398]]]}, "id": "+392395+87671", "properties": {"area_ha": 13.52730612157398, "count": 47, "label": 1, "mean_dnbr": 0.3812041531994694}}, {"type": "Feature", "geometry": {"geodesic": false, "type": "Polygon", "coordinates": [[[31.500967460611577, 36.75921617566578], [31.501506449782056, 36.75921617566578], [31.501506449782056, 36.75975516483625], [31.502584428122987, 36.75975516483625], [31.502584428122987, 36.76083314317719], [31.502045438952507, 36.76083314317719], [31.502045438952507, 36.76137213234766], [31.503123417293466, 36.76137213234766], [31.503123417293466, 36.76191112151813], [31.499889482270618, 36.76191112151813], [31.499889482270618, 36.76137213234766], [31.500428471441097, 36.76137213234766], [31.500428471441097, 36.75975516483625], [31.500967460611577, 36.75975516483625], [31.500967460611577, 36.75921617566578]]]}, "id": "+392403+87646", "properties": {"area_ha": 5.179813024519133, "count": 18, "label": 1, "mean_dnbr": 0.26392662051642113}}, {"type": "Feature", "geometry": {"geodesic": false, "type": "Polygon", "coordinates": [[[31.502584428122987, 36.75328729479059], [31.504201395634396, 36.75328729479059], [31.504201395634396, 36.75436527313153], [31.503662406463945, 36.75436527313153], [31.503662406463945, 36.75544325147247], [31.502045438952507, 36.75544325147247], [31.502045438952507, 36.75598224064294], [31.501506449782056, 36.75598224064294], [31.501506449782056, 36.756521229813416], [31.502045438952507, 36.756521229813416], [31.502045438952507, 36.75759920815436], [31.500967460611577, 36.75759920815436], [31.500967460611577, 36.75706021898389], [31.499889482270618, 36.75706021898389], [31.499889482270618, 36.756521229813416], [31.499350493100167, 36.756521229813416], [31.499350493100167, 36.75598224064294], [31.501506449782056, 36.75598224064294], [31.501506449782056, 36.75544325147247], [31.502045438952507, 36.75544325147247], [31.502045438952507, 36.754904262302], [31.502584428122987, 36.754904262302], [31.502584428122987, 36.75328729479059]]]}, "id": "+392408+87657", "properties": {"area_ha": 6.331294063084576, "count": 22, "label": 1, "mean_dnbr": 0.2087006215290715}}, {"type": "Feature", "geometry": {"geodesic": false, "type": "Polygon", "coordinates": [[[31.505279373975355, 36.754904262302], [31.506896341486765, 36.754904262302], [31.506896341486765, 36.75598224064294], [31.506357352316286, 36.75598224064294], [31.506357352316286, 36.756521229813416], [31.505279373975355, 36.756521229813416], [31.505279373975355, 36.75706021898389], [31.503662406463945, 36.75706021898389], [31.503662406463945, 36.75598224064294], [31.505279373975355, 36.75598224064294], [31.505279373975355, 36.754904262302]]]}, "id": "+392413+87654", "properties": {"area_ha": 4.028977627134662, "count": 14, "label": 1, "mean_dnbr": 0.3676067514598075}}, {"type": "Feature", "geometry": {"geodesic": false, "type": "Polygon", "coordinates": [[[31.513364211532434, 36.73711761967643], [31.513903200702885, 36.73711761967643], [31.513903200702885, 36.737656608846905], [31.513364211532434, 36.737656608846905], [31.513364211532434, 36.73819559801738], [31.512825222361954, 36.73819559801738], [31.512825222361954, 36.73927357635832], [31.512286233191475, 36.73927357635832], [31.512286233191475, 36.74142953304021], [31.511208254850544, 36.74142953304021], [31.511208254850544, 36.74035155469927], [31.510669265680065, 36.74035155469927], [31.510669265680065, 36.739812565528794], [31.510130276509585, 36.739812565528794], [31.510130276509585, 36.73927357635832], [31.511747244020995, 36.73927357635832], [31.511747244020995, 36.73873458718785], [31.512286233191475, 36.73873458718785], [31.512286233191475, 36.73819559801738], [31.512825222361954, 36.73819559801738], [31.512825222361954, 36.737656608846905], [31.513364211532434, 36.737656608846905], [31.513364211532434, 36.73711761967643]]]}, "id": "+392426+87687", "properties": {"area_ha": 4.605530962961383, "count": 16, "label": 1, "mean_dnbr": 0.4368413686819823}}, {"type": "Feature", "geometry": {"geodesic": false, "type": "Polygon", "coordinates": [[[31.516059157384774, 36.77538585077993], [31.516598146555253, 36.77538585077993], [31.516598146555253, 36.7759248399504], [31.517137135725733, 36.7759248399504], [31.517137135725733, 36.77646382912087], [31.515520168214323, 36.77646382912087], [31.515520168214323, 36.77700281829134], [31.514981179043843, 36.77700281829134], [31.514981179043843, 36.777541807461816], [31.513903200702885, 36.777541807461816], [31.513903200702885, 36.77646382912087], [31.514442189873364, 36.77646382912087], [31.514442189873364, 36.77538585077993], [31.514981179043843, 36.77538585077993], [31.514981179043843, 36.77646382912087], [31.515520168214323, 36.77646382912087], [31.515520168214323, 36.7759248399504], [31.516059157384774, 36.7759248399504], [31.516059157384774, 36.77538585077993]]]}, "id": "+392431+87616", "properties": {"area_ha": 3.164787245557398, "count": 11, "label": 1, "mean_dnbr": 0.3834829896575723}}, {"type": "Feature", "geometry": {"geodesic": false, "type": "Polygon", "coordinates": [[[31.519832081578073, 36.733883684653605], [31.520371070748553, 36.733883684653605], [31.520371070748553, 36.73442267382408], [31.520910059919032, 36.73442267382408], [31.520910059919032, 36.736039641335495], [31.520371070748553, 36.736039641335495], [31.520371070748553, 36.73657863050597], [31.519293092407622, 36.73657863050597], [31.519293092407622, 36.73711761967643], [31.518754103237143, 36.73711761967643], [31.518754103237143, 36.736039641335495], [31.518215114066663, 36.736039641335495], [31.518215114066663, 36.73550065216502], [31.518754103237143, 36.73550065216502], [31.518754103237143, 36.736039641335495], [31.519832081578073, 36.736039641335495], [31.519832081578073, 36.73550065216502], [31.519293092407622, 36.73550065216502], [31.519293092407622, 36.73442267382408], [31.519832081578073, 36.73442267382408], [31.519832081578073, 36.733883684653605]]]}, "id": "+392438+87693", "properties": {"area_ha": 4.030057054520143, "count": 14, "label": 1, "mean_dnbr": 0.36069806282607053}}, {"type": "Feature", "geometry": {"geodesic": false, "type": "Polygon", "coordinates": [[[31.52306601660092, 36.74520245723351], [31.52522197328281, 36.74520245723351], [31.52522197328281, 36.746280435574455], [31.52468298411233, 36.746280435574455], [31.52468298411233, 36.74681942474493], [31.524143994941852, 36.74681942474493], [31.524143994941852, 36.7473584139154], [31.523605005771373, 36.7473584139154], [31.523605005771373, 36.74681942474493], [31.52306601660092, 36.74681942474493], [31.52306601660092, 36.74520245723351]]]}, "id": "+392447+87672", "properties": {"area_ha": 3.453853121916955, "count": 12, "label": 1, "mean_dnbr": 0.3392435627263944}}, {"type": "Feature", "geometry": {"geodesic": false, "type": "Polygon", "coordinates": [[[31.52629995162374, 36.73657863050597], [31.52683894079422, 36.73657863050597], [31.52683894079422, 36.73711761967643], [31.5273779299647, 36.73711761967643], [31.5273779299647, 36.73873458718785], [31.52629995162374, 36.73873458718785], [31.52629995162374, 36.73927357635832], [31.525760962453262, 36.73927357635832], [31.525760962453262, 36.74035155469927], [31.52522197328281, 36.74035155469927], [31.52522197328281, 36.73927357635832], [31.52468298411233, 36.73927357635832], [31.52468298411233, 36.73873458718785], [31.524143994941852, 36.73873458718785], [31.524143994941852, 36.737656608846905], [31.52522197328281, 36.737656608846905], [31.52522197328281, 36.73711761967643], [31.52629995162374, 36.73711761967643], [31.52629995162374, 36.73657863050597]]]}, "id": "+392450+87688", "properties": {"area_ha": 6.3327197855282, "count": 22, "label": 1, "mean_dnbr": 0.4431795320357529}}, {"type": "Feature", "geometry": {"geodesic": false, "type": "Polygon", "coordinates": [[[31.53384580001034, 36.752209316449644], [31.5349237783513, 36.752209316449644], [31.5349237783513, 36.752748305620116], [31.53546276752175, 36.752748305620116], [31.53546276752175, 36.75328729479059], [31.54031367005601, 36.75328729479059], [31.54031367005601, 36.75436527313153], [31.542469626737898, 36.75436527313153], [31.542469626737898, 36.75598224064294], [31.541930637567418, 36.75598224064294], [31.541930637567418, 36.75544325147247], [31.54139164839694, 36.75544325147247], [31.54139164839694, 36.754904262302], [31.540852659226488, 36.754904262302], [31.540852659226488, 36.75544325147247], [31.54031367005601, 36.75544325147247], [31.54031367005601, 36.75436527313153], [31.5386967025446, 36.75436527313153], [31.5386967025446, 36.75382628396106], [31.53761872420364, 36.75382628396106], [31.53761872420364, 36.75436527313153], [31.53546276752175, 36.75436527313153], [31.53546276752175, 36.75328729479059], [31.53384580001034, 36.75328729479059], [31.53384580001034, 36.752209316449644]]]}, "id": "+392465+87659", "properties": {"area_ha": 8.345896311989218, "count": 29, "label": 1, "mean_dnbr": 0.2750239209364345}}, {"type": "Feature", "geometry": {"geodesic": false, "type": "Polygon", "coordinates": [[[31.546242550931197, 36.72418187958512], [31.547320529272127, 36.72418187958512], [31.547320529272127, 36.72472086875558], [31.547859518442607, 36.72472086875558], [31.547859518442607, 36.72687682543747], [31.546242550931197, 36.72687682543747], [31.546242550931197, 36.726337836267], [31.544086594249308, 36.726337836267], [31.544086594249308, 36.72472086875558], [31.544625583419787, 36.72472086875558], [31.544625583419787, 36.725259857926055], [31.545164572590267, 36.725259857926055], [31.545164572590267, 36.72579884709653], [31.545703561760718, 36.72579884709653], [31.545703561760718, 36.725259857926055], [31.546242550931197, 36.725259857926055], [31.546242550931197, 36.72418187958512]], [[31.546781540101676, 36.725259857926055], [31.546781540101676, 36.72579884709653], [31.546242550931197, 36.72579884709653], [31.546242550931197, 36.725259857926055], [31.546781540101676, 36.725259857926055]]]}, "id": "+392488+87711", "properties": {"area_ha": 6.04586900449967, "count": 21, "label": 1, "mean_dnbr": 0.3212346709229374}}, {"type": "Feature", "geometry": {"geodesic": false, "type": "Polygon", "coordinates": [[[31.558100312681574, 36.72094794456228], [31.559717280192984, 36.72094794456228], [31.559717280192984, 36.721486933732756], [31.560256269363464, 36.721486933732756], [31.560256269363464, 36.72202592290323], [31.559717280192984, 36.72202592290323], [31.559717280192984, 36.7225649120737], [31.559178291022533, 36.7225649120737], [31.559178291022533, 36.72310390124417], [31.560256269363464, 36.72310390124417], [31.560256269363464, 36.723642890414645], [31.559717280192984, 36.723642890414645], [31.559717280192984, 36.72418187958512], [31.558639301852054, 36.72418187958512], [31.558639301852054, 36.723642890414645], [31.558100312681574, 36.723642890414645], [31.558100312681574, 36.72094794456228]]]}, "id": "+392511+87717", "properties": {"area_ha": 5.1823783557560095, "count": 18, "label": 1, "mean_dnbr": 0.39777599259687474}}, {"type": "Feature", "geometry": {"geodesic": false, "type": "Polygon", "coordinates": [[[31.561334247704394, 36.72040895539181], [31.562412226045353, 36.72040895539181], [31.562412226045353, 36.7225649120737], [31.563490204386284, 36.7225649120737], [31.563490204386284, 36.72202592290323], [31.562951215215833, 36.72202592290323], [31.562951215215833, 36.721486933732756], [31.564568182727243, 36.721486933732756], [31.564568182727243, 36.7225649120737], [31.565107171897722, 36.7225649120737], [31.565107171897722, 36.723642890414645], [31.562412226045353, 36.723642890414645], [31.562412226045353, 36.7225649120737], [31.561873236874874, 36.7225649120737], [31.561873236874874, 36.721486933732756], [31.561334247704394, 36.721486933732756], [31.561334247704394, 36.72040895539181]], [[31.564029193556763, 36.7225649120737], [31.564029193556763, 36.72310390124417], [31.563490204386284, 36.72310390124417], [31.563490204386284, 36.7225649120737], [31.564029193556763, 36.7225649120737]]]}, "id": "+392516+87718", "properties": {"area_ha": 5.758223613688453, "count": 20, "label": 1, "mean_dnbr": 0.23125708581987178}}, {"type": "Feature", "geometry": {"geodesic": false, "type": "Polygon", "coordinates": [[[31.57858190115951, 36.83575263787276], [31.57912089032996, 36.83575263787276], [31.57912089032996, 36.83629162704323], [31.5807378578414, 36.83629162704323], [31.5807378578414, 36.8368306162137], [31.58235482535281, 36.8368306162137], [31.58235482535281, 36.837369605384175], [31.58127684701185, 36.837369605384175], [31.58127684701185, 36.83790859455465], [31.58019886867092, 36.83790859455465], [31.58019886867092, 36.837369605384175], [31.57858190115951, 36.837369605384175], [31.57858190115951, 36.8368306162137], [31.57912089032996, 36.8368306162137], [31.57912089032996, 36.83629162704323], [31.57858190115951, 36.83629162704323], [31.57858190115951, 36.83575263787276]]]}, "id": "+392547+87504", "properties": {"area_ha": 3.73724214116364, "count": 13, "label": 1, "mean_dnbr": 0.26267414223305297}}, {"type": "Feature", "geometry": {"geodesic": false, "type": "Polygon", "coordinates": [[[31.588822695398477, 36.83575263787276], [31.589900673739407, 36.83575263787276], [31.589900673739407, 36.8368306162137], [31.589361684568928, 36.8368306162137], [31.589361684568928, 36.83790859455465], [31.590439662909887, 36.83790859455465], [31.590439662909887, 36.83844758372512], [31.589361684568928, 36.83844758372512], [31.589361684568928, 36.83790859455465], [31.588283706227998, 36.83790859455465], [31.588283706227998, 36.837369605384175], [31.58720572788704, 36.837369605384175], [31.58720572788704, 36.83575263787276], [31.588283706227998, 36.83575263787276], [31.588283706227998, 36.83629162704323], [31.587744717057518, 36.83629162704323], [31.587744717057518, 36.8368306162137], [31.588822695398477, 36.8368306162137], [31.588822695398477, 36.83575263787276]]]}, "id": "+392567+87504", "properties": {"area_ha": 4.312206435542066, "count": 15, "label": 1, "mean_dnbr": 0.28392923346874693}}, {"type": "Feature", "geometry": {"geodesic": false, "type": "Polygon", "coordinates": [[[31.610382262217342, 36.68860859433398], [31.613077208069683, 36.68860859433398], [31.613077208069683, 36.68914758350445], [31.613616197240162, 36.68914758350445], [31.613616197240162, 36.69130354018634], [31.612538218899232, 36.69130354018634], [31.612538218899232, 36.69076455101587], [31.611999229728752, 36.69076455101587], [31.611999229728752, 36.690225561845395], [31.610382262217342, 36.690225561845395], [31.610382262217342, 36.68968657267492], [31.610921251387794, 36.68968657267492], [31.610921251387794, 36.68914758350445], [31.610382262217342, 36.68914758350445], [31.610382262217342, 36.68860859433398]]]}, "id": "+392610+87777", "properties": {"area_ha": 6.0486764478327455, "count": 21, "label": 1, "mean_dnbr": 0.29515685467349456}}, {"type": "Feature", "geometry": {"geodesic": false, "type": "Polygon", "coordinates": [[[31.655118363366483, 36.67890678926549], [31.656196341707414, 36.67890678926549], [31.656196341707414, 36.68052375677691], [31.655657352536963, 36.68052375677691], [31.655657352536963, 36.68106274594738], [31.652962406684594, 36.68106274594738], [31.652962406684594, 36.679984767606435], [31.655118363366483, 36.679984767606435], [31.655118363366483, 36.67890678926549]]]}, "id": "+392690+87795", "properties": {"area_ha": 4.321031496945659, "count": 15, "label": 1, "mean_dnbr": 0.2799160650601646}}]}