{"type": "FeatureCollection", "columns": {"area_ha": "Number", "count": "Long<0, 4294967295>", "label": "Byte<0, 1>", "mean_dnbr": "Object", "system:index": "String"}, "features": [{"type": "Feature", "geometry": {"geodesic": false, "type": "Polygon", "coordinates": [[[30.768481177940515, 36.99259848648003], [30.769559156281474, 36.99259848648003], [30.769559156281474, 36.9931374756505], [30.770098145451925, 36.9931374756505], [30.770098145451925, 36.994215453991444], [30.770637134622405, 36.994215453991444], [30.770637134622405, 36.994754443161916], [30.771176123792884, 36.994754443161916], [30.771176123792884, 36.99529343233239], [30.770637134622405, 36.99529343233239], [30.770637134622405, 36.994754443161916], [30.770098145451925, 36.994754443161916], [30.770098145451925, 36.994215453991444], [30.769559156281474, 36.994215453991444], [30.769559156281474, 36.994754443161916], [30.768481177940515, 36.994754443161916], [30.768481177940515, 36.99259848648003]]]}, "id": "+391045+87213", "properties": {"area_ha": 3.4426744338993625, "count": 12, "label": 1, "mean_dnbr": 0.2905723493731535}}, {"type": "Feature", "geometry": {"geodesic": false, "type": "Polygon", "coordinates": [[[30.864960239454945, 36.953252277035595], [30.867116196136834, 36.953252277035595], [30.867116196136834, 36.95379126620606], [30.866577206966355, 36.95379126620606], [30.866577206966355, 36.95540823371748], [30.865499228625424, 36.95540823371748], [30.865499228625424, 36.954869244547005], [30.864960239454945, 36.954869244547005], [30.864960239454945, 36.953252277035595]]]}, "id": "+391226+87286", "properties": {"area_ha": 3.44446312649646, "count": 12, "label": 1, "mean_dnbr": 0.22952327221123658}}, {"type": "Feature", "geometry": {"geodesic": false, "type": "Polygon", "coordinates": [[[30.873045077012023, 36.940855526114746], [30.87627901203487, 36.940855526114746], [30.87627901203487, 36.94139451528522], [30.876818001205322, 36.94139451528522], [30.876818001205322, 36.94193350445568], [30.87627901203487, 36.94193350445568], [30.87627901203487, 36.94139451528522], [30.87574002286439, 36.94139451528522], [30.87574002286439, 36.94193350445568], [30.875201033693912, 36.94193350445568], [30.875201033693912, 36.94139451528522], [30.874662044523433, 36.94139451528522], [30.874662044523433, 36.942472493626155], [30.87627901203487, 36.942472493626155], [30.87627901203487, 36.94301148279663], [30.873584066182502, 36.94301148279663], [30.873584066182502, 36.94193350445568], [30.873045077012023, 36.94193350445568], [30.873045077012023, 36.940855526114746]]]}, "id": "+391243+87309", "properties": {"area_ha": 5.167528944331315, "count": 18, "label": 1, "mean_dnbr": 0.15464355424805773}}, {"type": "Feature", "geometry": {"geodesic": false, "type": "Polygon", "coordinates": [[[30.876818001205322, 36.98020173555918], [30.878434968716732, 36.98020173555918], [30.878434968716732, 36.98074072472965], [30.87897395788721, 36.98074072472965], [30.87897395788721, 36.98127971390012], [30.87789597954628, 36.98127971390012], [30.87789597954628, 36.981818703070594], [30.8773569903758, 36.981818703070594], [30.8773569903758, 36.98235769224107], [30.876818001205322, 36.98235769224107], [30.876818001205322, 36.98127971390012], [30.87627901203487, 36.98127971390012], [30.87627901203487, 36.98074072472965], [30.876818001205322, 36.98074072472965], [30.876818001205322, 36.98020173555918]]]}, "id": "+391247+87236", "properties": {"area_ha": 3.1563138891613134, "count": 11, "label": 1, "mean_dnbr": 0.20230234679744954}}, {"type": "Feature", "geometry": {"geodesic": false, "type": "Polygon", "coordinates": [[[30.876818001205322, 36.973733865513516], [30.87951294705769, 36.973733865513516], [30.87951294705769, 36.97535083302493], [30.87897395788721, 36.97535083302493], [30.87897395788721, 36.97481184385446], [30.876818001205322, 36.97481184385446], [30.876818001205322, 36.973733865513516]]]}, "id": "+391249+87248", "properties": {"area_ha": 3.156587799470732, "count": 11, "label": 1, "mean_dnbr": 0.16320716034931224}}, {"type": "Feature", "geometry": {"geodesic": false, "type": "Polygon", "coordinates": [[[30.88544182793288, 36.985591627263894], [30.88598081710336, 36.985591627263894], [30.88598081710336, 36.98720859477531], [30.88651980627381, 36.98720859477531], [30.88651980627381, 36.988286573116255], [30.88705879544429, 36.988286573116255], [30.88705879544429, 36.989903540627665], [30.88598081710336, 36.989903540627665], [30.88598081710336, 36.98720859477531], [30.88544182793288, 36.98720859477531], [30.88544182793288, 36.985591627263894]]]}, "id": "+391261+87226", "properties": {"area_ha": 3.156023758344203, "count": 11, "label": 1, "mean_dnbr": 0.19120420596697368}}, {"type": "Feature", "geometry": {"geodesic": false, "type": "Polygon", "coordinates": [[[30.88759778461477, 36.99044252979814], [30.88813677378525, 36.99044252979814], [30.88813677378525, 36.99098151896861], [30.8886757629557, 36.99098151896861], [30.8886757629557, 36.99259848648003], [30.88759778461477, 36.99259848648003], [30.88759778461477, 36.9931374756505], [30.88705879544429, 36.9931374756505], [30.88705879544429, 36.992059497309555], [30.88651980627381, 36.992059497309555], [30.88651980627381, 36.99098151896861], [30.88759778461477, 36.99098151896861], [30.88759778461477, 36.99044252979814]]]}, "id": "+391265+87217", "properties": {"area_ha": 3.7296673241775955, "count": 13, "label": 1, "mean_dnbr": 0.29720535893051236}}, {"type": "Feature", "geometry": {"geodesic": false, "type": "Polygon", "coordinates": [[[30.88813677378525, 36.862163107225875], [30.88975374129666, 36.862163107225875], [30.88975374129666, 36.86270209639635], [30.89029273046711, 36.86270209639635], [30.89029273046711, 36.86324108556681], [30.88975374129666, 36.86324108556681], [30.88975374129666, 36.863780074737285], [30.88921475212618, 36.863780074737285], [30.88921475212618, 36.86431906390776], [30.88813677378525, 36.86431906390776], [30.88813677378525, 36.863780074737285], [30.88759778461477, 36.863780074737285], [30.88759778461477, 36.86270209639635], [30.88813677378525, 36.86270209639635], [30.88813677378525, 36.862163107225875]]]}, "id": "+391268+87455", "properties": {"area_ha": 4.023343292803113, "count": 14, "label": 1, "mean_dnbr": 0.32346824806191743}}, {"type": "Feature", "geometry": {"geodesic": false, "type": "Polygon", "coordinates": [[[30.92371005903638, 37.019547945003616], [30.9269439940592, 37.019547945003616], [30.9269439940592, 37.020625923344554], [30.92748298322968, 37.020625923344554], [30.92748298322968, 37.021164912515026], [30.9269439940592, 37.021164912515026], [30.9269439940592, 37.020625923344554], [30.924249048206832, 37.020625923344554], [30.924249048206832, 37.02008693417408], [30.92371005903638, 37.02008693417408], [30.92371005903638, 37.019547945003616]]]}, "id": "+391337+87163", "properties": {"area_ha": 3.4414748968117355, "count": 12, "label": 1, "mean_dnbr": 0.3808064574574843}}, {"type": "Feature", "geometry": {"geodesic": false, "type": "Polygon", "coordinates": [[[30.944191647514288, 36.89665841413606], [30.945808615025697, 36.89665841413606], [30.945808615025697, 36.897197403306535], [30.946886593366656, 36.897197403306535], [30.946886593366656, 36.89827538164748], [30.945269625855246, 36.89827538164748], [30.945269625855246, 36.89773639247701], [30.943652658343836, 36.89773639247701], [30.943652658343836, 36.897197403306535], [30.944191647514288, 36.897197403306535], [30.944191647514288, 36.89665841413606]]]}, "id": "+391372+87391", "properties": {"area_ha": 3.447034849344593, "count": 12, "label": 1, "mean_dnbr": 0.4719539451906897}}, {"type": "Feature", "geometry": {"geodesic": false, "type": "Polygon", "coordinates": [[[30.949581539219025, 36.874559858146725], [30.950120528389476, 36.874559858146725], [30.950120528389476, 36.876176825658135], [30.949581539219025, 36.876176825658135], [30.949581539219025, 36.87671581482861], [30.949042550048546, 36.87671581482861], [30.949042550048546, 36.876176825658135], [30.947964571707587, 36.876176825658135], [30.947964571707587, 36.874559858146725], [30.949042550048546, 36.874559858146725], [30.949042550048546, 36.8750988473172], [30.949581539219025, 36.8750988473172], [30.949581539219025, 36.874559858146725]]]}, "id": "+391380+87432", "properties": {"area_ha": 3.448024684915844, "count": 12, "label": 1, "mean_dnbr": 0.29224086110550335}}, {"type": "Feature", "geometry": {"geodesic": false, "type": "Polygon", "coordinates": [[[30.953893452582776, 36.888573576578985], [30.956049409264665, 36.888573576578985], [30.956049409264665, 36.88965155491993], [30.955510420094214, 36.88965155491993], [30.955510420094214, 36.8901905440904], [30.953893452582776, 36.8901905440904], [30.953893452582776, 36.888573576578985]]]}, "id": "+391391+87406", "properties": {"area_ha": 3.160113001478474, "count": 11, "label": 1, "mean_dnbr": 0.29001322589651324}}, {"type": "Feature", "geometry": {"geodesic": false, "type": "Polygon", "coordinates": [[[30.97706998691308, 36.90905516505691], [30.97814796525401, 36.90905516505691], [30.97814796525401, 36.9112111217388], [30.97760897608353, 36.9112111217388], [30.97760897608353, 36.91282808925021], [30.9765309977426, 36.91282808925021], [30.9765309977426, 36.909594154227385], [30.97706998691308, 36.909594154227385], [30.97706998691308, 36.90905516505691]]]}, "id": "+391432+87368", "properties": {"area_ha": 4.882440367034659, "count": 17, "label": 1, "mean_dnbr": 0.3139549069677017}}, {"type": "Feature", "geometry": {"geodesic": false, "type": "Polygon", "coordinates": [[[30.98731078115202, 36.90636021920455], [30.988927748663457, 36.90636021920455], [30.988927748663457, 36.90689920837502], [30.992161683686277, 36.90689920837502], [30.992161683686277, 36.907438197545495], [30.993239662027207, 36.907438197545495], [30.993239662027207, 36.90797718671597], [30.992161683686277, 36.90797718671597], [30.992161683686277, 36.907438197545495], [30.988927748663457, 36.907438197545495], [30.988927748663457, 36.90797718671597], [30.988388759492977, 36.90797718671597], [30.988388759492977, 36.907438197545495], [30.988927748663457, 36.907438197545495], [30.988927748663457, 36.90689920837502], [30.98731078115202, 36.90689920837502], [30.98731078115202, 36.90636021920455]]]}, "id": "+391452+87373", "properties": {"area_ha": 3.4465946542375008, "count": 12, "label": 1, "mean_dnbr": 0.2010890661063336}}, {"type": "Feature", "geometry": {"geodesic": false, "type": "Polygon", "coordinates": [[[31.005636412948064, 36.994215453991444], [31.006175402118544, 36.994215453991444], [31.006175402118544, 36.99583242150286], [31.007253380459474, 36.99583242150286], [31.007253380459474, 36.9969103998438], [31.006175402118544, 36.9969103998438], [31.006175402118544, 36.99583242150286], [31.003480456266175, 36.99583242150286], [31.003480456266175, 36.994754443161916], [31.005097423777585, 36.994754443161916], [31.005097423777585, 36.99529343233239], [31.005636412948064, 36.99529343233239], [31.005636412948064, 36.994215453991444]]]}, "id": "+391484+87210", "properties": {"area_ha": 4.016373740264885, "count": 14, "label": 1, "mean_dnbr": 0.2649435196426953}}, {"type": "Feature", "geometry": {"geodesic": false, "type": "Polygon", "coordinates": [[[31.008870347970912, 36.9893645514572], [31.009948326311843, 36.9893645514572], [31.009948326311843, 36.99044252979814], [31.008870347970912, 36.99044252979814], [31.008870347970912, 36.99152050813908], [31.007792369629954, 36.99152050813908], [31.007792369629954, 36.99259848648003], [31.006714391289023, 36.99259848648003], [31.006714391289023, 36.9893645514572], [31.007253380459474, 36.9893645514572], [31.007253380459474, 36.989903540627665], [31.007792369629954, 36.989903540627665], [31.007792369629954, 36.99044252979814], [31.008870347970912, 36.99044252979814], [31.008870347970912, 36.9893645514572]]]}, "id": "+391491+87219", "properties": {"area_ha": 5.451119045897156, "count": 19, "label": 1, "mean_dnbr": 0.2711697341286982}}, {"type": "Feature", "geometry": {"geodesic": false, "type": "Polygon", "coordinates": [[[31.012104282993732, 36.96241509293361], [31.01426023967562, 36.96241509293361], [31.01426023967562, 36.96295408210408], [31.013721250505142, 36.96295408210408], [31.013721250505142, 36.963493071274556], [31.012643272164212, 36.963493071274556], [31.012643272164212, 36.9645710496155], [31.011565293823253, 36.9645710496155], [31.011565293823253, 36.963493071274556], [31.012104282993732, 36.963493071274556], [31.012104282993732, 36.96241509293361]]]}, "id": "+391499+87269", "properties": {"area_ha": 3.157046311117804, "count": 11, "label": 1, "mean_dnbr": 0.32036694923202214}}, {"type": "Feature", "geometry": {"geodesic": false, "type": "Polygon", "coordinates": [[[31.016955185527962, 36.97858476804776], [31.01803316386892, 36.97858476804776], [31.01803316386892, 36.979662746388705], [31.01749417469844, 36.979662746388705], [31.01749417469844, 36.98074072472965], [31.0147992288461, 36.98074072472965], [31.0147992288461, 36.98020173555918], [31.01587720718703, 36.98020173555918], [31.01587720718703, 36.979662746388705], [31.016955185527962, 36.979662746388705], [31.016955185527962, 36.97858476804776]]]}, "id": "+391506+87239", "properties": {"area_ha": 3.4433176960492107, "count": 12, "label": 1, "mean_dnbr": 0.17989626405606363}}, {"type": "Feature", "geometry": {"geodesic": false, "type": "Polygon", "coordinates": [[[31.0223450772327, 36.96511003878597], [31.02342305557363, 36.96511003878597], [31.02342305557363, 36.965649027956445], [31.02396204474411, 36.965649027956445], [31.02396204474411, 36.967265995467855], [31.02342305557363, 36.967265995467855], [31.02342305557363, 36.96780498463833], [31.0223450772327, 36.96780498463833], [31.0223450772327, 36.96672700629738], [31.02288406640315, 36.96672700629738], [31.02288406640315, 36.965649027956445], [31.0223450772327, 36.965649027956445], [31.0223450772327, 36.96511003878597]]]}, "id": "+391516+87264", "properties": {"area_ha": 3.1569194274430834, "count": 11, "label": 1, "mean_dnbr": 0.27776851285888315}}, {"type": "Feature", "geometry": {"geodesic": false, "type": "Polygon", "coordinates": [[[31.0223450772327, 36.94408946113757], [31.02342305557363, 36.94408946113757], [31.02342305557363, 36.94516743947852], [31.0223450772327, 36.94516743947852], [31.0223450772327, 36.94624541781946], [31.02126709889174, 36.94624541781946], [31.02126709889174, 36.946784406989934], [31.01965013138033, 36.946784406989934], [31.01965013138033, 36.94408946113757], [31.02180608806222, 36.94408946113757], [31.02180608806222, 36.944628450308045], [31.0223450772327, 36.944628450308045], [31.0223450772327, 36.94408946113757]]]}, "id": "+391516+87303", "properties": {"area_ha": 7.463887262089194, "count": 26, "label": 1, "mean_dnbr": 0.16766936656440315}}, {"type": "Feature", "geometry": {"geodesic": false, "type": "Polygon", "coordinates": [[[31.037975763176377, 36.89558043579512], [31.038514752346856, 36.89558043579512], [31.038514752346856, 36.89611942496559], [31.039053741517307, 36.89611942496559], [31.039053741517307, 36.89665841413606], [31.039592730687787, 36.89665841413606], [31.039592730687787, 36.897197403306535], [31.040131719858266, 36.897197403306535], [31.040131719858266, 36.89827538164748], [31.039592730687787, 36.89827538164748], [31.039592730687787, 36.89881437081795], [31.038514752346856, 36.89881437081795], [31.038514752346856, 36.89827538164748], [31.037436774005897, 36.89827538164748], [31.037436774005897, 36.89773639247701], [31.037975763176377, 36.89773639247701], [31.037975763176377, 36.89558043579512]]]}, "id": "+391544+87393", "properties": {"area_ha": 4.883299938717139, "count": 17, "label": 1, "mean_dnbr": 0.24809537609101281}}, {"type": "Feature", "geometry": {"geodesic": false, "type": "Polygon", "coordinates": [[[31.06492522169995, 36.951096320353706], [31.06600320004091, 36.951096320353706], [31.06600320004091, 36.95163530952418], [31.06708117838184, 36.95163530952418], [31.06708117838184, 36.95217429869465], [31.06654218921136, 36.95217429869465], [31.06654218921136, 36.95433025537653], [31.06492522169995, 36.95433025537653], [31.06492522169995, 36.95379126620606], [31.0643862325295, 36.95379126620606], [31.0643862325295, 36.95217429869465], [31.06492522169995, 36.95217429869465], [31.06492522169995, 36.951096320353706]]]}, "id": "+391595+87290", "properties": {"area_ha": 6.0279342154606095, "count": 21, "label": 1, "mean_dnbr": 0.2885541623276238}}, {"type": "Feature", "geometry": {"geodesic": false, "type": "Polygon", "coordinates": [[[31.06600320004091, 36.93169271021672], [31.06654218921136, 36.93169271021672], [31.06654218921136, 36.932231699387195], [31.06762016755232, 36.932231699387195], [31.06762016755232, 36.93330967772814], [31.06546421087043, 36.93330967772814], [31.06546421087043, 36.93384866689861], [31.06492522169995, 36.93384866689861], [31.06492522169995, 36.93330967772814], [31.0643862325295, 36.93330967772814], [31.0643862325295, 36.93277068855767], [31.06492522169995, 36.93277068855767], [31.06492522169995, 36.93169271021672], [31.06546421087043, 36.93169271021672], [31.06546421087043, 36.932231699387195], [31.06600320004091, 36.932231699387195], [31.06600320004091, 36.93169271021672]]]}, "id": "+391596+87326", "properties": {"area_ha": 4.019685172674443, "count": 14, "label": 1, "mean_dnbr": 0.22671511668162797}}, {"type": "Feature", "geometry": {"geodesic": false, "type": "Polygon", "coordinates": [[[31.0757050051094, 36.87563783648766], [31.07732197262081, 36.87563783648766], [31.07732197262081, 36.87671581482861], [31.077860961791288, 36.87671581482861], [31.077860961791288, 36.87779379316955], [31.076243994279878, 36.87779379316955], [31.076243994279878, 36.87725480399908], [31.0757050051094, 36.87725480399908], [31.0757050051094, 36.87563783648766]]]}, "id": "+391616+87430", "properties": {"area_ha": 3.7352997513150767, "count": 13, "label": 1, "mean_dnbr": 0.2815367448948192}}, {"type": "Feature", "geometry": {"geodesic": false, "type": "Polygon", "coordinates": [[[31.084328831836928, 36.99960534569616], [31.085406810177886, 36.99960534569616], [31.085406810177886, 37.000683324037105], [31.084867821007407, 37.000683324037105], [31.084867821007407, 37.00176130237805], [31.085406810177886, 37.00176130237805], [31.085406810177886, 37.002300291548515], [31.084867821007407, 37.002300291548515], [31.084867821007407, 37.00283928071899], [31.083789842666476, 37.00283928071899], [31.083789842666476, 37.00176130237805], [31.084328831836928, 37.00176130237805], [31.084328831836928, 36.99960534569616]]]}, "id": "+391631+87200", "properties": {"area_ha": 3.155476156561985, "count": 11, "label": 1, "mean_dnbr": 0.2464787786862155}}, {"type": "Feature", "geometry": {"geodesic": false, "type": "Polygon", "coordinates": [[[31.089179734371186, 36.88210570653332], [31.091335691053075, 36.88210570653332], [31.091335691053075, 36.88372267404474], [31.089179734371186, 36.88372267404474], [31.089179734371186, 36.88210570653332]]]}, "id": "+391642+87418", "properties": {"area_ha": 3.4476900912605597, "count": 12, "label": 1, "mean_dnbr": 0.33675191587715764}}, {"type": "Feature", "geometry": {"geodesic": false, "type": "Polygon", "coordinates": [[[31.095647604416854, 36.890729533260874], [31.096725582757784, 36.890729533260874], [31.096725582757784, 36.89288548994276], [31.097803561098743, 36.89288548994276], [31.097803561098743, 36.8939634682837], [31.098881539439674, 36.8939634682837], [31.098881539439674, 36.895041446624646], [31.099420528610153, 36.895041446624646], [31.099420528610153, 36.89558043579512], [31.098342550269194, 36.89558043579512], [31.098342550269194, 36.89611942496559], [31.097264571928264, 36.89611942496559], [31.097264571928264, 36.89665841413606], [31.096725582757784, 36.89665841413606], [31.096725582757784, 36.897197403306535], [31.095647604416854, 36.897197403306535], [31.095647604416854, 36.89665841413606], [31.094569626075895, 36.89665841413606], [31.094569626075895, 36.89558043579512], [31.092413669394006, 36.89558043579512], [31.092413669394006, 36.89234650077229], [31.092952658564485, 36.89234650077229], [31.092952658564485, 36.89288548994276], [31.094030636905444, 36.89288548994276], [31.094030636905444, 36.89234650077229], [31.094569626075895, 36.89234650077229], [31.094569626075895, 36.89342447911323], [31.095647604416854, 36.89342447911323], [31.095647604416854, 36.89288548994276], [31.095108615246374, 36.89288548994276], [31.095108615246374, 36.89234650077229], [31.095647604416854, 36.89234650077229], [31.095647604416854, 36.890729533260874]], [[31.098342550269194, 36.895041446624646], [31.098342550269194, 36.89558043579512], [31.097803561098743, 36.89558043579512], [31.097803561098743, 36.895041446624646], [31.098342550269194, 36.895041446624646]], [[31.097264571928264, 36.89450245745417], [31.097264571928264, 36.89558043579512], [31.096186593587305, 36.89558043579512], [31.096186593587305, 36.89450245745417], [31.097264571928264, 36.89450245745417]]]}, "id": "+391652+87402", "properties": {"area_ha": 21.544854073671235, "count": 75, "label": 1, "mean_dnbr": 0.274342249641325}}, {"type": "Feature", "geometry": {"geodesic": false, "type": "Polygon", "coordinates": [[[31.135532803031765, 36.925763829341534], [31.136071792202216, 36.925763829341534], [31.136071792202216, 36.926302818512006], [31.136610781372696, 36.926302818512006], [31.136610781372696, 36.92738079685295], [31.135532803031765, 36.92738079685295], [31.135532803031765, 36.92791978602342], [31.133376846349876, 36.92791978602342], [31.133376846349876, 36.92738079685295], [31.132837857179396, 36.92738079685295], [31.132837857179396, 36.92684180768248], [31.135532803031765, 36.92684180768248], [31.135532803031765, 36.925763829341534]]]}, "id": "+391725+87337", "properties": {"area_ha": 4.019969910726557, "count": 14, "label": 1, "mean_dnbr": 0.1941230349761463}}, {"type": "Feature", "geometry": {"geodesic": false, "type": "Polygon", "coordinates": [[[31.140383705565995, 36.89342447911323], [31.142000673077405, 36.89342447911323], [31.142000673077405, 36.8939634682837], [31.144695618929774, 36.8939634682837], [31.144695618929774, 36.89450245745417], [31.145773597270704, 36.89450245745417], [31.145773597270704, 36.895041446624646], [31.146312586441184, 36.895041446624646], [31.146312586441184, 36.89558043579512], [31.144156629759294, 36.89558043579512], [31.144156629759294, 36.895041446624646], [31.143078651418364, 36.895041446624646], [31.143078651418364, 36.89450245745417], [31.140922694736474, 36.89450245745417], [31.140922694736474, 36.8939634682837], [31.140383705565995, 36.8939634682837], [31.140383705565995, 36.89342447911323]]]}, "id": "+391736+87397", "properties": {"area_ha": 5.458010479421873, "count": 19, "label": 1, "mean_dnbr": 0.18969845297802687}}, {"type": "Feature", "geometry": {"geodesic": false, "type": "Polygon", "coordinates": [[[31.197516557635993, 36.89881437081795], [31.19859453597695, 36.89881437081795], [31.19859453597695, 36.899353359988424], [31.199133525147403, 36.899353359988424], [31.199133525147403, 36.89989234915889], [31.19859453597695, 36.89989234915889], [31.19859453597695, 36.90043133832936], [31.199133525147403, 36.90043133832936], [31.199133525147403, 36.90150931667031], [31.199672514317882, 36.90150931667031], [31.199672514317882, 36.90258729501125], [31.19859453597695, 36.90258729501125], [31.19859453597695, 36.90150931667031], [31.198055546806472, 36.90150931667031], [31.198055546806472, 36.900970327499834], [31.19697756846554, 36.900970327499834], [31.19697756846554, 36.90043133832936], [31.196438579295062, 36.90043133832936], [31.196438579295062, 36.899353359988424], [31.197516557635993, 36.899353359988424], [31.197516557635993, 36.89881437081795]]]}, "id": "+391841+87387", "properties": {"area_ha": 6.032068184642426, "count": 21, "label": 1, "mean_dnbr": 0.2834302996565967}}, {"type": "Feature", "geometry": {"geodesic": false, "type": "Polygon", "coordinates": [[[31.198055546806472, 36.83629162704323], [31.19859453597695, 36.83629162704323], [31.19859453597695, 36.837369605384175], [31.199133525147403, 36.837369605384175], [31.199133525147403, 36.83790859455465], [31.19859453597695, 36.83790859455465], [31.19859453597695, 36.83844758372512], [31.199133525147403, 36.83844758372512], [31.199133525147403, 36.83952556206606], [31.198055546806472, 36.83952556206606], [31.198055546806472, 36.83790859455465], [31.197516557635993, 36.83790859455465], [31.197516557635993, 36.8368306162137], [31.198055546806472, 36.8368306162137], [31.198055546806472, 36.83629162704323]]]}, "id": "+391841+87503", "properties": {"area_ha": 3.162241950058737, "count": 11, "label": 1, "mean_dnbr": 0.32456628173058055}}, {"type": "Feature", "geometry": {"geodesic": false, "type": "Polygon", "coordinates": [[[31.20075049265884, 36.87132592312389], [31.20236746017025, 36.87132592312389], [31.20236746017025, 36.87294289063531], [31.20182847099977, 36.87294289063531], [31.20182847099977, 36.87348187980578], [31.20075049265884, 36.87348187980578], [31.20075049265884, 36.87294289063531], [31.20021150348836, 36.87294289063531], [31.20021150348836, 36.872403901464835], [31.20075049265884, 36.872403901464835], [31.20075049265884, 36.87132592312389]]]}, "id": "+391848+87438", "properties": {"area_ha": 3.4481646699546973, "count": 12, "label": 1, "mean_dnbr": 0.1778142302007134}}, {"type": "Feature", "geometry": {"geodesic": false, "type": "Polygon", "coordinates": [[[31.25572738804695, 36.822277908610964], [31.25734435555836, 36.822277908610964], [31.25734435555836, 36.822816897781436], [31.25788334472884, 36.822816897781436], [31.25788334472884, 36.82443386529285], [31.25626637721743, 36.82443386529285], [31.25626637721743, 36.82335588695191], [31.25572738804695, 36.82335588695191], [31.25572738804695, 36.822277908610964]]]}, "id": "+391950+87529", "properties": {"area_ha": 3.7379098366281456, "count": 13, "label": 1, "mean_dnbr": 0.383929918388664}}, {"type": "Feature", "geometry": {"geodesic": false, "type": "Polygon", "coordinates": [[[31.289144716616192, 36.8292847678271], [31.290222694957123, 36.8292847678271], [31.290222694957123, 36.83036274616804], [31.289683705786672, 36.83036274616804], [31.289683705786672, 36.830901735338514], [31.289144716616192, 36.830901735338514], [31.289144716616192, 36.83144072450899], [31.289683705786672, 36.83144072450899], [31.289683705786672, 36.83197971367946], [31.290222694957123, 36.83197971367946], [31.290222694957123, 36.83251870284993], [31.290761684127602, 36.83251870284993], [31.290761684127602, 36.83359668119087], [31.289683705786672, 36.83359668119087], [31.289683705786672, 36.833057692020404], [31.289144716616192, 36.833057692020404], [31.289144716616192, 36.83359668119087], [31.283754824911483, 36.83359668119087], [31.283754824911483, 36.83251870284993], [31.286449770763824, 36.83251870284993], [31.286449770763824, 36.830901735338514], [31.287527749104783, 36.830901735338514], [31.287527749104783, 36.83036274616804], [31.288605727445713, 36.83036274616804], [31.288605727445713, 36.82982375699757], [31.289144716616192, 36.82982375699757], [31.289144716616192, 36.8292847678271]]]}, "id": "+392011+87516", "properties": {"area_ha": 14.95001660513969, "count": 52, "label": 1, "mean_dnbr": 0.40909205210819877}}, {"type": "Feature", "geometry": {"geodesic": false, "type": "Polygon", "coordinates": [[[31.337653741958633, 36.83790859455465], [31.34088767698148, 36.83790859455465], [31.34088767698148, 36.83898657289559], [31.337653741958633, 36.83898657289559], [31.337653741958633, 36.83790859455465]]]}, "id": "+392105+87500", "properties": {"area_ha": 3.449696787749909, "count": 12, "label": 1, "mean_dnbr": 0.44848512664136575}}, {"type": "Feature", "geometry": {"geodesic": false, "type": "Polygon", "coordinates": [[[31.359752297947978, 36.835213648702286], [31.361369265459388, 36.835213648702286], [31.361369265459388, 36.83575263787276], [31.361908254629867, 36.83575263787276], [31.361908254629867, 36.837369605384175], [31.360830276288937, 36.837369605384175], [31.360830276288937, 36.8368306162137], [31.360291287118457, 36.8368306162137], [31.360291287118457, 36.83629162704323], [31.359752297947978, 36.83629162704323], [31.359752297947978, 36.837369605384175], [31.359213308777527, 36.837369605384175], [31.359213308777527, 36.83790859455465], [31.358674319607047, 36.83790859455465], [31.358674319607047, 36.8368306162137], [31.359213308777527, 36.8368306162137], [31.359213308777527, 36.83575263787276], [31.359752297947978, 36.83575263787276], [31.359752297947978, 36.835213648702286]]]}, "id": "+392143+87505", "properties": {"area_ha": 4.887199171107295, "count": 17, "label": 1, "mean_dnbr": 0.2653205325109325}}, {"type": "Feature", "geometry": {"geodesic": false, "type": "Polygon", "coordinates": [[[31.369993092186945, 36.8368306162137], [31.370532081357425, 36.8368306162137], [31.370532081357425, 36.83790859455465], [31.369993092186945, 36.83790859455465], [31.369993092186945, 36.83844758372512], [31.370532081357425, 36.83844758372512], [31.370532081357425, 36.83952556206606], [31.369454103016466, 36.83952556206606], [31.369454103016466, 36.83898657289559], [31.368376124675535, 36.83898657289559], [31.368376124675535, 36.83790859455465], [31.368915113846015, 36.83790859455465], [31.368915113846015, 36.837369605384175], [31.369993092186945, 36.837369605384175], [31.369993092186945, 36.8368306162137]]]}, "id": "+392160+87502", "properties": {"area_ha": 3.737179259423557, "count": 13, "label": 1, "mean_dnbr": 0.38534163259547044}}, {"type": "Feature", "geometry": {"geodesic": false, "type": "Polygon", "coordinates": [[[31.372688038039314, 36.83952556206606], [31.375382983891654, 36.83952556206606], [31.375382983891654, 36.84006455123653], [31.374843994721203, 36.84006455123653], [31.374843994721203, 36.840603540407], [31.375382983891654, 36.840603540407], [31.375382983891654, 36.841142529577475], [31.374305005550724, 36.841142529577475], [31.374305005550724, 36.84168151874795], [31.372688038039314, 36.84168151874795], [31.372688038039314, 36.83952556206606]]]}, "id": "+392169+87497", "properties": {"area_ha": 4.886928015997196, "count": 17, "label": 1, "mean_dnbr": 0.40686288508750107}}, {"type": "Feature", "geometry": {"geodesic": false, "type": "Polygon", "coordinates": [[[31.376999951403093, 36.84599343211172], [31.377538940573544, 36.84599343211172], [31.377538940573544, 36.84707141045266], [31.376999951403093, 36.84707141045266], [31.376999951403093, 36.84814938879361], [31.378077929744023, 36.84814938879361], [31.378077929744023, 36.84868837796408], [31.378616918914503, 36.84868837796408], [31.378616918914503, 36.84922736713455], [31.376999951403093, 36.84922736713455], [31.376999951403093, 36.84814938879361], [31.375382983891654, 36.84814938879361], [31.375382983891654, 36.84707141045266], [31.376999951403093, 36.84707141045266], [31.376999951403093, 36.84599343211172]]]}, "id": "+392173+87485", "properties": {"area_ha": 3.736712519422098, "count": 13, "label": 1, "mean_dnbr": 0.3465567610411838}}, {"type": "Feature", "geometry": {"geodesic": false, "type": "Polygon", "coordinates": [[[31.379694897255433, 36.84275949708889], [31.381311864766843, 36.84275949708889], [31.381311864766843, 36.84383747542984], [31.380772875596392, 36.84383747542984], [31.380772875596392, 36.84491545377078], [31.379155908084954, 36.84491545377078], [31.379155908084954, 36.84437646460031], [31.378616918914503, 36.84437646460031], [31.378616918914503, 36.84383747542984], [31.377538940573544, 36.84383747542984], [31.377538940573544, 36.843298486259364], [31.379694897255433, 36.843298486259364], [31.379694897255433, 36.84275949708889]]]}, "id": "+392180+87491", "properties": {"area_ha": 4.886723221584005, "count": 17, "label": 1, "mean_dnbr": 0.5313379012582914}}, {"type": "Feature", "geometry": {"geodesic": false, "type": "Polygon", "coordinates": [[[31.40287143158571, 36.82335588695191], [31.403949409926668, 36.82335588695191], [31.403949409926668, 36.8255118436338], [31.405027388267598, 36.8255118436338], [31.405027388267598, 36.82605083280427], [31.405566377438078, 36.82605083280427], [31.405566377438078, 36.82658982197474], [31.406105366608557, 36.82658982197474], [31.406105366608557, 36.82712881114521], [31.405566377438078, 36.82712881114521], [31.405566377438078, 36.82766780031568], [31.405027388267598, 36.82766780031568], [31.405027388267598, 36.82658982197474], [31.40287143158571, 36.82658982197474], [31.40287143158571, 36.82712881114521], [31.4012544640743, 36.82712881114521], [31.4012544640743, 36.82605083280427], [31.401793453244778, 36.82605083280427], [31.401793453244778, 36.8255118436338], [31.402332442415258, 36.8255118436338], [31.402332442415258, 36.824972854463326], [31.40287143158571, 36.824972854463326], [31.40287143158571, 36.82335588695191]]]}, "id": "+392222+87527", "properties": {"area_ha": 8.33815556917936, "count": 29, "label": 1, "mean_dnbr": 0.32327167876499485}}, {"type": "Feature", "geometry": {"geodesic": false, "type": "Polygon", "coordinates": [[[31.455153381121477, 36.82335588695191], [31.458387316144297, 36.82335588695191], [31.458387316144297, 36.82389487612238], [31.458926305314776, 36.82389487612238], [31.458926305314776, 36.82443386529285], [31.455153381121477, 36.82443386529285], [31.455153381121477, 36.824972854463326], [31.454614391950997, 36.824972854463326], [31.454614391950997, 36.82443386529285], [31.454075402780546, 36.82443386529285], [31.454075402780546, 36.82389487612238], [31.455153381121477, 36.82389487612238], [31.455153381121477, 36.82335588695191]]]}, "id": "+392323+87527", "properties": {"area_ha": 4.600477666056318, "count": 16, "label": 1, "mean_dnbr": 0.4744458592019671}}, {"type": "Feature", "geometry": {"geodesic": false, "type": "Polygon", "coordinates": [[[31.458926305314776, 36.81365408188342], [31.461621251167145, 36.81365408188342], [31.461621251167145, 36.814732060224365], [31.461082261996665, 36.814732060224365], [31.461082261996665, 36.8158100385653], [31.460004283655735, 36.8158100385653], [31.460004283655735, 36.814732060224365], [31.458926305314776, 36.814732060224365], [31.458926305314776, 36.81365408188342]]]}, "id": "+392329+87545", "properties": {"area_ha": 4.025894341311972, "count": 14, "label": 1, "mean_dnbr": 0.37626479454329037}}, {"type": "Feature", "geometry": {"geodesic": false, "type": "Polygon", "coordinates": [[[31.4777909262813, 36.74574144640398], [31.47886890462223, 36.74574144640398], [31.47886890462223, 36.74681942474493], [31.47940789379271, 36.74681942474493], [31.47940789379271, 36.7473584139154], [31.47886890462223, 36.7473584139154], [31.47886890462223, 36.74789740308587], [31.47725193711082, 36.74789740308587], [31.47725193711082, 36.74897538142681], [31.476712947940342, 36.74897538142681], [31.476712947940342, 36.74789740308587], [31.47563496959941, 36.74789740308587], [31.47563496959941, 36.74681942474493], [31.476712947940342, 36.74681942474493], [31.476712947940342, 36.746280435574455], [31.4777909262813, 36.746280435574455], [31.4777909262813, 36.74574144640398]]]}, "id": "+392361+87671", "properties": {"area_ha": 6.044168185252975, "count": 21, "label": 1, "mean_dnbr": 0.3930696129153717}}, {"type": "Feature", "geometry": {"geodesic": false, "type": "Polygon", "coordinates": [[[31.48210283964505, 36.83790859455465], [31.48264182881553, 36.83790859455465], [31.48264182881553, 36.83952556206606], [31.48210283964505, 36.83952556206606], [31.48210283964505, 36.84006455123653], [31.4815638504746, 36.84006455123653], [31.4815638504746, 36.840603540407], [31.47994688296319, 36.840603540407], [31.47994688296319, 36.83952556206606], [31.47940789379271, 36.83952556206606], [31.47940789379271, 36.83844758372512], [31.47994688296319, 36.83844758372512], [31.47994688296319, 36.83952556206606], [31.48048587213364, 36.83952556206606], [31.48048587213364, 36.83898657289559], [31.48102486130412, 36.83898657289559], [31.48102486130412, 36.83844758372512], [31.48210283964505, 36.83844758372512], [31.48210283964505, 36.83790859455465]]]}, "id": "+392368+87500", "properties": {"area_ha": 4.887012630343624, "count": 17, "label": 1, "mean_dnbr": 0.2579759600348264}}, {"type": "Feature", "geometry": {"geodesic": false, "type": "Polygon", "coordinates": [[[31.48749273134979, 36.7473584139154], [31.48803172052024, 36.7473584139154], [31.48803172052024, 36.748436392256345], [31.48857070969072, 36.748436392256345], [31.48857070969072, 36.74951437059728], [31.4891096988612, 36.74951437059728], [31.4891096988612, 36.75059234893823], [31.48964868803168, 36.75059234893823], [31.48964868803168, 36.7511313381087], [31.48857070969072, 36.7511313381087], [31.48857070969072, 36.750053359767755], [31.48749273134979, 36.750053359767755], [31.48749273134979, 36.7473584139154]]]}, "id": "+392378+87668", "properties": {"area_ha": 3.4537092869622787, "count": 12, "label": 1, "mean_dnbr": 0.3321973639561212}}, {"type": "Feature", "geometry": {"geodesic": false, "type": "Polygon", "coordinates": [[[31.493421612224978, 36.74358548972209], [31.49396060139543, 36.74358548972209], [31.49396060139543, 36.744124478892566], [31.49449959056591, 36.744124478892566], [31.49449959056591, 36.74466346806304], [31.495577568906867, 36.74466346806304], [31.495577568906867, 36.74520245723351], [31.495038579736388, 36.74520245723351], [31.495038579736388, 36.74574144640398], [31.495577568906867, 36.74574144640398], [31.495577568906867, 36.74789740308587], [31.49611655807732, 36.74789740308587], [31.49611655807732, 36.7473584139154], [31.497733525588757, 36.7473584139154], [31.497733525588757, 36.74789740308587], [31.496655547247798, 36.74789740308587], [31.496655547247798, 36.748436392256345], [31.495577568906867, 36.748436392256345], [31.495577568906867, 36.74897538142681], [31.495038579736388, 36.74897538142681], [31.495038579736388, 36.74951437059728], [31.496655547247798, 36.74951437059728], [31.496655547247798, 36.75059234893823], [31.497194536418277, 36.75059234893823], [31.497194536418277, 36.7511313381087], [31.497733525588757, 36.7511313381087], [31.497733525588757, 36.752748305620116], [31.498811503929687, 36.752748305620116], [31.498811503929687, 36.75382628396106], [31.498272514759208, 36.75382628396106], [31.498272514759208, 36.75328729479059], [31.497194536418277, 36.75328729479059], [31.497194536418277, 36.752748305620116], [31.495577568906867, 36.752748305620116], [31.495577568906867, 36.752209316449644], [31.49396060139543, 36.752209316449644], [31.49396060139543, 36.75167032727917], [31.496655547247798, 36.75167032727917], [31.496655547247798, 36.7511313381087], [31.49611655807732, 36.7511313381087], [31.49611655807732, 36.75059234893823], [31.495577568906867, 36.75059234893823], [31.495577568906867, 36.7511313381087], [31.49449959056591, 36.7511313381087], [31.49449959056591, 36.75059234893823], [31.4928826230545, 36.75059234893823], [31.4928826230545, 36.752209316449644], [31.491804644713568, 36.752209316449644], [31.491804644713568, 36.75167032727917], [31.49234363388402, 36.75167032727917], [31.49234363388402, 36.75059234893823], [31.491804644713568, 36.75059234893823], [31.491804644713568, 36.74897538142681], [31.493421612224978, 36.74897538142681], [31.493421612224978, 36.74951437059728], [31.49396060139543, 36.74951437059728], [31.49396060139543, 36.74897538142681], [31.49449959056591, 36.74897538142681], [31.49449959056591, 36.748436392256345], [31.493421612224978, 36.748436392256345], [31.493421612224978, 36.74789740308587], [31.4928826230545, 36.74789740308587], [31.4928826230545, 36.7473584139154], [31.493421612224978, 36.7473584139154], [31.493421612224978, 36.746280435574455], [31.4928826230545, 36.746280435574455], [31.4928826230545, 36.74681942474493], [31.49234363388402, 36.74681942474493], [31.49234363388402, 36.74574144640398], [31.493421612224978, 36.74574144640398], [31.493421612224978, 36.74520245723351], [31.49234363388402, 36.74520245723351], [31.49234363388402, 36.744124478892566], [31.493421612224978, 36.744124478892566], [31.493421612224978, 36.74358548972209]]]}, "id": "+392389+87675", "properties": {"area_ha": 26.766446224243463, "count": 93, "label": 1, "mean_dnbr": 0.3736411332883335}}, {"type": "Feature", "geometry": {"geodesic": false, "type": "Polygon", "coordinates": [[[31.509591287339134, 36.76837899156379], [31.510669265680065, 36.76837899156379], [31.510669265680065, 36.768917980734265], [31.511208254850544, 36.768917980734265], [31.511208254850544, 36.76999595907521], [31.511747244020995, 36.76999595907521], [31.511747244020995, 36.76945696990474], [31.512286233191475, 36.76945696990474], [31.512286233191475, 36.77053494824568], [31.510130276509585, 36.77053494824568], [31.510130276509585, 36.771073937416155], [31.508513308998175, 36.771073937416155], [31.508513308998175, 36.77053494824568], [31.507974319827696, 36.77053494824568], [31.507974319827696, 36.76999595907521], [31.506357352316286, 36.76999595907521], [31.506357352316286, 36.76945696990474], [31.506896341486765, 36.76945696990474], [31.506896341486765, 36.76837899156379], [31.507435330657245, 36.76837899156379], [31.507435330657245, 36.768917980734265], [31.507974319827696, 36.768917980734265], [31.507974319827696, 36.76945696990474], [31.509591287339134, 36.76945696990474], [31.509591287339134, 36.76837899156379]]]}, "id": "+392420+87629", "properties": {"area_ha": 8.344254434471178, "count": 29, "label": 1, "mean_dnbr": 0.36504660547083}}, {"type": "Feature", "geometry": {"geodesic": false, "type": "Polygon", "coordinates": [[[31.513364211532434, 36.73496166299455], [31.514442189873364, 36.73496166299455], [31.514442189873364, 36.73550065216502], [31.514981179043843, 36.73550065216502], [31.514981179043843, 36.73711761967643], [31.512825222361954, 36.73711761967643], [31.512825222361954, 36.737656608846905], [31.512286233191475, 36.737656608846905], [31.512286233191475, 36.73819559801738], [31.511747244020995, 36.73819559801738], [31.511747244020995, 36.73873458718785], [31.511208254850544, 36.73873458718785], [31.511208254850544, 36.73927357635832], [31.510669265680065, 36.73927357635832], [31.510669265680065, 36.737656608846905], [31.511747244020995, 36.737656608846905], [31.511747244020995, 36.73711761967643], [31.512825222361954, 36.73711761967643], [31.512825222361954, 36.736039641335495], [31.513364211532434, 36.736039641335495], [31.513364211532434, 36.73657863050597], [31.513903200702885, 36.73657863050597], [31.513903200702885, 36.73550065216502], [31.513364211532434, 36.73550065216502], [31.513364211532434, 36.73496166299455]]]}, "id": "+392427+87691", "properties": {"area_ha": 5.469261580766083, "count": 19, "label": 1, "mean_dnbr": 0.2921582406673112}}, {"type": "Feature", "geometry": {"geodesic": false, "type": "Polygon", "coordinates": [[[31.517137135725733, 36.731727727971716], [31.517676124896184, 36.731727727971716], [31.517676124896184, 36.73280570631266], [31.517137135725733, 36.73280570631266], [31.517137135725733, 36.733883684653605], [31.517676124896184, 36.733883684653605], [31.517676124896184, 36.73496166299455], [31.516059157384774, 36.73496166299455], [31.516059157384774, 36.733883684653605], [31.515520168214323, 36.733883684653605], [31.515520168214323, 36.73334469548313], [31.516059157384774, 36.73334469548313], [31.516059157384774, 36.73280570631266], [31.516598146555253, 36.73280570631266], [31.516598146555253, 36.73226671714219], [31.517137135725733, 36.73226671714219], [31.517137135725733, 36.731727727971716]]]}, "id": "+392433+87697", "properties": {"area_ha": 4.030158679945973, "count": 14, "label": 1, "mean_dnbr": 0.2972893204954703}}, {"type": "Feature", "geometry": {"geodesic": false, "type": "Polygon", "coordinates": [[[31.53438478918082, 36.752209316449644], [31.5349237783513, 36.752209316449644], [31.5349237783513, 36.752748305620116], [31.53546276752175, 36.752748305620116], [31.53546276752175, 36.75328729479059], [31.53761872420364, 36.75328729479059], [31.53761872420364, 36.75436527313153], [31.53546276752175, 36.75436527313153], [31.53546276752175, 36.75328729479059], [31.53384580001034, 36.75328729479059], [31.53384580001034, 36.752748305620116], [31.53438478918082, 36.752748305620116], [31.53438478918082, 36.752209316449644]]]}, "id": "+392465+87659", "properties": {"area_ha": 3.4535266006388876, "count": 12, "label": 1, "mean_dnbr": 0.3396446268195052}}, {"type": "Feature", "geometry": {"geodesic": false, "type": "Polygon", "coordinates": [[[31.53654074586271, 36.85839018303257], [31.53761872420364, 36.85839018303257], [31.53761872420364, 36.85892917220304], [31.53815771337412, 36.85892917220304], [31.53815771337412, 36.85946816137351], [31.53654074586271, 36.85946816137351], [31.53654074586271, 36.860007150543986], [31.5349237783513, 36.860007150543986], [31.5349237783513, 36.85946816137351], [31.53546276752175, 36.85946816137351], [31.53546276752175, 36.85839018303257], [31.53600175669223, 36.85839018303257], [31.53600175669223, 36.85892917220304], [31.53654074586271, 36.85892917220304], [31.53654074586271, 36.85839018303257]]]}, "id": "+392470+87462", "properties": {"area_ha": 3.1613684137761733, "count": 11, "label": 1, "mean_dnbr": 0.33849445737815376}}, {"type": "Feature", "geometry": {"geodesic": false, "type": "Polygon", "coordinates": [[[31.54031367005601, 36.75328729479059], [31.541930637567418, 36.75328729479059], [31.541930637567418, 36.75382628396106], [31.542469626737898, 36.75382628396106], [31.542469626737898, 36.75544325147247], [31.543008615908377, 36.75544325147247], [31.543008615908377, 36.756521229813416], [31.544086594249308, 36.756521229813416], [31.544086594249308, 36.75706021898389], [31.544625583419787, 36.75706021898389], [31.544625583419787, 36.75759920815436], [31.543547605078828, 36.75759920815436], [31.543547605078828, 36.75706021898389], [31.543008615908377, 36.75706021898389], [31.543008615908377, 36.756521229813416], [31.54139164839694, 36.756521229813416], [31.54139164839694, 36.75598224064294], [31.541930637567418, 36.75598224064294], [31.541930637567418, 36.75544325147247], [31.54031367005601, 36.75544325147247], [31.54031367005601, 36.75436527313153], [31.540852659226488, 36.75436527313153], [31.540852659226488, 36.75382628396106], [31.54031367005601, 36.75382628396106], [31.54031367005601, 36.75328729479059]]]}, "id": "+392478+87657", "properties": {"area_ha": 6.619107481637927, "count": 23, "label": 1, "mean_dnbr": 0.36532882414978846}}, {"type": "Feature", "geometry": {"geodesic": false, "type": "Polygon", "coordinates": [[[31.545703561760718, 36.72418187958512], [31.547859518442607, 36.72418187958512], [31.547859518442607, 36.72687682543747], [31.546781540101676, 36.72687682543747], [31.546781540101676, 36.726337836267], [31.544625583419787, 36.726337836267], [31.544625583419787, 36.72687682543747], [31.543547605078828, 36.72687682543747], [31.543547605078828, 36.726337836267], [31.543008615908377, 36.726337836267], [31.543008615908377, 36.72687682543747], [31.542469626737898, 36.72687682543747], [31.542469626737898, 36.725259857926055], [31.544086594249308, 36.725259857926055], [31.544086594249308, 36.72579884709653], [31.544625583419787, 36.72579884709653], [31.544625583419787, 36.725259857926055], [31.545164572590267, 36.725259857926055], [31.545164572590267, 36.72472086875558], [31.545703561760718, 36.72472086875558], [31.545703561760718, 36.72418187958512]], [[31.546242550931197, 36.725259857926055], [31.546242550931197, 36.72579884709653], [31.545164572590267, 36.72579884709653], [31.545164572590267, 36.725259857926055], [31.546242550931197, 36.725259857926055]]]}, "id": "+392489+87711", "properties": {"area_ha": 8.924841261146497, "count": 31, "label": 1, "mean_dnbr": 0.3495229826093127}}, {"type": "Feature", "geometry": {"geodesic": false, "type": "Polygon", "coordinates": [[[31.559717280192984, 36.721486933732756], [31.560256269363464, 36.721486933732756], [31.560256269363464, 36.72202592290323], [31.560795258533943, 36.72202592290323], [31.560795258533943, 36.7225649120737], [31.561334247704394, 36.7225649120737], [31.561334247704394, 36.72310390124417], [31.561873236874874, 36.72310390124417], [31.561873236874874, 36.723642890414645], [31.559717280192984, 36.723642890414645], [31.559717280192984, 36.72418187958512], [31.558639301852054, 36.72418187958512], [31.558639301852054, 36.723642890414645], [31.559178291022533, 36.723642890414645], [31.559178291022533, 36.7225649120737], [31.559717280192984, 36.7225649120737], [31.559717280192984, 36.721486933732756]]]}, "id": "+392512+87716", "properties": {"area_ha": 4.03071892016112, "count": 14, "label": 1, "mean_dnbr": 0.3746233896812356}}, {"type": "Feature", "geometry": {"geodesic": false, "type": "Polygon", "coordinates": [[[31.611460240558273, 36.68860859433398], [31.612538218899232, 36.68860859433398], [31.612538218899232, 36.68968657267492], [31.613616197240162, 36.68968657267492], [31.613616197240162, 36.69076455101587], [31.613077208069683, 36.69076455101587], [31.613077208069683, 36.69130354018634], [31.612538218899232, 36.69130354018634], [31.612538218899232, 36.69076455101587], [31.611999229728752, 36.69076455101587], [31.611999229728752, 36.690225561845395], [31.610921251387794, 36.690225561845395], [31.610921251387794, 36.69076455101587], [31.610382262217342, 36.69076455101587], [31.610382262217342, 36.68968657267492], [31.611460240558273, 36.68968657267492], [31.611460240558273, 36.68860859433398]]]}, "id": "+392609+87777", "properties": {"area_ha": 4.320477296925454, "count": 15, "label": 1, "mean_dnbr": 0.33619661007532475}}]}