{"type": "FeatureCollection", "columns": {"area_ha": "Number", "count": "Long<0, 4294967295>", "label": "Byte<0, 1>", "mean_dnbr": "Object", "system:index": "String"}, "features": [{"type": "Feature", "geometry": {"geodesic": false, "type": "Polygon", "coordinates": [[[30.75285049199684, 37.09392845052871], [30.753389481167318, 37.09392845052871], [30.753389481167318, 37.09662339638107], [30.75285049199684, 37.09662339638107], [30.75285049199684, 37.097701374722014], [30.75177251365588, 37.097701374722014], [30.75177251365588, 37.09824036389249], [30.75015554614447, 37.09824036389249], [30.75015554614447, 37.097701374722014], [30.74961655697402, 37.097701374722014], [30.74961655697402, 37.0960844072106], [30.75069453531495, 37.0960844072106], [30.75069453531495, 37.09500642886965], [30.75177251365588, 37.09500642886965], [30.75177251365588, 37.09446743969918], [30.75285049199684, 37.09446743969918], [30.75285049199684, 37.09392845052871]]]}, "id": "+391015+87025", "properties": {"area_ha": 10.314090638259474, "count": 36, "label": 1, "mean_dnbr": 0.5187281622642355}}, {"type": "Feature", "geometry": {"geodesic": false, "type": "Polygon", "coordinates": [[[30.809983344066836, 37.178010761122295], [30.811061322407795, 37.178010761122295], [30.811061322407795, 37.17908873946324], [30.809444354896357, 37.17908873946324], [30.809444354896357, 37.17962772863371], [30.807827387384947, 37.17962772863371], [30.807827387384947, 37.17854975029277], [30.808366376555426, 37.17854975029277], [30.808366376555426, 37.178010761122295], [30.809444354896357, 37.178010761122295], [30.809444354896357, 37.17854975029277], [30.809983344066836, 37.17854975029277], [30.809983344066836, 37.178010761122295]]]}, "id": "+391122+86869", "properties": {"area_ha": 3.720479840049776, "count": 13, "label": 1, "mean_dnbr": 0.3196517530385241}}, {"type": "Feature", "geometry": {"geodesic": false, "type": "Polygon", "coordinates": [[[30.810522333237316, 37.16723097771286], [30.813217279089656, 37.16723097771286], [30.813217279089656, 37.16830895605381], [30.813756268260136, 37.16830895605381], [30.813756268260136, 37.16884794522428], [30.812139300748726, 37.16884794522428], [30.812139300748726, 37.16830895605381], [30.811600311578246, 37.16830895605381], [30.811600311578246, 37.16884794522428], [30.810522333237316, 37.16884794522428], [30.810522333237316, 37.16723097771286]]]}, "id": "+391126+86889", "properties": {"area_ha": 4.2934572962800015, "count": 15, "label": 1, "mean_dnbr": 0.4263969514995207}}, {"type": "Feature", "geometry": {"geodesic": false, "type": "Polygon", "coordinates": [[[30.8390887592723, 36.973733865513516], [30.83962774844278, 36.973733865513516], [30.83962774844278, 36.97750678970682], [30.8390887592723, 36.97750678970682], [30.8390887592723, 36.97912375721823], [30.83801078093137, 36.97912375721823], [30.83801078093137, 36.97858476804776], [30.83747179176089, 36.97858476804776], [30.83747179176089, 36.97804577887729], [30.83639381341996, 36.97804577887729], [30.83639381341996, 36.97750678970682], [30.83747179176089, 36.97750678970682], [30.83747179176089, 36.97642881136588], [30.83585482424948, 36.97642881136588], [30.83585482424948, 36.97696780053635], [30.835315835079, 36.97696780053635], [30.835315835079, 36.975889822195406], [30.83477684590855, 36.975889822195406], [30.83477684590855, 36.97535083302493], [30.83585482424948, 36.97535083302493], [30.83585482424948, 36.975889822195406], [30.83639381341996, 36.975889822195406], [30.83639381341996, 36.97535083302493], [30.83693280259041, 36.97535083302493], [30.83693280259041, 36.975889822195406], [30.83747179176089, 36.975889822195406], [30.83747179176089, 36.97642881136588], [30.83801078093137, 36.97642881136588], [30.83801078093137, 36.975889822195406], [30.83854977010185, 36.975889822195406], [30.83854977010185, 36.97481184385446], [30.8390887592723, 36.97481184385446], [30.8390887592723, 36.973733865513516]]]}, "id": "+391175+87248", "properties": {"area_ha": 10.043403313729609, "count": 35, "label": 1, "mean_dnbr": 0.2351422205523517}}, {"type": "Feature", "geometry": {"geodesic": false, "type": "Polygon", "coordinates": [[[30.8811299145691, 36.95217429869465], [30.88328587125099, 36.95217429869465], [30.88328587125099, 36.95433025537653], [30.88059092539862, 36.95433025537653], [30.88059092539862, 36.954869244547005], [30.87951294705769, 36.954869244547005], [30.87951294705769, 36.95433025537653], [30.87789597954628, 36.95433025537653], [30.87789597954628, 36.953252277035595], [30.8773569903758, 36.953252277035595], [30.8773569903758, 36.95217429869465], [30.87951294705769, 36.95217429869465], [30.87951294705769, 36.95271328786512], [30.88059092539862, 36.95271328786512], [30.88059092539862, 36.953252277035595], [30.8811299145691, 36.953252277035595], [30.8811299145691, 36.95217429869465]]]}, "id": "+391256+87288", "properties": {"area_ha": 11.481691751500149, "count": 40, "label": 1, "mean_dnbr": 0.2527496795464}}, {"type": "Feature", "geometry": {"geodesic": false, "type": "Polygon", "coordinates": [[[30.92155410235449, 36.96295408210408], [30.92478803737731, 36.96295408210408], [30.92478803737731, 36.96403206044503], [30.92155410235449, 36.96403206044503], [30.92155410235449, 36.96295408210408]]]}, "id": "+391333+87268", "properties": {"area_ha": 3.444048423873762, "count": 12, "label": 1, "mean_dnbr": 0.27874384496877924}}, {"type": "Feature", "geometry": {"geodesic": false, "type": "Polygon", "coordinates": [[[30.92640500488872, 36.98235769224107], [30.92856096157061, 36.98235769224107], [30.92856096157061, 36.98343567058201], [30.92802197240013, 36.98343567058201], [30.92802197240013, 36.98397465975248], [30.9269439940592, 36.98397465975248], [30.9269439940592, 36.98505263809342], [30.92532702654779, 36.98505263809342], [30.92532702654779, 36.98451364892295], [30.92586601571827, 36.98451364892295], [30.92586601571827, 36.98289668141154], [30.92640500488872, 36.98289668141154], [30.92640500488872, 36.98235769224107]]]}, "id": "+391340+87232", "properties": {"area_ha": 5.164707760604582, "count": 18, "label": 1, "mean_dnbr": 0.394619441495683}}, {"type": "Feature", "geometry": {"geodesic": false, "type": "Polygon", "coordinates": [[[30.947964571707587, 37.1111761039838], [30.949042550048546, 37.1111761039838], [30.949042550048546, 37.111715093154274], [30.948503560878066, 37.111715093154274], [30.948503560878066, 37.112254082324746], [30.946347604196177, 37.112254082324746], [30.946347604196177, 37.11279307149522], [30.946886593366656, 37.11279307149522], [30.946886593366656, 37.11333206066569], [30.947964571707587, 37.11333206066569], [30.947964571707587, 37.11387104983616], [30.947425582537136, 37.11387104983616], [30.947425582537136, 37.114410039006636], [30.946886593366656, 37.114410039006636], [30.946886593366656, 37.11387104983616], [30.946347604196177, 37.11387104983616], [30.946347604196177, 37.114410039006636], [30.945808615025697, 37.114410039006636], [30.945808615025697, 37.11494902817711], [30.945269625855246, 37.11494902817711], [30.945269625855246, 37.114410039006636], [30.943652658343836, 37.114410039006636], [30.943652658343836, 37.11494902817711], [30.943113669173357, 37.11494902817711], [30.943113669173357, 37.11548801734758], [30.943652658343836, 37.11548801734758], [30.943652658343836, 37.11656599568852], [30.945808615025697, 37.11656599568852], [30.945808615025697, 37.11602700651805], [30.945269625855246, 37.11602700651805], [30.945269625855246, 37.11548801734758], [30.946347604196177, 37.11548801734758], [30.946347604196177, 37.11494902817711], [30.947425582537136, 37.11494902817711], [30.947425582537136, 37.11548801734758], [30.948503560878066, 37.11548801734758], [30.948503560878066, 37.11602700651805], [30.947964571707587, 37.11602700651805], [30.947964571707587, 37.11656599568852], [30.946886593366656, 37.11656599568852], [30.946886593366656, 37.11764397402946], [30.943652658343836, 37.11764397402946], [30.943652658343836, 37.11656599568852], [30.942035690832398, 37.11656599568852], [30.942035690832398, 37.11602700651805], [30.941496701661947, 37.11602700651805], [30.941496701661947, 37.11548801734758], [30.942574680002878, 37.11548801734758], [30.942574680002878, 37.11494902817711], [30.943113669173357, 37.11494902817711], [30.943113669173357, 37.114410039006636], [30.943652658343836, 37.114410039006636], [30.943652658343836, 37.11333206066569], [30.944730636684767, 37.11333206066569], [30.944730636684767, 37.112254082324746], [30.945269625855246, 37.112254082324746], [30.945269625855246, 37.11279307149522], [30.945808615025697, 37.11279307149522], [30.945808615025697, 37.1111761039838], [30.946886593366656, 37.1111761039838], [30.946886593366656, 37.111715093154274], [30.947964571707587, 37.111715093154274], [30.947964571707587, 37.1111761039838]], [[30.947425582537136, 37.11548801734758], [30.947425582537136, 37.11602700651805], [30.946347604196177, 37.11602700651805], [30.946347604196177, 37.11548801734758], [30.947425582537136, 37.11548801734758]], [[30.945269625855246, 37.11333206066569], [30.945269625855246, 37.11387104983616], [30.944730636684767, 37.11387104983616], [30.944730636684767, 37.11333206066569], [30.945269625855246, 37.11333206066569]]]}, "id": "+391378+86993", "properties": {"area_ha": 17.185999263497184, "count": 60, "label": 1, "mean_dnbr": 0.24672666939380694}}, {"type": "Feature", "geometry": {"geodesic": false, "type": "Polygon", "coordinates": [[[30.960361322628444, 37.11764397402946], [30.960900311798923, 37.11764397402946], [30.960900311798923, 37.11872195237041], [30.961439300969403, 37.11872195237041], [30.961439300969403, 37.11926094154088], [30.960361322628444, 37.11926094154088], [30.960361322628444, 37.11979993071135], [30.959822333457964, 37.11979993071135], [30.959822333457964, 37.11926094154088], [30.959283344287513, 37.11926094154088], [30.959283344287513, 37.12141689822277], [30.956588398435144, 37.12141689822277], [30.956588398435144, 37.120338919881824], [30.957127387605624, 37.120338919881824], [30.957127387605624, 37.1208779090523], [30.957666376776075, 37.1208779090523], [30.957666376776075, 37.11926094154088], [30.958205365946554, 37.11926094154088], [30.958205365946554, 37.11872195237041], [30.958744355117034, 37.11872195237041], [30.958744355117034, 37.11764397402946], [30.959283344287513, 37.11764397402946], [30.959283344287513, 37.118182963199935], [30.960361322628444, 37.118182963199935], [30.960361322628444, 37.11764397402946]]]}, "id": "+391400+86981", "properties": {"area_ha": 8.019614052553937, "count": 28, "label": 1, "mean_dnbr": 0.19640038289428843}}, {"type": "Feature", "geometry": {"geodesic": false, "type": "Polygon", "coordinates": [[[30.961978290139854, 37.11279307149522], [30.963056268480813, 37.11279307149522], [30.963056268480813, 37.11333206066569], [30.962517279310333, 37.11333206066569], [30.962517279310333, 37.11387104983616], [30.963595257651264, 37.11387104983616], [30.963595257651264, 37.114410039006636], [30.962517279310333, 37.114410039006636], [30.962517279310333, 37.11387104983616], [30.959822333457964, 37.11387104983616], [30.959822333457964, 37.11333206066569], [30.958744355117034, 37.11333206066569], [30.958744355117034, 37.11279307149522], [30.961439300969403, 37.11279307149522], [30.961439300969403, 37.11333206066569], [30.961978290139854, 37.11333206066569], [30.961978290139854, 37.11279307149522]]]}, "id": "+391404+86990", "properties": {"area_ha": 4.0101308651270555, "count": 14, "label": 1, "mean_dnbr": 0.4281480701617332}}, {"type": "Feature", "geometry": {"geodesic": false, "type": "Polygon", "coordinates": [[[31.002402477925244, 37.14351545421211], [31.002941467095724, 37.14351545421211], [31.002941467095724, 37.14405444338258], [31.004558434607134, 37.14405444338258], [31.004558434607134, 37.14459343255305], [31.001324499584285, 37.14459343255305], [31.001324499584285, 37.145132421723524], [30.999168542902396, 37.145132421723524], [30.999168542902396, 37.14459343255305], [31.000785510413834, 37.14459343255305], [31.000785510413834, 37.14405444338258], [31.002402477925244, 37.14405444338258], [31.002402477925244, 37.14351545421211]]]}, "id": "+391478+86933", "properties": {"area_ha": 3.4358664707136226, "count": 12, "label": 1, "mean_dnbr": 0.3746479723206978}}, {"type": "Feature", "geometry": {"geodesic": false, "type": "Polygon", "coordinates": [[[31.006175402118544, 36.97696780053635], [31.007792369629954, 36.97696780053635], [31.007792369629954, 36.97750678970682], [31.007253380459474, 36.97750678970682], [31.007253380459474, 36.97912375721823], [31.006175402118544, 36.97912375721823], [31.006175402118544, 36.97858476804776], [31.005636412948064, 36.97858476804776], [31.005636412948064, 36.97750678970682], [31.006175402118544, 36.97750678970682], [31.006175402118544, 36.97696780053635]]]}, "id": "+391487+87242", "properties": {"area_ha": 3.156441940912367, "count": 11, "label": 1, "mean_dnbr": 0.21623198235731186}}, {"type": "Feature", "geometry": {"geodesic": false, "type": "Polygon", "coordinates": [[[31.02450103391459, 37.02655480421974], [31.02557901225552, 37.02655480421974], [31.02557901225552, 37.029249750072104], [31.02504002308504, 37.029249750072104], [31.02504002308504, 37.029788739242576], [31.02450103391459, 37.029788739242576], [31.02450103391459, 37.02655480421974]]]}, "id": "+391520+87150", "properties": {"area_ha": 3.1543648213140907, "count": 11, "label": 1, "mean_dnbr": 0.34274647031868555}}, {"type": "Feature", "geometry": {"geodesic": false, "type": "Polygon", "coordinates": [[[31.032046882301188, 36.94947935284229], [31.032585871471667, 36.94947935284229], [31.032585871471667, 36.95001834201276], [31.035819806494487, 36.95001834201276], [31.035819806494487, 36.951096320353706], [31.03150789313071, 36.951096320353706], [31.03150789313071, 36.950557331183234], [31.032585871471667, 36.950557331183234], [31.032585871471667, 36.95001834201276], [31.032046882301188, 36.95001834201276], [31.032046882301188, 36.94947935284229]]]}, "id": "+391533+87293", "properties": {"area_ha": 4.305824022138263, "count": 15, "label": 1, "mean_dnbr": 0.21808120391437907}}, {"type": "Feature", "geometry": {"geodesic": false, "type": "Polygon", "coordinates": [[[31.040131719858266, 36.97696780053635], [31.040670709028745, 36.97696780053635], [31.040670709028745, 36.97750678970682], [31.041209698199197, 36.97750678970682], [31.041209698199197, 36.979662746388705], [31.039053741517307, 36.979662746388705], [31.039053741517307, 36.97858476804776], [31.039592730687787, 36.97858476804776], [31.039592730687787, 36.97750678970682], [31.040131719858266, 36.97750678970682], [31.040131719858266, 36.97696780053635]]]}, "id": "+391548+87242", "properties": {"area_ha": 4.304214520208203, "count": 15, "label": 1, "mean_dnbr": 0.29186916550650466}}, {"type": "Feature", "geometry": {"geodesic": false, "type": "Polygon", "coordinates": [[[31.042826665710606, 37.17908873946324], [31.044443633222045, 37.17908873946324], [31.044443633222045, 37.17962772863371], [31.045521611562975, 37.17962772863371], [31.045521611562975, 37.180705706974656], [31.044443633222045, 37.180705706974656], [31.044443633222045, 37.180166717804184], [31.041748687369676, 37.180166717804184], [31.041748687369676, 37.17962772863371], [31.042826665710606, 37.17962772863371], [31.042826665710606, 37.17908873946324]]]}, "id": "+391555+86867", "properties": {"area_ha": 3.4342463652149506, "count": 12, "label": 1, "mean_dnbr": 0.29965929225713966}}, {"type": "Feature", "geometry": {"geodesic": false, "type": "Polygon", "coordinates": [[[31.12205807376995, 37.199031338770695], [31.123675041281388, 37.199031338770695], [31.123675041281388, 37.19957032794117], [31.124753019622318, 37.19957032794117], [31.124753019622318, 37.20010931711164], [31.125292008792798, 37.20010931711164], [31.125292008792798, 37.19957032794117], [31.126369987133728, 37.19957032794117], [31.126369987133728, 37.20010931711164], [31.12583099796325, 37.20010931711164], [31.12583099796325, 37.20064830628211], [31.12421403045184, 37.20064830628211], [31.12421403045184, 37.20010931711164], [31.123136052110908, 37.20010931711164], [31.123136052110908, 37.19957032794117], [31.12205807376995, 37.19957032794117], [31.12205807376995, 37.20010931711164], [31.1215190845995, 37.20010931711164], [31.1215190845995, 37.19957032794117], [31.12205807376995, 37.19957032794117], [31.12205807376995, 37.199031338770695]]]}, "id": "+391702+86830", "properties": {"area_ha": 3.433327746604335, "count": 12, "label": 1, "mean_dnbr": 0.24157034193030236}}, {"type": "Feature", "geometry": {"geodesic": false, "type": "Polygon", "coordinates": [[[31.360830276288937, 37.10470823393814], [31.361369265459388, 37.10470823393814], [31.361369265459388, 37.10524722310861], [31.360830276288937, 37.10524722310861], [31.360830276288937, 37.105786212279085], [31.359213308777527, 37.105786212279085], [31.359213308777527, 37.10632520144956], [31.358674319607047, 37.10632520144956], [31.358674319607047, 37.10686419062003], [31.356518362925158, 37.10686419062003], [31.356518362925158, 37.1074031797905], [31.354901395413748, 37.1074031797905], [31.354901395413748, 37.107942168960975], [31.35274543873186, 37.107942168960975], [31.35274543873186, 37.1074031797905], [31.353284427902338, 37.1074031797905], [31.353284427902338, 37.10686419062003], [31.35382341707279, 37.10686419062003], [31.35382341707279, 37.1074031797905], [31.354901395413748, 37.1074031797905], [31.354901395413748, 37.10686419062003], [31.3554403845842, 37.10686419062003], [31.3554403845842, 37.10632520144956], [31.358135330436568, 37.10632520144956], [31.358135330436568, 37.105786212279085], [31.358674319607047, 37.105786212279085], [31.358674319607047, 37.10524722310861], [31.360830276288937, 37.10524722310861], [31.360830276288937, 37.10470823393814]]]}, "id": "+392143+87005", "properties": {"area_ha": 6.0157376686895265, "count": 21, "label": 1, "mean_dnbr": 0.23431333628572276}}, {"type": "Feature", "geometry": {"geodesic": false, "type": "Polygon", "coordinates": [[[31.49126565554309, 37.0464974035272], [31.491804644713568, 37.0464974035272], [31.491804644713568, 37.04919234937956], [31.49234363388402, 37.04919234937956], [31.49234363388402, 37.04973133855003], [31.4891096988612, 37.04973133855003], [31.4891096988612, 37.04919234937956], [31.48964868803168, 37.04919234937956], [31.48964868803168, 37.04865336020909], [31.49018767720213, 37.04865336020909], [31.49018767720213, 37.04757538186814], [31.48964868803168, 37.04757538186814], [31.48964868803168, 37.04703639269767], [31.49126565554309, 37.04703639269767], [31.49126565554309, 37.0464974035272]]]}, "id": "+392385+87113", "properties": {"area_ha": 6.020373932254363, "count": 21, "label": 1, "mean_dnbr": 0.22443635313536894}}, {"type": "Feature", "geometry": {"geodesic": false, "type": "Polygon", "coordinates": [[[31.691769626958575, 37.649626285285045], [31.692847605299505, 37.649626285285045], [31.692847605299505, 37.65070426362599], [31.692308616129026, 37.65070426362599], [31.692308616129026, 37.65232123113741], [31.691769626958575, 37.65232123113741], [31.691769626958575, 37.65286022030788], [31.691230637788095, 37.65286022030788], [31.691230637788095, 37.65070426362599], [31.691769626958575, 37.65070426362599], [31.691769626958575, 37.649626285285045]]]}, "id": "+392758+85994", "properties": {"area_ha": 3.128303606069184, "count": 11, "label": 1, "mean_dnbr": 0.17370418120028966}}, {"type": "Feature", "geometry": {"geodesic": false, "type": "Polygon", "coordinates": [[[31.828133887087915, 37.790302458778164], [31.829211865428846, 37.790302458778164], [31.829211865428846, 37.79084144794864], [31.830828832940256, 37.79084144794864], [31.830828832940256, 37.79138043711911], [31.831367822110735, 37.79138043711911], [31.831367822110735, 37.791919426289574], [31.832445800451666, 37.791919426289574], [31.832445800451666, 37.79245841546005], [31.833523778792625, 37.79245841546005], [31.833523778792625, 37.79299740463052], [31.835140746304035, 37.79299740463052], [31.835140746304035, 37.79353639380099], [31.836757713815445, 37.79353639380099], [31.836757713815445, 37.794075382971464], [31.836218724644993, 37.794075382971464], [31.836218724644993, 37.794614372141936], [31.835140746304035, 37.794614372141936], [31.835140746304035, 37.794075382971464], [31.834601757133555, 37.794075382971464], [31.834601757133555, 37.79353639380099], [31.833523778792625, 37.79353639380099], [31.833523778792625, 37.794075382971464], [31.830828832940256, 37.794075382971464], [31.830828832940256, 37.79353639380099], [31.830289843769805, 37.79353639380099], [31.830289843769805, 37.79299740463052], [31.829750854599325, 37.79299740463052], [31.829750854599325, 37.79245841546005], [31.829211865428846, 37.79245841546005], [31.829211865428846, 37.79299740463052], [31.828672876258366, 37.79299740463052], [31.828672876258366, 37.791919426289574], [31.828133887087915, 37.791919426289574], [31.828133887087915, 37.790302458778164]], [[31.832984789622145, 37.79299740463052], [31.832984789622145, 37.79353639380099], [31.832445800451666, 37.79353639380099], [31.832445800451666, 37.79299740463052], [31.832984789622145, 37.79299740463052]], [[31.832445800451666, 37.79245841546005], [31.832445800451666, 37.79299740463052], [31.831906811281215, 37.79299740463052], [31.831906811281215, 37.79245841546005], [31.832445800451666, 37.79245841546005]]]}, "id": "+393011+85733", "properties": {"area_ha": 13.057039689724023, "count": 46, "label": 1, "mean_dnbr": 0.3382856880208509}}, {"type": "Feature", "geometry": {"geodesic": false, "type": "Polygon", "coordinates": [[[31.838374681326854, 37.80593314472184], [31.839991648838293, 37.80593314472184], [31.839991648838293, 37.80755011223326], [31.839452659667813, 37.80755011223326], [31.839452659667813, 37.809167079744675], [31.838913670497334, 37.809167079744675], [31.838913670497334, 37.80808910140373], [31.838374681326854, 37.80808910140373], [31.838374681326854, 37.8086280905742], [31.837296702985924, 37.8086280905742], [31.837296702985924, 37.80808910140373], [31.837835692156403, 37.80808910140373], [31.837835692156403, 37.80755011223326], [31.836218724644993, 37.80755011223326], [31.836218724644993, 37.80647213389231], [31.838374681326854, 37.80647213389231], [31.838374681326854, 37.80593314472184]], [[31.838374681326854, 37.807011123062786], [31.838374681326854, 37.80755011223326], [31.837835692156403, 37.80755011223326], [31.837835692156403, 37.807011123062786], [31.838374681326854, 37.807011123062786]]]}, "id": "+393031+85704", "properties": {"area_ha": 6.527217382299711, "count": 23, "label": 1, "mean_dnbr": 0.3420852439028925}}, {"type": "Feature", "geometry": {"geodesic": false, "type": "Polygon", "coordinates": [[[31.845381540543002, 37.809167079744675], [31.84807648639537, 37.809167079744675], [31.84807648639537, 37.810784047256085], [31.846998508054412, 37.810784047256085], [31.846998508054412, 37.81024505808561], [31.845381540543002, 37.81024505808561], [31.845381540543002, 37.809167079744675]]]}, "id": "+393046+85698", "properties": {"area_ha": 3.405378908565909, "count": 12, "label": 1, "mean_dnbr": 0.3295291795399272}}, {"type": "Feature", "geometry": {"geodesic": false, "type": "Polygon", "coordinates": [[[31.85184941058867, 37.81455697144939], [31.85346637810008, 37.81455697144939], [31.85346637810008, 37.815095960619864], [31.85400536727056, 37.815095960619864], [31.85400536727056, 37.815634949790336], [31.85508334561149, 37.815634949790336], [31.85508334561149, 37.8161739389608], [31.85562233478197, 37.8161739389608], [31.85562233478197, 37.816712928131274], [31.85454435644101, 37.816712928131274], [31.85454435644101, 37.8161739389608], [31.85346637810008, 37.8161739389608], [31.85346637810008, 37.815634949790336], [31.85184941058867, 37.815634949790336], [31.85184941058867, 37.81455697144939]]]}, "id": "+393056+85688", "properties": {"area_ha": 3.4051261583468566, "count": 12, "label": 1, "mean_dnbr": 0.3048270583256984}}, {"type": "Feature", "geometry": {"geodesic": false, "type": "Polygon", "coordinates": [[[31.85400536727056, 37.809167079744675], [31.85616132395242, 37.809167079744675], [31.85616132395242, 37.80970606891515], [31.8567003131229, 37.80970606891515], [31.8567003131229, 37.81024505808561], [31.85238839975912, 37.81024505808561], [31.85238839975912, 37.809167079744675], [31.8529273889296, 37.809167079744675], [31.8529273889296, 37.80970606891515], [31.85400536727056, 37.80970606891515], [31.85400536727056, 37.809167079744675]]]}, "id": "+393061+85698", "properties": {"area_ha": 3.689221807966256, "count": 13, "label": 1, "mean_dnbr": 0.3244412527544537}}, {"type": "Feature", "geometry": {"geodesic": false, "type": "Polygon", "coordinates": [[[31.870175042384687, 37.835577549097785], [31.871253020725646, 37.835577549097785], [31.871253020725646, 37.83611653826826], [31.870714031555167, 37.83611653826826], [31.870714031555167, 37.83665552743873], [31.871253020725646, 37.83665552743873], [31.871253020725646, 37.837733505779674], [31.871792009896126, 37.837733505779674], [31.871792009896126, 37.83881148412062], [31.871253020725646, 37.83881148412062], [31.871253020725646, 37.83935047329109], [31.870175042384687, 37.83935047329109], [31.870175042384687, 37.839889462461564], [31.869636053214236, 37.839889462461564], [31.869636053214236, 37.83827249495015], [31.870175042384687, 37.83827249495015], [31.870175042384687, 37.835577549097785]]]}, "id": "+393089+85649", "properties": {"area_ha": 5.10614236225604, "count": 18, "label": 1, "mean_dnbr": 0.34620565468360237}}, {"type": "Feature", "geometry": {"geodesic": false, "type": "Polygon", "coordinates": [[[31.891734609203553, 37.41947790949362], [31.892273598374032, 37.41947790949362], [31.892273598374032, 37.420016898664095], [31.892812587544512, 37.420016898664095], [31.892812587544512, 37.42055588783457], [31.893890565885442, 37.42055588783457], [31.893890565885442, 37.42109487700504], [31.89335157671499, 37.42109487700504], [31.89335157671499, 37.42163386617551], [31.892273598374032, 37.42163386617551], [31.892273598374032, 37.422172855345984], [31.891734609203553, 37.422172855345984], [31.891734609203553, 37.42163386617551], [31.891195620033102, 37.42163386617551], [31.891195620033102, 37.42109487700504], [31.890656630862622, 37.42109487700504], [31.890656630862622, 37.42055588783457], [31.891195620033102, 37.42055588783457], [31.891195620033102, 37.420016898664095], [31.891734609203553, 37.420016898664095], [31.891734609203553, 37.41947790949362]]]}, "id": "+393128+86421", "properties": {"area_ha": 4.279061696436607, "count": 15, "label": 1, "mean_dnbr": 0.22859778352925406}}, {"type": "Feature", "geometry": {"geodesic": false, "type": "Polygon", "coordinates": [[[31.922456991920455, 37.533743613633625], [31.923534970261386, 37.533743613633625], [31.923534970261386, 37.5342826028041], [31.924073959431865, 37.5342826028041], [31.924073959431865, 37.53643855948599], [31.922456991920455, 37.53643855948599], [31.922456991920455, 37.535899570315514], [31.921918002749976, 37.535899570315514], [31.921918002749976, 37.53536058114504], [31.920840024409046, 37.53536058114504], [31.920840024409046, 37.5342826028041], [31.922456991920455, 37.5342826028041], [31.922456991920455, 37.533743613633625]]]}, "id": "+393186+86209", "properties": {"area_ha": 5.981536052705384, "count": 21, "label": 1, "mean_dnbr": 0.2811676497319422}}, {"type": "Feature", "geometry": {"geodesic": false, "type": "Polygon", "coordinates": [[[31.931080818648013, 37.33647357724098], [31.931619807818464, 37.33647357724098], [31.931619807818464, 37.337551555581925], [31.931080818648013, 37.337551555581925], [31.931080818648013, 37.33862953392287], [31.930541829477534, 37.33862953392287], [31.930541829477534, 37.33916852309334], [31.930002840307054, 37.33916852309334], [31.930002840307054, 37.34024650143428], [31.929463851136575, 37.34024650143428], [31.929463851136575, 37.33970751226381], [31.928924861966124, 37.33970751226381], [31.928924861966124, 37.33862953392287], [31.929463851136575, 37.33862953392287], [31.929463851136575, 37.337551555581925], [31.930002840307054, 37.337551555581925], [31.930002840307054, 37.33701256641145], [31.931080818648013, 37.33701256641145], [31.931080818648013, 37.33647357724098]]]}, "id": "+393201+86575", "properties": {"area_ha": 4.569359865031986, "count": 16, "label": 1, "mean_dnbr": 0.22469559907036157}}, {"type": "Feature", "geometry": {"geodesic": false, "type": "Polygon", "coordinates": [[[31.931619807818464, 37.33862953392287], [31.932158796988944, 37.33862953392287], [31.932158796988944, 37.33916852309334], [31.932697786159423, 37.33916852309334], [31.932697786159423, 37.33970751226381], [31.933236775329874, 37.33970751226381], [31.933236775329874, 37.34024650143428], [31.932697786159423, 37.34024650143428], [31.932697786159423, 37.34078549060475], [31.932158796988944, 37.34078549060475], [31.932158796988944, 37.341324479775224], [31.931080818648013, 37.341324479775224], [31.931080818648013, 37.33970751226381], [31.932158796988944, 37.33970751226381], [31.932158796988944, 37.33916852309334], [31.931619807818464, 37.33916852309334], [31.931619807818464, 37.33862953392287]]]}, "id": "+393202+86571", "properties": {"area_ha": 3.141356704073321, "count": 11, "label": 1, "mean_dnbr": 0.2330905451931801}}, {"type": "Feature", "geometry": {"geodesic": false, "type": "Polygon", "coordinates": [[[31.933775764500353, 37.65878910118307], [31.935392732011763, 37.65878910118307], [31.935392732011763, 37.65932809035353], [31.935931721182243, 37.65932809035353], [31.935931721182243, 37.66040606869448], [31.936470710352722, 37.66040606869448], [31.936470710352722, 37.66148404703542], [31.935931721182243, 37.66148404703542], [31.935931721182243, 37.66256202537637], [31.934314753670833, 37.66256202537637], [31.934314753670833, 37.662023036205895], [31.932697786159423, 37.662023036205895], [31.932697786159423, 37.66256202537637], [31.932158796988944, 37.66256202537637], [31.932158796988944, 37.66310101454684], [31.931619807818464, 37.66310101454684], [31.931619807818464, 37.66364000371731], [31.930541829477534, 37.66364000371731], [31.930541829477534, 37.664178992887784], [31.930002840307054, 37.664178992887784], [31.930002840307054, 37.66256202537637], [31.929463851136575, 37.66256202537637], [31.929463851136575, 37.66040606869448], [31.930541829477534, 37.66040606869448], [31.930541829477534, 37.659867079524005], [31.932158796988944, 37.659867079524005], [31.932158796988944, 37.66040606869448], [31.931619807818464, 37.66040606869448], [31.931619807818464, 37.66094505786495], [31.932697786159423, 37.66094505786495], [31.932697786159423, 37.65932809035353], [31.933775764500353, 37.65932809035353], [31.933775764500353, 37.65878910118307]]]}, "id": "+393208+85977", "properties": {"area_ha": 20.189035926475537, "count": 71, "label": 1, "mean_dnbr": 0.25580356504604934}}, {"type": "Feature", "geometry": {"geodesic": false, "type": "Polygon", "coordinates": [[[31.94024363454602, 37.34887032816183], [31.941321612886952, 37.34887032816183], [31.941321612886952, 37.3494093173323], [31.94186060205743, 37.3494093173323], [31.94186060205743, 37.349948306502775], [31.94293858039839, 37.349948306502775], [31.94293858039839, 37.35048729567325], [31.94347756956884, 37.35048729567325], [31.94347756956884, 37.35102628484372], [31.94293858039839, 37.35102628484372], [31.94293858039839, 37.35210426318466], [31.94239959122791, 37.35210426318466], [31.94239959122791, 37.351565274014185], [31.94024363454602, 37.351565274014185], [31.94024363454602, 37.35102628484372], [31.93916565620509, 37.35102628484372], [31.93916565620509, 37.35048729567325], [31.938087677864132, 37.35048729567325], [31.938087677864132, 37.349948306502775], [31.939704645375542, 37.349948306502775], [31.939704645375542, 37.3494093173323], [31.94024363454602, 37.3494093173323], [31.94024363454602, 37.34887032816183]], [[31.94293858039839, 37.35048729567325], [31.94293858039839, 37.35102628484372], [31.94239959122791, 37.35102628484372], [31.94239959122791, 37.35048729567325], [31.94293858039839, 37.35048729567325]], [[31.9407826237165, 37.349948306502775], [31.9407826237165, 37.35102628484372], [31.94024363454602, 37.35102628484372], [31.94024363454602, 37.349948306502775], [31.9407826237165, 37.349948306502775]]]}, "id": "+393219+86552", "properties": {"area_ha": 7.424013073436396, "count": 26, "label": 1, "mean_dnbr": 0.3636060920431457}}, {"type": "Feature", "geometry": {"geodesic": false, "type": "Polygon", "coordinates": [[[31.94186060205743, 37.32569379383155], [31.94239959122791, 37.32569379383155], [31.94239959122791, 37.32623278300202], [31.94347756956884, 37.32623278300202], [31.94347756956884, 37.32677177217249], [31.94401655873932, 37.32677177217249], [31.94401655873932, 37.32784975051343], [31.94293858039839, 37.32784975051343], [31.94293858039839, 37.3283887396839], [31.94347756956884, 37.3283887396839], [31.94347756956884, 37.32946671802485], [31.94239959122791, 37.32946671802485], [31.94239959122791, 37.33000570719532], [31.94186060205743, 37.33000570719532], [31.94186060205743, 37.33054469636579], [31.9407826237165, 37.33054469636579], [31.9407826237165, 37.32946671802485], [31.94186060205743, 37.32946671802485], [31.94186060205743, 37.328927728854374], [31.94239959122791, 37.328927728854374], [31.94239959122791, 37.32677177217249], [31.94186060205743, 37.32677177217249], [31.94186060205743, 37.32569379383155]]]}, "id": "+393221+86595", "properties": {"area_ha": 5.998092333597844, "count": 21, "label": 1, "mean_dnbr": 0.3623627431114511}}, {"type": "Feature", "geometry": {"geodesic": false, "type": "Polygon", "coordinates": [[[31.9483284721031, 37.376358775855884], [31.94886746127358, 37.376358775855884], [31.94886746127358, 37.378514732537774], [31.94617251542121, 37.378514732537774], [31.94617251542121, 37.3779757433673], [31.94671150459169, 37.3779757433673], [31.94671150459169, 37.37743675419683], [31.94778948293262, 37.37743675419683], [31.94778948293262, 37.37689776502636], [31.9483284721031, 37.37689776502636], [31.9483284721031, 37.376358775855884]]]}, "id": "+393233+86501", "properties": {"area_ha": 3.4252314520243052, "count": 12, "label": 1, "mean_dnbr": 0.4687235784062205}}, {"type": "Feature", "geometry": {"geodesic": false, "type": "Polygon", "coordinates": [[[31.9521013962964, 37.325154804661075], [31.95371836380781, 37.325154804661075], [31.95371836380781, 37.32569379383155], [31.95425735297829, 37.32569379383155], [31.95425735297829, 37.327310761342964], [31.9558743204897, 37.327310761342964], [31.9558743204897, 37.32784975051343], [31.956413309660178, 37.32784975051343], [31.956413309660178, 37.3283887396839], [31.95533533131922, 37.3283887396839], [31.95533533131922, 37.32784975051343], [31.95425735297829, 37.32784975051343], [31.95425735297829, 37.327310761342964], [31.95317937463733, 37.327310761342964], [31.95317937463733, 37.32784975051343], [31.95264038546688, 37.32784975051343], [31.95264038546688, 37.327310761342964], [31.95156240712592, 37.327310761342964], [31.95156240712592, 37.32677177217249], [31.95102341795547, 37.32677177217249], [31.95102341795547, 37.32623278300202], [31.95156240712592, 37.32623278300202], [31.95156240712592, 37.32569379383155], [31.9521013962964, 37.32569379383155], [31.9521013962964, 37.325154804661075]]]}, "id": "+393242+86596", "properties": {"area_ha": 7.140727451013186, "count": 25, "label": 1, "mean_dnbr": 0.38998195753123144}}, {"type": "Feature", "geometry": {"geodesic": false, "type": "Polygon", "coordinates": [[[31.95425735297829, 37.91750390300949], [31.958030277171588, 37.91750390300949], [31.958030277171588, 37.91858188135043], [31.956952298830657, 37.91858188135043], [31.956952298830657, 37.9191208705209], [31.954796342148768, 37.9191208705209], [31.954796342148768, 37.91804289217996], [31.95425735297829, 37.91804289217996], [31.95425735297829, 37.91750390300949]]]}, "id": "+393250+85497", "properties": {"area_ha": 4.817182010708093, "count": 17, "label": 1, "mean_dnbr": 0.2111295981958209}}, {"type": "Feature", "geometry": {"geodesic": false, "type": "Polygon", "coordinates": [[[31.971505006433375, 37.31114108622881], [31.972043995603855, 37.31114108622881], [31.972043995603855, 37.31168007539928], [31.972582984774334, 37.31168007539928], [31.972582984774334, 37.312758053740225], [31.971505006433375, 37.312758053740225], [31.971505006433375, 37.31383603208117], [31.970427028092445, 37.31383603208117], [31.970427028092445, 37.3132970429107], [31.969888038921965, 37.3132970429107], [31.969888038921965, 37.312758053740225], [31.968810060581035, 37.312758053740225], [31.968810060581035, 37.31221906456975], [31.969349049751486, 37.31221906456975], [31.969349049751486, 37.31168007539928], [31.969888038921965, 37.31168007539928], [31.969888038921965, 37.31114108622881], [31.970966017262896, 37.31114108622881], [31.970966017262896, 37.31168007539928], [31.971505006433375, 37.31168007539928], [31.971505006433375, 37.31114108622881]]]}, "id": "+393276+86622", "properties": {"area_ha": 5.999357049340602, "count": 21, "label": 1, "mean_dnbr": 0.3048816181412309}}, {"type": "Feature", "geometry": {"geodesic": false, "type": "Polygon", "coordinates": [[[31.972043995603855, 37.35048729567325], [31.973121973944785, 37.35048729567325], [31.973121973944785, 37.35102628484372], [31.973660963115265, 37.35102628484372], [31.973660963115265, 37.35210426318466], [31.972582984774334, 37.35210426318466], [31.972582984774334, 37.35533819820749], [31.972043995603855, 37.35533819820749], [31.972043995603855, 37.35048729567325]]]}, "id": "+393278+86549", "properties": {"area_ha": 3.9974407476475244, "count": 14, "label": 1, "mean_dnbr": 0.2090365810369796}}, {"type": "Feature", "geometry": {"geodesic": false, "type": "Polygon", "coordinates": [[[31.972582984774334, 37.382826645901545], [31.973660963115265, 37.382826645901545], [31.973660963115265, 37.384982602583435], [31.973121973944785, 37.384982602583435], [31.973121973944785, 37.38552159175391], [31.972043995603855, 37.38552159175391], [31.972043995603855, 37.38336563507202], [31.972582984774334, 37.38336563507202], [31.972582984774334, 37.382826645901545]]]}, "id": "+393279+86489", "properties": {"area_ha": 3.7103362742118704, "count": 13, "label": 1, "mean_dnbr": 0.2529785651909742}}, {"type": "Feature", "geometry": {"geodesic": false, "type": "Polygon", "coordinates": [[[31.978511865649523, 37.36504000327598], [31.979589843990453, 37.36504000327598], [31.979589843990453, 37.366656970787396], [31.979050854819974, 37.366656970787396], [31.979050854819974, 37.36827393829881], [31.977972876479043, 37.36827393829881], [31.977972876479043, 37.366117981616924], [31.978511865649523, 37.366117981616924], [31.978511865649523, 37.36504000327598]]]}, "id": "+393290+86522", "properties": {"area_ha": 3.7112039195975077, "count": 13, "label": 1, "mean_dnbr": 0.2198493617894796}}]}