{"type": "FeatureCollection", "columns": {"area_ha": "Number", "count": "Long<0, 4294967295>", "label": "Byte<0, 1>", "mean_dnbr": "Object", "system:index": "String"}, "features": [{"type": "Feature", "geometry": {"geodesic": false, "type": "Polygon", "coordinates": [[[30.88759778461477, 36.87078693395342], [30.89083171963759, 36.87078693395342], [30.89083171963759, 36.87186491229436], [30.88759778461477, 36.87186491229436], [30.88759778461477, 36.87078693395342]]]}, "id": "+391270+87439", "properties": {"area_ha": 3.4482132486692523, "count": 12, "label": 1, "mean_dnbr": 0.16732860561882895}}, {"type": "Feature", "geometry": {"geodesic": false, "type": "Polygon", "coordinates": [[[31.236862767080424, 36.83898657289559], [31.238479734591863, 36.83898657289559], [31.238479734591863, 36.840603540407], [31.239018723762314, 36.840603540407], [31.239018723762314, 36.84168151874795], [31.238479734591863, 36.84168151874795], [31.238479734591863, 36.841142529577475], [31.237940745421383, 36.841142529577475], [31.237940745421383, 36.84168151874795], [31.236862767080424, 36.84168151874795], [31.236862767080424, 36.841142529577475], [31.237401756250904, 36.841142529577475], [31.237401756250904, 36.84006455123653], [31.236862767080424, 36.84006455123653], [31.236862767080424, 36.83898657289559]]]}, "id": "+391915+87498", "properties": {"area_ha": 4.0245450334783905, "count": 14, "label": 1, "mean_dnbr": 0.18960316191076446}}, {"type": "Feature", "geometry": {"geodesic": false, "type": "Polygon", "coordinates": [[[31.454614391950997, 36.766762024052376], [31.455153381121477, 36.766762024052376], [31.455153381121477, 36.76784000239332], [31.455692370291956, 36.76784000239332], [31.455692370291956, 36.768917980734265], [31.455153381121477, 36.768917980734265], [31.455153381121477, 36.76784000239332], [31.454075402780546, 36.76784000239332], [31.454075402780546, 36.76837899156379], [31.453536413610067, 36.76837899156379], [31.453536413610067, 36.768917980734265], [31.454614391950997, 36.768917980734265], [31.454614391950997, 36.76999595907521], [31.454075402780546, 36.76999595907521], [31.454075402780546, 36.77161292658663], [31.452997424439587, 36.77161292658663], [31.452997424439587, 36.7721519157571], [31.452458435269108, 36.7721519157571], [31.452458435269108, 36.77269090492757], [31.454075402780546, 36.77269090492757], [31.454075402780546, 36.77322989409804], [31.452997424439587, 36.77322989409804], [31.452997424439587, 36.77376888326851], [31.453536413610067, 36.77376888326851], [31.453536413610067, 36.77430787243898], [31.452458435269108, 36.77430787243898], [31.452458435269108, 36.774846861609454], [31.450302478587247, 36.774846861609454], [31.450302478587247, 36.77376888326851], [31.450841467757698, 36.77376888326851], [31.450841467757698, 36.77322989409804], [31.451380456928177, 36.77322989409804], [31.451380456928177, 36.7721519157571], [31.450302478587247, 36.7721519157571], [31.450302478587247, 36.77161292658663], [31.450841467757698, 36.77161292658663], [31.450841467757698, 36.77053494824568], [31.451380456928177, 36.77053494824568], [31.451380456928177, 36.771073937416155], [31.452458435269108, 36.771073937416155], [31.452458435269108, 36.77053494824568], [31.452997424439587, 36.77053494824568], [31.452997424439587, 36.76945696990474], [31.453536413610067, 36.76945696990474], [31.453536413610067, 36.768917980734265], [31.452997424439587, 36.768917980734265], [31.452997424439587, 36.76837899156379], [31.453536413610067, 36.76837899156379], [31.453536413610067, 36.76730101322285], [31.454614391950997, 36.76730101322285], [31.454614391950997, 36.766762024052376]], [[31.452997424439587, 36.771073937416155], [31.452997424439587, 36.77161292658663], [31.452458435269108, 36.77161292658663], [31.452458435269108, 36.771073937416155], [31.452997424439587, 36.771073937416155]]]}, "id": "+392317+87632", "properties": {"area_ha": 14.386306859263854, "count": 50, "label": 1, "mean_dnbr": 0.31371140590354857}}, {"type": "Feature", "geometry": {"geodesic": false, "type": "Polygon", "coordinates": [[[31.455692370291956, 36.77053494824568], [31.456231359462436, 36.77053494824568], [31.456231359462436, 36.771073937416155], [31.456770348632887, 36.771073937416155], [31.456770348632887, 36.77161292658663], [31.457309337803366, 36.77161292658663], [31.457309337803366, 36.77269090492757], [31.456231359462436, 36.77269090492757], [31.456231359462436, 36.77322989409804], [31.454614391950997, 36.77322989409804], [31.454614391950997, 36.7721519157571], [31.455153381121477, 36.7721519157571], [31.455153381121477, 36.771073937416155], [31.454614391950997, 36.771073937416155], [31.454614391950997, 36.77053494824568], [31.455153381121477, 36.77053494824568], [31.455153381121477, 36.771073937416155], [31.455692370291956, 36.771073937416155], [31.455692370291956, 36.77053494824568]]]}, "id": "+392319+87625", "properties": {"area_ha": 4.891315716167684, "count": 17, "label": 1, "mean_dnbr": 0.31567336545817914}}, {"type": "Feature", "geometry": {"geodesic": false, "type": "Polygon", "coordinates": [[[31.457848326973846, 36.764606067370494], [31.458387316144297, 36.764606067370494], [31.458387316144297, 36.765145056540966], [31.458926305314776, 36.765145056540966], [31.458926305314776, 36.76568404571144], [31.458387316144297, 36.76568404571144], [31.458387316144297, 36.76622303488191], [31.457309337803366, 36.76622303488191], [31.457309337803366, 36.766762024052376], [31.456231359462436, 36.766762024052376], [31.456231359462436, 36.76622303488191], [31.454614391950997, 36.76622303488191], [31.454614391950997, 36.76568404571144], [31.455153381121477, 36.76568404571144], [31.455153381121477, 36.765145056540966], [31.456231359462436, 36.765145056540966], [31.456231359462436, 36.76568404571144], [31.457309337803366, 36.76568404571144], [31.457309337803366, 36.765145056540966], [31.457848326973846, 36.765145056540966], [31.457848326973846, 36.764606067370494]]]}, "id": "+392323+87636", "properties": {"area_ha": 4.316217527599102, "count": 15, "label": 1, "mean_dnbr": 0.2659910237076053}}, {"type": "Feature", "geometry": {"geodesic": false, "type": "Polygon", "coordinates": [[[31.458926305314776, 36.75382628396106], [31.460543272826186, 36.75382628396106], [31.460543272826186, 36.754904262302], [31.461621251167145, 36.754904262302], [31.461621251167145, 36.75544325147247], [31.461082261996665, 36.75544325147247], [31.461082261996665, 36.75598224064294], [31.460543272826186, 36.75598224064294], [31.460543272826186, 36.756521229813416], [31.460004283655735, 36.756521229813416], [31.460004283655735, 36.75598224064294], [31.459465294485256, 36.75598224064294], [31.459465294485256, 36.75544325147247], [31.458926305314776, 36.75544325147247], [31.458926305314776, 36.754904262302], [31.458387316144297, 36.754904262302], [31.458387316144297, 36.75436527313153], [31.458926305314776, 36.75436527313153], [31.458926305314776, 36.75382628396106]]]}, "id": "+392327+87656", "properties": {"area_ha": 4.604605788586503, "count": 16, "label": 1, "mean_dnbr": 0.5636804762898423}}, {"type": "Feature", "geometry": {"geodesic": false, "type": "Polygon", "coordinates": [[[31.460543272826186, 36.98720859477531], [31.461082261996665, 36.98720859477531], [31.461082261996665, 36.98774758394578], [31.462160240337624, 36.98774758394578], [31.462160240337624, 36.98882556228673], [31.461621251167145, 36.98882556228673], [31.461621251167145, 36.989903540627665], [31.460543272826186, 36.989903540627665], [31.460543272826186, 36.98882556228673], [31.460004283655735, 36.98882556228673], [31.460004283655735, 36.98774758394578], [31.460543272826186, 36.98774758394578], [31.460543272826186, 36.98720859477531]]]}, "id": "+392328+87223", "properties": {"area_ha": 3.7298238705340503, "count": 13, "label": 1, "mean_dnbr": 0.19545797800848086}}, {"type": "Feature", "geometry": {"geodesic": false, "type": "Polygon", "coordinates": [[[31.460004283655735, 36.76352808902955], [31.461082261996665, 36.76352808902955], [31.461082261996665, 36.76406707820002], [31.461621251167145, 36.76406707820002], [31.461621251167145, 36.764606067370494], [31.462160240337624, 36.764606067370494], [31.462160240337624, 36.76406707820002], [31.462699229508075, 36.76406707820002], [31.462699229508075, 36.764606067370494], [31.463777207849034, 36.764606067370494], [31.463777207849034, 36.76568404571144], [31.461082261996665, 36.76568404571144], [31.461082261996665, 36.76622303488191], [31.459465294485256, 36.76622303488191], [31.459465294485256, 36.764606067370494], [31.460004283655735, 36.764606067370494], [31.460004283655735, 36.76352808902955]]]}, "id": "+392328+87638", "properties": {"area_ha": 7.193777964503154, "count": 25, "label": 1, "mean_dnbr": 0.3206592270040595}}, {"type": "Feature", "geometry": {"geodesic": false, "type": "Polygon", "coordinates": [[[31.461621251167145, 36.77430787243898], [31.462160240337624, 36.77430787243898], [31.462160240337624, 36.77538585077993], [31.461621251167145, 36.77538585077993], [31.461621251167145, 36.77646382912087], [31.462160240337624, 36.77646382912087], [31.462160240337624, 36.77700281829134], [31.460543272826186, 36.77700281829134], [31.460543272826186, 36.774846861609454], [31.461621251167145, 36.774846861609454], [31.461621251167145, 36.77430787243898]]]}, "id": "+392330+87618", "properties": {"area_ha": 3.164812246216911, "count": 11, "label": 1, "mean_dnbr": 0.4611746797203754}}, {"type": "Feature", "geometry": {"geodesic": false, "type": "Polygon", "coordinates": [[[31.462699229508075, 36.7721519157571], [31.463777207849034, 36.7721519157571], [31.463777207849034, 36.77322989409804], [31.465933164530924, 36.77322989409804], [31.465933164530924, 36.77376888326851], [31.464855186189965, 36.77376888326851], [31.464855186189965, 36.77430787243898], [31.463238218678555, 36.77430787243898], [31.463238218678555, 36.77376888326851], [31.463777207849034, 36.77376888326851], [31.463777207849034, 36.77322989409804], [31.462699229508075, 36.77322989409804], [31.462699229508075, 36.7721519157571]]]}, "id": "+392333+87622", "properties": {"area_ha": 3.1649081997791915, "count": 11, "label": 1, "mean_dnbr": 0.21166992131281268}}, {"type": "Feature", "geometry": {"geodesic": false, "type": "Polygon", "coordinates": [[[31.470784067065154, 36.76837899156379], [31.475095980428932, 36.76837899156379], [31.475095980428932, 36.76945696990474], [31.474018002088002, 36.76945696990474], [31.474018002088002, 36.76999595907521], [31.472401034576563, 36.76999595907521], [31.472401034576563, 36.76945696990474], [31.471862045406112, 36.76945696990474], [31.471862045406112, 36.768917980734265], [31.471323056235633, 36.768917980734265], [31.471323056235633, 36.76945696990474], [31.470784067065154, 36.76945696990474], [31.470784067065154, 36.76837899156379]], [[31.474018002088002, 36.768917980734265], [31.474018002088002, 36.76945696990474], [31.473479012917522, 36.76945696990474], [31.473479012917522, 36.768917980734265], [31.474018002088002, 36.768917980734265]]]}, "id": "+392354+87629", "properties": {"area_ha": 4.891451338950482, "count": 17, "label": 1, "mean_dnbr": 0.26243405162428424}}, {"type": "Feature", "geometry": {"geodesic": false, "type": "Polygon", "coordinates": [[[31.476173958769863, 36.76029415400672], [31.476712947940342, 36.76029415400672], [31.476712947940342, 36.76083314317719], [31.47725193711082, 36.76083314317719], [31.47725193711082, 36.76298909985908], [31.47563496959941, 36.76298909985908], [31.47563496959941, 36.76406707820002], [31.475095980428932, 36.76406707820002], [31.475095980428932, 36.76298909985908], [31.474556991258453, 36.76298909985908], [31.474556991258453, 36.76191112151813], [31.474018002088002, 36.76191112151813], [31.474018002088002, 36.76083314317719], [31.475095980428932, 36.76083314317719], [31.475095980428932, 36.76029415400672], [31.47563496959941, 36.76029415400672], [31.47563496959941, 36.76083314317719], [31.476173958769863, 36.76083314317719], [31.476173958769863, 36.76029415400672]]]}, "id": "+392357+87644", "properties": {"area_ha": 7.481820023136826, "count": 26, "label": 1, "mean_dnbr": 0.4584519803246343}}, {"type": "Feature", "geometry": {"geodesic": false, "type": "Polygon", "coordinates": [[[31.47725193711082, 36.74466346806304], [31.478329915451752, 36.74466346806304], [31.478329915451752, 36.74574144640398], [31.47886890462223, 36.74574144640398], [31.47886890462223, 36.746280435574455], [31.47940789379271, 36.746280435574455], [31.47940789379271, 36.7473584139154], [31.478329915451752, 36.7473584139154], [31.478329915451752, 36.74681942474493], [31.4777909262813, 36.74681942474493], [31.4777909262813, 36.74574144640398], [31.47725193711082, 36.74574144640398], [31.47725193711082, 36.74466346806304]]]}, "id": "+392360+87673", "properties": {"area_ha": 3.1660378089196897, "count": 11, "label": 1, "mean_dnbr": 0.20402096600408318}}, {"type": "Feature", "geometry": {"geodesic": false, "type": "Polygon", "coordinates": [[[31.48371980715649, 36.756521229813416], [31.48695374217931, 36.756521229813416], [31.48695374217931, 36.75706021898389], [31.48749273134979, 36.75706021898389], [31.48749273134979, 36.75759920815436], [31.48857070969072, 36.75759920815436], [31.48857070969072, 36.75813819732483], [31.4891096988612, 36.75813819732483], [31.4891096988612, 36.75759920815436], [31.49072666637261, 36.75759920815436], [31.49072666637261, 36.75813819732483], [31.48964868803168, 36.75813819732483], [31.48964868803168, 36.75921617566578], [31.4891096988612, 36.75921617566578], [31.4891096988612, 36.758677186495305], [31.48857070969072, 36.758677186495305], [31.48857070969072, 36.75813819732483], [31.48587576383838, 36.75813819732483], [31.48587576383838, 36.75921617566578], [31.4853367746679, 36.75921617566578], [31.4853367746679, 36.758677186495305], [31.48479778549742, 36.758677186495305], [31.48479778549742, 36.75706021898389], [31.48425879632694, 36.75706021898389], [31.48425879632694, 36.75759920815436], [31.48264182881553, 36.75759920815436], [31.48264182881553, 36.75706021898389], [31.48371980715649, 36.75706021898389], [31.48371980715649, 36.756521229813416]], [[31.48695374217931, 36.75706021898389], [31.48695374217931, 36.75759920815436], [31.48587576383838, 36.75759920815436], [31.48587576383838, 36.75813819732483], [31.4853367746679, 36.75813819732483], [31.4853367746679, 36.75706021898389], [31.48695374217931, 36.75706021898389]]]}, "id": "+392376+87651", "properties": {"area_ha": 7.482220146873276, "count": 26, "label": 1, "mean_dnbr": 0.3008185222640656}}, {"type": "Feature", "geometry": {"geodesic": false, "type": "Polygon", "coordinates": [[[31.48641475300883, 36.76568404571144], [31.48803172052024, 36.76568404571144], [31.48803172052024, 36.766762024052376], [31.48857070969072, 36.766762024052376], [31.48857070969072, 36.76730101322285], [31.48803172052024, 36.76730101322285], [31.48803172052024, 36.76784000239332], [31.48749273134979, 36.76784000239332], [31.48749273134979, 36.76837899156379], [31.48695374217931, 36.76837899156379], [31.48695374217931, 36.76784000239332], [31.48749273134979, 36.76784000239332], [31.48749273134979, 36.76730101322285], [31.48695374217931, 36.76730101322285], [31.48695374217931, 36.766762024052376], [31.48641475300883, 36.766762024052376], [31.48641475300883, 36.76568404571144]]]}, "id": "+392378+87634", "properties": {"area_ha": 3.165181911315885, "count": 11, "label": 1, "mean_dnbr": 0.2468387065630922}}, {"type": "Feature", "geometry": {"geodesic": false, "type": "Polygon", "coordinates": [[[31.496655547247798, 36.75382628396106], [31.497194536418277, 36.75382628396106], [31.497194536418277, 36.754904262302], [31.495577568906867, 36.754904262302], [31.495577568906867, 36.75544325147247], [31.49611655807732, 36.75544325147247], [31.49611655807732, 36.75706021898389], [31.493421612224978, 36.75706021898389], [31.493421612224978, 36.75598224064294], [31.49449959056591, 36.75598224064294], [31.49449959056591, 36.75544325147247], [31.495038579736388, 36.75544325147247], [31.495038579736388, 36.754904262302], [31.495577568906867, 36.754904262302], [31.495577568906867, 36.75436527313153], [31.496655547247798, 36.75436527313153], [31.496655547247798, 36.75382628396106]]]}, "id": "+392395+87656", "properties": {"area_ha": 5.180141560189837, "count": 18, "label": 1, "mean_dnbr": 0.272518576222534}}, {"type": "Feature", "geometry": {"geodesic": false, "type": "Polygon", "coordinates": [[[31.498272514759208, 36.74574144640398], [31.498811503929687, 36.74574144640398], [31.498811503929687, 36.746280435574455], [31.500967460611577, 36.746280435574455], [31.500967460611577, 36.748436392256345], [31.501506449782056, 36.748436392256345], [31.501506449782056, 36.74897538142681], [31.500967460611577, 36.74897538142681], [31.500967460611577, 36.74951437059728], [31.498811503929687, 36.74951437059728], [31.498811503929687, 36.748436392256345], [31.498272514759208, 36.748436392256345], [31.498272514759208, 36.74897538142681], [31.497733525588757, 36.74897538142681], [31.497733525588757, 36.74951437059728], [31.496655547247798, 36.74951437059728], [31.496655547247798, 36.74897538142681], [31.49611655807732, 36.74897538142681], [31.49611655807732, 36.748436392256345], [31.496655547247798, 36.748436392256345], [31.496655547247798, 36.74789740308587], [31.497733525588757, 36.74789740308587], [31.497733525588757, 36.7473584139154], [31.49611655807732, 36.7473584139154], [31.49611655807732, 36.74789740308587], [31.495577568906867, 36.74789740308587], [31.495577568906867, 36.7473584139154], [31.49611655807732, 36.7473584139154], [31.49611655807732, 36.74681942474493], [31.496655547247798, 36.74681942474493], [31.496655547247798, 36.746280435574455], [31.497733525588757, 36.746280435574455], [31.497733525588757, 36.74681942474493], [31.498811503929687, 36.74681942474493], [31.498811503929687, 36.746280435574455], [31.498272514759208, 36.746280435574455], [31.498272514759208, 36.74574144640398]], [[31.498272514759208, 36.74789740308587], [31.498272514759208, 36.748436392256345], [31.497733525588757, 36.748436392256345], [31.497733525588757, 36.74789740308587], [31.498272514759208, 36.74789740308587]]]}, "id": "+392398+87671", "properties": {"area_ha": 12.951671096454813, "count": 45, "label": 1, "mean_dnbr": 0.3850398894096448}}, {"type": "Feature", "geometry": {"geodesic": false, "type": "Polygon", "coordinates": [[[31.501506449782056, 36.75059234893823], [31.502584428122987, 36.75059234893823], [31.502584428122987, 36.752748305620116], [31.503123417293466, 36.752748305620116], [31.503123417293466, 36.75328729479059], [31.505818363145806, 36.75328729479059], [31.505818363145806, 36.752748305620116], [31.506357352316286, 36.752748305620116], [31.506357352316286, 36.75382628396106], [31.506896341486765, 36.75382628396106], [31.506896341486765, 36.75436527313153], [31.507435330657245, 36.75436527313153], [31.507435330657245, 36.754904262302], [31.506896341486765, 36.754904262302], [31.506896341486765, 36.75598224064294], [31.506357352316286, 36.75598224064294], [31.506357352316286, 36.756521229813416], [31.504201395634396, 36.756521229813416], [31.504201395634396, 36.75598224064294], [31.504740384804876, 36.75598224064294], [31.504740384804876, 36.75544325147247], [31.504201395634396, 36.75544325147247], [31.504201395634396, 36.754904262302], [31.503123417293466, 36.754904262302], [31.503123417293466, 36.75544325147247], [31.502584428122987, 36.75544325147247], [31.502584428122987, 36.75598224064294], [31.502045438952507, 36.75598224064294], [31.502045438952507, 36.756521229813416], [31.502584428122987, 36.756521229813416], [31.502584428122987, 36.75706021898389], [31.502045438952507, 36.75706021898389], [31.502045438952507, 36.75759920815436], [31.499350493100167, 36.75759920815436], [31.499350493100167, 36.75706021898389], [31.498811503929687, 36.75706021898389], [31.498811503929687, 36.75759920815436], [31.497733525588757, 36.75759920815436], [31.497733525588757, 36.75706021898389], [31.498811503929687, 36.75706021898389], [31.498811503929687, 36.75598224064294], [31.497733525588757, 36.75598224064294], [31.497733525588757, 36.754904262302], [31.498811503929687, 36.754904262302], [31.498811503929687, 36.75598224064294], [31.499889482270618, 36.75598224064294], [31.499889482270618, 36.75544325147247], [31.500428471441097, 36.75544325147247], [31.500428471441097, 36.754904262302], [31.500967460611577, 36.754904262302], [31.500967460611577, 36.75544325147247], [31.502045438952507, 36.75544325147247], [31.502045438952507, 36.754904262302], [31.501506449782056, 36.754904262302], [31.501506449782056, 36.75436527313153], [31.502584428122987, 36.75436527313153], [31.502584428122987, 36.75328729479059], [31.502045438952507, 36.75328729479059], [31.502045438952507, 36.752209316449644], [31.501506449782056, 36.752209316449644], [31.501506449782056, 36.75328729479059], [31.500967460611577, 36.75328729479059], [31.500967460611577, 36.75382628396106], [31.499889482270618, 36.75382628396106], [31.499889482270618, 36.752748305620116], [31.500428471441097, 36.752748305620116], [31.500428471441097, 36.7511313381087], [31.501506449782056, 36.7511313381087], [31.501506449782056, 36.75059234893823]], [[31.500967460611577, 36.752748305620116], [31.500967460611577, 36.75328729479059], [31.500428471441097, 36.75328729479059], [31.500428471441097, 36.752748305620116], [31.500967460611577, 36.752748305620116]]]}, "id": "+392405+87662", "properties": {"area_ha": 26.188816602605392, "count": 91, "label": 1, "mean_dnbr": 0.2760182057239605}}, {"type": "Feature", "geometry": {"geodesic": false, "type": "Polygon", "coordinates": [[[31.503123417293466, 36.75813819732483], [31.503662406463945, 36.75813819732483], [31.503662406463945, 36.758677186495305], [31.504201395634396, 36.758677186495305], [31.504201395634396, 36.76029415400672], [31.503662406463945, 36.76029415400672], [31.503662406463945, 36.76137213234766], [31.503123417293466, 36.76137213234766], [31.503123417293466, 36.76083314317719], [31.500967460611577, 36.76083314317719], [31.500967460611577, 36.75975516483625], [31.500428471441097, 36.75975516483625], [31.500428471441097, 36.75921617566578], [31.502045438952507, 36.75921617566578], [31.502045438952507, 36.758677186495305], [31.501506449782056, 36.758677186495305], [31.501506449782056, 36.75813819732483], [31.502584428122987, 36.75813819732483], [31.502584428122987, 36.758677186495305], [31.503123417293466, 36.758677186495305], [31.503123417293466, 36.75813819732483]]]}, "id": "+392407+87648", "properties": {"area_ha": 7.482037701847979, "count": 26, "label": 1, "mean_dnbr": 0.40207654089897404}}, {"type": "Feature", "geometry": {"geodesic": false, "type": "Polygon", "coordinates": [[[31.512825222361954, 36.737656608846905], [31.513364211532434, 36.737656608846905], [31.513364211532434, 36.73819559801738], [31.512825222361954, 36.73819559801738], [31.512825222361954, 36.739812565528794], [31.512286233191475, 36.739812565528794], [31.512286233191475, 36.74142953304021], [31.510669265680065, 36.74142953304021], [31.510669265680065, 36.742507511381156], [31.512286233191475, 36.742507511381156], [31.512286233191475, 36.74304650055162], [31.511208254850544, 36.74304650055162], [31.511208254850544, 36.74358548972209], [31.509591287339134, 36.74358548972209], [31.509591287339134, 36.742507511381156], [31.510130276509585, 36.742507511381156], [31.510130276509585, 36.739812565528794], [31.510669265680065, 36.739812565528794], [31.510669265680065, 36.73927357635832], [31.511747244020995, 36.73927357635832], [31.511747244020995, 36.73873458718785], [31.512286233191475, 36.73873458718785], [31.512286233191475, 36.73819559801738], [31.512825222361954, 36.73819559801738], [31.512825222361954, 36.737656608846905]]]}, "id": "+392425+87686", "properties": {"area_ha": 8.635228741801006, "count": 30, "label": 1, "mean_dnbr": 0.4216440330691728}}, {"type": "Feature", "geometry": {"geodesic": false, "type": "Polygon", "coordinates": [[[31.515520168214323, 36.736039641335495], [31.517676124896184, 36.736039641335495], [31.517676124896184, 36.73711761967643], [31.518215114066663, 36.73711761967643], [31.518215114066663, 36.737656608846905], [31.515520168214323, 36.737656608846905], [31.515520168214323, 36.736039641335495]], [[31.516598146555253, 36.73657863050597], [31.516598146555253, 36.73711761967643], [31.516059157384774, 36.73711761967643], [31.516059157384774, 36.73657863050597], [31.516598146555253, 36.73657863050597]]]}, "id": "+392433+87689", "properties": {"area_ha": 3.45427845460388, "count": 12, "label": 1, "mean_dnbr": 0.3039504850494831}}, {"type": "Feature", "geometry": {"geodesic": false, "type": "Polygon", "coordinates": [[[31.518754103237143, 36.731727727971716], [31.519832081578073, 36.731727727971716], [31.519832081578073, 36.73334469548313], [31.518754103237143, 36.73334469548313], [31.518754103237143, 36.733883684653605], [31.517676124896184, 36.733883684653605], [31.517676124896184, 36.73496166299455], [31.516059157384774, 36.73496166299455], [31.516059157384774, 36.73442267382408], [31.516598146555253, 36.73442267382408], [31.516598146555253, 36.733883684653605], [31.516059157384774, 36.733883684653605], [31.516059157384774, 36.73280570631266], [31.517137135725733, 36.73280570631266], [31.517137135725733, 36.731727727971716], [31.518215114066663, 36.731727727971716], [31.518215114066663, 36.73226671714219], [31.518754103237143, 36.73226671714219], [31.518754103237143, 36.731727727971716]]]}, "id": "+392437+87697", "properties": {"area_ha": 7.484619971491252, "count": 26, "label": 1, "mean_dnbr": 0.36571674404024007}}, {"type": "Feature", "geometry": {"geodesic": false, "type": "Polygon", "coordinates": [[[31.518754103237143, 36.73819559801738], [31.520910059919032, 36.73819559801738], [31.520910059919032, 36.73873458718785], [31.519832081578073, 36.73873458718785], [31.519832081578073, 36.73927357635832], [31.518754103237143, 36.73927357635832], [31.518754103237143, 36.739812565528794], [31.518215114066663, 36.739812565528794], [31.518215114066663, 36.74035155469927], [31.517676124896184, 36.74035155469927], [31.517676124896184, 36.74089054386974], [31.518215114066663, 36.74089054386974], [31.518215114066663, 36.74142953304021], [31.517676124896184, 36.74142953304021], [31.517676124896184, 36.74196852221068], [31.518215114066663, 36.74196852221068], [31.518215114066663, 36.742507511381156], [31.519832081578073, 36.742507511381156], [31.519832081578073, 36.74304650055162], [31.518754103237143, 36.74304650055162], [31.518754103237143, 36.74358548972209], [31.518215114066663, 36.74358548972209], [31.518215114066663, 36.74466346806304], [31.517676124896184, 36.74466346806304], [31.517676124896184, 36.74358548972209], [31.515520168214323, 36.74358548972209], [31.515520168214323, 36.74304650055162], [31.517137135725733, 36.74304650055162], [31.517137135725733, 36.742507511381156], [31.517676124896184, 36.742507511381156], [31.517676124896184, 36.74196852221068], [31.516059157384774, 36.74196852221068], [31.516059157384774, 36.742507511381156], [31.514981179043843, 36.742507511381156], [31.514981179043843, 36.74196852221068], [31.513903200702885, 36.74196852221068], [31.513903200702885, 36.74142953304021], [31.513364211532434, 36.74142953304021], [31.513364211532434, 36.74089054386974], [31.513903200702885, 36.74089054386974], [31.513903200702885, 36.74035155469927], [31.513364211532434, 36.74035155469927], [31.513364211532434, 36.73927357635832], [31.513903200702885, 36.73927357635832], [31.513903200702885, 36.739812565528794], [31.514442189873364, 36.739812565528794], [31.514442189873364, 36.74035155469927], [31.514981179043843, 36.74035155469927], [31.514981179043843, 36.739812565528794], [31.515520168214323, 36.739812565528794], [31.515520168214323, 36.74142953304021], [31.517676124896184, 36.74142953304021], [31.517676124896184, 36.74089054386974], [31.517137135725733, 36.74089054386974], [31.517137135725733, 36.74035155469927], [31.516598146555253, 36.74035155469927], [31.516598146555253, 36.739812565528794], [31.516059157384774, 36.739812565528794], [31.516059157384774, 36.73927357635832], [31.517137135725733, 36.73927357635832], [31.517137135725733, 36.73873458718785], [31.518754103237143, 36.73873458718785], [31.518754103237143, 36.73819559801738]], [[31.515520168214323, 36.74142953304021], [31.515520168214323, 36.74196852221068], [31.514981179043843, 36.74196852221068], [31.514981179043843, 36.74142953304021], [31.515520168214323, 36.74142953304021]]]}, "id": "+392439+87685", "properties": {"area_ha": 14.967694958012181, "count": 52, "label": 1, "mean_dnbr": 0.30360728727053976}}, {"type": "Feature", "geometry": {"geodesic": false, "type": "Polygon", "coordinates": [[[31.519832081578073, 36.73496166299455], [31.520910059919032, 36.73496166299455], [31.520910059919032, 36.73657863050597], [31.52144904908951, 36.73657863050597], [31.52144904908951, 36.73711761967643], [31.522527027430442, 36.73711761967643], [31.522527027430442, 36.737656608846905], [31.520371070748553, 36.737656608846905], [31.520371070748553, 36.73657863050597], [31.519832081578073, 36.73657863050597], [31.519832081578073, 36.73711761967643], [31.518754103237143, 36.73711761967643], [31.518754103237143, 36.736039641335495], [31.518215114066663, 36.736039641335495], [31.518215114066663, 36.73550065216502], [31.518754103237143, 36.73550065216502], [31.518754103237143, 36.736039641335495], [31.519832081578073, 36.736039641335495], [31.519832081578073, 36.73496166299455]]]}, "id": "+392439+87691", "properties": {"area_ha": 4.893584258280139, "count": 17, "label": 1, "mean_dnbr": 0.33297908211071303}}, {"type": "Feature", "geometry": {"geodesic": false, "type": "Polygon", "coordinates": [[[31.520910059919032, 36.74089054386974], [31.52144904908951, 36.74089054386974], [31.52144904908951, 36.742507511381156], [31.520910059919032, 36.742507511381156], [31.520910059919032, 36.74358548972209], [31.52144904908951, 36.74358548972209], [31.52144904908951, 36.74466346806304], [31.520371070748553, 36.74466346806304], [31.520371070748553, 36.74520245723351], [31.519832081578073, 36.74520245723351], [31.519832081578073, 36.744124478892566], [31.520371070748553, 36.744124478892566], [31.520371070748553, 36.74196852221068], [31.520910059919032, 36.74196852221068], [31.520910059919032, 36.74089054386974]]]}, "id": "+392440+87680", "properties": {"area_ha": 3.453985592544576, "count": 12, "label": 1, "mean_dnbr": 0.2454284949830998}}, {"type": "Feature", "geometry": {"geodesic": false, "type": "Polygon", "coordinates": [[[31.52306601660092, 36.74520245723351], [31.52522197328281, 36.74520245723351], [31.52522197328281, 36.746280435574455], [31.52468298411233, 36.746280435574455], [31.52468298411233, 36.74681942474493], [31.524143994941852, 36.74681942474493], [31.524143994941852, 36.7473584139154], [31.523605005771373, 36.7473584139154], [31.523605005771373, 36.74681942474493], [31.524143994941852, 36.74681942474493], [31.524143994941852, 36.746280435574455], [31.522527027430442, 36.746280435574455], [31.522527027430442, 36.74574144640398], [31.52306601660092, 36.74574144640398], [31.52306601660092, 36.74520245723351]]]}, "id": "+392447+87672", "properties": {"area_ha": 3.1660379582259766, "count": 11, "label": 1, "mean_dnbr": 0.24624324132065906}}, {"type": "Feature", "geometry": {"geodesic": false, "type": "Polygon", "coordinates": [[[31.52522197328281, 37.00337826988946], [31.5273779299647, 37.00337826988946], [31.5273779299647, 37.004456248230404], [31.52791691913515, 37.004456248230404], [31.52791691913515, 37.00553422657135], [31.5273779299647, 37.00553422657135], [31.5273779299647, 37.00499523740088], [31.52683894079422, 37.00499523740088], [31.52683894079422, 37.00553422657135], [31.52468298411233, 37.00553422657135], [31.52468298411233, 37.00499523740088], [31.52522197328281, 37.00499523740088], [31.52522197328281, 37.00337826988946]], [[31.52683894079422, 37.00391725905993], [31.52683894079422, 37.004456248230404], [31.52629995162374, 37.004456248230404], [31.52629995162374, 37.00499523740088], [31.525760962453262, 37.00499523740088], [31.525760962453262, 37.00391725905993], [31.52683894079422, 37.00391725905993]]]}, "id": "+392451+87193", "properties": {"area_ha": 4.302738725640805, "count": 15, "label": 1, "mean_dnbr": 0.21530584420398394}}, {"type": "Feature", "geometry": {"geodesic": false, "type": "Polygon", "coordinates": [[[31.53007287581704, 36.748436392256345], [31.53061186498752, 36.748436392256345], [31.53061186498752, 36.74951437059728], [31.5273779299647, 36.74951437059728], [31.5273779299647, 36.748436392256345], [31.52953388664656, 36.748436392256345], [31.52953388664656, 36.74897538142681], [31.53007287581704, 36.74897538142681], [31.53007287581704, 36.748436392256345]]]}, "id": "+392457+87666", "properties": {"area_ha": 3.165932736422771, "count": 11, "label": 1, "mean_dnbr": 0.2279430594932261}}, {"type": "Feature", "geometry": {"geodesic": false, "type": "Polygon", "coordinates": [[[31.53061186498752, 36.73550065216502], [31.53168984332845, 36.73550065216502], [31.53168984332845, 36.73711761967643], [31.531150854158, 36.73711761967643], [31.531150854158, 36.737656608846905], [31.53061186498752, 36.737656608846905], [31.53061186498752, 36.73873458718785], [31.52953388664656, 36.73873458718785], [31.52953388664656, 36.73819559801738], [31.52899489747611, 36.73819559801738], [31.52899489747611, 36.737656608846905], [31.52791691913515, 36.737656608846905], [31.52791691913515, 36.73819559801738], [31.52683894079422, 36.73819559801738], [31.52683894079422, 36.737656608846905], [31.52629995162374, 36.737656608846905], [31.52629995162374, 36.73873458718785], [31.52683894079422, 36.73873458718785], [31.52683894079422, 36.73927357635832], [31.52629995162374, 36.73927357635832], [31.52629995162374, 36.74035155469927], [31.52522197328281, 36.74035155469927], [31.52522197328281, 36.739812565528794], [31.524143994941852, 36.739812565528794], [31.524143994941852, 36.737656608846905], [31.52468298411233, 36.737656608846905], [31.52468298411233, 36.73711761967643], [31.52683894079422, 36.73711761967643], [31.52683894079422, 36.73657863050597], [31.53007287581704, 36.73657863050597], [31.53007287581704, 36.736039641335495], [31.53061186498752, 36.736039641335495], [31.53061186498752, 36.73550065216502]]]}, "id": "+392459+87690", "properties": {"area_ha": 14.968306027255434, "count": 52, "label": 1, "mean_dnbr": 0.3755665381669673}}, {"type": "Feature", "geometry": {"geodesic": false, "type": "Polygon", "coordinates": [[[31.552710420976865, 36.71663603119851], [31.553788399317796, 36.71663603119851], [31.553788399317796, 36.717175020368984], [31.554866377658755, 36.717175020368984], [31.554866377658755, 36.718791987880394], [31.554327388488275, 36.718791987880394], [31.554327388488275, 36.719330977050866], [31.553249410147345, 36.719330977050866], [31.553249410147345, 36.717714009539456], [31.552710420976865, 36.717714009539456], [31.552710420976865, 36.71663603119851]]]}, "id": "+392500+87725", "properties": {"area_ha": 4.030977817195915, "count": 14, "label": 1, "mean_dnbr": 0.17850694460281888}}, {"type": "Feature", "geometry": {"geodesic": false, "type": "Polygon", "coordinates": [[[31.557561323511095, 36.72094794456228], [31.558100312681574, 36.72094794456228], [31.558100312681574, 36.721486933732756], [31.558639301852054, 36.721486933732756], [31.558639301852054, 36.72202592290323], [31.559717280192984, 36.72202592290323], [31.559717280192984, 36.7225649120737], [31.558639301852054, 36.7225649120737], [31.558639301852054, 36.72310390124417], [31.559178291022533, 36.72310390124417], [31.559178291022533, 36.723642890414645], [31.558100312681574, 36.723642890414645], [31.558100312681574, 36.72310390124417], [31.557561323511095, 36.72310390124417], [31.557561323511095, 36.723642890414645], [31.557022334340644, 36.723642890414645], [31.557022334340644, 36.721486933732756], [31.557561323511095, 36.721486933732756], [31.557561323511095, 36.72094794456228]]]}, "id": "+392508+87717", "properties": {"area_ha": 4.31865346296738, "count": 15, "label": 1, "mean_dnbr": 0.3543553416044886}}, {"type": "Feature", "geometry": {"geodesic": false, "type": "Polygon", "coordinates": [[[31.600141467978375, 36.70100534525483], [31.601758435489785, 36.70100534525483], [31.601758435489785, 36.70208332359577], [31.602297424660264, 36.70208332359577], [31.602297424660264, 36.702622312766245], [31.601758435489785, 36.702622312766245], [31.601758435489785, 36.70316130193672], [31.600680457148854, 36.70316130193672], [31.600680457148854, 36.70423928027766], [31.600141467978375, 36.70423928027766], [31.600141467978375, 36.70370029110719], [31.599602478807896, 36.70370029110719], [31.599602478807896, 36.702622312766245], [31.600141467978375, 36.702622312766245], [31.600141467978375, 36.70100534525483]]]}, "id": "+392589+87754", "properties": {"area_ha": 4.89574691636798, "count": 17, "label": 1, "mean_dnbr": 0.37396110886396955}}, {"type": "Feature", "geometry": {"geodesic": false, "type": "Polygon", "coordinates": [[[31.604453381342154, 36.69453747520917], [31.604992370512605, 36.69453747520917], [31.604992370512605, 36.696693431891056], [31.604453381342154, 36.696693431891056], [31.604453381342154, 36.697771410232], [31.603375403001195, 36.697771410232], [31.603375403001195, 36.696693431891056], [31.602836413830715, 36.696693431891056], [31.602836413830715, 36.69723242106153], [31.602297424660264, 36.69723242106153], [31.602297424660264, 36.696154442720584], [31.601758435489785, 36.696154442720584], [31.601758435489785, 36.69561545355011], [31.604453381342154, 36.69561545355011], [31.604453381342154, 36.69453747520917]]]}, "id": "+392595+87766", "properties": {"area_ha": 5.184133942574297, "count": 18, "label": 1, "mean_dnbr": 0.3003491965781889}}, {"type": "Feature", "geometry": {"geodesic": false, "type": "Polygon", "coordinates": [[[31.610382262217342, 36.68860859433398], [31.613077208069683, 36.68860859433398], [31.613077208069683, 36.68914758350445], [31.613616197240162, 36.68914758350445], [31.613616197240162, 36.68968657267492], [31.610382262217342, 36.68968657267492], [31.610382262217342, 36.68860859433398]]]}, "id": "+392610+87777", "properties": {"area_ha": 3.1683930083197303, "count": 11, "label": 1, "mean_dnbr": 0.28474570869400107}}, {"type": "Feature", "geometry": {"geodesic": false, "type": "Polygon", "coordinates": [[[31.71332919377744, 36.83251870284993], [31.71386818294789, 36.83251870284993], [31.71386818294789, 36.83359668119087], [31.71494616128885, 36.83359668119087], [31.71494616128885, 36.834674659531814], [31.71602413962978, 36.834674659531814], [31.71602413962978, 36.83575263787276], [31.71440717211837, 36.83575263787276], [31.71440717211837, 36.83629162704323], [31.71332919377744, 36.83629162704323], [31.71332919377744, 36.83575263787276], [31.71386818294789, 36.83575263787276], [31.71386818294789, 36.83413567036134], [31.71332919377744, 36.83413567036134], [31.71332919377744, 36.83251870284993]]]}, "id": "+392797+87510", "properties": {"area_ha": 4.88731034181471, "count": 17, "label": 1, "mean_dnbr": 0.24803232800954653}}, {"type": "Feature", "geometry": {"geodesic": false, "type": "Polygon", "coordinates": [[[31.71332919377744, 36.8292847678271], [31.71440717211837, 36.8292847678271], [31.71440717211837, 36.83036274616804], [31.71494616128885, 36.83036274616804], [31.71494616128885, 36.83144072450899], [31.71440717211837, 36.83144072450899], [31.71440717211837, 36.83197971367946], [31.71332919377744, 36.83197971367946], [31.71332919377744, 36.83144072450899], [31.71386818294789, 36.83144072450899], [31.71386818294789, 36.830901735338514], [31.71332919377744, 36.830901735338514], [31.71332919377744, 36.8292847678271]]]}, "id": "+392798+87516", "properties": {"area_ha": 3.1625451595640004, "count": 11, "label": 1, "mean_dnbr": 0.20313433592769783}}, {"type": "Feature", "geometry": {"geodesic": false, "type": "Polygon", "coordinates": [[[31.784475764279705, 36.746280435574455], [31.785553742620635, 36.746280435574455], [31.785553742620635, 36.74681942474493], [31.786631720961594, 36.74681942474493], [31.786631720961594, 36.7473584139154], [31.785014753450156, 36.7473584139154], [31.785014753450156, 36.74789740308587], [31.783936775109225, 36.74789740308587], [31.783936775109225, 36.748436392256345], [31.782858796768267, 36.748436392256345], [31.782858796768267, 36.746280435574455], [31.783397785938746, 36.746280435574455], [31.783397785938746, 36.74681942474493], [31.784475764279705, 36.74681942474493], [31.784475764279705, 36.746280435574455]]]}, "id": "+392930+87670", "properties": {"area_ha": 4.605075993063087, "count": 16, "label": 1, "mean_dnbr": 0.18326468141035998}}, {"type": "Feature", "geometry": {"geodesic": false, "type": "Polygon", "coordinates": [[[31.81196421197376, 36.78293169916653], [31.81250320114424, 36.78293169916653], [31.81250320114424, 36.783470688337005], [31.81358117948517, 36.783470688337005], [31.81358117948517, 36.78454866667795], [31.81573713616706, 36.78454866667795], [31.81573713616706, 36.78562664501889], [31.8146591578261, 36.78562664501889], [31.8146591578261, 36.78670462335983], [31.81358117948517, 36.78670462335983], [31.81358117948517, 36.787782601700776], [31.81250320114424, 36.787782601700776], [31.81250320114424, 36.78832159087125], [31.81196421197376, 36.78832159087125], [31.81196421197376, 36.78886058004172], [31.8108862336328, 36.78886058004172], [31.8108862336328, 36.78616563418936], [31.81142522280328, 36.78616563418936], [31.81142522280328, 36.78562664501889], [31.81304219031469, 36.78562664501889], [31.81304219031469, 36.785087655848415], [31.81358117948517, 36.785087655848415], [31.81358117948517, 36.78454866667795], [31.81196421197376, 36.78454866667795], [31.81196421197376, 36.78400967750748], [31.81142522280328, 36.78400967750748], [31.81142522280328, 36.783470688337005], [31.81196421197376, 36.783470688337005], [31.81196421197376, 36.78293169916653]], [[31.81250320114424, 36.78616563418936], [31.81250320114424, 36.78670462335983], [31.81196421197376, 36.78670462335983], [31.81196421197376, 36.78616563418936], [31.81250320114424, 36.78616563418936]], [[31.81358117948517, 36.78562664501889], [31.81358117948517, 36.78616563418936], [31.81304219031469, 36.78616563418936], [31.81304219031469, 36.78562664501889], [31.81358117948517, 36.78562664501889]]]}, "id": "+392980+87602", "properties": {"area_ha": 12.36987716489738, "count": 43, "label": 1, "mean_dnbr": 0.2272428515868767}}, {"type": "Feature", "geometry": {"geodesic": false, "type": "Polygon", "coordinates": [[[31.81412016865565, 36.620156969684075], [31.81519814699658, 36.620156969684075], [31.81519814699658, 36.62123494802502], [31.81681511450799, 36.62123494802502], [31.81681511450799, 36.62177393719549], [31.81412016865565, 36.62177393719549], [31.81412016865565, 36.62123494802502], [31.81250320114424, 36.62123494802502], [31.81250320114424, 36.62069595885455], [31.81412016865565, 36.62069595885455], [31.81412016865565, 36.620156969684075]]]}, "id": "+392985+87904", "properties": {"area_ha": 3.4594850934206947, "count": 12, "label": 1, "mean_dnbr": 0.17539851335376294}}, {"type": "Feature", "geometry": {"geodesic": false, "type": "Polygon", "coordinates": [[[31.837296702985924, 36.61261112129747], [31.837835692156403, 36.61261112129747], [31.837835692156403, 36.61315011046794], [31.838913670497334, 36.61315011046794], [31.838913670497334, 36.613689099638414], [31.839452659667813, 36.613689099638414], [31.839452659667813, 36.614228088808886], [31.840530638008744, 36.614228088808886], [31.840530638008744, 36.61530606714983], [31.841069627179223, 36.61530606714983], [31.841069627179223, 36.6158450563203], [31.842147605520182, 36.6158450563203], [31.842147605520182, 36.61638404549077], [31.839991648838293, 36.61638404549077], [31.839991648838293, 36.61530606714983], [31.838913670497334, 36.61530606714983], [31.838913670497334, 36.614228088808886], [31.838374681326854, 36.614228088808886], [31.838374681326854, 36.613689099638414], [31.837835692156403, 36.613689099638414], [31.837835692156403, 36.61315011046794], [31.837296702985924, 36.61315011046794], [31.837296702985924, 36.61261112129747]]]}, "id": "+393027+87918", "properties": {"area_ha": 4.901328185087361, "count": 17, "label": 1, "mean_dnbr": 0.1849684946733917}}, {"type": "Feature", "geometry": {"geodesic": false, "type": "Polygon", "coordinates": [[[31.838913670497334, 36.91821798095493], [31.842686594690633, 36.91821798095493], [31.842686594690633, 36.9187569701254], [31.841608616349703, 36.9187569701254], [31.841608616349703, 36.91929595929587], [31.842147605520182, 36.91929595929587], [31.842147605520182, 36.919834948466345], [31.841608616349703, 36.919834948466345], [31.841608616349703, 36.91929595929587], [31.839452659667813, 36.91929595929587], [31.839452659667813, 36.9187569701254], [31.838913670497334, 36.9187569701254], [31.838913670497334, 36.91821798095493]]]}, "id": "+393036+87351", "properties": {"area_ha": 3.4460418703676123, "count": 12, "label": 1, "mean_dnbr": 0.25046923602294446}}, {"type": "Feature", "geometry": {"geodesic": false, "type": "Polygon", "coordinates": [[[31.868019085702798, 36.715019063687095], [31.868558074873278, 36.715019063687095], [31.868558074873278, 36.71555805285757], [31.868019085702798, 36.71555805285757], [31.868019085702798, 36.71663603119851], [31.867480096532347, 36.71663603119851], [31.867480096532347, 36.717175020368984], [31.866941107361868, 36.717175020368984], [31.866941107361868, 36.71825299870993], [31.866402118191388, 36.71825299870993], [31.866402118191388, 36.717714009539456], [31.865863129020937, 36.717714009539456], [31.865863129020937, 36.71663603119851], [31.865324139850458, 36.71663603119851], [31.865324139850458, 36.717175020368984], [31.864785150679978, 36.717175020368984], [31.864785150679978, 36.71609704202804], [31.867480096532347, 36.71609704202804], [31.867480096532347, 36.71555805285757], [31.868019085702798, 36.71555805285757], [31.868019085702798, 36.715019063687095]]]}, "id": "+393084+87728", "properties": {"area_ha": 4.3189651013987564, "count": 15, "label": 1, "mean_dnbr": 0.2056419614095567}}, {"type": "Feature", "geometry": {"geodesic": false, "type": "Polygon", "coordinates": [[[31.876642912430356, 36.71070715032332], [31.878259879941766, 36.71070715032332], [31.878259879941766, 36.711246139493795], [31.878798869112245, 36.711246139493795], [31.878798869112245, 36.71178512866427], [31.877181901600835, 36.71178512866427], [31.877181901600835, 36.71232411783474], [31.876642912430356, 36.71232411783474], [31.876642912430356, 36.712863107005205], [31.876103923259876, 36.712863107005205], [31.876103923259876, 36.71232411783474], [31.875564934089425, 36.71232411783474], [31.875564934089425, 36.711246139493795], [31.876642912430356, 36.711246139493795], [31.876642912430356, 36.71070715032332]]]}, "id": "+393102+87736", "properties": {"area_ha": 3.7433599997794604, "count": 13, "label": 1, "mean_dnbr": 0.1991030575448851}}, {"type": "Feature", "geometry": {"geodesic": false, "type": "Polygon", "coordinates": [[[31.884188760816954, 36.96672700629738], [31.886344717498844, 36.96672700629738], [31.886344717498844, 36.967265995467855], [31.885805728328364, 36.967265995467855], [31.885805728328364, 36.9683439738088], [31.886883706669323, 36.9683439738088], [31.886883706669323, 36.96888296297927], [31.885805728328364, 36.96888296297927], [31.885805728328364, 36.9683439738088], [31.883649771646503, 36.9683439738088], [31.883649771646503, 36.96888296297927], [31.883110782476024, 36.96888296297927], [31.883110782476024, 36.9683439738088], [31.883649771646503, 36.9683439738088], [31.883649771646503, 36.96780498463833], [31.885266739157913, 36.96780498463833], [31.885266739157913, 36.967265995467855], [31.884188760816954, 36.967265995467855], [31.884188760816954, 36.96672700629738]]]}, "id": "+393117+87261", "properties": {"area_ha": 3.4438514140740124, "count": 12, "label": 1, "mean_dnbr": 0.22629105909154698}}, {"type": "Feature", "geometry": {"geodesic": false, "type": "Polygon", "coordinates": [[[31.8949685442264, 36.66435408166275], [31.89658551173781, 36.66435408166275], [31.89658551173781, 36.66489307083322], [31.89820247924922, 36.66489307083322], [31.89820247924922, 36.665432060003695], [31.8987414684197, 36.665432060003695], [31.8987414684197, 36.66597104917417], [31.89928045759018, 36.66597104917417], [31.89928045759018, 36.66651003834464], [31.8987414684197, 36.66651003834464], [31.8987414684197, 36.66597104917417], [31.89820247924922, 36.66597104917417], [31.89820247924922, 36.665432060003695], [31.89766349007874, 36.665432060003695], [31.89766349007874, 36.66597104917417], [31.89658551173781, 36.66597104917417], [31.89658551173781, 36.66651003834464], [31.89604652256733, 36.66651003834464], [31.89604652256733, 36.66704902751511], [31.894429555055922, 36.66704902751511], [31.894429555055922, 36.66597104917417], [31.89335157671499, 36.66597104917417], [31.89335157671499, 36.66489307083322], [31.8949685442264, 36.66489307083322], [31.8949685442264, 36.66435408166275]]]}, "id": "+393136+87822", "properties": {"area_ha": 8.355563377902667, "count": 29, "label": 1, "mean_dnbr": 0.19422950871114655}}, {"type": "Feature", "geometry": {"geodesic": false, "type": "Polygon", "coordinates": [[[31.90413136012441, 36.667588016685585], [31.90574832763582, 36.667588016685585], [31.90574832763582, 36.66812700585606], [31.9062873168063, 36.66812700585606], [31.9062873168063, 36.66866599502653], [31.90520933846537, 36.66866599502653], [31.90520933846537, 36.669743973367474], [31.90574832763582, 36.669743973367474], [31.90574832763582, 36.67028296253795], [31.9062873168063, 36.67028296253795], [31.9062873168063, 36.669204984197], [31.90682630597678, 36.669204984197], [31.90682630597678, 36.66812700585606], [31.907365295147258, 36.66812700585606], [31.907365295147258, 36.669204984197], [31.90682630597678, 36.669204984197], [31.90682630597678, 36.671360940878884], [31.90574832763582, 36.671360940878884], [31.90574832763582, 36.67082195170841], [31.90467034929489, 36.67082195170841], [31.90467034929489, 36.67028296253795], [31.90413136012441, 36.67028296253795], [31.90413136012441, 36.669743973367474], [31.90467034929489, 36.669743973367474], [31.90467034929489, 36.66812700585606], [31.90413136012441, 36.66812700585606], [31.90413136012441, 36.667588016685585]]]}, "id": "+393153+87816", "properties": {"area_ha": 6.050282098055866, "count": 21, "label": 1, "mean_dnbr": 0.19216095233829414}}, {"type": "Feature", "geometry": {"geodesic": false, "type": "Polygon", "coordinates": [[[31.934314753670833, 36.66489307083322], [31.936470710352722, 36.66489307083322], [31.936470710352722, 36.66651003834464], [31.937009699523202, 36.66651003834464], [31.937009699523202, 36.66704902751511], [31.937548688693653, 36.66704902751511], [31.937548688693653, 36.667588016685585], [31.935392732011763, 36.667588016685585], [31.935392732011763, 36.66651003834464], [31.934853742841312, 36.66651003834464], [31.934853742841312, 36.66597104917417], [31.934314753670833, 36.66597104917417], [31.934314753670833, 36.66651003834464], [31.933775764500353, 36.66651003834464], [31.933775764500353, 36.665432060003695], [31.934314753670833, 36.665432060003695], [31.934314753670833, 36.66489307083322]]]}, "id": "+393210+87821", "properties": {"area_ha": 5.762418301886724, "count": 20, "label": 1, "mean_dnbr": 0.2651003551217678}}, {"type": "Feature", "geometry": {"geodesic": false, "type": "Polygon", "coordinates": [[[31.933775764500353, 36.66273711415134], [31.936470710352722, 36.66273711415134], [31.936470710352722, 36.66327610332181], [31.937548688693653, 36.66327610332181], [31.937548688693653, 36.663815092492285], [31.938087677864132, 36.663815092492285], [31.938087677864132, 36.66489307083322], [31.937548688693653, 36.66489307083322], [31.937548688693653, 36.663815092492285], [31.933775764500353, 36.663815092492285], [31.933775764500353, 36.66273711415134]]]}, "id": "+393210+87825", "properties": {"area_ha": 4.033857981731577, "count": 14, "label": 1, "mean_dnbr": 0.226640937116267}}, {"type": "Feature", "geometry": {"geodesic": false, "type": "Polygon", "coordinates": [[[31.935931721182243, 36.696693431891056], [31.937548688693653, 36.696693431891056], [31.937548688693653, 36.69723242106153], [31.936470710352722, 36.69723242106153], [31.936470710352722, 36.697771410232], [31.937009699523202, 36.697771410232], [31.937009699523202, 36.698849388572945], [31.936470710352722, 36.698849388572945], [31.936470710352722, 36.69992736691389], [31.935931721182243, 36.69992736691389], [31.935931721182243, 36.69938837774342], [31.935392732011763, 36.69938837774342], [31.935392732011763, 36.69992736691389], [31.934314753670833, 36.69992736691389], [31.934314753670833, 36.698849388572945], [31.935392732011763, 36.698849388572945], [31.935392732011763, 36.69831039940247], [31.933775764500353, 36.69831039940247], [31.933775764500353, 36.69723242106153], [31.935931721182243, 36.69723242106153], [31.935931721182243, 36.696693431891056]]]}, "id": "+393212+87762", "properties": {"area_ha": 6.912014810387074, "count": 24, "label": 1, "mean_dnbr": 0.23084594874950545}}, {"type": "Feature", "geometry": {"geodesic": false, "type": "Polygon", "coordinates": [[[31.94024363454602, 36.69938837774342], [31.9407826237165, 36.69938837774342], [31.9407826237165, 36.70100534525483], [31.94024363454602, 36.70100534525483], [31.94024363454602, 36.70208332359577], [31.93862666703461, 36.70208332359577], [31.93862666703461, 36.70100534525483], [31.938087677864132, 36.70100534525483], [31.938087677864132, 36.7015443344253], [31.937009699523202, 36.7015443344253], [31.937009699523202, 36.70208332359577], [31.935931721182243, 36.70208332359577], [31.935931721182243, 36.7015443344253], [31.934853742841312, 36.7015443344253], [31.934853742841312, 36.70100534525483], [31.935392732011763, 36.70100534525483], [31.935392732011763, 36.700466356084355], [31.937548688693653, 36.700466356084355], [31.937548688693653, 36.69938837774342], [31.93862666703461, 36.69938837774342], [31.93862666703461, 36.69992736691389], [31.94024363454602, 36.69992736691389], [31.94024363454602, 36.69938837774342]]]}, "id": "+393218+87757", "properties": {"area_ha": 9.503700937510253, "count": 33, "label": 1, "mean_dnbr": 0.22863285654961166}}, {"type": "Feature", "geometry": {"geodesic": false, "type": "Polygon", "coordinates": [[[31.9445555479098, 36.658964189958034], [31.94563352625073, 36.658964189958034], [31.94563352625073, 36.65950317912851], [31.94617251542121, 36.65950317912851], [31.94617251542121, 36.661120146639924], [31.9445555479098, 36.661120146639924], [31.9445555479098, 36.66058115746945], [31.94347756956884, 36.66058115746945], [31.94347756956884, 36.66004216829898], [31.94401655873932, 36.66004216829898], [31.94401655873932, 36.65950317912851], [31.9445555479098, 36.65950317912851], [31.9445555479098, 36.658964189958034]]]}, "id": "+393227+87832", "properties": {"area_ha": 4.034013387138401, "count": 14, "label": 1, "mean_dnbr": 0.2604183478608963}}, {"type": "Feature", "geometry": {"geodesic": false, "type": "Polygon", "coordinates": [[[31.94509453708028, 36.7015443344253], [31.94671150459169, 36.7015443344253], [31.94671150459169, 36.70208332359577], [31.94617251542121, 36.70208332359577], [31.94617251542121, 36.702622312766245], [31.94671150459169, 36.702622312766245], [31.94671150459169, 36.70316130193672], [31.9483284721031, 36.70316130193672], [31.9483284721031, 36.70423928027766], [31.94778948293262, 36.70423928027766], [31.94778948293262, 36.70370029110719], [31.94725049376214, 36.70370029110719], [31.94725049376214, 36.70423928027766], [31.94563352625073, 36.70423928027766], [31.94563352625073, 36.70316130193672], [31.9445555479098, 36.70316130193672], [31.9445555479098, 36.702622312766245], [31.94509453708028, 36.702622312766245], [31.94509453708028, 36.7015443344253]]]}, "id": "+393229+87753", "properties": {"area_ha": 5.183689971615407, "count": 18, "label": 1, "mean_dnbr": 0.23943006861318847}}, {"type": "Feature", "geometry": {"geodesic": false, "type": "Polygon", "coordinates": [[[31.956952298830657, 36.661120146639924], [31.95910825551252, 36.661120146639924], [31.95910825551252, 36.66219812498087], [31.958030277171588, 36.66219812498087], [31.958030277171588, 36.66273711415134], [31.95749128800111, 36.66273711415134], [31.95749128800111, 36.66219812498087], [31.956952298830657, 36.66219812498087], [31.956952298830657, 36.66273711415134], [31.956413309660178, 36.66273711415134], [31.956413309660178, 36.66327610332181], [31.9558743204897, 36.66327610332181], [31.9558743204897, 36.66219812498087], [31.956952298830657, 36.66219812498087], [31.956952298830657, 36.661120146639924]]]}, "id": "+393252+87828", "properties": {"area_ha": 3.4576337480958865, "count": 12, "label": 1, "mean_dnbr": 0.2644706057407669}}, {"type": "Feature", "geometry": {"geodesic": false, "type": "Polygon", "coordinates": [[[31.983901757354232, 36.618001013002186], [31.9865967032066, 36.618001013002186], [31.9865967032066, 36.61907899134313], [31.985518724865642, 36.61907899134313], [31.985518724865642, 36.6196179805136], [31.98444074652471, 36.6196179805136], [31.98444074652471, 36.620156969684075], [31.983901757354232, 36.620156969684075], [31.983901757354232, 36.618001013002186]]]}, "id": "+393303+87908", "properties": {"area_ha": 4.036162823158876, "count": 14, "label": 1, "mean_dnbr": 0.20657303401353277}}, {"type": "Feature", "geometry": {"geodesic": false, "type": "Polygon", "coordinates": [[[31.987135692377052, 36.57757682521681], [31.98767468154753, 36.57757682521681], [31.98767468154753, 36.57811581438728], [31.988752659888462, 36.57811581438728], [31.988752659888462, 36.579193792728226], [31.98821367071801, 36.579193792728226], [31.98821367071801, 36.580810760239636], [31.988752659888462, 36.580810760239636], [31.988752659888462, 36.58134974941011], [31.99144760574083, 36.58134974941011], [31.99144760574083, 36.58188873858058], [31.9903696273999, 36.58188873858058], [31.9903696273999, 36.58242772775105], [31.99144760574083, 36.58242772775105], [31.99144760574083, 36.59374650033096], [31.98983063822942, 36.59374650033096], [31.98983063822942, 36.593207511160486], [31.98821367071801, 36.593207511160486], [31.98821367071801, 36.59428548950143], [31.985518724865642, 36.59428548950143], [31.985518724865642, 36.5948244786719], [31.98444074652471, 36.5948244786719], [31.98444074652471, 36.59428548950143], [31.983362768183753, 36.59428548950143], [31.983362768183753, 36.59374650033096], [31.980128833160933, 36.59374650033096], [31.980128833160933, 36.59212953281954], [31.980667822331412, 36.59212953281954], [31.980667822331412, 36.591051554478604], [31.981745800672343, 36.591051554478604], [31.981745800672343, 36.591590543649076], [31.982823779013273, 36.591590543649076], [31.982823779013273, 36.591051554478604], [31.982284789842822, 36.591051554478604], [31.982284789842822, 36.59051256530813], [31.980667822331412, 36.59051256530813], [31.980667822331412, 36.588895597796714], [31.980128833160933, 36.588895597796714], [31.980128833160933, 36.58835660862624], [31.979050854819974, 36.58835660862624], [31.979050854819974, 36.58781761945577], [31.978511865649523, 36.58781761945577], [31.978511865649523, 36.58835660862624], [31.977433887308564, 36.58835660862624], [31.977433887308564, 36.5872786302853], [31.976355908967633, 36.5872786302853], [31.976355908967633, 36.58835660862624], [31.975816919797154, 36.58835660862624], [31.975816919797154, 36.5872786302853], [31.976355908967633, 36.5872786302853], [31.976355908967633, 36.586739641114825], [31.976894898138084, 36.586739641114825], [31.976894898138084, 36.58620065194435], [31.977433887308564, 36.58620065194435], [31.977433887308564, 36.58566166277389], [31.977972876479043, 36.58566166277389], [31.977972876479043, 36.58458368443294], [31.978511865649523, 36.58458368443294], [31.978511865649523, 36.58242772775105], [31.979050854819974, 36.58242772775105], [31.979050854819974, 36.58188873858058], [31.981206811501863, 36.58188873858058], [31.981206811501863, 36.582966716921526], [31.982823779013273, 36.582966716921526], [31.982823779013273, 36.583505706092], [31.983362768183753, 36.583505706092], [31.983362768183753, 36.58404469526247], [31.98444074652471, 36.58404469526247], [31.98444074652471, 36.583505706092], [31.983901757354232, 36.583505706092], [31.983901757354232, 36.582966716921526], [31.983362768183753, 36.582966716921526], [31.983362768183753, 36.58242772775105], [31.983901757354232, 36.58242772775105], [31.983901757354232, 36.58188873858058], [31.984979735695163, 36.58188873858058], [31.984979735695163, 36.58242772775105], [31.985518724865642, 36.58242772775105], [31.985518724865642, 36.582966716921526], [31.98605771403612, 36.582966716921526], [31.98605771403612, 36.58242772775105], [31.9865967032066, 36.58242772775105], [31.9865967032066, 36.58188873858058], [31.98605771403612, 36.58188873858058], [31.98605771403612, 36.580271771069164], [31.985518724865642, 36.580271771069164], [31.985518724865642, 36.580810760239636], [31.984979735695163, 36.580810760239636], [31.984979735695163, 36.580271771069164], [31.985518724865642, 36.580271771069164], [31.985518724865642, 36.5797327818987], [31.98605771403612, 36.5797327818987], [31.98605771403612, 36.578654803557754], [31.987135692377052, 36.578654803557754], [31.987135692377052, 36.57757682521681]], [[31.982284789842822, 36.5872786302853], [31.982284789842822, 36.58835660862624], [31.981745800672343, 36.58835660862624], [31.981745800672343, 36.5872786302853], [31.982284789842822, 36.5872786302853]], [[31.98929164905894, 36.58620065194435], [31.98929164905894, 36.586739641114825], [31.988752659888462, 36.586739641114825], [31.988752659888462, 36.58620065194435], [31.98929164905894, 36.58620065194435]], [[31.98605771403612, 36.58458368443294], [31.98605771403612, 36.58566166277389], [31.985518724865642, 36.58566166277389], [31.985518724865642, 36.585122673603415], [31.984979735695163, 36.585122673603415], [31.984979735695163, 36.58458368443294], [31.98605771403612, 36.58458368443294]], [[31.98983063822942, 36.58458368443294], [31.98983063822942, 36.585122673603415], [31.98929164905894, 36.585122673603415], [31.98929164905894, 36.58458368443294], [31.98983063822942, 36.58458368443294]], [[31.9865967032066, 36.583505706092], [31.9865967032066, 36.58404469526247], [31.98605771403612, 36.58404469526247], [31.98605771403612, 36.583505706092], [31.9865967032066, 36.583505706092]], [[31.98929164905894, 36.582966716921526], [31.98929164905894, 36.58458368443294], [31.988752659888462, 36.58458368443294], [31.988752659888462, 36.58404469526247], [31.98821367071801, 36.58404469526247], [31.98821367071801, 36.582966716921526], [31.98929164905894, 36.582966716921526]], [[31.98929164905894, 36.58188873858058], [31.98929164905894, 36.58242772775105], [31.988752659888462, 36.58242772775105], [31.988752659888462, 36.58188873858058], [31.98929164905894, 36.58188873858058]]]}, "id": "+393305+87983", "properties": {"area_ha": 148.53411642377603, "count": 515, "label": 1, "mean_dnbr": 0.3723550783074893}}, {"type": "Feature", "geometry": {"geodesic": false, "type": "Polygon", "coordinates": [[[31.9865967032066, 36.636865633968696], [31.98929164905894, 36.636865633968696], [31.98929164905894, 36.63794361230964], [31.98983063822942, 36.63794361230964], [31.98983063822942, 36.63848260148011], [31.98929164905894, 36.63848260148011], [31.98929164905894, 36.639021590650586], [31.98983063822942, 36.639021590650586], [31.98983063822942, 36.63956057982106], [31.988752659888462, 36.63956057982106], [31.988752659888462, 36.64009956899153], [31.98821367071801, 36.64009956899153], [31.98821367071801, 36.63956057982106], [31.98767468154753, 36.63956057982106], [31.98767468154753, 36.63848260148011], [31.987135692377052, 36.63848260148011], [31.987135692377052, 36.639021590650586], [31.984979735695163, 36.639021590650586], [31.984979735695163, 36.63794361230964], [31.9865967032066, 36.63794361230964], [31.9865967032066, 36.636865633968696]]]}, "id": "+393308+87873", "properties": {"area_ha": 8.934979216369566, "count": 31, "label": 1, "mean_dnbr": 0.23100784987811288}}]}