{"type": "FeatureCollection", "columns": {"area_ha": "Number", "count": "Long<0, 4294967295>", "label": "Byte<0, 1>", "mean_dnbr": "Object", "system:index": "String"}, "features": [{"type": "Feature", "geometry": {"geodesic": false, "type": "Polygon", "coordinates": [[[32.28573569281838, 36.27520390058218], [32.28627468198886, 36.27520390058218], [32.28627468198886, 36.27574288975265], [32.28681367115934, 36.27574288975265], [32.28681367115934, 36.27628187892312], [32.28789164950027, 36.27628187892312], [32.28789164950027, 36.27735985726407], [32.28843063867075, 36.27735985726407], [32.28843063867075, 36.27789884643454], [32.288969627841226, 36.27789884643454], [32.288969627841226, 36.278437835605004], [32.287352660329816, 36.278437835605004], [32.287352660329816, 36.27897682477548], [32.28627468198886, 36.27897682477548], [32.28627468198886, 36.27951581394595], [32.288969627841226, 36.27951581394595], [32.288969627841226, 36.28005480311642], [32.290047606182156, 36.28005480311642], [32.290047606182156, 36.28059379228689], [32.290586595352636, 36.28059379228689], [32.290586595352636, 36.281132781457366], [32.291125584523115, 36.281132781457366], [32.291125584523115, 36.28274974896878], [32.291664573693566, 36.28274974896878], [32.291664573693566, 36.284905705650665], [32.290586595352636, 36.284905705650665], [32.290586595352636, 36.2843667164802], [32.28950861701168, 36.2843667164802], [32.28950861701168, 36.284905705650665], [32.28681367115934, 36.284905705650665], [32.28681367115934, 36.2843667164802], [32.28627468198886, 36.2843667164802], [32.28627468198886, 36.28382772730973], [32.28573569281838, 36.28382772730973], [32.28573569281838, 36.28274974896878], [32.28411872530697, 36.28274974896878], [32.28411872530697, 36.281132781457366], [32.28627468198886, 36.281132781457366], [32.28627468198886, 36.28167177062784], [32.28681367115934, 36.28167177062784], [32.28681367115934, 36.281132781457366], [32.287352660329816, 36.281132781457366], [32.287352660329816, 36.28059379228689], [32.28627468198886, 36.28059379228689], [32.28627468198886, 36.27951581394595], [32.28573569281838, 36.27951581394595], [32.28573569281838, 36.278437835605004], [32.28411872530697, 36.278437835605004], [32.28411872530697, 36.27789884643454], [32.28357973613649, 36.27789884643454], [32.28357973613649, 36.27735985726407], [32.28250175779556, 36.27735985726407], [32.28250175779556, 36.276820868093594], [32.28304074696604, 36.276820868093594], [32.28304074696604, 36.27628187892312], [32.28357973613649, 36.27628187892312], [32.28357973613649, 36.27574288975265], [32.28465771447745, 36.27574288975265], [32.28465771447745, 36.27520390058218], [32.28519670364793, 36.27520390058218], [32.28519670364793, 36.27574288975265], [32.28573569281838, 36.27574288975265], [32.28573569281838, 36.27520390058218]], [[32.290586595352636, 36.28274974896878], [32.290586595352636, 36.28382772730973], [32.290047606182156, 36.28382772730973], [32.290047606182156, 36.28274974896878], [32.290586595352636, 36.28274974896878]]]}, "id": "+393859+88544", "properties": {"area_ha": 41.11722398202066, "count": 142, "label": 1, "mean_dnbr": 0.4492168358569157}}, {"type": "Feature", "geometry": {"geodesic": false, "type": "Polygon", "coordinates": [[[32.56277612644084, 36.91714000261399], [32.56331511561132, 36.91714000261399], [32.56331511561132, 36.917678991784456], [32.5638541047818, 36.917678991784456], [32.5638541047818, 36.9187569701254], [32.56331511561132, 36.9187569701254], [32.56331511561132, 36.91929595929587], [32.5638541047818, 36.91929595929587], [32.5638541047818, 36.919834948466345], [32.56493208312273, 36.919834948466345], [32.56493208312273, 36.92091292680729], [32.56331511561132, 36.92091292680729], [32.56331511561132, 36.919834948466345], [32.56277612644084, 36.919834948466345], [32.56277612644084, 36.91821798095493], [32.56331511561132, 36.91821798095493], [32.56331511561132, 36.917678991784456], [32.56277612644084, 36.917678991784456], [32.56277612644084, 36.91714000261399]]]}, "id": "+394373+87353", "properties": {"area_ha": 3.7332121042541133, "count": 13, "label": 1, "mean_dnbr": 0.4064932684664944}}, {"type": "Feature", "geometry": {"geodesic": false, "type": "Polygon", "coordinates": [[[32.571938942338875, 36.921990905148235], [32.573016920679805, 36.921990905148235], [32.573016920679805, 36.923607872659645], [32.573555909850285, 36.923607872659645], [32.573555909850285, 36.92684180768248], [32.574094899020764, 36.92684180768248], [32.574094899020764, 36.92791978602342], [32.574633888191215, 36.92791978602342], [32.574633888191215, 36.928458775193896], [32.575711866532174, 36.928458775193896], [32.575711866532174, 36.92899776436437], [32.576250855702654, 36.92899776436437], [32.576250855702654, 36.92953675353484], [32.576789844873105, 36.92953675353484], [32.576789844873105, 36.930075742705306], [32.577328834043584, 36.930075742705306], [32.577328834043584, 36.93115372104625], [32.576789844873105, 36.93115372104625], [32.576789844873105, 36.93061473187578], [32.576250855702654, 36.93061473187578], [32.576250855702654, 36.92953675353484], [32.574633888191215, 36.92953675353484], [32.574633888191215, 36.92899776436437], [32.574094899020764, 36.92899776436437], [32.574094899020764, 36.928458775193896], [32.573016920679805, 36.928458775193896], [32.573016920679805, 36.92738079685295], [32.572477931509326, 36.92738079685295], [32.572477931509326, 36.92684180768248], [32.571938942338875, 36.92684180768248], [32.571938942338875, 36.926302818512006], [32.570860963997916, 36.926302818512006], [32.570860963997916, 36.92414686183012], [32.571399953168395, 36.92414686183012], [32.571399953168395, 36.92252989431871], [32.571938942338875, 36.92252989431871], [32.571938942338875, 36.921990905148235]], [[32.571938942338875, 36.92522484017106], [32.571938942338875, 36.925763829341534], [32.571399953168395, 36.925763829341534], [32.571399953168395, 36.92522484017106], [32.571938942338875, 36.92522484017106]]]}, "id": "+394391+87344", "properties": {"area_ha": 14.931552206050489, "count": 52, "label": 1, "mean_dnbr": 0.7394268996532909}}, {"type": "Feature", "geometry": {"geodesic": false, "type": "Polygon", "coordinates": [[[32.572477931509326, 36.915523035102574], [32.573016920679805, 36.915523035102574], [32.573016920679805, 36.916062024273046], [32.573555909850285, 36.916062024273046], [32.573555909850285, 36.91660101344352], [32.574094899020764, 36.91660101344352], [32.574094899020764, 36.917678991784456], [32.574633888191215, 36.917678991784456], [32.574633888191215, 36.9187569701254], [32.575711866532174, 36.9187569701254], [32.575711866532174, 36.919834948466345], [32.574094899020764, 36.919834948466345], [32.574094899020764, 36.92037393763682], [32.573016920679805, 36.92037393763682], [32.573016920679805, 36.92091292680729], [32.571938942338875, 36.92091292680729], [32.571938942338875, 36.92145191597776], [32.571399953168395, 36.92145191597776], [32.571399953168395, 36.92037393763682], [32.570321974827465, 36.92037393763682], [32.570321974827465, 36.919834948466345], [32.569782985656985, 36.919834948466345], [32.569782985656985, 36.91929595929587], [32.570321974827465, 36.91929595929587], [32.570321974827465, 36.9187569701254], [32.570860963997916, 36.9187569701254], [32.570860963997916, 36.917678991784456], [32.572477931509326, 36.917678991784456], [32.572477931509326, 36.91714000261399], [32.573016920679805, 36.91714000261399], [32.573016920679805, 36.91660101344352], [32.571938942338875, 36.91660101344352], [32.571938942338875, 36.916062024273046], [32.571399953168395, 36.916062024273046], [32.571399953168395, 36.915523035102574], [32.571938942338875, 36.915523035102574], [32.571938942338875, 36.916062024273046], [32.572477931509326, 36.916062024273046], [32.572477931509326, 36.915523035102574]], [[32.574633888191215, 36.9187569701254], [32.574633888191215, 36.91929595929587], [32.574094899020764, 36.91929595929587], [32.574094899020764, 36.9187569701254], [32.574633888191215, 36.9187569701254]], [[32.574094899020764, 36.917678991784456], [32.574094899020764, 36.91821798095493], [32.573555909850285, 36.91821798095493], [32.573555909850285, 36.917678991784456], [32.574094899020764, 36.917678991784456]]]}, "id": "+394391+87356", "properties": {"area_ha": 15.50731765649565, "count": 54, "label": 1, "mean_dnbr": 0.6333862945777772}}, {"type": "Feature", "geometry": {"geodesic": false, "type": "Polygon", "coordinates": [[[32.580562769066404, 36.164711120635474], [32.58110175823688, 36.164711120635474], [32.58110175823688, 36.16578909897642], [32.58217973657784, 36.16578909897642], [32.58217973657784, 36.16632808814689], [32.580562769066404, 36.16632808814689], [32.580562769066404, 36.16686707731736], [32.578406812384515, 36.16686707731736], [32.578406812384515, 36.16578909897642], [32.580562769066404, 36.16578909897642], [32.580562769066404, 36.164711120635474]]]}, "id": "+394406+88749", "properties": {"area_ha": 3.7697686572789912, "count": 13, "label": 1, "mean_dnbr": 0.21506036374560908}}, {"type": "Feature", "geometry": {"geodesic": false, "type": "Polygon", "coordinates": [[[32.58271872574829, 36.90474325169314], [32.58379670408925, 36.90474325169314], [32.58379670408925, 36.90797718671597], [32.58325771491877, 36.90797718671597], [32.58325771491877, 36.90851617588644], [32.58271872574829, 36.90851617588644], [32.58271872574829, 36.90905516505691], [32.58217973657784, 36.90905516505691], [32.58217973657784, 36.909594154227385], [32.58271872574829, 36.909594154227385], [32.58271872574829, 36.91013314339786], [32.58164074740736, 36.91013314339786], [32.58164074740736, 36.90851617588644], [32.58110175823688, 36.90851617588644], [32.58110175823688, 36.90797718671597], [32.58164074740736, 36.90797718671597], [32.58164074740736, 36.90689920837502], [32.58217973657784, 36.90689920837502], [32.58217973657784, 36.90528224086361], [32.58271872574829, 36.90528224086361], [32.58271872574829, 36.90474325169314]]]}, "id": "+394411+87376", "properties": {"area_ha": 8.042041988970663, "count": 28, "label": 1, "mean_dnbr": 0.9407267743181568}}, {"type": "Feature", "geometry": {"geodesic": false, "type": "Polygon", "coordinates": [[[32.59295951998726, 36.90474325169314], [32.59403749832822, 36.90474325169314], [32.59403749832822, 36.90528224086361], [32.59565446583963, 36.90528224086361], [32.59565446583963, 36.90582123003408], [32.59619345501011, 36.90582123003408], [32.59619345501011, 36.90636021920455], [32.59673244418056, 36.90636021920455], [32.59673244418056, 36.907438197545495], [32.59834941169197, 36.907438197545495], [32.59834941169197, 36.90797718671597], [32.60104435754434, 36.90797718671597], [32.60104435754434, 36.90851617588644], [32.60050536837386, 36.90851617588644], [32.60050536837386, 36.90905516505691], [32.59942739003293, 36.90905516505691], [32.59942739003293, 36.909594154227385], [32.59834941169197, 36.909594154227385], [32.59834941169197, 36.91013314339786], [32.59781042252152, 36.91013314339786], [32.59781042252152, 36.909594154227385], [32.59834941169197, 36.909594154227385], [32.59834941169197, 36.90905516505691], [32.59457648749867, 36.90905516505691], [32.59457648749867, 36.90851617588644], [32.59403749832822, 36.90851617588644], [32.59403749832822, 36.909594154227385], [32.59295951998726, 36.909594154227385], [32.59295951998726, 36.91067213256833], [32.59242053081678, 36.91067213256833], [32.59242053081678, 36.9112111217388], [32.59134255247585, 36.9112111217388], [32.59134255247585, 36.91175011090927], [32.59188154164633, 36.91175011090927], [32.59188154164633, 36.91282808925021], [32.59134255247585, 36.91282808925021], [32.59134255247585, 36.913367078420684], [32.59080356330537, 36.913367078420684], [32.59080356330537, 36.91228910007974], [32.59134255247585, 36.91228910007974], [32.59134255247585, 36.91175011090927], [32.59080356330537, 36.91175011090927], [32.59080356330537, 36.9112111217388], [32.59026457413492, 36.9112111217388], [32.59026457413492, 36.90851617588644], [32.59080356330537, 36.90851617588644], [32.59080356330537, 36.90689920837502], [32.59134255247585, 36.90689920837502], [32.59134255247585, 36.90582123003408], [32.59295951998726, 36.90582123003408], [32.59295951998726, 36.90474325169314]], [[32.59134255247585, 36.90905516505691], [32.59134255247585, 36.909594154227385], [32.59080356330537, 36.909594154227385], [32.59080356330537, 36.90905516505691], [32.59134255247585, 36.90905516505691]]]}, "id": "+394430+87376", "properties": {"area_ha": 33.31664665190258, "count": 116, "label": 1, "mean_dnbr": 0.8166281395766894}}, {"type": "Feature", "geometry": {"geodesic": false, "type": "Polygon", "coordinates": [[[32.60104435754434, 36.90420426252267], [32.60104435754434, 36.903665273352196], [32.60320031422623, 36.903665273352196], [32.60320031422623, 36.90258729501125], [32.60373930339671, 36.90258729501125], [32.60373930339671, 36.90043133832936], [32.60320031422623, 36.90043133832936], [32.60320031422623, 36.89989234915889], [32.60373930339671, 36.89989234915889], [32.60373930339671, 36.899353359988424], [32.60427829256716, 36.899353359988424], [32.60427829256716, 36.89881437081795], [32.60535627090812, 36.89881437081795], [32.60535627090812, 36.899353359988424], [32.60643424924905, 36.899353359988424], [32.60643424924905, 36.89827538164748], [32.61020717344235, 36.89827538164748], [32.61020717344235, 36.89773639247701], [32.61074616261283, 36.89773639247701], [32.61074616261283, 36.89558043579512], [32.61020717344235, 36.89558043579512], [32.61020717344235, 36.895041446624646], [32.611285151783306, 36.895041446624646], [32.611285151783306, 36.8939634682837], [32.614519086806126, 36.8939634682837], [32.614519086806126, 36.89342447911323], [32.615058075976606, 36.89342447911323], [32.615058075976606, 36.89288548994276], [32.615597065147085, 36.89288548994276], [32.615597065147085, 36.89180751160182], [32.616136054317536, 36.89180751160182], [32.616136054317536, 36.891268522431346], [32.616675043488016, 36.891268522431346], [32.616675043488016, 36.8901905440904], [32.617214032658495, 36.8901905440904], [32.617214032658495, 36.88965155491993], [32.616675043488016, 36.88965155491993], [32.616675043488016, 36.88911256574946], [32.617753021828975, 36.88911256574946], [32.617753021828975, 36.890729533260874], [32.617214032658495, 36.890729533260874], [32.617214032658495, 36.89342447911323], [32.616675043488016, 36.89342447911323], [32.616675043488016, 36.8939634682837], [32.615597065147085, 36.8939634682837], [32.615597065147085, 36.895041446624646], [32.612902119294716, 36.895041446624646], [32.612902119294716, 36.89665841413606], [32.61236313012424, 36.89665841413606], [32.61236313012424, 36.89881437081795], [32.613441108465196, 36.89881437081795], [32.613441108465196, 36.89827538164748], [32.615597065147085, 36.89827538164748], [32.615597065147085, 36.89773639247701], [32.616136054317536, 36.89773639247701], [32.616136054317536, 36.897197403306535], [32.616675043488016, 36.897197403306535], [32.616675043488016, 36.89773639247701], [32.616136054317536, 36.89773639247701], [32.616136054317536, 36.89827538164748], [32.617753021828975, 36.89827538164748], [32.617753021828975, 36.899353359988424], [32.619369989340385, 36.899353359988424], [32.619369989340385, 36.89881437081795], [32.621525946022274, 36.89881437081795], [32.621525946022274, 36.899353359988424], [32.620447967681315, 36.899353359988424], [32.620447967681315, 36.89989234915889], [32.619908978510864, 36.89989234915889], [32.619908978510864, 36.90043133832936], [32.61236313012424, 36.90043133832936], [32.61236313012424, 36.900970327499834], [32.611824140953786, 36.900970327499834], [32.611824140953786, 36.90043133832936], [32.60912919510142, 36.90043133832936], [32.60912919510142, 36.900970327499834], [32.60859020593094, 36.900970327499834], [32.60859020593094, 36.90150931667031], [32.60643424924905, 36.90150931667031], [32.60643424924905, 36.90258729501125], [32.6058952600786, 36.90258729501125], [32.6058952600786, 36.903665273352196], [32.60643424924905, 36.903665273352196], [32.60643424924905, 36.90474325169314], [32.60697323841953, 36.90474325169314], [32.60697323841953, 36.90528224086361], [32.6058952600786, 36.90528224086361], [32.6058952600786, 36.90582123003408], [32.60373930339671, 36.90582123003408], [32.60373930339671, 36.90636021920455], [32.60158334671482, 36.90636021920455], [32.60158334671482, 36.90582123003408], [32.6021223358853, 36.90582123003408], [32.6021223358853, 36.90474325169314], [32.60158334671482, 36.90474325169314], [32.60158334671482, 36.90420426252267], [32.60104435754434, 36.90420426252267]], [[32.60535627090812, 36.90420426252267], [32.60535627090812, 36.90474325169314], [32.60481728173764, 36.90474325169314], [32.60481728173764, 36.90420426252267], [32.60535627090812, 36.90420426252267]], [[32.60427829256716, 36.903665273352196], [32.60427829256716, 36.90474325169314], [32.60320031422623, 36.90474325169314], [32.60320031422623, 36.90420426252267], [32.60373930339671, 36.90420426252267], [32.60373930339671, 36.903665273352196], [32.60427829256716, 36.903665273352196]], [[32.60805121676049, 36.90043133832936], [32.60805121676049, 36.900970327499834], [32.60751222759001, 36.900970327499834], [32.60751222759001, 36.90043133832936], [32.60805121676049, 36.90043133832936]], [[32.60751222759001, 36.89989234915889], [32.60751222759001, 36.90043133832936], [32.60697323841953, 36.90043133832936], [32.60697323841953, 36.89989234915889], [32.60751222759001, 36.89989234915889]]]}, "id": "+394474+87405", "properties": {"area_ha": 70.08821969043544, "count": 244, "label": 1, "mean_dnbr": 0.8794304730817344}}, {"type": "Feature", "geometry": {"geodesic": false, "type": "Polygon", "coordinates": [[[32.62368190270416, 36.899353359988424], [32.624759881045094, 36.899353359988424], [32.624759881045094, 36.89989234915889], [32.62529887021557, 36.89989234915889], [32.62529887021557, 36.90043133832936], [32.624759881045094, 36.90043133832936], [32.624759881045094, 36.900970327499834], [32.62529887021557, 36.900970327499834], [32.62529887021557, 36.90150931667031], [32.624220891874614, 36.90150931667031], [32.624220891874614, 36.90204830584078], [32.62368190270416, 36.90204830584078], [32.62368190270416, 36.90150931667031], [32.622064935192725, 36.90150931667031], [32.622064935192725, 36.900970327499834], [32.622603924363204, 36.900970327499834], [32.622603924363204, 36.89989234915889], [32.62368190270416, 36.89989234915889], [32.62368190270416, 36.899353359988424]], [[32.624220891874614, 36.900970327499834], [32.624220891874614, 36.90150931667031], [32.62368190270416, 36.90150931667031], [32.62368190270416, 36.900970327499834], [32.624220891874614, 36.900970327499834]]]}, "id": "+394487+87386", "properties": {"area_ha": 4.883095681265313, "count": 17, "label": 1, "mean_dnbr": 0.5166576613223871}}, {"type": "Feature", "geometry": {"geodesic": false, "type": "Polygon", "coordinates": [[[32.79669742642557, 36.09787646349698], [32.79831439393698, 36.09787646349698], [32.79831439393698, 36.09841545266745], [32.799392372277936, 36.09841545266745], [32.799392372277936, 36.098954441837925], [32.800470350618866, 36.098954441837925], [32.800470350618866, 36.09841545266745], [32.801009339789346, 36.09841545266745], [32.801009339789346, 36.098954441837925], [32.800470350618866, 36.098954441837925], [32.800470350618866, 36.0994934310084], [32.799392372277936, 36.0994934310084], [32.799392372277936, 36.10003242017887], [32.79831439393698, 36.10003242017887], [32.79831439393698, 36.10057140934934], [32.797775404766526, 36.10057140934934], [32.797775404766526, 36.101110398519815], [32.797236415596046, 36.101110398519815], [32.797236415596046, 36.10003242017887], [32.797775404766526, 36.10003242017887], [32.797775404766526, 36.0994934310084], [32.797236415596046, 36.0994934310084], [32.797236415596046, 36.09841545266745], [32.79669742642557, 36.09841545266745], [32.79669742642557, 36.09787646349698]]]}, "id": "+394809+88873", "properties": {"area_ha": 5.804584876263134, "count": 20, "label": 1, "mean_dnbr": 0.22748757921646273}}, {"type": "Feature", "geometry": {"geodesic": false, "type": "Polygon", "coordinates": [[[32.88024074784869, 36.078472853360005], [32.88239670453058, 36.078472853360005], [32.88239670453058, 36.080089820871414], [32.8818577153601, 36.080089820871414], [32.8818577153601, 36.08062881004189], [32.88293569370106, 36.08062881004189], [32.88293569370106, 36.08170678838283], [32.88131872618962, 36.08170678838283], [32.88131872618962, 36.08116779921236], [32.8818577153601, 36.08116779921236], [32.8818577153601, 36.08062881004189], [32.88077973701917, 36.08062881004189], [32.88077973701917, 36.08170678838283], [32.88024074784869, 36.08170678838283], [32.88024074784869, 36.08116779921236], [32.87970175867821, 36.08116779921236], [32.87970175867821, 36.08062881004189], [32.88077973701917, 36.08062881004189], [32.88077973701917, 36.07955083170094], [32.88024074784869, 36.07955083170094], [32.88024074784869, 36.078472853360005]]]}, "id": "+394965+88909", "properties": {"area_ha": 6.096295049625841, "count": 21, "label": 1, "mean_dnbr": 0.25162467337857236}}]}