{"type": "FeatureCollection", "columns": {"area_ha": "Number", "count": "Long<0, 4294967295>", "label": "Byte<0, 1>", "mean_dnbr": "Object", "system:index": "String"}, "features": [{"type": "Feature", "geometry": {"geodesic": false, "type": "Polygon", "coordinates": [[[33.03924255313785, 35.3411356681547], [33.041937498990194, 35.3411356681547], [33.041937498990194, 35.342213646495644], [33.04247648816067, 35.342213646495644], [33.04247648816067, 35.342752635666116], [33.041937498990194, 35.342752635666116], [33.041937498990194, 35.342213646495644], [33.04139850981974, 35.342213646495644], [33.04139850981974, 35.342752635666116], [33.040320531478784, 35.342752635666116], [33.040320531478784, 35.342213646495644], [33.039781542308305, 35.342213646495644], [33.039781542308305, 35.342752635666116], [33.038703563967374, 35.342752635666116], [33.038703563967374, 35.342213646495644], [33.03924255313785, 35.342213646495644], [33.03924255313785, 35.3411356681547]]]}, "id": "+395261+90277", "properties": {"area_ha": 4.395003285228498, "count": 15, "label": 1, "mean_dnbr": 0.2382556044666017}}]}