{"type": "FeatureCollection", "columns": {"area_ha": "Number", "count": "Long<0, 4294967295>", "label": "Byte<0, 1>", "mean_dnbr": "Object", "system:index": "String"}, "features": [{"type": "Feature", "geometry": {"geodesic": false, "type": "Polygon", "coordinates": [[[32.713693094172925, 36.1318327812367], [32.714771072513884, 36.1318327812367], [32.714771072513884, 36.133988737918585], [32.717466018366224, 36.133988737918585], [32.717466018366224, 36.13560570543], [32.716927029195745, 36.13560570543], [32.716927029195745, 36.13506671625953], [32.71638804002529, 36.13506671625953], [32.71638804002529, 36.13452772708906], [32.714771072513884, 36.13452772708906], [32.714771072513884, 36.133988737918585], [32.713693094172925, 36.133988737918585], [32.713693094172925, 36.13452772708906], [32.712615115831994, 36.13452772708906], [32.712615115831994, 36.13344974874812], [32.713154105002445, 36.13344974874812], [32.713154105002445, 36.13291075957765], [32.713693094172925, 36.13291075957765], [32.713693094172925, 36.1318327812367]]]}, "id": "+394654+88810", "properties": {"area_ha": 6.092126200618043, "count": 21, "label": 1, "mean_dnbr": 0.17833716470341301}}, {"type": "Feature", "geometry": {"geodesic": false, "type": "Polygon", "coordinates": [[[32.92821078402068, 35.1886017329112], [32.92928876236161, 35.1886017329112], [32.92928876236161, 35.18967971125215], [32.92982775153209, 35.18967971125215], [32.92982775153209, 35.19021870042262], [32.92874977319113, 35.19021870042262], [32.92874977319113, 35.191296678763564], [32.92928876236161, 35.191296678763564], [32.92928876236161, 35.191835667934036], [32.92821078402068, 35.191835667934036], [32.92821078402068, 35.1886017329112]]]}, "id": "+395052+90560", "properties": {"area_ha": 3.2290576228888694, "count": 11, "label": 1, "mean_dnbr": 0.30730792547881297}}, {"type": "Feature", "geometry": {"geodesic": false, "type": "Polygon", "coordinates": [[[32.95408226420332, 35.15895732853526], [32.95462125337377, 35.15895732853526], [32.95462125337377, 35.1600353068762], [32.95408226420332, 35.1600353068762], [32.95408226420332, 35.160574296046676], [32.95354327503284, 35.160574296046676], [32.95354327503284, 35.16111328521715], [32.95192630752143, 35.16111328521715], [32.95192630752143, 35.1600353068762], [32.952465296691884, 35.1600353068762], [32.952465296691884, 35.15949631770573], [32.95408226420332, 35.15949631770573], [32.95408226420332, 35.15895732853526]]]}, "id": "+395099+90615", "properties": {"area_ha": 3.5239045515091347, "count": 12, "label": 1, "mean_dnbr": 0.29828799484218205}}]}