{"type": "FeatureCollection", "columns": {"area_ha": "Number", "count": "Long<0, 4294967295>", "label": "Byte<0, 1>", "mean_dnbr": "Object", "system:index": "String"}, "features": [{"type": "Feature", "geometry": {"geodesic": false, "type": "Polygon", "coordinates": [[[32.38113677599188, 36.83197971367946], [32.381675765162356, 36.83197971367946], [32.381675765162356, 36.83359668119087], [32.3805977868214, 36.83359668119087], [32.3805977868214, 36.83413567036134], [32.378441830139536, 36.83413567036134], [32.378441830139536, 36.834674659531814], [32.37790284096906, 36.834674659531814], [32.37790284096906, 36.835213648702286], [32.3768248626281, 36.835213648702286], [32.3768248626281, 36.83629162704323], [32.37574688428717, 36.83629162704323], [32.37574688428717, 36.83575263787276], [32.37628587345765, 36.83575263787276], [32.37628587345765, 36.835213648702286], [32.3768248626281, 36.835213648702286], [32.3768248626281, 36.834674659531814], [32.37736385179858, 36.834674659531814], [32.37736385179858, 36.83413567036134], [32.378441830139536, 36.83413567036134], [32.378441830139536, 36.83359668119087], [32.37898081930999, 36.83359668119087], [32.37898081930999, 36.833057692020404], [32.380058797650946, 36.833057692020404], [32.380058797650946, 36.83251870284993], [32.38113677599188, 36.83251870284993], [32.38113677599188, 36.83197971367946]]]}, "id": "+394036+87511", "properties": {"area_ha": 5.749839444104119, "count": 20, "label": 1, "mean_dnbr": 0.3581193705302114}}, {"type": "Feature", "geometry": {"geodesic": false, "type": "Polygon", "coordinates": [[[32.383292732673766, 36.83144072450899], [32.383831721844246, 36.83144072450899], [32.383831721844246, 36.83197971367946], [32.385448689355655, 36.83197971367946], [32.385448689355655, 36.83251870284993], [32.384909700185176, 36.83251870284993], [32.384909700185176, 36.83359668119087], [32.384370711014725, 36.83359668119087], [32.384370711014725, 36.833057692020404], [32.383831721844246, 36.833057692020404], [32.383831721844246, 36.83359668119087], [32.38275374350329, 36.83359668119087], [32.38275374350329, 36.833057692020404], [32.383292732673766, 36.833057692020404], [32.383292732673766, 36.83144072450899]]]}, "id": "+394040+87512", "properties": {"area_ha": 3.1624601637541137, "count": 11, "label": 1, "mean_dnbr": 0.328174395486674}}, {"type": "Feature", "geometry": {"geodesic": false, "type": "Polygon", "coordinates": [[[32.391916559401324, 36.81688801690625], [32.392455548571775, 36.81688801690625], [32.392455548571775, 36.81742700607672], [32.392994537742254, 36.81742700607672], [32.392994537742254, 36.81796599524719], [32.391916559401324, 36.81796599524719], [32.391916559401324, 36.818504984417665], [32.391377570230844, 36.818504984417665], [32.391377570230844, 36.81904397358814], [32.388143635208024, 36.81904397358814], [32.388143635208024, 36.81958296275861], [32.387604646037545, 36.81958296275861], [32.387604646037545, 36.82012195192908], [32.386526667696586, 36.82012195192908], [32.386526667696586, 36.820660941099554], [32.385987678526135, 36.820660941099554], [32.385987678526135, 36.82119993027002], [32.384909700185176, 36.82119993027002], [32.384909700185176, 36.82173891944049], [32.384370711014725, 36.82173891944049], [32.384370711014725, 36.82119993027002], [32.384909700185176, 36.82119993027002], [32.384909700185176, 36.820660941099554], [32.385448689355655, 36.820660941099554], [32.385448689355655, 36.82012195192908], [32.386526667696586, 36.82012195192908], [32.386526667696586, 36.81958296275861], [32.387065656867065, 36.81958296275861], [32.387065656867065, 36.81796599524719], [32.386526667696586, 36.81796599524719], [32.386526667696586, 36.81742700607672], [32.388143635208024, 36.81742700607672], [32.388143635208024, 36.81796599524719], [32.389221613548955, 36.81796599524719], [32.389221613548955, 36.818504984417665], [32.390299591889914, 36.818504984417665], [32.390299591889914, 36.81796599524719], [32.391916559401324, 36.81796599524719], [32.391916559401324, 36.81688801690625]]]}, "id": "+394056+87539", "properties": {"area_ha": 8.626467232843613, "count": 30, "label": 1, "mean_dnbr": 0.38184422480043095}}, {"type": "Feature", "geometry": {"geodesic": false, "type": "Polygon", "coordinates": [[[32.40539128866311, 36.78023675331417], [32.40593027783359, 36.78023675331417], [32.40593027783359, 36.78077574248464], [32.407547245345, 36.78077574248464], [32.407547245345, 36.781314731655115], [32.40700825617452, 36.781314731655115], [32.40700825617452, 36.78185372082559], [32.40646926700404, 36.78185372082559], [32.40646926700404, 36.78239270999606], [32.40485229949263, 36.78239270999606], [32.40485229949263, 36.781314731655115], [32.40431331032215, 36.781314731655115], [32.40431331032215, 36.78077574248464], [32.40539128866311, 36.78077574248464], [32.40539128866311, 36.78023675331417]], [[32.40593027783359, 36.78077574248464], [32.40593027783359, 36.781314731655115], [32.40539128866311, 36.781314731655115], [32.40539128866311, 36.78077574248464], [32.40593027783359, 36.78077574248464]]]}, "id": "+394081+87607", "properties": {"area_ha": 3.7399556680757677, "count": 13, "label": 1, "mean_dnbr": 0.5599805439460431}}, {"type": "Feature", "geometry": {"geodesic": false, "type": "Polygon", "coordinates": [[[32.5638541047818, 36.91390606759116], [32.56493208312273, 36.91390606759116], [32.56493208312273, 36.91444505676163], [32.566010061463686, 36.91444505676163], [32.566010061463686, 36.915523035102574], [32.56547107229321, 36.915523035102574], [32.56547107229321, 36.916062024273046], [32.56493208312273, 36.916062024273046], [32.56493208312273, 36.91660101344352], [32.564393093952276, 36.91660101344352], [32.564393093952276, 36.916062024273046], [32.56493208312273, 36.916062024273046], [32.56493208312273, 36.915523035102574], [32.564393093952276, 36.915523035102574], [32.564393093952276, 36.9149840459321], [32.5638541047818, 36.9149840459321], [32.5638541047818, 36.91390606759116]]]}, "id": "+394376+87359", "properties": {"area_ha": 3.1590524405862586, "count": 11, "label": 1, "mean_dnbr": 0.23771452823335626}}, {"type": "Feature", "geometry": {"geodesic": false, "type": "Polygon", "coordinates": [[[32.58271872574829, 36.90474325169314], [32.58325771491877, 36.90474325169314], [32.58325771491877, 36.90528224086361], [32.58271872574829, 36.90528224086361], [32.58271872574829, 36.90582123003408], [32.58325771491877, 36.90582123003408], [32.58325771491877, 36.90636021920455], [32.58379670408925, 36.90636021920455], [32.58379670408925, 36.90689920837502], [32.58325771491877, 36.90689920837502], [32.58325771491877, 36.90797718671597], [32.58217973657784, 36.90797718671597], [32.58217973657784, 36.90905516505691], [32.58164074740736, 36.90905516505691], [32.58164074740736, 36.90636021920455], [32.58217973657784, 36.90636021920455], [32.58217973657784, 36.90528224086361], [32.58271872574829, 36.90528224086361], [32.58271872574829, 36.90474325169314]]]}, "id": "+394410+87376", "properties": {"area_ha": 4.595474391248376, "count": 16, "label": 1, "mean_dnbr": 0.8990391620725969}}, {"type": "Feature", "geometry": {"geodesic": false, "type": "Polygon", "coordinates": [[[32.58972558496444, 36.9112111217388], [32.59080356330537, 36.9112111217388], [32.59080356330537, 36.91175011090927], [32.59134255247585, 36.91175011090927], [32.59134255247585, 36.91282808925021], [32.59188154164633, 36.91282808925021], [32.59188154164633, 36.913367078420684], [32.58972558496444, 36.913367078420684], [32.58972558496444, 36.91390606759116], [32.58864760662348, 36.91390606759116], [32.58864760662348, 36.915523035102574], [32.58810861745303, 36.915523035102574], [32.58810861745303, 36.91444505676163], [32.58756962828255, 36.91444505676163], [32.58756962828255, 36.916062024273046], [32.58595266077114, 36.916062024273046], [32.58595266077114, 36.91660101344352], [32.58649164994159, 36.91660101344352], [32.58649164994159, 36.91714000261399], [32.58541367160066, 36.91714000261399], [32.58541367160066, 36.91660101344352], [32.58487468243018, 36.91660101344352], [32.58487468243018, 36.91714000261399], [32.5843356932597, 36.91714000261399], [32.5843356932597, 36.917678991784456], [32.58487468243018, 36.917678991784456], [32.58487468243018, 36.91821798095493], [32.58541367160066, 36.91821798095493], [32.58541367160066, 36.91929595929587], [32.58487468243018, 36.91929595929587], [32.58487468243018, 36.9187569701254], [32.5843356932597, 36.9187569701254], [32.5843356932597, 36.91929595929587], [32.58325771491877, 36.91929595929587], [32.58325771491877, 36.919834948466345], [32.58164074740736, 36.919834948466345], [32.58164074740736, 36.92091292680729], [32.58110175823688, 36.92091292680729], [32.58110175823688, 36.919834948466345], [32.580562769066404, 36.919834948466345], [32.580562769066404, 36.92037393763682], [32.58002377989595, 36.92037393763682], [32.58002377989595, 36.92091292680729], [32.57948479072547, 36.92091292680729], [32.57948479072547, 36.921990905148235], [32.58002377989595, 36.921990905148235], [32.58002377989595, 36.92306888348918], [32.57948479072547, 36.92306888348918], [32.57948479072547, 36.921990905148235], [32.578945801554994, 36.921990905148235], [32.578945801554994, 36.923607872659645], [32.57786782321406, 36.923607872659645], [32.57786782321406, 36.92414686183012], [32.574633888191215, 36.92414686183012], [32.574633888191215, 36.923607872659645], [32.575711866532174, 36.923607872659645], [32.575711866532174, 36.92306888348918], [32.575172877361695, 36.92306888348918], [32.575172877361695, 36.92252989431871], [32.575711866532174, 36.92252989431871], [32.575711866532174, 36.92306888348918], [32.576250855702654, 36.92306888348918], [32.576250855702654, 36.923607872659645], [32.577328834043584, 36.923607872659645], [32.577328834043584, 36.92306888348918], [32.576789844873105, 36.92306888348918], [32.576789844873105, 36.921990905148235], [32.574633888191215, 36.921990905148235], [32.574633888191215, 36.92252989431871], [32.573016920679805, 36.92252989431871], [32.573016920679805, 36.923607872659645], [32.574094899020764, 36.923607872659645], [32.574094899020764, 36.92414686183012], [32.572477931509326, 36.92414686183012], [32.572477931509326, 36.92468585100059], [32.573555909850285, 36.92468585100059], [32.573555909850285, 36.926302818512006], [32.574094899020764, 36.926302818512006], [32.574094899020764, 36.928458775193896], [32.575711866532174, 36.928458775193896], [32.575711866532174, 36.92899776436437], [32.576250855702654, 36.92899776436437], [32.576250855702654, 36.92953675353484], [32.576789844873105, 36.92953675353484], [32.576789844873105, 36.93061473187578], [32.577328834043584, 36.93061473187578], [32.577328834043584, 36.93115372104625], [32.576789844873105, 36.93115372104625], [32.576789844873105, 36.93061473187578], [32.576250855702654, 36.93061473187578], [32.576250855702654, 36.92953675353484], [32.575711866532174, 36.92953675353484], [32.575711866532174, 36.92899776436437], [32.575172877361695, 36.92899776436437], [32.575172877361695, 36.92953675353484], [32.574633888191215, 36.92953675353484], [32.574633888191215, 36.92899776436437], [32.574094899020764, 36.92899776436437], [32.574094899020764, 36.928458775193896], [32.573016920679805, 36.928458775193896], [32.573016920679805, 36.92791978602342], [32.572477931509326, 36.92791978602342], [32.572477931509326, 36.92738079685295], [32.571938942338875, 36.92738079685295], [32.571938942338875, 36.926302818512006], [32.570860963997916, 36.926302818512006], [32.570860963997916, 36.92414686183012], [32.571399953168395, 36.92414686183012], [32.571399953168395, 36.921990905148235], [32.571938942338875, 36.921990905148235], [32.571938942338875, 36.92145191597776], [32.571399953168395, 36.92145191597776], [32.571399953168395, 36.92091292680729], [32.570860963997916, 36.92091292680729], [32.570860963997916, 36.919834948466345], [32.572477931509326, 36.919834948466345], [32.572477931509326, 36.91929595929587], [32.571399953168395, 36.91929595929587], [32.571399953168395, 36.9187569701254], [32.570860963997916, 36.9187569701254], [32.570860963997916, 36.91821798095493], [32.570321974827465, 36.91821798095493], [32.570321974827465, 36.917678991784456], [32.570860963997916, 36.917678991784456], [32.570860963997916, 36.91714000261399], [32.571399953168395, 36.91714000261399], [32.571399953168395, 36.915523035102574], [32.573555909850285, 36.915523035102574], [32.573555909850285, 36.916062024273046], [32.574094899020764, 36.916062024273046], [32.574094899020764, 36.9149840459321], [32.573016920679805, 36.9149840459321], [32.573016920679805, 36.91444505676163], [32.574633888191215, 36.91444505676163], [32.574633888191215, 36.9149840459321], [32.575172877361695, 36.9149840459321], [32.575172877361695, 36.91660101344352], [32.572477931509326, 36.91660101344352], [32.572477931509326, 36.917678991784456], [32.574094899020764, 36.917678991784456], [32.574094899020764, 36.91821798095493], [32.574633888191215, 36.91821798095493], [32.574633888191215, 36.9187569701254], [32.576250855702654, 36.9187569701254], [32.576250855702654, 36.91929595929587], [32.576789844873105, 36.91929595929587], [32.576789844873105, 36.92037393763682], [32.577328834043584, 36.92037393763682], [32.577328834043584, 36.91929595929587], [32.578406812384515, 36.91929595929587], [32.578406812384515, 36.9187569701254], [32.58002377989595, 36.9187569701254], [32.58002377989595, 36.91821798095493], [32.580562769066404, 36.91821798095493], [32.580562769066404, 36.9187569701254], [32.58110175823688, 36.9187569701254], [32.58110175823688, 36.91821798095493], [32.58217973657784, 36.91821798095493], [32.58217973657784, 36.917678991784456], [32.58164074740736, 36.917678991784456], [32.58164074740736, 36.91714000261399], [32.58110175823688, 36.91714000261399], [32.58110175823688, 36.917678991784456], [32.580562769066404, 36.917678991784456], [32.580562769066404, 36.91714000261399], [32.58110175823688, 36.91714000261399], [32.58110175823688, 36.91660101344352], [32.58325771491877, 36.91660101344352], [32.58325771491877, 36.916062024273046], [32.58379670408925, 36.916062024273046], [32.58379670408925, 36.915523035102574], [32.58325771491877, 36.915523035102574], [32.58325771491877, 36.91444505676163], [32.58379670408925, 36.91444505676163], [32.58379670408925, 36.91282808925021], [32.5843356932597, 36.91282808925021], [32.5843356932597, 36.91228910007974], [32.58595266077114, 36.91228910007974], [32.58595266077114, 36.91282808925021], [32.58649164994159, 36.91282808925021], [32.58649164994159, 36.91228910007974], [32.58703063911207, 36.91228910007974], [32.58703063911207, 36.91282808925021], [32.58756962828255, 36.91282808925021], [32.58756962828255, 36.91228910007974], [32.58810861745303, 36.91228910007974], [32.58810861745303, 36.91282808925021], [32.58864760662348, 36.91282808925021], [32.58864760662348, 36.91228910007974], [32.58972558496444, 36.91228910007974], [32.58972558496444, 36.9112111217388]], [[32.571938942338875, 36.92522484017106], [32.571938942338875, 36.925763829341534], [32.571399953168395, 36.925763829341534], [32.571399953168395, 36.92522484017106], [32.571938942338875, 36.92522484017106]], [[32.572477931509326, 36.923607872659645], [32.572477931509326, 36.92414686183012], [32.571938942338875, 36.92414686183012], [32.571938942338875, 36.923607872659645], [32.572477931509326, 36.923607872659645]], [[32.57786782321406, 36.92252989431871], [32.57786782321406, 36.92306888348918], [32.577328834043584, 36.92306888348918], [32.577328834043584, 36.92252989431871], [32.57786782321406, 36.92252989431871]], [[32.573555909850285, 36.92091292680729], [32.573555909850285, 36.921990905148235], [32.572477931509326, 36.921990905148235], [32.572477931509326, 36.92145191597776], [32.573016920679805, 36.92145191597776], [32.573016920679805, 36.92091292680729], [32.573555909850285, 36.92091292680729]], [[32.576789844873105, 36.92037393763682], [32.576789844873105, 36.92091292680729], [32.576250855702654, 36.92091292680729], [32.576250855702654, 36.92037393763682], [32.576789844873105, 36.92037393763682]], [[32.57948479072547, 36.91929595929587], [32.57948479072547, 36.919834948466345], [32.578406812384515, 36.919834948466345], [32.578406812384515, 36.91929595929587], [32.57948479072547, 36.91929595929587]], [[32.58325771491877, 36.9187569701254], [32.58325771491877, 36.91929595929587], [32.58271872574829, 36.91929595929587], [32.58271872574829, 36.9187569701254], [32.58325771491877, 36.9187569701254]], [[32.571938942338875, 36.917678991784456], [32.571938942338875, 36.91821798095493], [32.571399953168395, 36.91821798095493], [32.571399953168395, 36.917678991784456], [32.571938942338875, 36.917678991784456]], [[32.58810861745303, 36.913367078420684], [32.58810861745303, 36.91390606759116], [32.58756962828255, 36.91390606759116], [32.58756962828255, 36.91444505676163], [32.58703063911207, 36.91444505676163], [32.58703063911207, 36.913367078420684], [32.58810861745303, 36.913367078420684]], [[32.58918659579396, 36.91282808925021], [32.58918659579396, 36.913367078420684], [32.58864760662348, 36.913367078420684], [32.58864760662348, 36.91282808925021], [32.58918659579396, 36.91282808925021]], [[32.59080356330537, 36.91175011090927], [32.59080356330537, 36.91282808925021], [32.58972558496444, 36.91282808925021], [32.58972558496444, 36.91228910007974], [32.59026457413492, 36.91228910007974], [32.59026457413492, 36.91175011090927], [32.59080356330537, 36.91175011090927]]]}, "id": "+394424+87364", "properties": {"area_ha": 89.02290425898852, "count": 310, "label": 1, "mean_dnbr": 0.6019805100851566}}, {"type": "Feature", "geometry": {"geodesic": false, "type": "Polygon", "coordinates": [[[32.59349850915774, 36.90582123003408], [32.59403749832822, 36.90582123003408], [32.59403749832822, 36.90689920837502], [32.59457648749867, 36.90689920837502], [32.59457648749867, 36.907438197545495], [32.59511547666915, 36.907438197545495], [32.59511547666915, 36.90689920837502], [32.59565446583963, 36.90689920837502], [32.59565446583963, 36.907438197545495], [32.59619345501011, 36.907438197545495], [32.59619345501011, 36.90797718671597], [32.59781042252152, 36.90797718671597], [32.59781042252152, 36.90851617588644], [32.59888840086245, 36.90851617588644], [32.59888840086245, 36.90905516505691], [32.59942739003293, 36.90905516505691], [32.59942739003293, 36.90851617588644], [32.59996637920341, 36.90851617588644], [32.59996637920341, 36.90797718671597], [32.60104435754434, 36.90797718671597], [32.60104435754434, 36.90851617588644], [32.59996637920341, 36.90851617588644], [32.59996637920341, 36.90905516505691], [32.59942739003293, 36.90905516505691], [32.59942739003293, 36.909594154227385], [32.59834941169197, 36.909594154227385], [32.59834941169197, 36.91013314339786], [32.59781042252152, 36.91013314339786], [32.59781042252152, 36.909594154227385], [32.59727143335104, 36.909594154227385], [32.59727143335104, 36.90905516505691], [32.59673244418056, 36.90905516505691], [32.59673244418056, 36.90851617588644], [32.59619345501011, 36.90851617588644], [32.59619345501011, 36.90905516505691], [32.59565446583963, 36.90905516505691], [32.59565446583963, 36.90851617588644], [32.59619345501011, 36.90851617588644], [32.59619345501011, 36.90797718671597], [32.59349850915774, 36.90797718671597], [32.59349850915774, 36.90851617588644], [32.59295951998726, 36.90851617588644], [32.59295951998726, 36.91013314339786], [32.59242053081678, 36.91013314339786], [32.59242053081678, 36.90905516505691], [32.59188154164633, 36.90905516505691], [32.59188154164633, 36.909594154227385], [32.59134255247585, 36.909594154227385], [32.59134255247585, 36.90905516505691], [32.59080356330537, 36.90905516505691], [32.59080356330537, 36.91013314339786], [32.59026457413492, 36.91013314339786], [32.59026457413492, 36.90905516505691], [32.59080356330537, 36.90905516505691], [32.59080356330537, 36.90689920837502], [32.59188154164633, 36.90689920837502], [32.59188154164633, 36.90636021920455], [32.59242053081678, 36.90636021920455], [32.59242053081678, 36.907438197545495], [32.59295951998726, 36.907438197545495], [32.59295951998726, 36.90797718671597], [32.59349850915774, 36.90797718671597], [32.59349850915774, 36.90582123003408]], [[32.59834941169197, 36.90905516505691], [32.59834941169197, 36.909594154227385], [32.59781042252152, 36.909594154227385], [32.59781042252152, 36.90905516505691], [32.59834941169197, 36.90905516505691]]]}, "id": "+394430+87374", "properties": {"area_ha": 13.49898136502165, "count": 47, "label": 1, "mean_dnbr": 0.6098456605883894}}, {"type": "Feature", "geometry": {"geodesic": false, "type": "Polygon", "coordinates": [[[32.61020717344235, 36.89827538164748], [32.61020717344235, 36.89773639247701], [32.61074616261283, 36.89773639247701], [32.61074616261283, 36.89558043579512], [32.61020717344235, 36.89558043579512], [32.61020717344235, 36.895041446624646], [32.611285151783306, 36.895041446624646], [32.611285151783306, 36.8939634682837], [32.614519086806126, 36.8939634682837], [32.614519086806126, 36.89342447911323], [32.615058075976606, 36.89342447911323], [32.615058075976606, 36.89288548994276], [32.615597065147085, 36.89288548994276], [32.615597065147085, 36.89180751160182], [32.616136054317536, 36.89180751160182], [32.616136054317536, 36.890729533260874], [32.616675043488016, 36.890729533260874], [32.616675043488016, 36.8901905440904], [32.617214032658495, 36.8901905440904], [32.617214032658495, 36.88965155491993], [32.616675043488016, 36.88965155491993], [32.616675043488016, 36.88911256574946], [32.617753021828975, 36.88911256574946], [32.617753021828975, 36.890729533260874], [32.617214032658495, 36.890729533260874], [32.617214032658495, 36.89180751160182], [32.617753021828975, 36.89180751160182], [32.617753021828975, 36.89234650077229], [32.617214032658495, 36.89234650077229], [32.617214032658495, 36.89342447911323], [32.616675043488016, 36.89342447911323], [32.616675043488016, 36.8939634682837], [32.616136054317536, 36.8939634682837], [32.616136054317536, 36.89450245745417], [32.615058075976606, 36.89450245745417], [32.615058075976606, 36.895041446624646], [32.614519086806126, 36.895041446624646], [32.614519086806126, 36.89450245745417], [32.613980097635675, 36.89450245745417], [32.613980097635675, 36.895041446624646], [32.612902119294716, 36.895041446624646], [32.612902119294716, 36.89611942496559], [32.61236313012424, 36.89611942496559], [32.61236313012424, 36.89827538164748], [32.612902119294716, 36.89827538164748], [32.612902119294716, 36.89881437081795], [32.613441108465196, 36.89881437081795], [32.613441108465196, 36.89827538164748], [32.615058075976606, 36.89827538164748], [32.615058075976606, 36.89773639247701], [32.615597065147085, 36.89773639247701], [32.615597065147085, 36.897197403306535], [32.616136054317536, 36.897197403306535], [32.616136054317536, 36.89827538164748], [32.617214032658495, 36.89827538164748], [32.617214032658495, 36.89881437081795], [32.617753021828975, 36.89881437081795], [32.617753021828975, 36.899353359988424], [32.620447967681315, 36.899353359988424], [32.620447967681315, 36.89989234915889], [32.619908978510864, 36.89989234915889], [32.619908978510864, 36.90043133832936], [32.612902119294716, 36.90043133832936], [32.612902119294716, 36.900970327499834], [32.611824140953786, 36.900970327499834], [32.611824140953786, 36.90043133832936], [32.60912919510142, 36.90043133832936], [32.60912919510142, 36.900970327499834], [32.60805121676049, 36.900970327499834], [32.60805121676049, 36.90150931667031], [32.60697323841953, 36.90150931667031], [32.60697323841953, 36.900970327499834], [32.60643424924905, 36.900970327499834], [32.60643424924905, 36.90258729501125], [32.6058952600786, 36.90258729501125], [32.6058952600786, 36.903665273352196], [32.60697323841953, 36.903665273352196], [32.60697323841953, 36.90420426252267], [32.60643424924905, 36.90420426252267], [32.60643424924905, 36.90528224086361], [32.60535627090812, 36.90528224086361], [32.60535627090812, 36.90582123003408], [32.60427829256716, 36.90582123003408], [32.60427829256716, 36.90528224086361], [32.60373930339671, 36.90528224086361], [32.60373930339671, 36.90636021920455], [32.60320031422623, 36.90636021920455], [32.60320031422623, 36.90582123003408], [32.60266132505575, 36.90582123003408], [32.60266132505575, 36.90636021920455], [32.60158334671482, 36.90636021920455], [32.60158334671482, 36.90689920837502], [32.6021223358853, 36.90689920837502], [32.6021223358853, 36.907438197545495], [32.59996637920341, 36.907438197545495], [32.59996637920341, 36.90689920837502], [32.60104435754434, 36.90689920837502], [32.60104435754434, 36.90636021920455], [32.60158334671482, 36.90636021920455], [32.60158334671482, 36.90582123003408], [32.60266132505575, 36.90582123003408], [32.60266132505575, 36.90528224086361], [32.60320031422623, 36.90528224086361], [32.60320031422623, 36.90474325169314], [32.60266132505575, 36.90474325169314], [32.60266132505575, 36.90420426252267], [32.6021223358853, 36.90420426252267], [32.6021223358853, 36.90474325169314], [32.60158334671482, 36.90474325169314], [32.60158334671482, 36.90420426252267], [32.60104435754434, 36.90420426252267], [32.60104435754434, 36.903665273352196], [32.60320031422623, 36.903665273352196], [32.60320031422623, 36.90258729501125], [32.60373930339671, 36.90258729501125], [32.60373930339671, 36.90043133832936], [32.60320031422623, 36.90043133832936], [32.60320031422623, 36.89989234915889], [32.60373930339671, 36.89989234915889], [32.60373930339671, 36.899353359988424], [32.60427829256716, 36.899353359988424], [32.60427829256716, 36.89881437081795], [32.60535627090812, 36.89881437081795], [32.60535627090812, 36.899353359988424], [32.60643424924905, 36.899353359988424], [32.60643424924905, 36.89881437081795], [32.60697323841953, 36.89881437081795], [32.60697323841953, 36.89827538164748], [32.61020717344235, 36.89827538164748]], [[32.6058952600786, 36.90420426252267], [32.6058952600786, 36.90474325169314], [32.60481728173764, 36.90474325169314], [32.60481728173764, 36.90420426252267], [32.6058952600786, 36.90420426252267]], [[32.60427829256716, 36.903665273352196], [32.60427829256716, 36.90474325169314], [32.60320031422623, 36.90474325169314], [32.60320031422623, 36.90420426252267], [32.60373930339671, 36.90420426252267], [32.60373930339671, 36.903665273352196], [32.60427829256716, 36.903665273352196]], [[32.60805121676049, 36.90043133832936], [32.60805121676049, 36.900970327499834], [32.60751222759001, 36.900970327499834], [32.60751222759001, 36.90043133832936], [32.60805121676049, 36.90043133832936]], [[32.60751222759001, 36.89989234915889], [32.60751222759001, 36.90043133832936], [32.60697323841953, 36.90043133832936], [32.60697323841953, 36.89989234915889], [32.60751222759001, 36.89989234915889]]]}, "id": "+394474+87405", "properties": {"area_ha": 67.79026220767784, "count": 236, "label": 1, "mean_dnbr": 0.6731359090865969}}, {"type": "Feature", "geometry": {"geodesic": false, "type": "Polygon", "coordinates": [[[32.9772587985336, 37.04326346850437], [32.97887576604501, 37.04326346850437], [32.97887576604501, 37.04380245767484], [32.979953744385966, 37.04380245767484], [32.979953744385966, 37.04488043601578], [32.97779778770408, 37.04488043601578], [32.97779778770408, 37.04434144684531], [32.9772587985336, 37.04434144684531], [32.9772587985336, 37.04326346850437]]]}, "id": "+395144+87119", "properties": {"area_ha": 3.4404011510906947, "count": 12, "label": 1, "mean_dnbr": 0.2545741312790066}}]}