{"type": "FeatureCollection", "columns": {"area_ha": "Number", "count": "Long<0, 4294967295>", "label": "Byte<0, 1>", "mean_dnbr": "Object", "system:index": "String"}, "features": [{"type": "Feature", "geometry": {"geodesic": false, "type": "Polygon", "coordinates": [[[32.486239664233864, 36.13776166211189], [32.48677865340434, 36.13776166211189], [32.48677865340434, 36.13883964045284], [32.48731764257482, 36.13883964045284], [32.48731764257482, 36.13937862962331], [32.48839562091575, 36.13937862962331], [32.48839562091575, 36.139917618793774], [32.48893461008623, 36.139917618793774], [32.48893461008623, 36.140456607964246], [32.49055157759764, 36.140456607964246], [32.49055157759764, 36.14099559713472], [32.49162955593857, 36.14099559713472], [32.49162955593857, 36.14153458630519], [32.49216854510905, 36.14153458630519], [32.49216854510905, 36.14099559713472], [32.49270753427953, 36.14099559713472], [32.49270753427953, 36.14153458630519], [32.49594146930235, 36.14153458630519], [32.49594146930235, 36.140456607964246], [32.49648045847283, 36.140456607964246], [32.49648045847283, 36.14099559713472], [32.49755843681376, 36.14099559713472], [32.49755843681376, 36.14153458630519], [32.49809742598424, 36.14153458630519], [32.49809742598424, 36.14099559713472], [32.49863641515472, 36.14099559713472], [32.49863641515472, 36.140456607964246], [32.49701944764331, 36.140456607964246], [32.49701944764331, 36.139917618793774], [32.4991754043252, 36.139917618793774], [32.4991754043252, 36.14099559713472], [32.49971439349565, 36.14099559713472], [32.49971439349565, 36.14153458630519], [32.4991754043252, 36.14153458630519], [32.4991754043252, 36.14315155381661], [32.49971439349565, 36.14315155381661], [32.49971439349565, 36.142612564646136], [32.50025338266613, 36.142612564646136], [32.50025338266613, 36.14153458630519], [32.50133136100706, 36.14153458630519], [32.50133136100706, 36.14207357547566], [32.50240933934802, 36.14207357547566], [32.50240933934802, 36.142612564646136], [32.50133136100706, 36.142612564646136], [32.50133136100706, 36.14315155381661], [32.50079237183661, 36.14315155381661], [32.50079237183661, 36.14369054298708], [32.49809742598424, 36.14369054298708], [32.49809742598424, 36.14315155381661], [32.49755843681376, 36.14315155381661], [32.49755843681376, 36.14369054298708], [32.486239664233864, 36.14369054298708], [32.486239664233864, 36.14315155381661], [32.48516168589293, 36.14315155381661], [32.48516168589293, 36.14369054298708], [32.484622696722454, 36.14369054298708], [32.484622696722454, 36.14315155381661], [32.48516168589293, 36.14315155381661], [32.48516168589293, 36.142612564646136], [32.483544718381495, 36.142612564646136], [32.483544718381495, 36.14207357547566], [32.481927750870085, 36.14207357547566], [32.481927750870085, 36.14369054298708], [32.479771794188196, 36.14369054298708], [32.479771794188196, 36.14315155381661], [32.480310783358675, 36.14315155381661], [32.480310783358675, 36.14207357547566], [32.478693815847265, 36.14207357547566], [32.478693815847265, 36.142612564646136], [32.475998869994896, 36.142612564646136], [32.475998869994896, 36.14207357547566], [32.477076848335855, 36.14207357547566], [32.477076848335855, 36.14153458630519], [32.476537859165376, 36.14153458630519], [32.476537859165376, 36.14099559713472], [32.477076848335855, 36.14099559713472], [32.477076848335855, 36.140456607964246], [32.477615837506306, 36.140456607964246], [32.477615837506306, 36.14099559713472], [32.479232805017745, 36.14099559713472], [32.479232805017745, 36.14153458630519], [32.480310783358675, 36.14153458630519], [32.480310783358675, 36.14207357547566], [32.481927750870085, 36.14207357547566], [32.481927750870085, 36.14153458630519], [32.481388761699634, 36.14153458630519], [32.481388761699634, 36.14099559713472], [32.483005729211044, 36.14099559713472], [32.483005729211044, 36.140456607964246], [32.482466740040564, 36.140456607964246], [32.482466740040564, 36.139917618793774], [32.483005729211044, 36.139917618793774], [32.483005729211044, 36.140456607964246], [32.483544718381495, 36.140456607964246], [32.483544718381495, 36.14099559713472], [32.484083707551974, 36.14099559713472], [32.484083707551974, 36.139917618793774], [32.48516168589293, 36.139917618793774], [32.48516168589293, 36.140456607964246], [32.485700675063384, 36.140456607964246], [32.485700675063384, 36.139917618793774], [32.48677865340434, 36.139917618793774], [32.48677865340434, 36.13937862962331], [32.486239664233864, 36.13937862962331], [32.486239664233864, 36.13776166211189]], [[32.50079237183661, 36.142612564646136], [32.50079237183661, 36.14315155381661], [32.50025338266613, 36.14315155381661], [32.50025338266613, 36.142612564646136], [32.50079237183661, 36.142612564646136]], [[32.49863641515472, 36.14207357547566], [32.49863641515472, 36.142612564646136], [32.49809742598424, 36.142612564646136], [32.49809742598424, 36.14207357547566], [32.49863641515472, 36.14207357547566]], [[32.49648045847283, 36.14153458630519], [32.49648045847283, 36.14207357547566], [32.49594146930235, 36.14207357547566], [32.49594146930235, 36.14153458630519], [32.49648045847283, 36.14153458630519]], [[32.483544718381495, 36.14099559713472], [32.483544718381495, 36.14153458630519], [32.483005729211044, 36.14153458630519], [32.483005729211044, 36.14099559713472], [32.483544718381495, 36.14099559713472]], [[32.48677865340434, 36.140456607964246], [32.48677865340434, 36.14153458630519], [32.486239664233864, 36.14153458630519], [32.486239664233864, 36.14099559713472], [32.485700675063384, 36.14099559713472], [32.485700675063384, 36.140456607964246], [32.48677865340434, 36.140456607964246]], [[32.487856631745274, 36.140456607964246], [32.487856631745274, 36.14099559713472], [32.48839562091575, 36.14099559713472], [32.48839562091575, 36.14153458630519], [32.48731764257482, 36.14153458630519], [32.48731764257482, 36.140456607964246], [32.487856631745274, 36.140456607964246]], [[32.48731764257482, 36.139917618793774], [32.48731764257482, 36.140456607964246], [32.48677865340434, 36.140456607964246], [32.48677865340434, 36.139917618793774], [32.48731764257482, 36.139917618793774]]]}, "id": "+394231+88799", "properties": {"area_ha": 58.01524119842241, "count": 200, "label": 1, "mean_dnbr": 0.24040950120802437}}, {"type": "Feature", "geometry": {"geodesic": false, "type": "Polygon", "coordinates": [[[32.48677865340434, 36.1318327812367], [32.487856631745274, 36.1318327812367], [32.487856631745274, 36.13452772708906], [32.48677865340434, 36.13452772708906], [32.48677865340434, 36.13506671625953], [32.485700675063384, 36.13506671625953], [32.485700675063384, 36.13560570543], [32.484622696722454, 36.13560570543], [32.484622696722454, 36.136144694600475], [32.484083707551974, 36.136144694600475], [32.484083707551974, 36.13668368377095], [32.483544718381495, 36.13668368377095], [32.483544718381495, 36.13452772708906], [32.485700675063384, 36.13452772708906], [32.485700675063384, 36.133988737918585], [32.486239664233864, 36.133988737918585], [32.486239664233864, 36.13344974874812], [32.48677865340434, 36.13344974874812], [32.48677865340434, 36.1318327812367]]]}, "id": "+394233+88810", "properties": {"area_ha": 7.542583991869776, "count": 26, "label": 1, "mean_dnbr": 0.2008332185872848}}, {"type": "Feature", "geometry": {"geodesic": false, "type": "Polygon", "coordinates": [[[32.5029483285185, 36.140456607964246], [32.50348731768895, 36.140456607964246], [32.50348731768895, 36.14153458630519], [32.50402630685943, 36.14153458630519], [32.50402630685943, 36.14099559713472], [32.50564327437084, 36.14099559713472], [32.50564327437084, 36.14153458630519], [32.5067212527118, 36.14153458630519], [32.5067212527118, 36.142612564646136], [32.50726024188225, 36.142612564646136], [32.50726024188225, 36.14369054298708], [32.50187035017754, 36.14369054298708], [32.50187035017754, 36.14315155381661], [32.50348731768895, 36.14315155381661], [32.50348731768895, 36.14153458630519], [32.5029483285185, 36.14153458630519], [32.5029483285185, 36.140456607964246]]]}, "id": "+394262+88794", "properties": {"area_ha": 9.86245883972677, "count": 34, "label": 1, "mean_dnbr": 0.219936903555661}}, {"type": "Feature", "geometry": {"geodesic": false, "type": "Polygon", "coordinates": [[[32.50348731768895, 36.11458512778161], [32.50402630685943, 36.11458512778161], [32.50402630685943, 36.11512411695208], [32.50564327437084, 36.11512411695208], [32.50564327437084, 36.11566310612255], [32.50618226354132, 36.11566310612255], [32.50618226354132, 36.11620209529302], [32.50833822022321, 36.11620209529302], [32.50833822022321, 36.11674108446349], [32.50941619856414, 36.11674108446349], [32.50941619856414, 36.117280073633964], [32.50887720939369, 36.117280073633964], [32.50887720939369, 36.117819062804436], [32.50995518773462, 36.117819062804436], [32.50995518773462, 36.11674108446349], [32.51211114441651, 36.11674108446349], [32.51211114441651, 36.117280073633964], [32.51157215524603, 36.117280073633964], [32.51157215524603, 36.117819062804436], [32.50995518773462, 36.117819062804436], [32.50995518773462, 36.11889704114538], [32.5104941769051, 36.11889704114538], [32.5104941769051, 36.119975019486326], [32.51211114441651, 36.119975019486326], [32.51211114441651, 36.11889704114538], [32.51265013358699, 36.11889704114538], [32.51265013358699, 36.117280073633964], [32.51318912275744, 36.117280073633964], [32.51318912275744, 36.117819062804436], [32.51372811192792, 36.117819062804436], [32.51372811192792, 36.11835805197491], [32.51318912275744, 36.11835805197491], [32.51318912275744, 36.11889704114538], [32.51372811192792, 36.11889704114538], [32.51372811192792, 36.11943603031585], [32.51480609026888, 36.11943603031585], [32.51480609026888, 36.119975019486326], [32.51534507943933, 36.119975019486326], [32.51534507943933, 36.11889704114538], [32.51642305778029, 36.11889704114538], [32.51642305778029, 36.119975019486326], [32.516962046950766, 36.119975019486326], [32.516962046950766, 36.1205140086568], [32.51642305778029, 36.1205140086568], [32.51642305778029, 36.119975019486326], [32.51588406860981, 36.119975019486326], [32.51588406860981, 36.12105299782727], [32.51480609026888, 36.12105299782727], [32.51480609026888, 36.12213097616821], [32.51265013358699, 36.12213097616821], [32.51265013358699, 36.12266996533868], [32.51157215524603, 36.12266996533868], [32.51157215524603, 36.12320895450915], [32.51103316607558, 36.12320895450915], [32.51103316607558, 36.12266996533868], [32.51157215524603, 36.12266996533868], [32.51157215524603, 36.12213097616821], [32.5067212527118, 36.12213097616821], [32.5067212527118, 36.12105299782727], [32.50618226354132, 36.12105299782727], [32.50618226354132, 36.12213097616821], [32.50564327437084, 36.12213097616821], [32.50564327437084, 36.12159198699774], [32.50510428520039, 36.12159198699774], [32.50510428520039, 36.12320895450915], [32.50456529602991, 36.12320895450915], [32.50456529602991, 36.12482592202057], [32.5029483285185, 36.12482592202057], [32.5029483285185, 36.12536491119104], [32.50240933934802, 36.12536491119104], [32.50240933934802, 36.125903900361514], [32.50187035017754, 36.125903900361514], [32.50187035017754, 36.12644288953199], [32.5029483285185, 36.12644288953199], [32.5029483285185, 36.125903900361514], [32.50348731768895, 36.125903900361514], [32.50348731768895, 36.12536491119104], [32.50402630685943, 36.12536491119104], [32.50402630685943, 36.12698187870246], [32.50456529602991, 36.12698187870246], [32.50456529602991, 36.12752086787293], [32.50618226354132, 36.12752086787293], [32.50618226354132, 36.1280598570434], [32.50726024188225, 36.1280598570434], [32.50726024188225, 36.12698187870246], [32.5067212527118, 36.12698187870246], [32.5067212527118, 36.12644288953199], [32.50564327437084, 36.12644288953199], [32.50564327437084, 36.12536491119104], [32.50726024188225, 36.12536491119104], [32.50726024188225, 36.12482592202057], [32.50833822022321, 36.12482592202057], [32.50833822022321, 36.1242869328501], [32.5067212527118, 36.1242869328501], [32.5067212527118, 36.12482592202057], [32.50618226354132, 36.12482592202057], [32.50618226354132, 36.12320895450915], [32.5104941769051, 36.12320895450915], [32.5104941769051, 36.12644288953199], [32.50779923105273, 36.12644288953199], [32.50779923105273, 36.12698187870246], [32.50887720939369, 36.12698187870246], [32.50887720939369, 36.1280598570434], [32.50941619856414, 36.1280598570434], [32.50941619856414, 36.12859884621387], [32.50995518773462, 36.12859884621387], [32.50995518773462, 36.12913783538434], [32.5104941769051, 36.12913783538434], [32.5104941769051, 36.129676824554814], [32.50995518773462, 36.129676824554814], [32.50995518773462, 36.130215813725286], [32.50941619856414, 36.130215813725286], [32.50941619856414, 36.13075480289576], [32.51318912275744, 36.13075480289576], [32.51318912275744, 36.13129379206623], [32.51211114441651, 36.13129379206623], [32.51211114441651, 36.132371770407175], [32.51157215524603, 36.132371770407175], [32.51157215524603, 36.1318327812367], [32.50941619856414, 36.1318327812367], [32.50941619856414, 36.132371770407175], [32.50833822022321, 36.132371770407175], [32.50833822022321, 36.1318327812367], [32.50726024188225, 36.1318327812367], [32.50726024188225, 36.132371770407175], [32.5067212527118, 36.132371770407175], [32.5067212527118, 36.13291075957765], [32.50726024188225, 36.13291075957765], [32.50726024188225, 36.13344974874812], [32.50779923105273, 36.13344974874812], [32.50779923105273, 36.133988737918585], [32.50833822022321, 36.133988737918585], [32.50833822022321, 36.13344974874812], [32.50887720939369, 36.13344974874812], [32.50887720939369, 36.13291075957765], [32.50995518773462, 36.13291075957765], [32.50995518773462, 36.13452772708906], [32.50941619856414, 36.13452772708906], [32.50941619856414, 36.13506671625953], [32.50779923105273, 36.13506671625953], [32.50779923105273, 36.13452772708906], [32.50726024188225, 36.13452772708906], [32.50726024188225, 36.133988737918585], [32.5067212527118, 36.133988737918585], [32.5067212527118, 36.13344974874812], [32.50564327437084, 36.13344974874812], [32.50564327437084, 36.13291075957765], [32.50456529602991, 36.13291075957765], [32.50456529602991, 36.13344974874812], [32.50402630685943, 36.13344974874812], [32.50402630685943, 36.133988737918585], [32.5029483285185, 36.133988737918585], [32.5029483285185, 36.13452772708906], [32.50187035017754, 36.13452772708906], [32.50187035017754, 36.13291075957765], [32.50079237183661, 36.13291075957765], [32.50079237183661, 36.13344974874812], [32.50133136100706, 36.13344974874812], [32.50133136100706, 36.133988737918585], [32.50079237183661, 36.133988737918585], [32.50079237183661, 36.13506671625953], [32.50133136100706, 36.13506671625953], [32.50133136100706, 36.13560570543], [32.50187035017754, 36.13560570543], [32.50187035017754, 36.13668368377095], [32.50133136100706, 36.13668368377095], [32.50133136100706, 36.136144694600475], [32.50079237183661, 36.136144694600475], [32.50079237183661, 36.13506671625953], [32.50025338266613, 36.13506671625953], [32.50025338266613, 36.13452772708906], [32.49971439349565, 36.13452772708906], [32.49971439349565, 36.13506671625953], [32.4991754043252, 36.13506671625953], [32.4991754043252, 36.136144694600475], [32.49971439349565, 36.136144694600475], [32.49971439349565, 36.13722267294142], [32.49701944764331, 36.13722267294142], [32.49701944764331, 36.13668368377095], [32.49594146930235, 36.13668368377095], [32.49594146930235, 36.13722267294142], [32.49648045847283, 36.13722267294142], [32.49648045847283, 36.13776166211189], [32.49594146930235, 36.13776166211189], [32.49594146930235, 36.138300651282364], [32.49486349096142, 36.138300651282364], [32.49486349096142, 36.13722267294142], [32.49540248013187, 36.13722267294142], [32.49540248013187, 36.136144694600475], [32.49648045847283, 36.136144694600475], [32.49648045847283, 36.13506671625953], [32.49701944764331, 36.13506671625953], [32.49701944764331, 36.136144694600475], [32.49809742598424, 36.136144694600475], [32.49809742598424, 36.13560570543], [32.49863641515472, 36.13560570543], [32.49863641515472, 36.13506671625953], [32.4991754043252, 36.13506671625953], [32.4991754043252, 36.13291075957765], [32.49863641515472, 36.13291075957765], [32.49863641515472, 36.132371770407175], [32.49809742598424, 36.132371770407175], [32.49809742598424, 36.13291075957765], [32.49701944764331, 36.13291075957765], [32.49701944764331, 36.132371770407175], [32.49755843681376, 36.132371770407175], [32.49755843681376, 36.1318327812367], [32.4991754043252, 36.1318327812367], [32.4991754043252, 36.13129379206623], [32.49971439349565, 36.13129379206623], [32.49971439349565, 36.13075480289576], [32.50025338266613, 36.13075480289576], [32.50025338266613, 36.129676824554814], [32.49863641515472, 36.129676824554814], [32.49863641515472, 36.12913783538434], [32.49755843681376, 36.12913783538434], [32.49755843681376, 36.12859884621387], [32.49701944764331, 36.12859884621387], [32.49701944764331, 36.1280598570434], [32.49540248013187, 36.1280598570434], [32.49540248013187, 36.12698187870246], [32.49648045847283, 36.12698187870246], [32.49648045847283, 36.12752086787293], [32.49863641515472, 36.12752086787293], [32.49863641515472, 36.12698187870246], [32.4991754043252, 36.12698187870246], [32.4991754043252, 36.12644288953199], [32.50025338266613, 36.12644288953199], [32.50025338266613, 36.12536491119104], [32.4991754043252, 36.12536491119104], [32.4991754043252, 36.125903900361514], [32.49863641515472, 36.125903900361514], [32.49863641515472, 36.12644288953199], [32.49755843681376, 36.12644288953199], [32.49755843681376, 36.12698187870246], [32.49701944764331, 36.12698187870246], [32.49701944764331, 36.12536491119104], [32.49755843681376, 36.12536491119104], [32.49755843681376, 36.125903900361514], [32.49863641515472, 36.125903900361514], [32.49863641515472, 36.12482592202057], [32.49755843681376, 36.12482592202057], [32.49755843681376, 36.12266996533868], [32.49701944764331, 36.12266996533868], [32.49701944764331, 36.12159198699774], [32.49540248013187, 36.12159198699774], [32.49540248013187, 36.12213097616821], [32.49594146930235, 36.12213097616821], [32.49594146930235, 36.12266996533868], [32.49540248013187, 36.12266996533868], [32.49540248013187, 36.12213097616821], [32.49486349096142, 36.12213097616821], [32.49486349096142, 36.12105299782727], [32.49378551262046, 36.12105299782727], [32.49378551262046, 36.12159198699774], [32.49432450179094, 36.12159198699774], [32.49432450179094, 36.12266996533868], [32.49486349096142, 36.12266996533868], [32.49486349096142, 36.12320895450915], [32.49540248013187, 36.12320895450915], [32.49540248013187, 36.123747943679625], [32.49594146930235, 36.123747943679625], [32.49594146930235, 36.12482592202057], [32.49540248013187, 36.12482592202057], [32.49540248013187, 36.12536491119104], [32.49432450179094, 36.12536491119104], [32.49432450179094, 36.12644288953199], [32.49324652345001, 36.12644288953199], [32.49324652345001, 36.1280598570434], [32.49216854510905, 36.1280598570434], [32.49216854510905, 36.12644288953199], [32.49055157759764, 36.12644288953199], [32.49055157759764, 36.125903900361514], [32.49162955593857, 36.125903900361514], [32.49162955593857, 36.12536491119104], [32.49216854510905, 36.12536491119104], [32.49216854510905, 36.12482592202057], [32.49270753427953, 36.12482592202057], [32.49270753427953, 36.1242869328501], [32.49216854510905, 36.1242869328501], [32.49216854510905, 36.12159198699774], [32.49109056676812, 36.12159198699774], [32.49109056676812, 36.12105299782727], [32.49162955593857, 36.12105299782727], [32.49162955593857, 36.1205140086568], [32.49270753427953, 36.1205140086568], [32.49270753427953, 36.119975019486326], [32.49324652345001, 36.119975019486326], [32.49324652345001, 36.11943603031585], [32.49378551262046, 36.11943603031585], [32.49378551262046, 36.11889704114538], [32.49486349096142, 36.11889704114538], [32.49486349096142, 36.11943603031585], [32.49432450179094, 36.11943603031585], [32.49432450179094, 36.1205140086568], [32.49701944764331, 36.1205140086568], [32.49701944764331, 36.11835805197491], [32.49755843681376, 36.11835805197491], [32.49755843681376, 36.11943603031585], [32.49809742598424, 36.11943603031585], [32.49809742598424, 36.119975019486326], [32.49863641515472, 36.119975019486326], [32.49863641515472, 36.1205140086568], [32.4991754043252, 36.1205140086568], [32.4991754043252, 36.119975019486326], [32.49971439349565, 36.119975019486326], [32.49971439349565, 36.11943603031585], [32.5029483285185, 36.11943603031585], [32.5029483285185, 36.11889704114538], [32.50402630685943, 36.11889704114538], [32.50402630685943, 36.117819062804436], [32.50456529602991, 36.117819062804436], [32.50456529602991, 36.11674108446349], [32.5029483285185, 36.11674108446349], [32.5029483285185, 36.117280073633964], [32.50079237183661, 36.117280073633964], [32.50079237183661, 36.11674108446349], [32.50133136100706, 36.11674108446349], [32.50133136100706, 36.11566310612255], [32.5029483285185, 36.11566310612255], [32.5029483285185, 36.11620209529302], [32.50402630685943, 36.11620209529302], [32.50402630685943, 36.11512411695208], [32.50348731768895, 36.11512411695208], [32.50348731768895, 36.11458512778161]], [[32.49270753427953, 36.12536491119104], [32.49270753427953, 36.125903900361514], [32.49216854510905, 36.125903900361514], [32.49216854510905, 36.12536491119104], [32.49270753427953, 36.12536491119104]], [[32.49432450179094, 36.1242869328501], [32.49432450179094, 36.12482592202057], [32.49324652345001, 36.12482592202057], [32.49324652345001, 36.1242869328501], [32.49432450179094, 36.1242869328501]], [[32.49432450179094, 36.12320895450915], [32.49432450179094, 36.123747943679625], [32.49378551262046, 36.123747943679625], [32.49378551262046, 36.12320895450915], [32.49432450179094, 36.12320895450915]], [[32.50079237183661, 36.1318327812367], [32.50079237183661, 36.13291075957765], [32.49971439349565, 36.13291075957765], [32.49971439349565, 36.1318327812367], [32.50079237183661, 36.1318327812367]], [[32.50726024188225, 36.13075480289576], [32.50726024188225, 36.1318327812367], [32.5067212527118, 36.1318327812367], [32.5067212527118, 36.13075480289576], [32.50726024188225, 36.13075480289576]], [[32.50941619856414, 36.12859884621387], [32.50941619856414, 36.12913783538434], [32.50887720939369, 36.12913783538434], [32.50887720939369, 36.12859884621387], [32.50941619856414, 36.12859884621387]], [[32.50348731768895, 36.12644288953199], [32.50348731768895, 36.12698187870246], [32.5029483285185, 36.12698187870246], [32.5029483285185, 36.12644288953199], [32.50348731768895, 36.12644288953199]], [[32.50887720939369, 36.12536491119104], [32.50887720939369, 36.125903900361514], [32.50726024188225, 36.125903900361514], [32.50726024188225, 36.12536491119104], [32.50887720939369, 36.12536491119104]], [[32.50079237183661, 36.1242869328501], [32.50079237183661, 36.12482592202057], [32.50025338266613, 36.12482592202057], [32.50025338266613, 36.1242869328501], [32.50079237183661, 36.1242869328501]], [[32.50187035017754, 36.1242869328501], [32.50187035017754, 36.12536491119104], [32.50079237183661, 36.12536491119104], [32.50079237183661, 36.12482592202057], [32.50133136100706, 36.12482592202057], [32.50133136100706, 36.1242869328501], [32.50187035017754, 36.1242869328501]], [[32.4991754043252, 36.12213097616821], [32.4991754043252, 36.12266996533868], [32.49971439349565, 36.12266996533868], [32.49971439349565, 36.12320895450915], [32.50079237183661, 36.12320895450915], [32.50079237183661, 36.123747943679625], [32.50025338266613, 36.123747943679625], [32.50025338266613, 36.1242869328501], [32.49863641515472, 36.1242869328501], [32.49863641515472, 36.123747943679625], [32.49809742598424, 36.123747943679625], [32.49809742598424, 36.12320895450915], [32.49863641515472, 36.12320895450915], [32.49863641515472, 36.12213097616821], [32.4991754043252, 36.12213097616821]], [[32.49863641515472, 36.12159198699774], [32.49863641515472, 36.12213097616821], [32.49755843681376, 36.12213097616821], [32.49755843681376, 36.12159198699774], [32.49863641515472, 36.12159198699774]], [[32.49755843681376, 36.12105299782727], [32.49755843681376, 36.12159198699774], [32.49701944764331, 36.12159198699774], [32.49701944764331, 36.12105299782727], [32.49755843681376, 36.12105299782727]], [[32.5067212527118, 36.117819062804436], [32.5067212527118, 36.11835805197491], [32.50618226354132, 36.11835805197491], [32.50618226354132, 36.117819062804436], [32.5067212527118, 36.117819062804436]], [[32.50564327437084, 36.117280073633964], [32.50564327437084, 36.11835805197491], [32.50510428520039, 36.11835805197491], [32.50510428520039, 36.117280073633964], [32.50564327437084, 36.117280073633964]]]}, "id": "+394263+88842", "properties": {"area_ha": 219.92091856358536, "count": 758, "label": 1, "mean_dnbr": 0.26789292171260637}}, {"type": "Feature", "geometry": {"geodesic": false, "type": "Polygon", "coordinates": [[[32.51750103612122, 36.138300651282364], [32.51965699280311, 36.138300651282364], [32.51965699280311, 36.13883964045284], [32.520195981973586, 36.13883964045284], [32.520195981973586, 36.13937862962331], [32.520734971144066, 36.13937862962331], [32.520734971144066, 36.139917618793774], [32.52127396031452, 36.139917618793774], [32.52127396031452, 36.140456607964246], [32.520195981973586, 36.140456607964246], [32.520195981973586, 36.14099559713472], [32.520734971144066, 36.14099559713472], [32.520734971144066, 36.14153458630519], [32.51911800363263, 36.14153458630519], [32.51911800363263, 36.14099559713472], [32.518579014462176, 36.14099559713472], [32.518579014462176, 36.140456607964246], [32.51911800363263, 36.140456607964246], [32.51911800363263, 36.139917618793774], [32.518579014462176, 36.139917618793774], [32.518579014462176, 36.13937862962331], [32.51750103612122, 36.13937862962331], [32.51750103612122, 36.139917618793774], [32.516962046950766, 36.139917618793774], [32.516962046950766, 36.13937862962331], [32.51750103612122, 36.13937862962331], [32.51750103612122, 36.138300651282364]], [[32.51965699280311, 36.140456607964246], [32.51965699280311, 36.14099559713472], [32.51911800363263, 36.14099559713472], [32.51911800363263, 36.140456607964246], [32.51965699280311, 36.140456607964246]]]}, "id": "+394292+88798", "properties": {"area_ha": 6.671826844832496, "count": 23, "label": 1, "mean_dnbr": 0.20032773210615082}}, {"type": "Feature", "geometry": {"geodesic": false, "type": "Polygon", "coordinates": [[[32.523429916996406, 36.138300651282364], [32.524507895337365, 36.138300651282364], [32.524507895337365, 36.13883964045284], [32.525585873678295, 36.13883964045284], [32.525585873678295, 36.139917618793774], [32.524507895337365, 36.139917618793774], [32.524507895337365, 36.140456607964246], [32.525585873678295, 36.140456607964246], [32.525585873678295, 36.14153458630519], [32.524507895337365, 36.14153458630519], [32.524507895337365, 36.140456607964246], [32.523968906166886, 36.140456607964246], [32.523968906166886, 36.13937862962331], [32.523429916996406, 36.13937862962331], [32.523429916996406, 36.138300651282364]]]}, "id": "+394301+88798", "properties": {"area_ha": 4.061111798530398, "count": 14, "label": 1, "mean_dnbr": 0.2039201702920852}}, {"type": "Feature", "geometry": {"geodesic": false, "type": "Polygon", "coordinates": [[[32.533670711235374, 36.11027321441783], [32.53420970040585, 36.11027321441783], [32.53420970040585, 36.1108122035883], [32.53474868957633, 36.1108122035883], [32.53474868957633, 36.111351192758775], [32.53528767874678, 36.111351192758775], [32.53528767874678, 36.11242917109972], [32.53474868957633, 36.11242917109972], [32.53474868957633, 36.113507149440665], [32.533670711235374, 36.113507149440665], [32.533670711235374, 36.11458512778161], [32.533131722064894, 36.11458512778161], [32.533131722064894, 36.11512411695208], [32.53259273289444, 36.11512411695208], [32.53259273289444, 36.11566310612255], [32.532053743723964, 36.11566310612255], [32.532053743723964, 36.11620209529302], [32.531514754553484, 36.11620209529302], [32.531514754553484, 36.11674108446349], [32.530975765383005, 36.11674108446349], [32.530975765383005, 36.117280073633964], [32.530436776212554, 36.117280073633964], [32.530436776212554, 36.11835805197491], [32.529897787042074, 36.11835805197491], [32.529897787042074, 36.11889704114538], [32.529358797871595, 36.11889704114538], [32.529358797871595, 36.12105299782727], [32.528819808701144, 36.12105299782727], [32.528819808701144, 36.12320895450915], [32.529358797871595, 36.12320895450915], [32.529358797871595, 36.123747943679625], [32.529897787042074, 36.123747943679625], [32.529897787042074, 36.1242869328501], [32.529358797871595, 36.1242869328501], [32.529358797871595, 36.123747943679625], [32.528819808701144, 36.123747943679625], [32.528819808701144, 36.1242869328501], [32.528280819530664, 36.1242869328501], [32.528280819530664, 36.12482592202057], [32.527741830360185, 36.12482592202057], [32.527741830360185, 36.12644288953199], [32.526663852019254, 36.12644288953199], [32.526663852019254, 36.125903900361514], [32.526124862848775, 36.125903900361514], [32.526124862848775, 36.12536491119104], [32.526663852019254, 36.12536491119104], [32.526663852019254, 36.1242869328501], [32.527202841189705, 36.1242869328501], [32.527202841189705, 36.123747943679625], [32.526663852019254, 36.123747943679625], [32.526663852019254, 36.12320895450915], [32.527741830360185, 36.12320895450915], [32.527741830360185, 36.12213097616821], [32.526124862848775, 36.12213097616821], [32.526124862848775, 36.119975019486326], [32.525585873678295, 36.119975019486326], [32.525585873678295, 36.1205140086568], [32.525046884507816, 36.1205140086568], [32.525046884507816, 36.12105299782727], [32.525585873678295, 36.12105299782727], [32.525585873678295, 36.12266996533868], [32.526124862848775, 36.12266996533868], [32.526124862848775, 36.12320895450915], [32.523429916996406, 36.12320895450915], [32.523429916996406, 36.12266996533868], [32.52127396031452, 36.12266996533868], [32.52127396031452, 36.12213097616821], [32.520734971144066, 36.12213097616821], [32.520734971144066, 36.12105299782727], [32.520195981973586, 36.12105299782727], [32.520195981973586, 36.119975019486326], [32.51965699280311, 36.119975019486326], [32.51965699280311, 36.11943603031585], [32.520195981973586, 36.11943603031585], [32.520195981973586, 36.11889704114538], [32.52127396031452, 36.11889704114538], [32.52127396031452, 36.117819062804436], [32.51965699280311, 36.117819062804436], [32.51965699280311, 36.11835805197491], [32.51911800363263, 36.11835805197491], [32.51911800363263, 36.119975019486326], [32.518579014462176, 36.119975019486326], [32.518579014462176, 36.1205140086568], [32.51750103612122, 36.1205140086568], [32.51750103612122, 36.11943603031585], [32.5180400252917, 36.11943603031585], [32.5180400252917, 36.11889704114538], [32.51750103612122, 36.11889704114538], [32.51750103612122, 36.11835805197491], [32.5180400252917, 36.11835805197491], [32.5180400252917, 36.117819062804436], [32.518579014462176, 36.117819062804436], [32.518579014462176, 36.117280073633964], [32.51911800363263, 36.117280073633964], [32.51911800363263, 36.11674108446349], [32.520195981973586, 36.11674108446349], [32.520195981973586, 36.11566310612255], [32.520734971144066, 36.11566310612255], [32.520734971144066, 36.11674108446349], [32.52127396031452, 36.11674108446349], [32.52127396031452, 36.117819062804436], [32.521812949484996, 36.117819062804436], [32.521812949484996, 36.117280073633964], [32.522890927825955, 36.117280073633964], [32.522890927825955, 36.11674108446349], [32.521812949484996, 36.11674108446349], [32.521812949484996, 36.11620209529302], [32.52127396031452, 36.11620209529302], [32.52127396031452, 36.11566310612255], [32.521812949484996, 36.11566310612255], [32.521812949484996, 36.11512411695208], [32.52127396031452, 36.11512411695208], [32.52127396031452, 36.11458512778161], [32.525585873678295, 36.11458512778161], [32.525585873678295, 36.11512411695208], [32.525046884507816, 36.11512411695208], [32.525046884507816, 36.11566310612255], [32.525585873678295, 36.11566310612255], [32.525585873678295, 36.11620209529302], [32.526124862848775, 36.11620209529302], [32.526124862848775, 36.11458512778161], [32.529897787042074, 36.11458512778161], [32.529897787042074, 36.11404613861114], [32.531514754553484, 36.11404613861114], [32.531514754553484, 36.11296816027019], [32.530975765383005, 36.11296816027019], [32.530975765383005, 36.113507149440665], [32.530436776212554, 36.113507149440665], [32.530436776212554, 36.11242917109972], [32.530975765383005, 36.11242917109972], [32.530975765383005, 36.111351192758775], [32.533131722064894, 36.111351192758775], [32.533131722064894, 36.1108122035883], [32.533670711235374, 36.1108122035883], [32.533670711235374, 36.11027321441783]], [[32.528280819530664, 36.123747943679625], [32.528280819530664, 36.1242869328501], [32.527741830360185, 36.1242869328501], [32.527741830360185, 36.123747943679625], [32.528280819530664, 36.123747943679625]], [[32.520734971144066, 36.11943603031585], [32.520734971144066, 36.119975019486326], [32.520195981973586, 36.119975019486326], [32.520195981973586, 36.11943603031585], [32.520734971144066, 36.11943603031585]], [[32.525585873678295, 36.11943603031585], [32.525585873678295, 36.119975019486326], [32.525046884507816, 36.119975019486326], [32.525046884507816, 36.11943603031585], [32.525585873678295, 36.11943603031585]], [[32.522351938655476, 36.11889704114538], [32.522351938655476, 36.119975019486326], [32.52127396031452, 36.119975019486326], [32.52127396031452, 36.11889704114538], [32.522351938655476, 36.11889704114538]], [[32.528280819530664, 36.11889704114538], [32.528280819530664, 36.11943603031585], [32.528819808701144, 36.11943603031585], [32.528819808701144, 36.119975019486326], [32.527741830360185, 36.119975019486326], [32.527741830360185, 36.11889704114538], [32.528280819530664, 36.11889704114538]], [[32.529358797871595, 36.11835805197491], [32.529358797871595, 36.11889704114538], [32.528819808701144, 36.11889704114538], [32.528819808701144, 36.11835805197491], [32.529358797871595, 36.11835805197491]], [[32.523429916996406, 36.117819062804436], [32.523429916996406, 36.11889704114538], [32.522351938655476, 36.11889704114538], [32.522351938655476, 36.11835805197491], [32.522890927825955, 36.11835805197491], [32.522890927825955, 36.117819062804436], [32.523429916996406, 36.117819062804436]], [[32.524507895337365, 36.11674108446349], [32.524507895337365, 36.117280073633964], [32.523968906166886, 36.117280073633964], [32.523968906166886, 36.11674108446349], [32.524507895337365, 36.11674108446349]], [[32.525585873678295, 36.11620209529302], [32.525585873678295, 36.11674108446349], [32.525046884507816, 36.11674108446349], [32.525046884507816, 36.11620209529302], [32.525585873678295, 36.11620209529302]], [[32.527202841189705, 36.11620209529302], [32.527202841189705, 36.11835805197491], [32.526663852019254, 36.11835805197491], [32.526663852019254, 36.119975019486326], [32.526124862848775, 36.119975019486326], [32.526124862848775, 36.117819062804436], [32.526663852019254, 36.117819062804436], [32.526663852019254, 36.11620209529302], [32.527202841189705, 36.11620209529302]], [[32.528280819530664, 36.11620209529302], [32.528280819530664, 36.11674108446349], [32.527741830360185, 36.11674108446349], [32.527741830360185, 36.11620209529302], [32.528280819530664, 36.11620209529302]], [[32.527741830360185, 36.11512411695208], [32.527741830360185, 36.11566310612255], [32.526663852019254, 36.11566310612255], [32.526663852019254, 36.11512411695208], [32.527741830360185, 36.11512411695208]], [[32.53474868957633, 36.111351192758775], [32.53474868957633, 36.11189018192925], [32.53420970040585, 36.11189018192925], [32.53420970040585, 36.11242917109972], [32.533670711235374, 36.11242917109972], [32.533670711235374, 36.111351192758775], [32.53474868957633, 36.111351192758775]]]}, "id": "+394319+88850", "properties": {"area_ha": 89.94946883106255, "count": 310, "label": 1, "mean_dnbr": 0.28028151933647405}}, {"type": "Feature", "geometry": {"geodesic": false, "type": "Polygon", "coordinates": [[[32.611285151783306, 36.1205140086568], [32.613441108465196, 36.1205140086568], [32.613441108465196, 36.12105299782727], [32.611285151783306, 36.12105299782727], [32.611285151783306, 36.12213097616821], [32.61074616261283, 36.12213097616821], [32.61074616261283, 36.12266996533868], [32.61020717344235, 36.12266996533868], [32.61020717344235, 36.12320895450915], [32.6096681842719, 36.12320895450915], [32.6096681842719, 36.12266996533868], [32.60912919510142, 36.12266996533868], [32.60912919510142, 36.12320895450915], [32.60859020593094, 36.12320895450915], [32.60859020593094, 36.1242869328501], [32.60805121676049, 36.1242869328501], [32.60805121676049, 36.12482592202057], [32.60751222759001, 36.12482592202057], [32.60751222759001, 36.1242869328501], [32.60697323841953, 36.1242869328501], [32.60697323841953, 36.123747943679625], [32.60751222759001, 36.123747943679625], [32.60751222759001, 36.12320895450915], [32.60859020593094, 36.12320895450915], [32.60859020593094, 36.12213097616821], [32.6096681842719, 36.12213097616821], [32.6096681842719, 36.12266996533868], [32.61020717344235, 36.12266996533868], [32.61020717344235, 36.12213097616821], [32.61074616261283, 36.12213097616821], [32.61074616261283, 36.12105299782727], [32.611285151783306, 36.12105299782727], [32.611285151783306, 36.1205140086568]]]}, "id": "+394466+88831", "properties": {"area_ha": 4.932432672645822, "count": 17, "label": 1, "mean_dnbr": 0.1971644246486822}}, {"type": "Feature", "geometry": {"geodesic": false, "type": "Polygon", "coordinates": [[[32.612902119294716, 36.10272736603123], [32.614519086806126, 36.10272736603123], [32.614519086806126, 36.103266355201704], [32.615597065147085, 36.103266355201704], [32.615597065147085, 36.10380534437217], [32.616136054317536, 36.10380534437217], [32.616136054317536, 36.10434433354264], [32.616675043488016, 36.10434433354264], [32.616675043488016, 36.105422311883586], [32.617214032658495, 36.105422311883586], [32.617214032658495, 36.10596130105406], [32.616675043488016, 36.10596130105406], [32.616675043488016, 36.105422311883586], [32.616136054317536, 36.105422311883586], [32.616136054317536, 36.10596130105406], [32.615597065147085, 36.10596130105406], [32.615597065147085, 36.10650029022453], [32.615058075976606, 36.10650029022453], [32.615058075976606, 36.105422311883586], [32.614519086806126, 36.105422311883586], [32.614519086806126, 36.104883322713114], [32.613441108465196, 36.104883322713114], [32.613441108465196, 36.105422311883586], [32.61236313012424, 36.105422311883586], [32.61236313012424, 36.10596130105406], [32.611824140953786, 36.10596130105406], [32.611824140953786, 36.10650029022453], [32.61074616261283, 36.10650029022453], [32.61074616261283, 36.10596130105406], [32.611285151783306, 36.10596130105406], [32.611285151783306, 36.105422311883586], [32.611824140953786, 36.105422311883586], [32.611824140953786, 36.104883322713114], [32.611285151783306, 36.104883322713114], [32.611285151783306, 36.10380534437217], [32.61236313012424, 36.10380534437217], [32.61236313012424, 36.103266355201704], [32.612902119294716, 36.103266355201704], [32.612902119294716, 36.10272736603123]]]}, "id": "+394468+88864", "properties": {"area_ha": 12.479008682607182, "count": 43, "label": 1, "mean_dnbr": 0.28289839439420406}}, {"type": "Feature", "geometry": {"geodesic": false, "type": "Polygon", "coordinates": [[[32.617753021828975, 36.10596130105406], [32.618292010999426, 36.10596130105406], [32.618292010999426, 36.107039279395], [32.620447967681315, 36.107039279395], [32.620447967681315, 36.107578268565476], [32.620986956851795, 36.107578268565476], [32.620986956851795, 36.10811725773595], [32.622064935192725, 36.10811725773595], [32.622064935192725, 36.10865624690642], [32.622603924363204, 36.10865624690642], [32.622603924363204, 36.10919523607689], [32.623142913533684, 36.10919523607689], [32.623142913533684, 36.107578268565476], [32.621525946022274, 36.107578268565476], [32.621525946022274, 36.10650029022453], [32.62529887021557, 36.10650029022453], [32.62529887021557, 36.107039279395], [32.62583785938605, 36.107039279395], [32.62583785938605, 36.10811725773595], [32.62529887021557, 36.10811725773595], [32.62529887021557, 36.10865624690642], [32.62691583772698, 36.10865624690642], [32.62691583772698, 36.10919523607689], [32.62583785938605, 36.10919523607689], [32.62583785938605, 36.10973422524736], [32.62529887021557, 36.10973422524736], [32.62529887021557, 36.11027321441783], [32.624220891874614, 36.11027321441783], [32.624220891874614, 36.10973422524736], [32.622064935192725, 36.10973422524736], [32.622064935192725, 36.10865624690642], [32.621525946022274, 36.10865624690642], [32.621525946022274, 36.10973422524736], [32.619369989340385, 36.10973422524736], [32.619369989340385, 36.10919523607689], [32.618292010999426, 36.10919523607689], [32.618292010999426, 36.10811725773595], [32.616136054317536, 36.10811725773595], [32.616136054317536, 36.107578268565476], [32.616675043488016, 36.107578268565476], [32.616675043488016, 36.10650029022453], [32.617753021828975, 36.10650029022453], [32.617753021828975, 36.10596130105406]]]}, "id": "+394475+88858", "properties": {"area_ha": 22.635292162973126, "count": 78, "label": 1, "mean_dnbr": 0.30625408046467106}}, {"type": "Feature", "geometry": {"geodesic": false, "type": "Polygon", "coordinates": [[[32.618292010999426, 36.11512411695208], [32.618831000169905, 36.11512411695208], [32.618831000169905, 36.11620209529302], [32.619908978510864, 36.11620209529302], [32.619908978510864, 36.11566310612255], [32.620986956851795, 36.11566310612255], [32.620986956851795, 36.11620209529302], [32.621525946022274, 36.11620209529302], [32.621525946022274, 36.117819062804436], [32.62368190270416, 36.117819062804436], [32.62368190270416, 36.119975019486326], [32.622064935192725, 36.119975019486326], [32.622064935192725, 36.1205140086568], [32.621525946022274, 36.1205140086568], [32.621525946022274, 36.12105299782727], [32.620986956851795, 36.12105299782727], [32.620986956851795, 36.12159198699774], [32.620447967681315, 36.12159198699774], [32.620447967681315, 36.12105299782727], [32.619369989340385, 36.12105299782727], [32.619369989340385, 36.12159198699774], [32.619908978510864, 36.12159198699774], [32.619908978510864, 36.12213097616821], [32.618831000169905, 36.12213097616821], [32.618831000169905, 36.12266996533868], [32.617214032658495, 36.12266996533868], [32.617214032658495, 36.12320895450915], [32.616136054317536, 36.12320895450915], [32.616136054317536, 36.123747943679625], [32.616675043488016, 36.123747943679625], [32.616675043488016, 36.1242869328501], [32.616136054317536, 36.1242869328501], [32.616136054317536, 36.12482592202057], [32.615058075976606, 36.12482592202057], [32.615058075976606, 36.12536491119104], [32.613980097635675, 36.12536491119104], [32.613980097635675, 36.12482592202057], [32.614519086806126, 36.12482592202057], [32.614519086806126, 36.1242869328501], [32.613980097635675, 36.1242869328501], [32.613980097635675, 36.12213097616821], [32.614519086806126, 36.12213097616821], [32.614519086806126, 36.12159198699774], [32.615058075976606, 36.12159198699774], [32.615058075976606, 36.12105299782727], [32.616675043488016, 36.12105299782727], [32.616675043488016, 36.119975019486326], [32.617214032658495, 36.119975019486326], [32.617214032658495, 36.117819062804436], [32.617753021828975, 36.117819062804436], [32.617753021828975, 36.11620209529302], [32.618292010999426, 36.11620209529302], [32.618292010999426, 36.11512411695208]], [[32.617753021828975, 36.12159198699774], [32.617753021828975, 36.12213097616821], [32.616675043488016, 36.12213097616821], [32.616675043488016, 36.12266996533868], [32.616136054317536, 36.12266996533868], [32.616136054317536, 36.12320895450915], [32.614519086806126, 36.12320895450915], [32.614519086806126, 36.12266996533868], [32.615597065147085, 36.12266996533868], [32.615597065147085, 36.12213097616821], [32.616136054317536, 36.12213097616821], [32.616136054317536, 36.12159198699774], [32.617753021828975, 36.12159198699774]], [[32.620986956851795, 36.11889704114538], [32.620986956851795, 36.11943603031585], [32.619908978510864, 36.11943603031585], [32.619908978510864, 36.119975019486326], [32.618292010999426, 36.119975019486326], [32.618292010999426, 36.11889704114538], [32.620986956851795, 36.11889704114538]], [[32.618831000169905, 36.117280073633964], [32.618831000169905, 36.117819062804436], [32.618292010999426, 36.117819062804436], [32.618292010999426, 36.117280073633964], [32.618831000169905, 36.117280073633964]]]}, "id": "+394476+88841", "properties": {"area_ha": 35.688793390537434, "count": 123, "label": 1, "mean_dnbr": 0.24834195007641513}}, {"type": "Feature", "geometry": {"geodesic": false, "type": "Polygon", "coordinates": [[[32.63068876192028, 36.10596130105406], [32.63176674026124, 36.10596130105406], [32.63176674026124, 36.107039279395], [32.63284471860217, 36.107039279395], [32.63284471860217, 36.10811725773595], [32.63338370777265, 36.10811725773595], [32.63338370777265, 36.10865624690642], [32.6339226969431, 36.10865624690642], [32.6339226969431, 36.10919523607689], [32.63607865362499, 36.10919523607689], [32.63607865362499, 36.11027321441783], [32.63176674026124, 36.11027321441783], [32.63176674026124, 36.11189018192925], [32.63068876192028, 36.11189018192925], [32.63068876192028, 36.1108122035883], [32.6301497727498, 36.1108122035883], [32.6301497727498, 36.11027321441783], [32.62961078357935, 36.11027321441783], [32.62961078357935, 36.10919523607689], [32.62853280523839, 36.10919523607689], [32.62853280523839, 36.10865624690642], [32.62745482689746, 36.10865624690642], [32.62745482689746, 36.10811725773595], [32.627993816067914, 36.10811725773595], [32.627993816067914, 36.107578268565476], [32.62745482689746, 36.107578268565476], [32.62745482689746, 36.107039279395], [32.62961078357935, 36.107039279395], [32.62961078357935, 36.10650029022453], [32.63068876192028, 36.10650029022453], [32.63068876192028, 36.10596130105406]], [[32.62961078357935, 36.107578268565476], [32.62961078357935, 36.10811725773595], [32.62907179440887, 36.10811725773595], [32.62907179440887, 36.107578268565476], [32.62961078357935, 36.107578268565476]], [[32.6301497727498, 36.107039279395], [32.6301497727498, 36.107578268565476], [32.62961078357935, 36.107578268565476], [32.62961078357935, 36.107039279395], [32.6301497727498, 36.107039279395]]]}, "id": "+394500+88858", "properties": {"area_ha": 21.764583037825027, "count": 75, "label": 1, "mean_dnbr": 0.3356670687040057}}, {"type": "Feature", "geometry": {"geodesic": false, "type": "Polygon", "coordinates": [[[32.65979417712575, 36.08979162593991], [32.660872155466706, 36.08979162593991], [32.660872155466706, 36.09033061511038], [32.661411144637185, 36.09033061511038], [32.661411144637185, 36.090869604280854], [32.662489122978116, 36.090869604280854], [32.662489122978116, 36.09140859345133], [32.664106090489526, 36.09140859345133], [32.664106090489526, 36.09194758262179], [32.663028112148595, 36.09194758262179], [32.663028112148595, 36.09410353930368], [32.662489122978116, 36.09410353930368], [32.662489122978116, 36.09356455013321], [32.661950133807636, 36.09356455013321], [32.661950133807636, 36.09302556096274], [32.660872155466706, 36.09302556096274], [32.660872155466706, 36.092486571792264], [32.65979417712575, 36.092486571792264], [32.65979417712575, 36.09194758262179], [32.659255187955296, 36.09194758262179], [32.659255187955296, 36.09033061511038], [32.65979417712575, 36.09033061511038], [32.65979417712575, 36.08979162593991]]]}, "id": "+394554+88888", "properties": {"area_ha": 9.868732975393987, "count": 34, "label": 1, "mean_dnbr": 0.28166462666625264}}, {"type": "Feature", "geometry": {"geodesic": false, "type": "Polygon", "coordinates": [[[32.713693094172925, 36.1318327812367], [32.714771072513884, 36.1318327812367], [32.714771072513884, 36.13344974874812], [32.715849050854814, 36.13344974874812], [32.715849050854814, 36.133988737918585], [32.717466018366224, 36.133988737918585], [32.717466018366224, 36.13560570543], [32.716927029195745, 36.13560570543], [32.716927029195745, 36.13506671625953], [32.71638804002529, 36.13506671625953], [32.71638804002529, 36.13452772708906], [32.715849050854814, 36.13452772708906], [32.715849050854814, 36.13506671625953], [32.715310061684335, 36.13506671625953], [32.715310061684335, 36.13452772708906], [32.714771072513884, 36.13452772708906], [32.714771072513884, 36.133988737918585], [32.714232083343404, 36.133988737918585], [32.714232083343404, 36.13452772708906], [32.712615115831994, 36.13452772708906], [32.712615115831994, 36.13291075957765], [32.713693094172925, 36.13291075957765], [32.713693094172925, 36.1318327812367]]]}, "id": "+394654+88810", "properties": {"area_ha": 7.542639047284698, "count": 26, "label": 1, "mean_dnbr": 0.293444708843668}}, {"type": "Feature", "geometry": {"geodesic": false, "type": "Polygon", "coordinates": [[[32.714232083343404, 36.08170678838283], [32.715849050854814, 36.08170678838283], [32.715849050854814, 36.08386274506472], [32.715310061684335, 36.08386274506472], [32.715310061684335, 36.08440173423519], [32.714771072513884, 36.08440173423519], [32.714771072513884, 36.08332375589425], [32.715310061684335, 36.08332375589425], [32.715310061684335, 36.082784766723776], [32.714232083343404, 36.082784766723776], [32.714232083343404, 36.08386274506472], [32.713693094172925, 36.08386274506472], [32.713693094172925, 36.082784766723776], [32.714232083343404, 36.082784766723776], [32.714232083343404, 36.08170678838283]]]}, "id": "+394656+88903", "properties": {"area_ha": 3.483473871992581, "count": 12, "label": 1, "mean_dnbr": 0.19573960766241494}}, {"type": "Feature", "geometry": {"geodesic": false, "type": "Polygon", "coordinates": [[[32.719082985877634, 36.063920145757265], [32.72016096421859, 36.063920145757265], [32.72016096421859, 36.06445913492774], [32.72069995338907, 36.06445913492774], [32.72069995338907, 36.06499812409821], [32.72123894255952, 36.06499812409821], [32.72123894255952, 36.0671540807801], [32.72285591007096, 36.0671540807801], [32.72285591007096, 36.067693069950565], [32.72231692090048, 36.067693069950565], [32.72231692090048, 36.06823205912104], [32.72177793173, 36.06823205912104], [32.72177793173, 36.06877104829151], [32.72123894255952, 36.06877104829151], [32.72123894255952, 36.069849026632454], [32.72016096421859, 36.069849026632454], [32.72016096421859, 36.070388015802926], [32.719082985877634, 36.070388015802926], [32.719082985877634, 36.0709270049734], [32.7180050075367, 36.0709270049734], [32.7180050075367, 36.07146599414387], [32.71854399670718, 36.07146599414387], [32.71854399670718, 36.072543972484816], [32.7180050075367, 36.072543972484816], [32.7180050075367, 36.07308296165529], [32.71854399670718, 36.07308296165529], [32.71854399670718, 36.07362195082575], [32.7180050075367, 36.07362195082575], [32.7180050075367, 36.074160939996226], [32.717466018366224, 36.074160939996226], [32.717466018366224, 36.07523891833717], [32.7180050075367, 36.07523891833717], [32.7180050075367, 36.07793386418953], [32.717466018366224, 36.07793386418953], [32.717466018366224, 36.078472853360005], [32.716927029195745, 36.078472853360005], [32.716927029195745, 36.08116779921236], [32.715849050854814, 36.08116779921236], [32.715849050854814, 36.08062881004189], [32.71638804002529, 36.08062881004189], [32.71638804002529, 36.080089820871414], [32.715849050854814, 36.080089820871414], [32.715849050854814, 36.07901184253048], [32.71638804002529, 36.07901184253048], [32.71638804002529, 36.07308296165529], [32.715849050854814, 36.07308296165529], [32.715849050854814, 36.072543972484816], [32.715310061684335, 36.072543972484816], [32.715310061684335, 36.07200498331434], [32.714771072513884, 36.07200498331434], [32.714771072513884, 36.07146599414387], [32.713693094172925, 36.07146599414387], [32.713693094172925, 36.070388015802926], [32.714771072513884, 36.070388015802926], [32.714771072513884, 36.069849026632454], [32.713693094172925, 36.069849026632454], [32.713693094172925, 36.06931003746198], [32.714232083343404, 36.06931003746198], [32.714232083343404, 36.06823205912104], [32.714771072513884, 36.06823205912104], [32.714771072513884, 36.0671540807801], [32.715310061684335, 36.0671540807801], [32.715310061684335, 36.06661509160963], [32.715849050854814, 36.06661509160963], [32.715849050854814, 36.066076102439155], [32.71638804002529, 36.066076102439155], [32.71638804002529, 36.06499812409821], [32.71854399670718, 36.06499812409821], [32.71854399670718, 36.06445913492774], [32.719082985877634, 36.06445913492774], [32.719082985877634, 36.063920145757265]], [[32.715310061684335, 36.070388015802926], [32.715310061684335, 36.07146599414387], [32.714771072513884, 36.07146599414387], [32.714771072513884, 36.070388015802926], [32.715310061684335, 36.070388015802926]], [[32.716927029195745, 36.067693069950565], [32.716927029195745, 36.06823205912104], [32.71638804002529, 36.06823205912104], [32.71638804002529, 36.067693069950565], [32.716927029195745, 36.067693069950565]], [[32.72177793173, 36.067693069950565], [32.72177793173, 36.06823205912104], [32.72123894255952, 36.06823205912104], [32.72123894255952, 36.067693069950565], [32.72177793173, 36.067693069950565]]]}, "id": "+394664+88936", "properties": {"area_ha": 55.744715707912924, "count": 192, "label": 1, "mean_dnbr": 0.3032136685195269}}, {"type": "Feature", "geometry": {"geodesic": false, "type": "Polygon", "coordinates": [[[32.72177793173, 36.05314036234783], [32.72231692090048, 36.05314036234783], [32.72231692090048, 36.05421834068878], [32.72285591007096, 36.05421834068878], [32.72285591007096, 36.05475732985925], [32.72231692090048, 36.05475732985925], [32.72231692090048, 36.05583530820019], [32.72285591007096, 36.05583530820019], [32.72285591007096, 36.05637429737066], [32.72123894255952, 36.05637429737066], [32.72123894255952, 36.05529631902972], [32.72016096421859, 36.05529631902972], [32.72016096421859, 36.05583530820019], [32.72069995338907, 36.05583530820019], [32.72069995338907, 36.05637429737066], [32.72016096421859, 36.05637429737066], [32.72016096421859, 36.05583530820019], [32.71962197504811, 36.05583530820019], [32.71962197504811, 36.05421834068878], [32.72069995338907, 36.05421834068878], [32.72069995338907, 36.05475732985925], [32.72123894255952, 36.05475732985925], [32.72123894255952, 36.05529631902972], [32.72177793173, 36.05529631902972], [32.72177793173, 36.05475732985925], [32.72231692090048, 36.05475732985925], [32.72231692090048, 36.05421834068878], [32.72123894255952, 36.05421834068878], [32.72123894255952, 36.053679351518305], [32.72177793173, 36.053679351518305], [32.72177793173, 36.05314036234783]]]}, "id": "+394668+88956", "properties": {"area_ha": 4.936672711542313, "count": 17, "label": 1, "mean_dnbr": 0.16025046082955494}}, {"type": "Feature", "geometry": {"geodesic": false, "type": "Polygon", "coordinates": [[[33.03924255313785, 35.3411356681547], [33.04247648816067, 35.3411356681547], [33.04247648816067, 35.34167465732517], [33.041937498990194, 35.34167465732517], [33.041937498990194, 35.342213646495644], [33.03924255313785, 35.342213646495644], [33.03924255313785, 35.3411356681547]]]}, "id": "+395262+90277", "properties": {"area_ha": 3.2230129662684592, "count": 11, "label": 1, "mean_dnbr": 0.2242473761375257}}]}