{"type": "FeatureCollection", "columns": {"area_ha": "Number", "count": "Long<0, 4294967295>", "label": "Byte<0, 1>", "mean_dnbr": "Object", "system:index": "String"}, "features": [{"type": "Feature", "geometry": {"geodesic": false, "type": "Polygon", "coordinates": [[[32.393533526912734, 36.43959559757605], [32.394611505253664, 36.43959559757605], [32.394611505253664, 36.440134586746524], [32.39407251608321, 36.440134586746524], [32.39407251608321, 36.440673575916996], [32.394611505253664, 36.440673575916996], [32.394611505253664, 36.44121256508746], [32.39568948359462, 36.44121256508746], [32.39568948359462, 36.441751554257934], [32.394611505253664, 36.441751554257934], [32.394611505253664, 36.44282953259888], [32.39407251608321, 36.44282953259888], [32.39407251608321, 36.44336852176935], [32.393533526912734, 36.44336852176935], [32.393533526912734, 36.44282953259888], [32.39407251608321, 36.44282953259888], [32.39407251608321, 36.441751554257934], [32.394611505253664, 36.441751554257934], [32.394611505253664, 36.44121256508746], [32.393533526912734, 36.44121256508746], [32.393533526912734, 36.440673575916996], [32.392994537742254, 36.440673575916996], [32.392994537742254, 36.440134586746524], [32.393533526912734, 36.440134586746524], [32.393533526912734, 36.43959559757605]]]}, "id": "+394060+88239", "properties": {"area_ha": 3.178571035886369, "count": 11, "label": 1, "mean_dnbr": 0.17145050855645855}}, {"type": "Feature", "geometry": {"geodesic": false, "type": "Polygon", "coordinates": [[[32.42533388797057, 36.453070326837846], [32.425872877141046, 36.453070326837846], [32.425872877141046, 36.45360931600831], [32.42695085548198, 36.45360931600831], [32.42695085548198, 36.454148305178784], [32.4264118663115, 36.454148305178784], [32.4264118663115, 36.454687294349256], [32.42533388797057, 36.454687294349256], [32.42533388797057, 36.45522628351973], [32.425872877141046, 36.45522628351973], [32.425872877141046, 36.45630426186067], [32.42533388797057, 36.45630426186067], [32.42533388797057, 36.4557652726902], [32.42425590962961, 36.4557652726902], [32.42425590962961, 36.45522628351973], [32.42371692045916, 36.45522628351973], [32.42371692045916, 36.454687294349256], [32.42533388797057, 36.454687294349256], [32.42533388797057, 36.454148305178784], [32.425872877141046, 36.454148305178784], [32.425872877141046, 36.45360931600831], [32.42533388797057, 36.45360931600831], [32.42533388797057, 36.453070326837846]]]}, "id": "+394118+88214", "properties": {"area_ha": 3.466922749076444, "count": 12, "label": 1, "mean_dnbr": 0.2616543083783118}}, {"type": "Feature", "geometry": {"geodesic": false, "type": "Polygon", "coordinates": [[[32.50887720939369, 36.35227935195963], [32.50941619856414, 36.35227935195963], [32.50941619856414, 36.353357330300575], [32.51157215524603, 36.353357330300575], [32.51157215524603, 36.35389631947105], [32.50833822022321, 36.35389631947105], [32.50833822022321, 36.35497429781199], [32.50779923105273, 36.35497429781199], [32.50779923105273, 36.353357330300575], [32.50833822022321, 36.353357330300575], [32.50833822022321, 36.3528183411301], [32.50887720939369, 36.3528183411301], [32.50887720939369, 36.35227935195963]]]}, "id": "+394273+88401", "properties": {"area_ha": 3.471459016862271, "count": 12, "label": 1, "mean_dnbr": 0.25802904576735614}}, {"type": "Feature", "geometry": {"geodesic": false, "type": "Polygon", "coordinates": [[[32.50887720939369, 36.35443530864152], [32.51103316607558, 36.35443530864152], [32.51103316607558, 36.35497429781199], [32.5104941769051, 36.35497429781199], [32.5104941769051, 36.35659126532341], [32.50995518773462, 36.35659126532341], [32.50995518773462, 36.35766924366435], [32.50887720939369, 36.35766924366435], [32.50887720939369, 36.35820823283482], [32.50726024188225, 36.35820823283482], [32.50726024188225, 36.35766924366435], [32.50887720939369, 36.35766924366435], [32.50887720939369, 36.357130254493875], [32.50941619856414, 36.357130254493875], [32.50941619856414, 36.35659126532341], [32.50995518773462, 36.35659126532341], [32.50995518773462, 36.355513286982465], [32.50941619856414, 36.355513286982465], [32.50941619856414, 36.35497429781199], [32.50887720939369, 36.35497429781199], [32.50887720939369, 36.35443530864152]]]}, "id": "+394276+88397", "properties": {"area_ha": 4.0498741869566155, "count": 14, "label": 1, "mean_dnbr": 0.2292172645469238}}, {"type": "Feature", "geometry": {"geodesic": false, "type": "Polygon", "coordinates": [[[32.54768442966764, 36.19381653584095], [32.54822341883812, 36.19381653584095], [32.54822341883812, 36.19435552501142], [32.55145735386094, 36.19435552501142], [32.55145735386094, 36.19489451418189], [32.55199634303142, 36.19489451418189], [32.55199634303142, 36.19543350335236], [32.55037937552001, 36.19543350335236], [32.55037937552001, 36.19489451418189], [32.54876240800857, 36.19489451418189], [32.54876240800857, 36.19543350335236], [32.54768442966764, 36.19543350335236], [32.54768442966764, 36.19489451418189], [32.54822341883812, 36.19489451418189], [32.54822341883812, 36.19435552501142], [32.54768442966764, 36.19435552501142], [32.54768442966764, 36.19381653584095]]]}, "id": "+394345+88695", "properties": {"area_ha": 3.4784930059453445, "count": 12, "label": 1, "mean_dnbr": 0.17816677015763327}}, {"type": "Feature", "geometry": {"geodesic": false, "type": "Polygon", "coordinates": [[[32.55792522390661, 36.202440362568495], [32.55846421307709, 36.202440362568495], [32.55846421307709, 36.20297935173897], [32.55792522390661, 36.20297935173897], [32.55792522390661, 36.20351834090944], [32.55684724556565, 36.20351834090944], [32.55684724556565, 36.204596319250385], [32.5563082563952, 36.204596319250385], [32.5563082563952, 36.20351834090944], [32.55576926722472, 36.20351834090944], [32.55576926722472, 36.20405733007991], [32.55523027805424, 36.20405733007991], [32.55523027805424, 36.20351834090944], [32.55576926722472, 36.20351834090944], [32.55576926722472, 36.202440362568495], [32.55738623473613, 36.202440362568495], [32.55738623473613, 36.20297935173897], [32.55792522390661, 36.20297935173897], [32.55792522390661, 36.202440362568495]]]}, "id": "+394364+88679", "properties": {"area_ha": 3.1882882154486887, "count": 11, "label": 1, "mean_dnbr": 0.22287712889467692}}, {"type": "Feature", "geometry": {"geodesic": false, "type": "Polygon", "coordinates": [[[32.566010061463686, 36.9149840459321], [32.567627028975096, 36.9149840459321], [32.567627028975096, 36.915523035102574], [32.56870500731603, 36.915523035102574], [32.56870500731603, 36.916062024273046], [32.569243996486506, 36.916062024273046], [32.569243996486506, 36.917678991784456], [32.56870500731603, 36.917678991784456], [32.56870500731603, 36.91821798095493], [32.569243996486506, 36.91821798095493], [32.569243996486506, 36.9187569701254], [32.570321974827465, 36.9187569701254], [32.570321974827465, 36.91929595929587], [32.569782985656985, 36.91929595929587], [32.569782985656985, 36.919834948466345], [32.56870500731603, 36.919834948466345], [32.56870500731603, 36.92037393763682], [32.568166018145575, 36.92037393763682], [32.568166018145575, 36.92091292680729], [32.56708803980462, 36.92091292680729], [32.56708803980462, 36.919834948466345], [32.568166018145575, 36.919834948466345], [32.568166018145575, 36.917678991784456], [32.56870500731603, 36.917678991784456], [32.56870500731603, 36.916062024273046], [32.56708803980462, 36.916062024273046], [32.56708803980462, 36.915523035102574], [32.566010061463686, 36.915523035102574], [32.566010061463686, 36.916062024273046], [32.56547107229321, 36.916062024273046], [32.56547107229321, 36.91660101344352], [32.56493208312273, 36.91660101344352], [32.56493208312273, 36.916062024273046], [32.56547107229321, 36.916062024273046], [32.56547107229321, 36.915523035102574], [32.566010061463686, 36.915523035102574], [32.566010061463686, 36.9149840459321]]]}, "id": "+394381+87357", "properties": {"area_ha": 7.466564422706555, "count": 26, "label": 1, "mean_dnbr": 0.22029896896008325}}, {"type": "Feature", "geometry": {"geodesic": false, "type": "Polygon", "coordinates": [[[32.574094899020764, 36.91660101344352], [32.574633888191215, 36.91660101344352], [32.574633888191215, 36.91714000261399], [32.574094899020764, 36.91714000261399], [32.574094899020764, 36.917678991784456], [32.575711866532174, 36.917678991784456], [32.575711866532174, 36.9187569701254], [32.576789844873105, 36.9187569701254], [32.576789844873105, 36.91929595929587], [32.577328834043584, 36.91929595929587], [32.577328834043584, 36.919834948466345], [32.57786782321406, 36.919834948466345], [32.57786782321406, 36.92037393763682], [32.578406812384515, 36.92037393763682], [32.578406812384515, 36.92252989431871], [32.576789844873105, 36.92252989431871], [32.576789844873105, 36.921990905148235], [32.575711866532174, 36.921990905148235], [32.575711866532174, 36.92091292680729], [32.575172877361695, 36.92091292680729], [32.575172877361695, 36.92145191597776], [32.574633888191215, 36.92145191597776], [32.574633888191215, 36.92091292680729], [32.573555909850285, 36.92091292680729], [32.573555909850285, 36.92145191597776], [32.572477931509326, 36.92145191597776], [32.572477931509326, 36.92252989431871], [32.573016920679805, 36.92252989431871], [32.573016920679805, 36.921990905148235], [32.573555909850285, 36.921990905148235], [32.573555909850285, 36.92252989431871], [32.573016920679805, 36.92252989431871], [32.573016920679805, 36.92306888348918], [32.571938942338875, 36.92306888348918], [32.571938942338875, 36.92091292680729], [32.570860963997916, 36.92091292680729], [32.570860963997916, 36.919834948466345], [32.572477931509326, 36.919834948466345], [32.572477931509326, 36.92037393763682], [32.573016920679805, 36.92037393763682], [32.573016920679805, 36.92091292680729], [32.573555909850285, 36.92091292680729], [32.573555909850285, 36.919834948466345], [32.573016920679805, 36.919834948466345], [32.573016920679805, 36.91929595929587], [32.572477931509326, 36.91929595929587], [32.572477931509326, 36.9187569701254], [32.570860963997916, 36.9187569701254], [32.570860963997916, 36.91821798095493], [32.571399953168395, 36.91821798095493], [32.571399953168395, 36.917678991784456], [32.573555909850285, 36.917678991784456], [32.573555909850285, 36.91714000261399], [32.574094899020764, 36.91714000261399], [32.574094899020764, 36.91660101344352]], [[32.572477931509326, 36.92037393763682], [32.572477931509326, 36.92091292680729], [32.571938942338875, 36.92091292680729], [32.571938942338875, 36.92037393763682], [32.572477931509326, 36.92037393763682]], [[32.576789844873105, 36.92037393763682], [32.576789844873105, 36.92091292680729], [32.576250855702654, 36.92091292680729], [32.576250855702654, 36.92037393763682], [32.576789844873105, 36.92037393763682]]]}, "id": "+394394+87354", "properties": {"area_ha": 22.686264217790217, "count": 79, "label": 1, "mean_dnbr": 0.27518496759449895}}, {"type": "Feature", "geometry": {"geodesic": false, "type": "Polygon", "coordinates": [[[32.575172877361695, 36.18950462247717], [32.575711866532174, 36.18950462247717], [32.575711866532174, 36.190043611647646], [32.576250855702654, 36.190043611647646], [32.576250855702654, 36.19112158998859], [32.576789844873105, 36.19112158998859], [32.576789844873105, 36.19058260081812], [32.577328834043584, 36.19058260081812], [32.577328834043584, 36.19112158998859], [32.57786782321406, 36.19112158998859], [32.57786782321406, 36.192199568329535], [32.576250855702654, 36.192199568329535], [32.576250855702654, 36.19166057915906], [32.573555909850285, 36.19166057915906], [32.573555909850285, 36.19058260081812], [32.574094899020764, 36.19058260081812], [32.574094899020764, 36.19112158998859], [32.575711866532174, 36.19112158998859], [32.575711866532174, 36.190043611647646], [32.575172877361695, 36.190043611647646], [32.575172877361695, 36.18950462247717]]]}, "id": "+394396+88703", "properties": {"area_ha": 4.638238365295717, "count": 16, "label": 1, "mean_dnbr": 0.23801970192480487}}, {"type": "Feature", "geometry": {"geodesic": false, "type": "Polygon", "coordinates": [[[32.58110175823688, 36.90636021920455], [32.58271872574829, 36.90636021920455], [32.58271872574829, 36.90689920837502], [32.58379670408925, 36.90689920837502], [32.58379670408925, 36.907438197545495], [32.58325771491877, 36.907438197545495], [32.58325771491877, 36.90851617588644], [32.58217973657784, 36.90851617588644], [32.58217973657784, 36.909594154227385], [32.58164074740736, 36.909594154227385], [32.58164074740736, 36.90851617588644], [32.580562769066404, 36.90851617588644], [32.580562769066404, 36.90797718671597], [32.58164074740736, 36.90797718671597], [32.58164074740736, 36.907438197545495], [32.58217973657784, 36.907438197545495], [32.58217973657784, 36.90689920837502], [32.58110175823688, 36.90689920837502], [32.58110175823688, 36.90636021920455]]]}, "id": "+394409+87373", "properties": {"area_ha": 4.5954230967026035, "count": 16, "label": 1, "mean_dnbr": 0.2977504638393345}}, {"type": "Feature", "geometry": {"geodesic": false, "type": "Polygon", "coordinates": [[[32.58325771491877, 36.9149840459321], [32.58379670408925, 36.9149840459321], [32.58379670408925, 36.915523035102574], [32.5843356932597, 36.915523035102574], [32.5843356932597, 36.916062024273046], [32.58325771491877, 36.916062024273046], [32.58325771491877, 36.91660101344352], [32.58164074740736, 36.91660101344352], [32.58164074740736, 36.91714000261399], [32.58271872574829, 36.91714000261399], [32.58271872574829, 36.917678991784456], [32.58164074740736, 36.917678991784456], [32.58164074740736, 36.91821798095493], [32.580562769066404, 36.91821798095493], [32.580562769066404, 36.9187569701254], [32.58110175823688, 36.9187569701254], [32.58110175823688, 36.91929595929587], [32.58002377989595, 36.91929595929587], [32.58002377989595, 36.9187569701254], [32.57948479072547, 36.9187569701254], [32.57948479072547, 36.91821798095493], [32.58002377989595, 36.91821798095493], [32.58002377989595, 36.917678991784456], [32.580562769066404, 36.917678991784456], [32.580562769066404, 36.91714000261399], [32.58110175823688, 36.91714000261399], [32.58110175823688, 36.91660101344352], [32.58164074740736, 36.91660101344352], [32.58164074740736, 36.916062024273046], [32.58217973657784, 36.916062024273046], [32.58217973657784, 36.915523035102574], [32.58325771491877, 36.915523035102574], [32.58325771491877, 36.9149840459321]]]}, "id": "+394411+87357", "properties": {"area_ha": 5.7435774390048495, "count": 20, "label": 1, "mean_dnbr": 0.1692559845808824}}, {"type": "Feature", "geometry": {"geodesic": false, "type": "Polygon", "coordinates": [[[32.59242053081678, 36.90528224086361], [32.59295951998726, 36.90528224086361], [32.59295951998726, 36.90582123003408], [32.59349850915774, 36.90582123003408], [32.59349850915774, 36.90636021920455], [32.59242053081678, 36.90636021920455], [32.59242053081678, 36.90689920837502], [32.59295951998726, 36.90689920837502], [32.59295951998726, 36.90797718671597], [32.59242053081678, 36.90797718671597], [32.59242053081678, 36.90905516505691], [32.59188154164633, 36.90905516505691], [32.59188154164633, 36.907438197545495], [32.59134255247585, 36.907438197545495], [32.59134255247585, 36.90582123003408], [32.59242053081678, 36.90582123003408], [32.59242053081678, 36.90528224086361]]]}, "id": "+394428+87375", "properties": {"area_ha": 4.021039271144162, "count": 14, "label": 1, "mean_dnbr": 0.19081155911004918}}, {"type": "Feature", "geometry": {"geodesic": false, "type": "Polygon", "coordinates": [[[32.59781042252152, 36.16902303399925], [32.59888840086245, 36.16902303399925], [32.59888840086245, 36.17010101234019], [32.59834941169197, 36.17010101234019], [32.59834941169197, 36.171178990681135], [32.59781042252152, 36.171178990681135], [32.59781042252152, 36.17064000151066], [32.59727143335104, 36.17064000151066], [32.59727143335104, 36.17010101234019], [32.59673244418056, 36.17010101234019], [32.59673244418056, 36.169562023169725], [32.59565446583963, 36.169562023169725], [32.59565446583963, 36.16902303399925], [32.59673244418056, 36.16902303399925], [32.59673244418056, 36.169562023169725], [32.59781042252152, 36.169562023169725], [32.59781042252152, 36.16902303399925]]]}, "id": "+394439+88741", "properties": {"area_ha": 3.1896494666616215, "count": 11, "label": 1, "mean_dnbr": 0.18055176843587087}}, {"type": "Feature", "geometry": {"geodesic": false, "type": "Polygon", "coordinates": [[[32.611285151783306, 36.8939634682837], [32.613441108465196, 36.8939634682837], [32.613441108465196, 36.895041446624646], [32.612902119294716, 36.895041446624646], [32.612902119294716, 36.89611942496559], [32.61236313012424, 36.89611942496559], [32.61236313012424, 36.89558043579512], [32.61020717344235, 36.89558043579512], [32.61020717344235, 36.895041446624646], [32.611285151783306, 36.895041446624646], [32.611285151783306, 36.8939634682837]]]}, "id": "+394466+87396", "properties": {"area_ha": 4.021673657212732, "count": 14, "label": 1, "mean_dnbr": 0.2528893386019431}}, {"type": "Feature", "geometry": {"geodesic": false, "type": "Polygon", "coordinates": [[[32.617214032658495, 36.14584649966896], [32.617214032658495, 36.146385488839435], [32.616675043488016, 36.146385488839435], [32.616675043488016, 36.1453075104985], [32.615058075976606, 36.1453075104985], [32.615058075976606, 36.144768521328025], [32.613441108465196, 36.144768521328025], [32.613441108465196, 36.14422953215755], [32.614519086806126, 36.14422953215755], [32.614519086806126, 36.14369054298708], [32.615597065147085, 36.14369054298708], [32.615597065147085, 36.14315155381661], [32.616675043488016, 36.14315155381661], [32.616675043488016, 36.14422953215755], [32.619908978510864, 36.14422953215755], [32.619908978510864, 36.144768521328025], [32.620447967681315, 36.144768521328025], [32.620447967681315, 36.1453075104985], [32.618831000169905, 36.1453075104985], [32.618831000169905, 36.144768521328025], [32.618292010999426, 36.144768521328025], [32.618292010999426, 36.14584649966896], [32.617214032658495, 36.14584649966896]]]}, "id": "+394472+88789", "properties": {"area_ha": 8.99188432191443, "count": 31, "label": 1, "mean_dnbr": 0.21519993850190047}}, {"type": "Feature", "geometry": {"geodesic": false, "type": "Polygon", "coordinates": [[[32.620986956851795, 36.14422953215755], [32.624220891874614, 36.14422953215755], [32.624220891874614, 36.144768521328025], [32.62368190270416, 36.144768521328025], [32.62368190270416, 36.1453075104985], [32.62583785938605, 36.1453075104985], [32.62583785938605, 36.146385488839435], [32.624220891874614, 36.146385488839435], [32.624220891874614, 36.14584649966896], [32.623142913533684, 36.14584649966896], [32.623142913533684, 36.146385488839435], [32.622603924363204, 36.146385488839435], [32.622603924363204, 36.14584649966896], [32.622064935192725, 36.14584649966896], [32.622064935192725, 36.1453075104985], [32.621525946022274, 36.1453075104985], [32.621525946022274, 36.14584649966896], [32.620986956851795, 36.14584649966896], [32.620986956851795, 36.14422953215755]]]}, "id": "+394486+88787", "properties": {"area_ha": 6.67133312225226, "count": 23, "label": 1, "mean_dnbr": 0.18620227383744}}, {"type": "Feature", "geometry": {"geodesic": false, "type": "Polygon", "coordinates": [[[32.63877359947736, 36.101110398519815], [32.64039056698877, 36.101110398519815], [32.64039056698877, 36.10164938769029], [32.64092955615925, 36.10164938769029], [32.64092955615925, 36.10218837686076], [32.64039056698877, 36.10218837686076], [32.64039056698877, 36.103266355201704], [32.63931258864784, 36.103266355201704], [32.63931258864784, 36.10272736603123], [32.63823461030688, 36.10272736603123], [32.63823461030688, 36.103266355201704], [32.63715663196595, 36.103266355201704], [32.63715663196595, 36.10218837686076], [32.63823461030688, 36.10218837686076], [32.63823461030688, 36.10164938769029], [32.63877359947736, 36.10164938769029], [32.63877359947736, 36.101110398519815]]]}, "id": "+394516+88867", "properties": {"area_ha": 5.223924552882192, "count": 18, "label": 1, "mean_dnbr": 0.23830983558036478}}, {"type": "Feature", "geometry": {"geodesic": false, "type": "Polygon", "coordinates": [[[32.714771072513884, 36.0709270049734], [32.71638804002529, 36.0709270049734], [32.71638804002529, 36.074160939996226], [32.715310061684335, 36.074160939996226], [32.715310061684335, 36.07362195082575], [32.714771072513884, 36.07362195082575], [32.714771072513884, 36.072543972484816], [32.713693094172925, 36.072543972484816], [32.713693094172925, 36.07200498331434], [32.714771072513884, 36.07200498331434], [32.714771072513884, 36.0709270049734]]]}, "id": "+394657+88923", "properties": {"area_ha": 5.516233028886497, "count": 19, "label": 1, "mean_dnbr": 0.22256915919231593}}, {"type": "Feature", "geometry": {"geodesic": false, "type": "Polygon", "coordinates": [[[32.96324508010133, 36.24879343122906], [32.96809598263559, 36.24879343122906], [32.96809598263559, 36.249871409570005], [32.96755699346511, 36.249871409570005], [32.96755699346511, 36.25041039874048], [32.96701800429463, 36.25041039874048], [32.96701800429463, 36.25094938791095], [32.9659400259537, 36.25094938791095], [32.9659400259537, 36.25041039874048], [32.96540103678322, 36.25041039874048], [32.96540103678322, 36.249871409570005], [32.96432305844226, 36.249871409570005], [32.96432305844226, 36.24933242039953], [32.96324508010133, 36.24933242039953], [32.96324508010133, 36.24879343122906]], [[32.9659400259537, 36.24933242039953], [32.9659400259537, 36.249871409570005], [32.96540103678322, 36.249871409570005], [32.96540103678322, 36.24933242039953], [32.9659400259537, 36.24933242039953]]]}, "id": "+395124+88593", "properties": {"area_ha": 6.083055322064667, "count": 21, "label": 1, "mean_dnbr": 0.2533165605059886}}, {"type": "Feature", "geometry": {"geodesic": false, "type": "Polygon", "coordinates": [[[32.9772587985336, 37.04326346850437], [32.97833677687453, 37.04326346850437], [32.97833677687453, 37.04380245767484], [32.979953744385966, 37.04380245767484], [32.979953744385966, 37.04488043601578], [32.9772587985336, 37.04488043601578], [32.9772587985336, 37.04326346850437]]]}, "id": "+395143+87119", "properties": {"area_ha": 3.4404035640805812, "count": 12, "label": 1, "mean_dnbr": 0.23864695187666898}}]}