{"type": "FeatureCollection", "columns": {"area_ha": "Number", "count": "Long<0, 4294967295>", "label": "Byte<0, 1>", "mean_dnbr": "Object", "system:index": "String"}, "features": [{"type": "Feature", "geometry": {"geodesic": false, "type": "Polygon", "coordinates": [[[32.04696349029942, 36.60344830539945], [32.05289237117461, 36.60344830539945], [32.05289237117461, 36.60614325125181], [32.05235338200413, 36.60614325125181], [32.05235338200413, 36.60668224042228], [32.0512754036632, 36.60668224042228], [32.0512754036632, 36.60722122959275], [32.05073641449272, 36.60722122959275], [32.05073641449272, 36.607760218763225], [32.04911944698131, 36.607760218763225], [32.04911944698131, 36.60722122959275], [32.04804146864035, 36.60722122959275], [32.04804146864035, 36.60668224042228], [32.04642450112894, 36.60668224042228], [32.04642450112894, 36.60614325125181], [32.04588551195849, 36.60614325125181], [32.04588551195849, 36.60668224042228], [32.04534652278801, 36.60668224042228], [32.04534652278801, 36.605604262081336], [32.04480753361753, 36.605604262081336], [32.04480753361753, 36.60506527291086], [32.04588551195849, 36.60506527291086], [32.04588551195849, 36.60398729456992], [32.04696349029942, 36.60398729456992], [32.04696349029942, 36.60344830539945]]]}, "id": "+393426+87935", "properties": {"area_ha": 25.086195105935037, "count": 87, "label": 1, "mean_dnbr": 0.5434037069659935}}, {"type": "Feature", "geometry": {"geodesic": false, "type": "Polygon", "coordinates": [[[32.28465771447745, 36.27520390058218], [32.28519670364793, 36.27520390058218], [32.28519670364793, 36.27574288975265], [32.28627468198886, 36.27574288975265], [32.28627468198886, 36.27628187892312], [32.28789164950027, 36.27628187892312], [32.28789164950027, 36.27735985726407], [32.28843063867075, 36.27735985726407], [32.28843063867075, 36.27789884643454], [32.288969627841226, 36.27789884643454], [32.288969627841226, 36.278437835605004], [32.287352660329816, 36.278437835605004], [32.287352660329816, 36.27897682477548], [32.28627468198886, 36.27897682477548], [32.28627468198886, 36.27951581394595], [32.288969627841226, 36.27951581394595], [32.288969627841226, 36.28005480311642], [32.28950861701168, 36.28005480311642], [32.28950861701168, 36.28059379228689], [32.290586595352636, 36.28059379228689], [32.290586595352636, 36.281132781457366], [32.291125584523115, 36.281132781457366], [32.291125584523115, 36.28274974896878], [32.291664573693566, 36.28274974896878], [32.291664573693566, 36.284905705650665], [32.291125584523115, 36.284905705650665], [32.291125584523115, 36.2843667164802], [32.28950861701168, 36.2843667164802], [32.28950861701168, 36.284905705650665], [32.287352660329816, 36.284905705650665], [32.287352660329816, 36.2843667164802], [32.28681367115934, 36.2843667164802], [32.28681367115934, 36.28382772730973], [32.28573569281838, 36.28382772730973], [32.28573569281838, 36.28274974896878], [32.28411872530697, 36.28274974896878], [32.28411872530697, 36.281132781457366], [32.28627468198886, 36.281132781457366], [32.28627468198886, 36.28167177062784], [32.28681367115934, 36.28167177062784], [32.28681367115934, 36.281132781457366], [32.287352660329816, 36.281132781457366], [32.287352660329816, 36.28059379228689], [32.28681367115934, 36.28059379228689], [32.28681367115934, 36.28005480311642], [32.28627468198886, 36.28005480311642], [32.28627468198886, 36.27951581394595], [32.28573569281838, 36.27951581394595], [32.28573569281838, 36.278437835605004], [32.28411872530697, 36.278437835605004], [32.28411872530697, 36.27789884643454], [32.28357973613649, 36.27789884643454], [32.28357973613649, 36.27735985726407], [32.28250175779556, 36.27735985726407], [32.28250175779556, 36.276820868093594], [32.28304074696604, 36.276820868093594], [32.28304074696604, 36.27628187892312], [32.28357973613649, 36.27628187892312], [32.28357973613649, 36.27574288975265], [32.28465771447745, 36.27574288975265], [32.28465771447745, 36.27520390058218]], [[32.291125584523115, 36.28274974896878], [32.291125584523115, 36.283288738139255], [32.290586595352636, 36.283288738139255], [32.290586595352636, 36.28382772730973], [32.290047606182156, 36.28382772730973], [32.290047606182156, 36.283288738139255], [32.28950861701168, 36.283288738139255], [32.28950861701168, 36.28274974896878], [32.291125584523115, 36.28274974896878]]]}, "id": "+393857+88544", "properties": {"area_ha": 38.511220706734484, "count": 133, "label": 1, "mean_dnbr": 0.44354941846341617}}, {"type": "Feature", "geometry": {"geodesic": false, "type": "Polygon", "coordinates": [[[32.65763822044386, 36.111351192758775], [32.65817720961434, 36.111351192758775], [32.65817720961434, 36.11189018192925], [32.65979417712575, 36.11189018192925], [32.65979417712575, 36.11296816027019], [32.659255187955296, 36.11296816027019], [32.659255187955296, 36.11242917109972], [32.658716198784816, 36.11242917109972], [32.658716198784816, 36.113507149440665], [32.659255187955296, 36.113507149440665], [32.659255187955296, 36.11404613861114], [32.65763822044386, 36.11404613861114], [32.65763822044386, 36.113507149440665], [32.65817720961434, 36.113507149440665], [32.65817720961434, 36.11296816027019], [32.65763822044386, 36.11296816027019], [32.65763822044386, 36.111351192758775]]]}, "id": "+394549+88848", "properties": {"area_ha": 3.482151945605613, "count": 12, "label": 1, "mean_dnbr": 0.1949578827082716}}, {"type": "Feature", "geometry": {"geodesic": false, "type": "Polygon", "coordinates": [[[32.666262047171415, 36.10003242017887], [32.666801036341894, 36.10003242017887], [32.666801036341894, 36.10057140934934], [32.667879014682825, 36.10057140934934], [32.667879014682825, 36.101110398519815], [32.666801036341894, 36.101110398519815], [32.666801036341894, 36.10164938769029], [32.666262047171415, 36.10164938769029], [32.666262047171415, 36.10218837686076], [32.667340025512374, 36.10218837686076], [32.667340025512374, 36.103266355201704], [32.665184068830484, 36.103266355201704], [32.665184068830484, 36.10380534437217], [32.664645079660005, 36.10380534437217], [32.664645079660005, 36.103266355201704], [32.665184068830484, 36.103266355201704], [32.665184068830484, 36.10218837686076], [32.665723058000935, 36.10218837686076], [32.665723058000935, 36.10164938769029], [32.665184068830484, 36.10164938769029], [32.665184068830484, 36.101110398519815], [32.666262047171415, 36.101110398519815], [32.666262047171415, 36.10003242017887]]]}, "id": "+394565+88869", "properties": {"area_ha": 4.933727659499044, "count": 17, "label": 1, "mean_dnbr": 0.23955749453301234}}, {"type": "Feature", "geometry": {"geodesic": false, "type": "Polygon", "coordinates": [[[32.673807895558014, 36.10218837686076], [32.67488587389897, 36.10218837686076], [32.67488587389897, 36.10272736603123], [32.6759638522399, 36.10272736603123], [32.6759638522399, 36.103266355201704], [32.67542486306942, 36.103266355201704], [32.67542486306942, 36.10380534437217], [32.67434688472849, 36.10380534437217], [32.67434688472849, 36.103266355201704], [32.67326890638756, 36.103266355201704], [32.67326890638756, 36.10380534437217], [32.673807895558014, 36.10380534437217], [32.673807895558014, 36.10434433354264], [32.67326890638756, 36.10434433354264], [32.67326890638756, 36.105422311883586], [32.67272991721708, 36.105422311883586], [32.67272991721708, 36.104883322713114], [32.672190928046604, 36.104883322713114], [32.672190928046604, 36.10434433354264], [32.671651938876124, 36.10434433354264], [32.671651938876124, 36.10380534437217], [32.672190928046604, 36.10380534437217], [32.672190928046604, 36.10272736603123], [32.67272991721708, 36.10272736603123], [32.67272991721708, 36.103266355201704], [32.67326890638756, 36.103266355201704], [32.67326890638756, 36.10272736603123], [32.673807895558014, 36.10272736603123], [32.673807895558014, 36.10218837686076]]]}, "id": "+394580+88865", "properties": {"area_ha": 5.514051593517321, "count": 19, "label": 1, "mean_dnbr": 0.27761571525804296}}, {"type": "Feature", "geometry": {"geodesic": false, "type": "Polygon", "coordinates": [[[32.68512666813794, 36.1242869328501], [32.68566565730839, 36.1242869328501], [32.68566565730839, 36.12482592202057], [32.68674363564935, 36.12482592202057], [32.68674363564935, 36.12536491119104], [32.68620464647887, 36.12536491119104], [32.68620464647887, 36.12644288953199], [32.68566565730839, 36.12644288953199], [32.68566565730839, 36.12698187870246], [32.68458767896746, 36.12698187870246], [32.68458767896746, 36.12536491119104], [32.68566565730839, 36.12536491119104], [32.68566565730839, 36.12482592202057], [32.68512666813794, 36.12482592202057], [32.68512666813794, 36.1242869328501]]]}, "id": "+394600+88824", "properties": {"area_ha": 3.1914419786775685, "count": 11, "label": 1, "mean_dnbr": 0.21476788412568185}}, {"type": "Feature", "geometry": {"geodesic": false, "type": "Polygon", "coordinates": [[[32.78430067550471, 36.92468585100059], [32.78537865384567, 36.92468585100059], [32.78537865384567, 36.925763829341534], [32.78483966467519, 36.925763829341534], [32.78483966467519, 36.926302818512006], [32.78430067550471, 36.926302818512006], [32.78430067550471, 36.92684180768248], [32.78376168633426, 36.92684180768248], [32.78376168633426, 36.926302818512006], [32.78322269716378, 36.926302818512006], [32.78322269716378, 36.92684180768248], [32.78106674048189, 36.92684180768248], [32.78106674048189, 36.925763829341534], [32.78160572965237, 36.925763829341534], [32.78160572965237, 36.92522484017106], [32.78214471882285, 36.92522484017106], [32.78214471882285, 36.92468585100059], [32.78376168633426, 36.92468585100059], [32.78376168633426, 36.92522484017106], [32.78430067550471, 36.92522484017106], [32.78430067550471, 36.92468585100059]]]}, "id": "+394785+87339", "properties": {"area_ha": 6.891512044968748, "count": 24, "label": 1, "mean_dnbr": 0.24521590376006264}}, {"type": "Feature", "geometry": {"geodesic": false, "type": "Polygon", "coordinates": [[[32.79669742642557, 36.09787646349698], [32.79831439393698, 36.09787646349698], [32.79831439393698, 36.09841545266745], [32.799392372277936, 36.09841545266745], [32.799392372277936, 36.098954441837925], [32.800470350618866, 36.098954441837925], [32.800470350618866, 36.09841545266745], [32.801009339789346, 36.09841545266745], [32.801009339789346, 36.098954441837925], [32.800470350618866, 36.098954441837925], [32.800470350618866, 36.0994934310084], [32.799392372277936, 36.0994934310084], [32.799392372277936, 36.10003242017887], [32.797775404766526, 36.10003242017887], [32.797775404766526, 36.101110398519815], [32.797236415596046, 36.101110398519815], [32.797236415596046, 36.10003242017887], [32.797775404766526, 36.10003242017887], [32.797775404766526, 36.0994934310084], [32.797236415596046, 36.0994934310084], [32.797236415596046, 36.09841545266745], [32.79669742642557, 36.09841545266745], [32.79669742642557, 36.09787646349698]]]}, "id": "+394809+88873", "properties": {"area_ha": 5.51436153339866, "count": 19, "label": 1, "mean_dnbr": 0.23615295804173617}}, {"type": "Feature", "geometry": {"geodesic": false, "type": "Polygon", "coordinates": [[[32.799392372277936, 36.799640363451154], [32.801548328959825, 36.799640363451154], [32.801548328959825, 36.8007183417921], [32.800470350618866, 36.8007183417921], [32.800470350618866, 36.80125733096257], [32.799931361448415, 36.80125733096257], [32.799931361448415, 36.8007183417921], [32.79831439393698, 36.8007183417921], [32.79831439393698, 36.800179352621626], [32.799392372277936, 36.800179352621626], [32.799392372277936, 36.799640363451154]]]}, "id": "+394815+87571", "properties": {"area_ha": 3.163794637426114, "count": 11, "label": 1, "mean_dnbr": 0.18677779627015423}}, {"type": "Feature", "geometry": {"geodesic": false, "type": "Polygon", "coordinates": [[[32.83388767918811, 36.71016816115285], [32.83496565752907, 36.71016816115285], [32.83496565752907, 36.711246139493795], [32.83550464669955, 36.711246139493795], [32.83550464669955, 36.71232411783474], [32.83496565752907, 36.71232411783474], [32.83496565752907, 36.712863107005205], [32.83442666835859, 36.712863107005205], [32.83442666835859, 36.71232411783474], [32.83388767918811, 36.71232411783474], [32.83388767918811, 36.71178512866427], [32.83334869001766, 36.71178512866427], [32.83334869001766, 36.71070715032332], [32.83388767918811, 36.71070715032332], [32.83388767918811, 36.71016816115285]]]}, "id": "+394877+87737", "properties": {"area_ha": 3.743368079395513, "count": 13, "label": 1, "mean_dnbr": 0.20108974522624334}}, {"type": "Feature", "geometry": {"geodesic": false, "type": "Polygon", "coordinates": [[[32.83496565752907, 36.95163530952418], [32.83550464669955, 36.95163530952418], [32.83550464669955, 36.95217429869465], [32.83712161421096, 36.95217429869465], [32.83712161421096, 36.95271328786512], [32.83766060338141, 36.95271328786512], [32.83766060338141, 36.953252277035595], [32.83712161421096, 36.953252277035595], [32.83712161421096, 36.95379126620606], [32.83604363587, 36.95379126620606], [32.83604363587, 36.954869244547005], [32.83496565752907, 36.954869244547005], [32.83496565752907, 36.95433025537653], [32.83442666835859, 36.95433025537653], [32.83442666835859, 36.95271328786512], [32.83496565752907, 36.95271328786512], [32.83496565752907, 36.95163530952418]], [[32.83550464669955, 36.95271328786512], [32.83550464669955, 36.953252277035595], [32.83496565752907, 36.953252277035595], [32.83496565752907, 36.95271328786512], [32.83550464669955, 36.95271328786512]]]}, "id": "+394878+87289", "properties": {"area_ha": 5.740849375280703, "count": 20, "label": 1, "mean_dnbr": 0.1956314074192811}}, {"type": "Feature", "geometry": {"geodesic": false, "type": "Polygon", "coordinates": [[[32.85814219185934, 36.77861978580276], [32.85975915937075, 36.77861978580276], [32.85975915937075, 36.7796977641437], [32.86029814854123, 36.7796977641437], [32.86029814854123, 36.78023675331417], [32.86191511605264, 36.78023675331417], [32.86191511605264, 36.781314731655115], [32.86083713771171, 36.781314731655115], [32.86083713771171, 36.78077574248464], [32.8592201702003, 36.78077574248464], [32.8592201702003, 36.78023675331417], [32.85814219185934, 36.78023675331417], [32.85814219185934, 36.77861978580276]]]}, "id": "+394923+87610", "properties": {"area_ha": 4.890803408617052, "count": 17, "label": 1, "mean_dnbr": 0.2722401748514191}}, {"type": "Feature", "geometry": {"geodesic": false, "type": "Polygon", "coordinates": [[[32.88024074784869, 36.078472853360005], [32.88293569370106, 36.078472853360005], [32.88293569370106, 36.07901184253048], [32.88239670453058, 36.07901184253048], [32.88239670453058, 36.08062881004189], [32.88293569370106, 36.08062881004189], [32.88293569370106, 36.08170678838283], [32.88131872618962, 36.08170678838283], [32.88131872618962, 36.08116779921236], [32.8818577153601, 36.08116779921236], [32.8818577153601, 36.08062881004189], [32.88077973701917, 36.08062881004189], [32.88077973701917, 36.08170678838283], [32.88024074784869, 36.08170678838283], [32.88024074784869, 36.08116779921236], [32.87970175867821, 36.08116779921236], [32.87970175867821, 36.08062881004189], [32.88077973701917, 36.08062881004189], [32.88077973701917, 36.07955083170094], [32.88024074784869, 36.07955083170094], [32.88024074784869, 36.078472853360005]]]}, "id": "+394966+88909", "properties": {"area_ha": 6.676893047504326, "count": 23, "label": 1, "mean_dnbr": 0.28152393104753787}}, {"type": "Feature", "geometry": {"geodesic": false, "type": "Polygon", "coordinates": [[[32.95785518839662, 37.00607321574182], [32.95839417756707, 37.00607321574182], [32.95839417756707, 37.007151194082766], [32.95785518839662, 37.007151194082766], [32.95785518839662, 37.008229172423704], [32.95569923171473, 37.008229172423704], [32.95569923171473, 37.008768161594176], [32.95516024254425, 37.008768161594176], [32.95516024254425, 37.00769018325324], [32.95462125337377, 37.00769018325324], [32.95462125337377, 37.007151194082766], [32.95516024254425, 37.007151194082766], [32.95516024254425, 37.00769018325324], [32.95623822088521, 37.00769018325324], [32.95623822088521, 37.007151194082766], [32.95731619922614, 37.007151194082766], [32.95731619922614, 37.006612204912294], [32.95785518839662, 37.006612204912294], [32.95785518839662, 37.00607321574182]]]}, "id": "+395106+87188", "properties": {"area_ha": 3.728897742013623, "count": 13, "label": 1, "mean_dnbr": 0.22249946500138187}}, {"type": "Feature", "geometry": {"geodesic": false, "type": "Polygon", "coordinates": [[[33.00151331120483, 37.02224289085597], [33.00205230037528, 37.02224289085597], [33.00205230037528, 37.02278188002644], [33.00151331120483, 37.02278188002644], [33.00151331120483, 37.02439884753786], [33.00205230037528, 37.02439884753786], [33.00205230037528, 37.025476825878805], [33.00259128954576, 37.025476825878805], [33.00259128954576, 37.02439884753786], [33.00366926788672, 37.02439884753786], [33.00366926788672, 37.025476825878805], [33.00474724622765, 37.025476825878805], [33.00474724622765, 37.02601581504927], [33.00366926788672, 37.02601581504927], [33.00366926788672, 37.02655480421974], [33.00205230037528, 37.02655480421974], [33.00205230037528, 37.027093793390215], [33.00259128954576, 37.027093793390215], [33.00259128954576, 37.02763278256069], [33.00205230037528, 37.02763278256069], [33.00205230037528, 37.027093793390215], [33.00151331120483, 37.027093793390215], [33.00151331120483, 37.02655480421974], [32.99935735452294, 37.02655480421974], [32.99935735452294, 37.02601581504927], [32.99881836535246, 37.02601581504927], [32.99881836535246, 37.025476825878805], [32.99827937618198, 37.025476825878805], [32.99827937618198, 37.02493783670833], [32.99774038701153, 37.02493783670833], [32.99774038701153, 37.02385985836739], [32.99720139784105, 37.02385985836739], [32.99720139784105, 37.023320869196915], [32.99774038701153, 37.023320869196915], [32.99774038701153, 37.02385985836739], [32.99827937618198, 37.02385985836739], [32.99827937618198, 37.023320869196915], [32.99935735452294, 37.023320869196915], [32.99935735452294, 37.02385985836739], [32.99881836535246, 37.02385985836739], [32.99881836535246, 37.02439884753786], [32.99989634369342, 37.02439884753786], [32.99989634369342, 37.02385985836739], [33.00043533286387, 37.02385985836739], [33.00043533286387, 37.02278188002644], [33.00151331120483, 37.02278188002644], [33.00151331120483, 37.02224289085597]]]}, "id": "+395187+87158", "properties": {"area_ha": 15.1989099552183, "count": 53, "label": 1, "mean_dnbr": 0.342807738461453}}, {"type": "Feature", "geometry": {"geodesic": false, "type": "Polygon", "coordinates": [[[33.02630681304652, 36.95217429869465], [33.027384791387476, 36.95217429869465], [33.027384791387476, 36.95271328786512], [33.02630681304652, 36.95271328786512], [33.02630681304652, 36.953252277035595], [33.02415085636463, 36.953252277035595], [33.02415085636463, 36.95379126620606], [33.0230728780237, 36.95379126620606], [33.0230728780237, 36.95433025537653], [33.02199489968274, 36.95433025537653], [33.02199489968274, 36.954869244547005], [33.02091692134181, 36.954869244547005], [33.02091692134181, 36.95379126620606], [33.02199489968274, 36.95379126620606], [33.02199489968274, 36.953252277035595], [33.02415085636463, 36.953252277035595], [33.02415085636463, 36.95271328786512], [33.02630681304652, 36.95271328786512], [33.02630681304652, 36.95217429869465]]]}, "id": "+395234+87288", "properties": {"area_ha": 4.59266072358058, "count": 16, "label": 1, "mean_dnbr": 0.29973649869263735}}, {"type": "Feature", "geometry": {"geodesic": false, "type": "Polygon", "coordinates": [[[33.09960934023067, 36.93762159109191], [33.10014832940115, 36.93762159109191], [33.10014832940115, 36.938160580262384], [33.10122630774208, 36.938160580262384], [33.10122630774208, 36.938699569432856], [33.10176529691256, 36.938699569432856], [33.10176529691256, 36.93923855860333], [33.10122630774208, 36.93923855860333], [33.10122630774208, 36.9397775477738], [33.10068731857163, 36.9397775477738], [33.10068731857163, 36.94031653694427], [33.10014832940115, 36.94031653694427], [33.10014832940115, 36.9397775477738], [33.09960934023067, 36.9397775477738], [33.09960934023067, 36.94031653694427], [33.09907035106019, 36.94031653694427], [33.09907035106019, 36.938699569432856], [33.09960934023067, 36.938699569432856], [33.09960934023067, 36.93762159109191]], [[33.10068731857163, 36.938699569432856], [33.10068731857163, 36.9397775477738], [33.10014832940115, 36.9397775477738], [33.10014832940115, 36.938699569432856], [33.10068731857163, 36.938699569432856]]]}, "id": "+395369+87315", "properties": {"area_ha": 3.7322492253775374, "count": 13, "label": 1, "mean_dnbr": 0.18950502461072632}}]}