{"type": "FeatureCollection", "columns": {"area_ha": "Number", "count": "Long<0, 4294967295>", "label": "Byte<0, 1>", "mean_dnbr": "Object", "system:index": "String"}, "features": [{"type": "Feature", "geometry": {"geodesic": false, "type": "Polygon", "coordinates": [[[32.45551728151699, 36.14207357547566], [32.45659525985792, 36.14207357547566], [32.45659525985792, 36.142612564646136], [32.45605627068744, 36.142612564646136], [32.45605627068744, 36.14315155381661], [32.45497829234651, 36.14315155381661], [32.45497829234651, 36.14369054298708], [32.45390031400555, 36.14369054298708], [32.45390031400555, 36.14315155381661], [32.4533613248351, 36.14315155381661], [32.4533613248351, 36.14207357547566], [32.45443930317603, 36.14207357547566], [32.45443930317603, 36.142612564646136], [32.45551728151699, 36.142612564646136], [32.45551728151699, 36.14207357547566]]]}, "id": "+394175+88791", "properties": {"area_ha": 3.190750571373418, "count": 11, "label": 1, "mean_dnbr": 0.19713482587405148}}, {"type": "Feature", "geometry": {"geodesic": false, "type": "Polygon", "coordinates": [[[32.527741830360185, 36.12482592202057], [32.531514754553484, 36.12482592202057], [32.531514754553484, 36.125903900361514], [32.529897787042074, 36.125903900361514], [32.529897787042074, 36.12644288953199], [32.528819808701144, 36.12644288953199], [32.528819808701144, 36.125903900361514], [32.527741830360185, 36.125903900361514], [32.527741830360185, 36.12482592202057]]]}, "id": "+394314+88823", "properties": {"area_ha": 4.642084529874358, "count": 16, "label": 1, "mean_dnbr": 0.3063830451438078}}, {"type": "Feature", "geometry": {"geodesic": false, "type": "Polygon", "coordinates": [[[32.530975765383005, 36.11458512778161], [32.533670711235374, 36.11458512778161], [32.533670711235374, 36.11620209529302], [32.53474868957633, 36.11620209529302], [32.53474868957633, 36.11566310612255], [32.53528767874678, 36.11566310612255], [32.53528767874678, 36.11674108446349], [32.533670711235374, 36.11674108446349], [32.533670711235374, 36.11620209529302], [32.533131722064894, 36.11620209529302], [32.533131722064894, 36.11674108446349], [32.532053743723964, 36.11674108446349], [32.532053743723964, 36.117280073633964], [32.530975765383005, 36.117280073633964], [32.530975765383005, 36.117819062804436], [32.529358797871595, 36.117819062804436], [32.529358797871595, 36.117280073633964], [32.529897787042074, 36.117280073633964], [32.529897787042074, 36.11674108446349], [32.530436776212554, 36.11674108446349], [32.530436776212554, 36.11512411695208], [32.530975765383005, 36.11512411695208], [32.530975765383005, 36.11458512778161]]]}, "id": "+394318+88842", "properties": {"area_ha": 9.575503921023865, "count": 33, "label": 1, "mean_dnbr": 0.26080792203968145}}, {"type": "Feature", "geometry": {"geodesic": false, "type": "Polygon", "coordinates": [[[32.533131722064894, 36.117819062804436], [32.53528767874678, 36.117819062804436], [32.53528767874678, 36.12320895450915], [32.53474868957633, 36.12320895450915], [32.53474868957633, 36.123747943679625], [32.53420970040585, 36.123747943679625], [32.53420970040585, 36.1242869328501], [32.533131722064894, 36.1242869328501], [32.533131722064894, 36.12482592202057], [32.53259273289444, 36.12482592202057], [32.53259273289444, 36.12536491119104], [32.532053743723964, 36.12536491119104], [32.532053743723964, 36.12482592202057], [32.53259273289444, 36.12482592202057], [32.53259273289444, 36.1242869328501], [32.529897787042074, 36.1242869328501], [32.529897787042074, 36.123747943679625], [32.530975765383005, 36.123747943679625], [32.530975765383005, 36.12320895450915], [32.529897787042074, 36.12320895450915], [32.529897787042074, 36.12159198699774], [32.530436776212554, 36.12159198699774], [32.530436776212554, 36.12105299782727], [32.529897787042074, 36.12105299782727], [32.529897787042074, 36.119975019486326], [32.530436776212554, 36.119975019486326], [32.530436776212554, 36.12105299782727], [32.531514754553484, 36.12105299782727], [32.531514754553484, 36.12213097616821], [32.530975765383005, 36.12213097616821], [32.530975765383005, 36.12266996533868], [32.531514754553484, 36.12266996533868], [32.531514754553484, 36.123747943679625], [32.53259273289444, 36.123747943679625], [32.53259273289444, 36.12320895450915], [32.53420970040585, 36.12320895450915], [32.53420970040585, 36.12213097616821], [32.533670711235374, 36.12213097616821], [32.533670711235374, 36.12159198699774], [32.533131722064894, 36.12159198699774], [32.533131722064894, 36.12213097616821], [32.53259273289444, 36.12213097616821], [32.53259273289444, 36.12105299782727], [32.533670711235374, 36.12105299782727], [32.533670711235374, 36.1205140086568], [32.533131722064894, 36.1205140086568], [32.533131722064894, 36.11943603031585], [32.53259273289444, 36.11943603031585], [32.53259273289444, 36.119975019486326], [32.532053743723964, 36.119975019486326], [32.532053743723964, 36.11943603031585], [32.531514754553484, 36.11943603031585], [32.531514754553484, 36.11889704114538], [32.533131722064894, 36.11889704114538], [32.533131722064894, 36.117819062804436]]]}, "id": "+394321+88836", "properties": {"area_ha": 19.439887046571997, "count": 67, "label": 1, "mean_dnbr": 0.2571279825599924}}, {"type": "Feature", "geometry": {"geodesic": false, "type": "Polygon", "coordinates": [[[32.617214032658495, 36.129676824554814], [32.618831000169905, 36.129676824554814], [32.618831000169905, 36.13075480289576], [32.617214032658495, 36.13075480289576], [32.617214032658495, 36.13129379206623], [32.616675043488016, 36.13129379206623], [32.616675043488016, 36.1318327812367], [32.616136054317536, 36.1318327812367], [32.616136054317536, 36.132371770407175], [32.615058075976606, 36.132371770407175], [32.615058075976606, 36.1318327812367], [32.614519086806126, 36.1318327812367], [32.614519086806126, 36.13129379206623], [32.615058075976606, 36.13129379206623], [32.615058075976606, 36.13075480289576], [32.616675043488016, 36.13075480289576], [32.616675043488016, 36.130215813725286], [32.617214032658495, 36.130215813725286], [32.617214032658495, 36.129676824554814]]]}, "id": "+394476+88814", "properties": {"area_ha": 4.931902106533815, "count": 17, "label": 1, "mean_dnbr": 0.21342839793771903}}, {"type": "Feature", "geometry": {"geodesic": false, "type": "Polygon", "coordinates": [[[32.620986956851795, 36.12320895450915], [32.622064935192725, 36.12320895450915], [32.622064935192725, 36.1242869328501], [32.623142913533684, 36.1242869328501], [32.623142913533684, 36.12482592202057], [32.622064935192725, 36.12482592202057], [32.622064935192725, 36.1242869328501], [32.621525946022274, 36.1242869328501], [32.621525946022274, 36.12644288953199], [32.620447967681315, 36.12644288953199], [32.620447967681315, 36.12752086787293], [32.619908978510864, 36.12752086787293], [32.619908978510864, 36.12644288953199], [32.619369989340385, 36.12644288953199], [32.619369989340385, 36.12698187870246], [32.618831000169905, 36.12698187870246], [32.618831000169905, 36.12536491119104], [32.619369989340385, 36.12536491119104], [32.619369989340385, 36.1242869328501], [32.620447967681315, 36.1242869328501], [32.620447967681315, 36.123747943679625], [32.620986956851795, 36.123747943679625], [32.620986956851795, 36.12320895450915]]]}, "id": "+394482+88826", "properties": {"area_ha": 8.123728541676945, "count": 28, "label": 1, "mean_dnbr": 0.2792078295324054}}, {"type": "Feature", "geometry": {"geodesic": false, "type": "Polygon", "coordinates": [[[32.622603924363204, 36.13075480289576], [32.624220891874614, 36.13075480289576], [32.624220891874614, 36.13129379206623], [32.62529887021557, 36.13129379206623], [32.62529887021557, 36.1318327812367], [32.62583785938605, 36.1318327812367], [32.62583785938605, 36.132371770407175], [32.626376848556504, 36.132371770407175], [32.626376848556504, 36.13344974874812], [32.62583785938605, 36.13344974874812], [32.62583785938605, 36.13291075957765], [32.62368190270416, 36.13291075957765], [32.62368190270416, 36.13344974874812], [32.623142913533684, 36.13344974874812], [32.623142913533684, 36.13291075957765], [32.62368190270416, 36.13291075957765], [32.62368190270416, 36.132371770407175], [32.623142913533684, 36.132371770407175], [32.623142913533684, 36.13129379206623], [32.622603924363204, 36.13129379206623], [32.622603924363204, 36.13075480289576]]]}, "id": "+394486+88812", "properties": {"area_ha": 5.512053139583751, "count": 19, "label": 1, "mean_dnbr": 0.28254037976206825}}, {"type": "Feature", "geometry": {"geodesic": false, "type": "Polygon", "coordinates": [[[32.624220891874614, 36.1242869328501], [32.62691583772698, 36.1242869328501], [32.62691583772698, 36.12536491119104], [32.62745482689746, 36.12536491119104], [32.62745482689746, 36.12482592202057], [32.627993816067914, 36.12482592202057], [32.627993816067914, 36.12536491119104], [32.62853280523839, 36.12536491119104], [32.62853280523839, 36.125903900361514], [32.627993816067914, 36.125903900361514], [32.627993816067914, 36.12752086787293], [32.62745482689746, 36.12752086787293], [32.62745482689746, 36.1280598570434], [32.62691583772698, 36.1280598570434], [32.62691583772698, 36.12859884621387], [32.626376848556504, 36.12859884621387], [32.626376848556504, 36.12913783538434], [32.62583785938605, 36.12913783538434], [32.62583785938605, 36.12859884621387], [32.62529887021557, 36.12859884621387], [32.62529887021557, 36.1280598570434], [32.62583785938605, 36.1280598570434], [32.62583785938605, 36.12752086787293], [32.62691583772698, 36.12752086787293], [32.62691583772698, 36.12644288953199], [32.62745482689746, 36.12644288953199], [32.62745482689746, 36.125903900361514], [32.62583785938605, 36.125903900361514], [32.62583785938605, 36.12644288953199], [32.624759881045094, 36.12644288953199], [32.624759881045094, 36.125903900361514], [32.624220891874614, 36.125903900361514], [32.624220891874614, 36.12536491119104], [32.62368190270416, 36.12536491119104], [32.62368190270416, 36.12482592202057], [32.624220891874614, 36.12482592202057], [32.624220891874614, 36.1242869328501]], [[32.626376848556504, 36.1280598570434], [32.626376848556504, 36.12859884621387], [32.62583785938605, 36.12859884621387], [32.62583785938605, 36.1280598570434], [32.626376848556504, 36.1280598570434]]]}, "id": "+394491+88824", "properties": {"area_ha": 9.5742876043952, "count": 33, "label": 1, "mean_dnbr": 0.2130552242386879}}, {"type": "Feature", "geometry": {"geodesic": false, "type": "Polygon", "coordinates": [[[32.63122775109076, 36.139917618793774], [32.63338370777265, 36.139917618793774], [32.63338370777265, 36.140456607964246], [32.63230572943169, 36.140456607964246], [32.63230572943169, 36.14099559713472], [32.63122775109076, 36.14099559713472], [32.63122775109076, 36.14207357547566], [32.63176674026124, 36.14207357547566], [32.63176674026124, 36.14153458630519], [32.63230572943169, 36.14153458630519], [32.63230572943169, 36.14207357547566], [32.63176674026124, 36.14207357547566], [32.63176674026124, 36.142612564646136], [32.63122775109076, 36.142612564646136], [32.63122775109076, 36.14207357547566], [32.63068876192028, 36.14207357547566], [32.63068876192028, 36.140456607964246], [32.63122775109076, 36.140456607964246], [32.63122775109076, 36.139917618793774]]]}, "id": "+394503+88795", "properties": {"area_ha": 3.190821752135472, "count": 11, "label": 1, "mean_dnbr": 0.2546170471760025}}, {"type": "Feature", "geometry": {"geodesic": false, "type": "Polygon", "coordinates": [[[32.64308551284114, 36.11458512778161], [32.64362450201162, 36.11458512778161], [32.64362450201162, 36.11512411695208], [32.64416349118207, 36.11512411695208], [32.64416349118207, 36.11566310612255], [32.64631944786396, 36.11566310612255], [32.64631944786396, 36.11620209529302], [32.64685843703444, 36.11620209529302], [32.64685843703444, 36.11674108446349], [32.64847540454585, 36.11674108446349], [32.64847540454585, 36.117819062804436], [32.64901439371633, 36.117819062804436], [32.64901439371633, 36.11889704114538], [32.64847540454585, 36.11889704114538], [32.64847540454585, 36.11943603031585], [32.64739742620492, 36.11943603031585], [32.64739742620492, 36.11889704114538], [32.64631944786396, 36.11889704114538], [32.64631944786396, 36.119975019486326], [32.64308551284114, 36.119975019486326], [32.64308551284114, 36.1205140086568], [32.64039056698877, 36.1205140086568], [32.64039056698877, 36.12105299782727], [32.63931258864784, 36.12105299782727], [32.63931258864784, 36.119975019486326], [32.63877359947736, 36.119975019486326], [32.63877359947736, 36.11889704114538], [32.63823461030688, 36.11889704114538], [32.63823461030688, 36.119975019486326], [32.63769562113643, 36.119975019486326], [32.63769562113643, 36.11943603031585], [32.63607865362499, 36.11943603031585], [32.63607865362499, 36.11889704114538], [32.63500067528406, 36.11889704114538], [32.63500067528406, 36.11943603031585], [32.63446168611358, 36.11943603031585], [32.63446168611358, 36.11889704114538], [32.6339226969431, 36.11889704114538], [32.6339226969431, 36.119975019486326], [32.63338370777265, 36.119975019486326], [32.63338370777265, 36.11943603031585], [32.63284471860217, 36.11943603031585], [32.63284471860217, 36.11889704114538], [32.63122775109076, 36.11889704114538], [32.63122775109076, 36.11835805197491], [32.63068876192028, 36.11835805197491], [32.63068876192028, 36.11943603031585], [32.63176674026124, 36.11943603031585], [32.63176674026124, 36.119975019486326], [32.63230572943169, 36.119975019486326], [32.63230572943169, 36.1205140086568], [32.63176674026124, 36.1205140086568], [32.63176674026124, 36.12105299782727], [32.63230572943169, 36.12105299782727], [32.63230572943169, 36.12266996533868], [32.63176674026124, 36.12266996533868], [32.63176674026124, 36.12320895450915], [32.62907179440887, 36.12320895450915], [32.62907179440887, 36.123747943679625], [32.62853280523839, 36.123747943679625], [32.62853280523839, 36.12320895450915], [32.624220891874614, 36.12320895450915], [32.624220891874614, 36.123747943679625], [32.62368190270416, 36.123747943679625], [32.62368190270416, 36.12320895450915], [32.623142913533684, 36.12320895450915], [32.623142913533684, 36.12266996533868], [32.62529887021557, 36.12266996533868], [32.62529887021557, 36.12213097616821], [32.62691583772698, 36.12213097616821], [32.62691583772698, 36.12159198699774], [32.627993816067914, 36.12159198699774], [32.627993816067914, 36.12105299782727], [32.62853280523839, 36.12105299782727], [32.62853280523839, 36.1205140086568], [32.62907179440887, 36.1205140086568], [32.62907179440887, 36.11674108446349], [32.62961078357935, 36.11674108446349], [32.62961078357935, 36.11566310612255], [32.6301497727498, 36.11566310612255], [32.6301497727498, 36.11620209529302], [32.63176674026124, 36.11620209529302], [32.63176674026124, 36.11566310612255], [32.63230572943169, 36.11566310612255], [32.63230572943169, 36.11458512778161], [32.6339226969431, 36.11458512778161], [32.6339226969431, 36.11512411695208], [32.63446168611358, 36.11512411695208], [32.63446168611358, 36.11620209529302], [32.63661764279547, 36.11620209529302], [32.63661764279547, 36.11674108446349], [32.64039056698877, 36.11674108446349], [32.64039056698877, 36.11620209529302], [32.64146854532973, 36.11620209529302], [32.64146854532973, 36.11566310612255], [32.64200753450018, 36.11566310612255], [32.64200753450018, 36.11512411695208], [32.64308551284114, 36.11512411695208], [32.64308551284114, 36.11458512778161]], [[32.62907179440887, 36.12213097616821], [32.62907179440887, 36.12266996533868], [32.627993816067914, 36.12266996533868], [32.627993816067914, 36.12213097616821], [32.62907179440887, 36.12213097616821]], [[32.63284471860217, 36.117819062804436], [32.63284471860217, 36.11835805197491], [32.63176674026124, 36.11835805197491], [32.63176674026124, 36.117819062804436], [32.63284471860217, 36.117819062804436]], [[32.6301497727498, 36.117280073633964], [32.6301497727498, 36.117819062804436], [32.62961078357935, 36.117819062804436], [32.62961078357935, 36.117280073633964], [32.6301497727498, 36.117280073633964]], [[32.6339226969431, 36.117280073633964], [32.6339226969431, 36.117819062804436], [32.63284471860217, 36.117819062804436], [32.63284471860217, 36.117280073633964], [32.6339226969431, 36.117280073633964]], [[32.63553966445454, 36.117280073633964], [32.63553966445454, 36.117819062804436], [32.63500067528406, 36.117819062804436], [32.63500067528406, 36.117280073633964], [32.63553966445454, 36.117280073633964]], [[32.63823461030688, 36.117280073633964], [32.63823461030688, 36.117819062804436], [32.63769562113643, 36.117819062804436], [32.63769562113643, 36.117280073633964], [32.63823461030688, 36.117280073633964]], [[32.64362450201162, 36.11674108446349], [32.64362450201162, 36.117280073633964], [32.64308551284114, 36.117280073633964], [32.64308551284114, 36.11674108446349], [32.64362450201162, 36.11674108446349]]]}, "id": "+394522+88842", "properties": {"area_ha": 88.20793062148262, "count": 304, "label": 1, "mean_dnbr": 0.30968679319302}}, {"type": "Feature", "geometry": {"geodesic": false, "type": "Polygon", "coordinates": [[[32.65063136122774, 36.11674108446349], [32.65117035039822, 36.11674108446349], [32.65117035039822, 36.11835805197491], [32.65224832873915, 36.11835805197491], [32.65224832873915, 36.11889704114538], [32.65063136122774, 36.11889704114538], [32.65063136122774, 36.11943603031585], [32.65009237205726, 36.11943603031585], [32.65009237205726, 36.11835805197491], [32.64955338288681, 36.11835805197491], [32.64955338288681, 36.117280073633964], [32.65063136122774, 36.117280073633964], [32.65063136122774, 36.11674108446349]]]}, "id": "+394536+88838", "properties": {"area_ha": 3.481914249678921, "count": 12, "label": 1, "mean_dnbr": 0.21678960155998667}}, {"type": "Feature", "geometry": {"geodesic": false, "type": "Polygon", "coordinates": [[[32.65063136122774, 36.12266996533868], [32.65170933956867, 36.12266996533868], [32.65170933956867, 36.12320895450915], [32.65224832873915, 36.12320895450915], [32.65224832873915, 36.123747943679625], [32.65117035039822, 36.123747943679625], [32.65117035039822, 36.1242869328501], [32.65063136122774, 36.1242869328501], [32.65063136122774, 36.12536491119104], [32.65009237205726, 36.12536491119104], [32.65009237205726, 36.123747943679625], [32.64955338288681, 36.123747943679625], [32.64955338288681, 36.12320895450915], [32.65063136122774, 36.12320895450915], [32.65063136122774, 36.12266996533868]]]}, "id": "+394537+88827", "properties": {"area_ha": 3.1915256458632757, "count": 11, "label": 1, "mean_dnbr": 0.16403871493058111}}, {"type": "Feature", "geometry": {"geodesic": false, "type": "Polygon", "coordinates": [[[32.65170933956867, 36.129676824554814], [32.65224832873915, 36.129676824554814], [32.65224832873915, 36.130215813725286], [32.65386529625056, 36.130215813725286], [32.65386529625056, 36.13075480289576], [32.65494327459152, 36.13075480289576], [32.65494327459152, 36.1318327812367], [32.655482263761996, 36.1318327812367], [32.655482263761996, 36.132371770407175], [32.65440428542104, 36.132371770407175], [32.65440428542104, 36.13291075957765], [32.65386529625056, 36.13291075957765], [32.65386529625056, 36.13344974874812], [32.65332630708011, 36.13344974874812], [32.65332630708011, 36.133988737918585], [32.65278731790963, 36.133988737918585], [32.65278731790963, 36.13452772708906], [32.65224832873915, 36.13452772708906], [32.65224832873915, 36.133988737918585], [32.65170933956867, 36.133988737918585], [32.65170933956867, 36.13344974874812], [32.65063136122774, 36.13344974874812], [32.65063136122774, 36.132371770407175], [32.65117035039822, 36.132371770407175], [32.65117035039822, 36.13291075957765], [32.65170933956867, 36.13291075957765], [32.65170933956867, 36.1318327812367], [32.64793641537537, 36.1318327812367], [32.64793641537537, 36.13129379206623], [32.65063136122774, 36.13129379206623], [32.65063136122774, 36.13075480289576], [32.65170933956867, 36.13075480289576], [32.65170933956867, 36.129676824554814]], [[32.65386529625056, 36.13129379206623], [32.65386529625056, 36.132371770407175], [32.65332630708011, 36.132371770407175], [32.65332630708011, 36.13129379206623], [32.65386529625056, 36.13129379206623]], [[32.65332630708011, 36.13075480289576], [32.65332630708011, 36.13129379206623], [32.65170933956867, 36.13129379206623], [32.65170933956867, 36.13075480289576], [32.65332630708011, 36.13075480289576]]]}, "id": "+394538+88814", "properties": {"area_ha": 12.764777241416091, "count": 44, "label": 1, "mean_dnbr": 0.23853339154577718}}, {"type": "Feature", "geometry": {"geodesic": false, "type": "Polygon", "coordinates": [[[32.65602125293245, 36.12482592202057], [32.65656024210293, 36.12482592202057], [32.65656024210293, 36.12913783538434], [32.65386529625056, 36.12913783538434], [32.65386529625056, 36.12859884621387], [32.65440428542104, 36.12859884621387], [32.65440428542104, 36.12752086787293], [32.65494327459152, 36.12752086787293], [32.65494327459152, 36.1280598570434], [32.65602125293245, 36.1280598570434], [32.65602125293245, 36.12752086787293], [32.655482263761996, 36.12752086787293], [32.655482263761996, 36.12698187870246], [32.65440428542104, 36.12698187870246], [32.65440428542104, 36.125903900361514], [32.655482263761996, 36.125903900361514], [32.655482263761996, 36.12536491119104], [32.65602125293245, 36.12536491119104], [32.65602125293245, 36.12482592202057]]]}, "id": "+394546+88823", "properties": {"area_ha": 6.963023526813069, "count": 24, "label": 1, "mean_dnbr": 0.2291828253374845}}, {"type": "Feature", "geometry": {"geodesic": false, "type": "Polygon", "coordinates": [[[32.655482263761996, 36.1108122035883], [32.65656024210293, 36.1108122035883], [32.65656024210293, 36.111351192758775], [32.657099231273406, 36.111351192758775], [32.657099231273406, 36.11189018192925], [32.65602125293245, 36.11189018192925], [32.65602125293245, 36.11296816027019], [32.657099231273406, 36.11296816027019], [32.657099231273406, 36.113507149440665], [32.655482263761996, 36.113507149440665], [32.655482263761996, 36.11404613861114], [32.65494327459152, 36.11404613861114], [32.65494327459152, 36.11512411695208], [32.65440428542104, 36.11512411695208], [32.65440428542104, 36.11242917109972], [32.655482263761996, 36.11242917109972], [32.655482263761996, 36.11189018192925], [32.65602125293245, 36.11189018192925], [32.65602125293245, 36.111351192758775], [32.655482263761996, 36.111351192758775], [32.655482263761996, 36.1108122035883]]]}, "id": "+394546+88849", "properties": {"area_ha": 4.933042752711296, "count": 17, "label": 1, "mean_dnbr": 0.19089721242863994}}, {"type": "Feature", "geometry": {"geodesic": false, "type": "Polygon", "coordinates": [[[32.65763822044386, 36.13075480289576], [32.659255187955296, 36.13075480289576], [32.659255187955296, 36.132371770407175], [32.658716198784816, 36.132371770407175], [32.658716198784816, 36.13344974874812], [32.657099231273406, 36.13344974874812], [32.657099231273406, 36.13291075957765], [32.65656024210293, 36.13291075957765], [32.65656024210293, 36.132371770407175], [32.657099231273406, 36.132371770407175], [32.657099231273406, 36.1318327812367], [32.65656024210293, 36.1318327812367], [32.65656024210293, 36.13129379206623], [32.65763822044386, 36.13129379206623], [32.65763822044386, 36.13075480289576]]]}, "id": "+394551+88812", "properties": {"area_ha": 5.512049240507211, "count": 19, "label": 1, "mean_dnbr": 0.18998605037301633}}, {"type": "Feature", "geometry": {"geodesic": false, "type": "Polygon", "coordinates": [[[32.67704183058086, 36.12536491119104], [32.67811980892179, 36.12536491119104], [32.67811980892179, 36.125903900361514], [32.6797367764332, 36.125903900361514], [32.6797367764332, 36.12644288953199], [32.67919778726275, 36.12644288953199], [32.67919778726275, 36.12698187870246], [32.67865879809227, 36.12698187870246], [32.67865879809227, 36.12752086787293], [32.67758081975131, 36.12752086787293], [32.67758081975131, 36.1280598570434], [32.67704183058086, 36.1280598570434], [32.67704183058086, 36.12644288953199], [32.67758081975131, 36.12644288953199], [32.67758081975131, 36.125903900361514], [32.67704183058086, 36.125903900361514], [32.67704183058086, 36.12536491119104]]]}, "id": "+394586+88822", "properties": {"area_ha": 4.06179127608252, "count": 14, "label": 1, "mean_dnbr": 0.22308355729423515}}, {"type": "Feature", "geometry": {"geodesic": false, "type": "Polygon", "coordinates": [[[32.713693094172925, 36.1318327812367], [32.714771072513884, 36.1318327812367], [32.714771072513884, 36.133988737918585], [32.717466018366224, 36.133988737918585], [32.717466018366224, 36.13560570543], [32.716927029195745, 36.13560570543], [32.716927029195745, 36.13506671625953], [32.71638804002529, 36.13506671625953], [32.71638804002529, 36.13452772708906], [32.715849050854814, 36.13452772708906], [32.715849050854814, 36.13506671625953], [32.714771072513884, 36.13506671625953], [32.714771072513884, 36.133988737918585], [32.714232083343404, 36.133988737918585], [32.714232083343404, 36.13452772708906], [32.712615115831994, 36.13452772708906], [32.712615115831994, 36.13291075957765], [32.713693094172925, 36.13291075957765], [32.713693094172925, 36.1318327812367]]]}, "id": "+394654+88810", "properties": {"area_ha": 7.252524157717405, "count": 25, "label": 1, "mean_dnbr": 0.2753996084402313}}, {"type": "Feature", "geometry": {"geodesic": false, "type": "Polygon", "coordinates": [[[33.03924255313785, 35.3411356681547], [33.04247648816067, 35.3411356681547], [33.04247648816067, 35.34167465732517], [33.041937498990194, 35.34167465732517], [33.041937498990194, 35.342213646495644], [33.04247648816067, 35.342213646495644], [33.04247648816067, 35.342752635666116], [33.041937498990194, 35.342752635666116], [33.041937498990194, 35.342213646495644], [33.04139850981974, 35.342213646495644], [33.04139850981974, 35.342752635666116], [33.040320531478784, 35.342752635666116], [33.040320531478784, 35.342213646495644], [33.03924255313785, 35.342213646495644], [33.03924255313785, 35.3411356681547]]]}, "id": "+395262+90277", "properties": {"area_ha": 4.101998395399855, "count": 14, "label": 1, "mean_dnbr": 0.25378450036195244}}, {"type": "Feature", "geometry": {"geodesic": false, "type": "Polygon", "coordinates": [[[33.04517143401304, 36.117819062804436], [33.04571042318349, 36.117819062804436], [33.04571042318349, 36.11835805197491], [33.04624941235397, 36.11835805197491], [33.04624941235397, 36.11889704114538], [33.04678840152445, 36.11889704114538], [33.04678840152445, 36.11943603031585], [33.04571042318349, 36.11943603031585], [33.04571042318349, 36.1205140086568], [33.04732739069493, 36.1205140086568], [33.04732739069493, 36.12213097616821], [33.04678840152445, 36.12213097616821], [33.04678840152445, 36.12266996533868], [33.04463244484256, 36.12266996533868], [33.04463244484256, 36.12320895450915], [33.04409345567208, 36.12320895450915], [33.04409345567208, 36.12159198699774], [33.04463244484256, 36.12159198699774], [33.04463244484256, 36.12105299782727], [33.04517143401304, 36.12105299782727], [33.04517143401304, 36.11943603031585], [33.04463244484256, 36.11943603031585], [33.04463244484256, 36.11835805197491], [33.04517143401304, 36.11835805197491], [33.04517143401304, 36.117819062804436]]]}, "id": "+395268+88836", "properties": {"area_ha": 8.994634779696117, "count": 31, "label": 1, "mean_dnbr": 0.22993514448641728}}, {"type": "Feature", "geometry": {"geodesic": false, "type": "Polygon", "coordinates": [[[33.04840536903586, 36.123747943679625], [33.05002233654727, 36.123747943679625], [33.05002233654727, 36.1242869328501], [33.05056132571775, 36.1242869328501], [33.05056132571775, 36.125903900361514], [33.05002233654727, 36.125903900361514], [33.05002233654727, 36.12536491119104], [33.04948334737679, 36.12536491119104], [33.04948334737679, 36.12482592202057], [33.04786637986538, 36.12482592202057], [33.04786637986538, 36.1242869328501], [33.04840536903586, 36.1242869328501], [33.04840536903586, 36.123747943679625]]]}, "id": "+395276+88825", "properties": {"area_ha": 3.1914904389450394, "count": 11, "label": 1, "mean_dnbr": 0.20261793952676208}}, {"type": "Feature", "geometry": {"geodesic": false, "type": "Polygon", "coordinates": [[[33.05002233654727, 36.11566310612255], [33.05056132571775, 36.11566310612255], [33.05056132571775, 36.11620209529302], [33.05110031488823, 36.11620209529302], [33.05110031488823, 36.11674108446349], [33.05163930405868, 36.11674108446349], [33.05163930405868, 36.117280073633964], [33.05217829322916, 36.117280073633964], [33.05217829322916, 36.11835805197491], [33.05002233654727, 36.11835805197491], [33.05002233654727, 36.11889704114538], [33.04948334737679, 36.11889704114538], [33.04948334737679, 36.11835805197491], [33.05002233654727, 36.11835805197491], [33.05002233654727, 36.11566310612255]]]}, "id": "+395277+88840", "properties": {"area_ha": 4.352438018721162, "count": 15, "label": 1, "mean_dnbr": 0.21915561649944526}}, {"type": "Feature", "geometry": {"geodesic": false, "type": "Polygon", "coordinates": [[[33.05271728239964, 36.132371770407175], [33.05325627157012, 36.132371770407175], [33.05325627157012, 36.13344974874812], [33.05595121742246, 36.13344974874812], [33.05595121742246, 36.133988737918585], [33.05541222825198, 36.133988737918585], [33.05541222825198, 36.13452772708906], [33.05433424991105, 36.13452772708906], [33.05433424991105, 36.13506671625953], [33.05325627157012, 36.13506671625953], [33.05325627157012, 36.13452772708906], [33.05271728239964, 36.13452772708906], [33.05271728239964, 36.13344974874812], [33.05217829322916, 36.13344974874812], [33.05217829322916, 36.13291075957765], [33.05271728239964, 36.13291075957765], [33.05271728239964, 36.132371770407175]]]}, "id": "+395282+88809", "properties": {"area_ha": 4.641607247788897, "count": 16, "label": 1, "mean_dnbr": 0.21553035903967258}}]}