{"type": "FeatureCollection", "columns": {"area_ha": "Number", "count": "Long<0, 4294967295>", "label": "Byte<0, 1>", "mean_dnbr": "Object", "system:index": "String"}, "features": [{"type": "Feature", "geometry": {"geodesic": false, "type": "Polygon", "coordinates": [[[32.72177793173, 36.10164938769029], [32.72231692090048, 36.10164938769029], [32.72231692090048, 36.10218837686076], [32.72339489924141, 36.10218837686076], [32.72339489924141, 36.103266355201704], [32.72447287758237, 36.103266355201704], [32.72447287758237, 36.104883322713114], [32.72501186675282, 36.104883322713114], [32.72501186675282, 36.105422311883586], [32.7255508559233, 36.105422311883586], [32.7255508559233, 36.10596130105406], [32.72447287758237, 36.10596130105406], [32.72447287758237, 36.105422311883586], [32.72393388841189, 36.105422311883586], [32.72393388841189, 36.10434433354264], [32.72339489924141, 36.10434433354264], [32.72339489924141, 36.103266355201704], [32.72285591007096, 36.103266355201704], [32.72285591007096, 36.10380534437217], [32.72177793173, 36.10380534437217], [32.72177793173, 36.103266355201704], [32.72285591007096, 36.103266355201704], [32.72285591007096, 36.10272736603123], [32.72177793173, 36.10272736603123], [32.72177793173, 36.10164938769029]]]}, "id": "+394668+88866", "properties": {"area_ha": 4.64339761573975, "count": 16, "label": 1, "mean_dnbr": 0.21761586172565245}}, {"type": "Feature", "geometry": {"geodesic": false, "type": "Polygon", "coordinates": [[[32.87646782365539, 36.09841545266745], [32.87754580199632, 36.09841545266745], [32.87754580199632, 36.0994934310084], [32.87862378033728, 36.0994934310084], [32.87862378033728, 36.10003242017887], [32.87916276950776, 36.10003242017887], [32.87916276950776, 36.10057140934934], [32.87862378033728, 36.10057140934934], [32.87862378033728, 36.101110398519815], [32.87754580199632, 36.101110398519815], [32.87754580199632, 36.10057140934934], [32.87646782365539, 36.10057140934934], [32.87646782365539, 36.09841545266745]]]}, "id": "+394956+88872", "properties": {"area_ha": 4.353403278033993, "count": 15, "label": 1, "mean_dnbr": 0.2984175253500452}}]}