{"type": "FeatureCollection", "columns": {"area_ha": "Number", "count": "Long<0, 4294967295>", "label": "Byte<0, 1>", "mean_dnbr": "Object", "system:index": "String"}, "features": [{"type": "Feature", "geometry": {"geodesic": false, "type": "Polygon", "coordinates": [[[32.7368696285032, 36.750053359767755], [32.73848659601464, 36.750053359767755], [32.73848659601464, 36.7511313381087], [32.73740861767368, 36.7511313381087], [32.73740861767368, 36.752209316449644], [32.73633063933275, 36.752209316449644], [32.73633063933275, 36.75059234893823], [32.7368696285032, 36.75059234893823], [32.7368696285032, 36.750053359767755]]]}, "id": "+394698+87663", "properties": {"area_ha": 3.1658323223405587, "count": 11, "label": 1, "mean_dnbr": 0.17714205447249656}}, {"type": "Feature", "geometry": {"geodesic": false, "type": "Polygon", "coordinates": [[[32.9772587985336, 37.04488043601578], [32.9772587985336, 37.04326346850437], [32.97887576604501, 37.04326346850437], [32.97887576604501, 37.04380245767484], [32.979953744385966, 37.04380245767484], [32.979953744385966, 37.04488043601578], [32.9772587985336, 37.04488043601578]]]}, "id": "+395144+87119", "properties": {"area_ha": 3.727105595067305, "count": 13, "label": 1, "mean_dnbr": 0.2481339754740655}}]}