{"type": "FeatureCollection", "columns": {"area_ha": "Number", "count": "Long<0, 4294967295>", "label": "Byte<0, 1>", "mean_dnbr": "Object", "system:index": "String"}, "features": [{"type": "Feature", "geometry": {"geodesic": false, "type": "Polygon", "coordinates": [[[33.172372878244346, 35.22956490986705], [33.173989845755784, 35.22956490986705], [33.173989845755784, 35.230642888207996], [33.174528834926235, 35.230642888207996], [33.174528834926235, 35.23172086654894], [33.172372878244346, 35.23172086654894], [33.172372878244346, 35.22956490986705]]]}, "id": "+395506+90484", "properties": {"area_ha": 4.107657000173208, "count": 14, "label": 1, "mean_dnbr": 0.26579569984553586}}, {"type": "Feature", "geometry": {"geodesic": false, "type": "Polygon", "coordinates": [[[33.45695916025343, 35.195608592127336], [33.45857612776484, 35.195608592127336], [33.45857612776484, 35.197764548809225], [33.45695916025343, 35.197764548809225], [33.45695916025343, 35.19668657046828], [33.455881181912474, 35.19668657046828], [33.455881181912474, 35.19614758129781], [33.45695916025343, 35.19614758129781], [33.45695916025343, 35.195608592127336]]]}, "id": "+396034+90547", "properties": {"area_ha": 4.109377454669504, "count": 14, "label": 1, "mean_dnbr": 0.37621768023899993}}, {"type": "Feature", "geometry": {"geodesic": false, "type": "Polygon", "coordinates": [[[33.4860645754589, 35.18752375457026], [33.48714255379983, 35.18752375457026], [33.48714255379983, 35.189140722081675], [33.48768154297031, 35.189140722081675], [33.48768154297031, 35.19021870042262], [33.48875952131124, 35.19021870042262], [33.48875952131124, 35.19075768959309], [33.48822053214079, 35.19075768959309], [33.48822053214079, 35.191296678763564], [33.48714255379983, 35.191296678763564], [33.48714255379983, 35.19075768959309], [33.48660356462938, 35.19075768959309], [33.48660356462938, 35.19021870042262], [33.4860645754589, 35.19021870042262], [33.4860645754589, 35.18752375457026]]]}, "id": "+396087+90562", "properties": {"area_ha": 5.283945633300482, "count": 18, "label": 1, "mean_dnbr": 0.33831059539139413}}]}