{"type": "FeatureCollection", "columns": {"area_ha": "Number", "count": "Long<0, 4294967295>", "label": "Byte<0, 1>", "mean_dnbr": "Object", "system:index": "String"}, "features": [{"type": "Feature", "geometry": {"geodesic": false, "type": "Polygon", "coordinates": [[[33.06403605497954, 36.13291075957765], [33.06565302249095, 36.13291075957765], [33.06565302249095, 36.13344974874812], [33.06619201166143, 36.13344974874812], [33.06619201166143, 36.133988737918585], [33.06673100083191, 36.133988737918585], [33.06673100083191, 36.13560570543], [33.06565302249095, 36.13560570543], [33.06565302249095, 36.136144694600475], [33.0651140333205, 36.136144694600475], [33.0651140333205, 36.13560570543], [33.06403605497954, 36.13560570543], [33.06403605497954, 36.13291075957765]]]}, "id": "+395305+88808", "properties": {"area_ha": 6.6722784864591915, "count": 23, "label": 1, "mean_dnbr": 0.26912097719809597}}, {"type": "Feature", "geometry": {"geodesic": false, "type": "Polygon", "coordinates": [[[33.06673100083191, 36.1280598570434], [33.0688869575138, 36.1280598570434], [33.0688869575138, 36.129676824554814], [33.06834796834332, 36.129676824554814], [33.06834796834332, 36.130215813725286], [33.0688869575138, 36.130215813725286], [33.0688869575138, 36.13129379206623], [33.06726999000236, 36.13129379206623], [33.06726999000236, 36.13075480289576], [33.06673100083191, 36.13075480289576], [33.06673100083191, 36.130215813725286], [33.06619201166143, 36.130215813725286], [33.06619201166143, 36.12913783538434], [33.06726999000236, 36.12913783538434], [33.06726999000236, 36.12859884621387], [33.06673100083191, 36.12859884621387], [33.06673100083191, 36.1280598570434]], [[33.06834796834332, 36.12913783538434], [33.06834796834332, 36.129676824554814], [33.06780897917284, 36.129676824554814], [33.06780897917284, 36.12913783538434], [33.06834796834332, 36.12913783538434]]]}, "id": "+395311+88817", "properties": {"area_ha": 6.382565937666011, "count": 22, "label": 1, "mean_dnbr": 0.18932504386849164}}, {"type": "Feature", "geometry": {"geodesic": false, "type": "Polygon", "coordinates": [[[33.171833889073895, 35.22956490986705], [33.173989845755784, 35.22956490986705], [33.173989845755784, 35.230642888207996], [33.174528834926235, 35.230642888207996], [33.174528834926235, 35.23172086654894], [33.172372878244346, 35.23172086654894], [33.172372878244346, 35.230642888207996], [33.171833889073895, 35.230642888207996], [33.171833889073895, 35.22956490986705]]]}, "id": "+395506+90484", "properties": {"area_ha": 4.694465139309603, "count": 16, "label": 1, "mean_dnbr": 0.37012916853484185}}, {"type": "Feature", "geometry": {"geodesic": false, "type": "Polygon", "coordinates": [[[33.397131362331066, 35.18752375457026], [33.399287319012956, 35.18752375457026], [33.399287319012956, 35.18806274374073], [33.39982630818341, 35.18806274374073], [33.39982630818341, 35.18967971125215], [33.399287319012956, 35.18967971125215], [33.399287319012956, 35.19021870042262], [33.398748329842476, 35.19021870042262], [33.398748329842476, 35.19075768959309], [33.398209340672, 35.19075768959309], [33.398209340672, 35.19021870042262], [33.397670351501546, 35.19021870042262], [33.397670351501546, 35.18967971125215], [33.39605338399011, 35.18967971125215], [33.39605338399011, 35.189140722081675], [33.395514394819656, 35.189140722081675], [33.395514394819656, 35.1886017329112], [33.39659237316059, 35.1886017329112], [33.39659237316059, 35.18806274374073], [33.397131362331066, 35.18806274374073], [33.397131362331066, 35.18752375457026]]]}, "id": "+395924+90562", "properties": {"area_ha": 8.513088278534525, "count": 29, "label": 1, "mean_dnbr": 0.3570471359434881}}, {"type": "Feature", "geometry": {"geodesic": false, "type": "Polygon", "coordinates": [[[33.45695916025343, 35.195608592127336], [33.45857612776484, 35.195608592127336], [33.45857612776484, 35.19668657046828], [33.46019309527625, 35.19668657046828], [33.46019309527625, 35.19722555963875], [33.45857612776484, 35.19722555963875], [33.45857612776484, 35.197764548809225], [33.45695916025343, 35.197764548809225], [33.45695916025343, 35.19668657046828], [33.455881181912474, 35.19668657046828], [33.455881181912474, 35.19614758129781], [33.45695916025343, 35.19614758129781], [33.45695916025343, 35.195608592127336]]]}, "id": "+396034+90547", "properties": {"area_ha": 4.9899549990858745, "count": 17, "label": 1, "mean_dnbr": 0.330324369051659}}, {"type": "Feature", "geometry": {"geodesic": false, "type": "Polygon", "coordinates": [[[33.46181006278766, 35.19506960295686], [33.46234905195814, 35.19506960295686], [33.46234905195814, 35.195608592127336], [33.46504399781048, 35.195608592127336], [33.46504399781048, 35.19668657046828], [33.46181006278766, 35.19668657046828], [33.46181006278766, 35.19506960295686]]]}, "id": "+396041+90548", "properties": {"area_ha": 3.815886679605353, "count": 13, "label": 1, "mean_dnbr": 0.22896437722481547}}, {"type": "Feature", "geometry": {"geodesic": false, "type": "Polygon", "coordinates": [[[33.46666096532192, 35.197764548809225], [33.46881692200381, 35.197764548809225], [33.46881692200381, 35.199381516320635], [33.46827793283333, 35.199381516320635], [33.46827793283333, 35.19992050549111], [33.46666096532192, 35.19992050549111], [33.46666096532192, 35.197764548809225]]]}, "id": "+396053+90543", "properties": {"area_ha": 4.4027844893423875, "count": 15, "label": 1, "mean_dnbr": 0.30506381641217295}}, {"type": "Feature", "geometry": {"geodesic": false, "type": "Polygon", "coordinates": [[[33.4860645754589, 35.18752375457026], [33.48714255379983, 35.18752375457026], [33.48714255379983, 35.18967971125215], [33.48768154297031, 35.18967971125215], [33.48768154297031, 35.19021870042262], [33.4860645754589, 35.19021870042262], [33.4860645754589, 35.18752375457026]]]}, "id": "+396087+90562", "properties": {"area_ha": 3.2291037106240106, "count": 11, "label": 1, "mean_dnbr": 0.2901537533348323}}, {"type": "Feature", "geometry": {"geodesic": false, "type": "Polygon", "coordinates": [[[34.04715230191994, 35.36323422414404], [34.051464215283715, 35.36323422414404], [34.051464215283715, 35.36431220248498], [34.049847247772306, 35.36431220248498], [34.049847247772306, 35.36377321331451], [34.04715230191994, 35.36377321331451], [34.04715230191994, 35.36323422414404]]]}, "id": "+397134+90236", "properties": {"area_ha": 3.222105856832463, "count": 11, "label": 1, "mean_dnbr": 0.3008988135506316}}]}