{"type": "FeatureCollection", "columns": {"area_ha": "Number", "count": "Long<0, 4294967295>", "label": "Byte<0, 1>", "mean_dnbr": "Object", "system:index": "String"}, "features": [{"type": "Feature", "geometry": {"geodesic": false, "type": "Polygon", "coordinates": [[[33.02576782387604, 35.36377321331451], [33.02792378055793, 35.36377321331451], [33.02792378055793, 35.36431220248498], [33.02846276972841, 35.36431220248498], [33.02846276972841, 35.365390180825926], [33.02630681304652, 35.365390180825926], [33.02630681304652, 35.364851191655454], [33.02576782387604, 35.364851191655454], [33.02576782387604, 35.36377321331451]]]}, "id": "+395235+90235", "properties": {"area_ha": 3.807945482682842, "count": 13, "label": 1, "mean_dnbr": 0.20408529545178167}}, {"type": "Feature", "geometry": {"geodesic": false, "type": "Polygon", "coordinates": [[[33.031696704751226, 35.1638082310695], [33.033852661433116, 35.1638082310695], [33.033852661433116, 35.164347220239975], [33.034391650603595, 35.164347220239975], [33.034391650603595, 35.16488620941045], [33.033852661433116, 35.16488620941045], [33.033852661433116, 35.16542519858092], [33.032235693921706, 35.16542519858092], [33.032235693921706, 35.16488620941045], [33.031696704751226, 35.16488620941045], [33.031696704751226, 35.1638082310695]]]}, "id": "+395246+90606", "properties": {"area_ha": 3.5237099465544497, "count": 12, "label": 1, "mean_dnbr": 0.21124230155542348}}, {"type": "Feature", "geometry": {"geodesic": false, "type": "Polygon", "coordinates": [[[33.19878334759747, 35.35299342990508], [33.20040031510888, 35.35299342990508], [33.20040031510888, 35.35353241907555], [33.20093930427936, 35.35353241907555], [33.20093930427936, 35.35568837575744], [33.1998613259384, 35.35568837575744], [33.1998613259384, 35.355149386586966], [33.20040031510888, 35.355149386586966], [33.20040031510888, 35.35407140824602], [33.1998613259384, 35.35407140824602], [33.1998613259384, 35.354610397416494], [33.19932233676795, 35.354610397416494], [33.19932233676795, 35.35407140824602], [33.19878334759747, 35.35407140824602], [33.19878334759747, 35.35299342990508]]]}, "id": "+395555+90255", "properties": {"area_ha": 3.5154802652659396, "count": 12, "label": 1, "mean_dnbr": 0.30346712647129354}}, {"type": "Feature", "geometry": {"geodesic": false, "type": "Polygon", "coordinates": [[[33.23004471948482, 36.136144694600475], [33.23112269782578, 36.136144694600475], [33.23112269782578, 36.13722267294142], [33.23166168699623, 36.13722267294142], [33.23166168699623, 36.13776166211189], [33.23112269782578, 36.13776166211189], [33.23112269782578, 36.13722267294142], [33.2305837086553, 36.13722267294142], [33.2305837086553, 36.13776166211189], [33.229505730314344, 36.13776166211189], [33.229505730314344, 36.138300651282364], [33.227888762802934, 36.138300651282364], [33.227888762802934, 36.13776166211189], [33.22734977363248, 36.13776166211189], [33.22734977363248, 36.13722267294142], [33.22842775197341, 36.13722267294142], [33.22842775197341, 36.13668368377095], [33.22896674114389, 36.13668368377095], [33.22896674114389, 36.13722267294142], [33.23004471948482, 36.13722267294142], [33.23004471948482, 36.136144694600475]]]}, "id": "+395612+88802", "properties": {"area_ha": 4.351327149098646, "count": 15, "label": 1, "mean_dnbr": 0.18622714843349197}}, {"type": "Feature", "geometry": {"geodesic": false, "type": "Polygon", "coordinates": [[[33.43324363675268, 35.19399162461592], [33.43539959343454, 35.19399162461592], [33.43539959343454, 35.19506960295686], [33.43324363675268, 35.19506960295686], [33.43324363675268, 35.19722555963875], [33.4327046475822, 35.19722555963875], [33.4327046475822, 35.19614758129781], [33.43216565841172, 35.19614758129781], [33.43216565841172, 35.195608592127336], [33.4327046475822, 35.195608592127336], [33.4327046475822, 35.19506960295686], [33.43324363675268, 35.19506960295686], [33.43324363675268, 35.19399162461592]]]}, "id": "+395991+90550", "properties": {"area_ha": 3.815921718695256, "count": 13, "label": 1, "mean_dnbr": 0.28982523939879795}}, {"type": "Feature", "geometry": {"geodesic": false, "type": "Polygon", "coordinates": [[[33.446718366014466, 35.19614758129781], [33.449952301037285, 35.19614758129781], [33.449952301037285, 35.19668657046828], [33.449413311866806, 35.19668657046828], [33.449413311866806, 35.197764548809225], [33.448335333525876, 35.197764548809225], [33.448335333525876, 35.19722555963875], [33.447796344355396, 35.19722555963875], [33.447796344355396, 35.19668657046828], [33.446718366014466, 35.19668657046828], [33.446718366014466, 35.19614758129781]]]}, "id": "+396018+90546", "properties": {"area_ha": 3.2287706604601403, "count": 11, "label": 1, "mean_dnbr": 0.203686439656288}}, {"type": "Feature", "geometry": {"geodesic": false, "type": "Polygon", "coordinates": [[[33.46666096532192, 35.197764548809225], [33.46827793283333, 35.197764548809225], [33.46827793283333, 35.1983035379797], [33.46881692200381, 35.1983035379797], [33.46881692200381, 35.19884252715017], [33.46827793283333, 35.19884252715017], [33.46827793283333, 35.199381516320635], [33.46719995449237, 35.199381516320635], [33.46719995449237, 35.19992050549111], [33.46666096532192, 35.19992050549111], [33.46666096532192, 35.197764548809225]]]}, "id": "+396052+90543", "properties": {"area_ha": 3.228714210426225, "count": 11, "label": 1, "mean_dnbr": 0.2013282239690197}}, {"type": "Feature", "geometry": {"geodesic": false, "type": "Polygon", "coordinates": [[[33.67417179595353, 35.33143386308621], [33.675788763464936, 35.33143386308621], [33.675788763464936, 35.331972852256676], [33.676327752635416, 35.331972852256676], [33.676327752635416, 35.33251184142715], [33.67686674180587, 35.33251184142715], [33.67686674180587, 35.33305083059762], [33.675788763464936, 35.33305083059762], [33.675788763464936, 35.33358981976809], [33.677405730976346, 35.33358981976809], [33.677405730976346, 35.33520678727951], [33.67686674180587, 35.33520678727951], [33.67686674180587, 35.33466779810904], [33.675788763464936, 35.33466779810904], [33.675788763464936, 35.334128808938566], [33.674710785124006, 35.334128808938566], [33.674710785124006, 35.33251184142715], [33.67363280678305, 35.33251184142715], [33.67363280678305, 35.331972852256676], [33.67417179595353, 35.331972852256676], [33.67417179595353, 35.33143386308621]], [[33.675788763464936, 35.33251184142715], [33.675788763464936, 35.33305083059762], [33.67524977429446, 35.33305083059762], [33.67524977429446, 35.33251184142715], [33.675788763464936, 35.33251184142715]]]}, "id": "+396437+90295", "properties": {"area_ha": 6.446722963648601, "count": 22, "label": 1, "mean_dnbr": 0.1779628623762453}}, {"type": "Feature", "geometry": {"geodesic": false, "type": "Polygon", "coordinates": [[[33.680100676828715, 35.33089487391574], [33.680639665999195, 35.33089487391574], [33.680639665999195, 35.33143386308621], [33.681717644340125, 35.33143386308621], [33.681717644340125, 35.33305083059762], [33.681178655169646, 35.33305083059762], [33.681178655169646, 35.33358981976809], [33.681717644340125, 35.33358981976809], [33.681717644340125, 35.334128808938566], [33.679561687658236, 35.334128808938566], [33.679561687658236, 35.33358981976809], [33.677944720146826, 35.33358981976809], [33.677944720146826, 35.33305083059762], [33.677405730976346, 35.33305083059762], [33.677405730976346, 35.33251184142715], [33.677944720146826, 35.33251184142715], [33.677944720146826, 35.331972852256676], [33.67686674180587, 35.331972852256676], [33.67686674180587, 35.33143386308621], [33.678483709317305, 35.33143386308621], [33.678483709317305, 35.33089487391574], [33.679561687658236, 35.33089487391574], [33.679561687658236, 35.33143386308621], [33.680100676828715, 35.33143386308621], [33.680100676828715, 35.33089487391574]], [[33.681178655169646, 35.331972852256676], [33.681178655169646, 35.33251184142715], [33.680100676828715, 35.33251184142715], [33.680100676828715, 35.331972852256676], [33.681178655169646, 35.331972852256676]], [[33.679561687658236, 35.33143386308621], [33.679561687658236, 35.331972852256676], [33.679022698487756, 35.331972852256676], [33.679022698487756, 35.33143386308621], [33.679561687658236, 35.33143386308621]]]}, "id": "+396446+90296", "properties": {"area_ha": 9.963200728002992, "count": 34, "label": 1, "mean_dnbr": 0.1897280596254086}}, {"type": "Feature", "geometry": {"geodesic": false, "type": "Polygon", "coordinates": [[[33.8310176445608, 35.224175018162335], [33.83155663373125, 35.224175018162335], [33.83155663373125, 35.22471400733281], [33.83209562290173, 35.22471400733281], [33.83209562290173, 35.22579198567375], [33.83047865539032, 35.22579198567375], [33.83047865539032, 35.226330974844224], [33.82993966621984, 35.226330974844224], [33.82993966621984, 35.22579198567375], [33.82886168787891, 35.22579198567375], [33.82886168787891, 35.22525299650328], [33.829400677049364, 35.22525299650328], [33.829400677049364, 35.22471400733281], [33.83047865539032, 35.22471400733281], [33.83047865539032, 35.22525299650328], [33.8310176445608, 35.22525299650328], [33.8310176445608, 35.224175018162335]]]}, "id": "+396726+90494", "properties": {"area_ha": 3.5210834002380587, "count": 12, "label": 1, "mean_dnbr": 0.16019253290942523}}, {"type": "Feature", "geometry": {"geodesic": false, "type": "Polygon", "coordinates": [[[34.15548912518477, 35.497442527591495], [34.15764508186666, 35.497442527591495], [34.15764508186666, 35.49798151676197], [34.15710609269618, 35.49798151676197], [34.15710609269618, 35.49852050593244], [34.15818407103711, 35.49852050593244], [34.15818407103711, 35.499598484273385], [34.15710609269618, 35.499598484273385], [34.15710609269618, 35.49905949510291], [34.15602811435522, 35.49905949510291], [34.15602811435522, 35.49798151676197], [34.15548912518477, 35.49798151676197], [34.15548912518477, 35.497442527591495]]]}, "id": "+397331+89987", "properties": {"area_ha": 3.509183207453671, "count": 12, "label": 1, "mean_dnbr": 0.26149365350503706}}, {"type": "Feature", "geometry": {"geodesic": false, "type": "Polygon", "coordinates": [[[34.15980103854852, 35.49905949510291], [34.16249598440089, 35.49905949510291], [34.16249598440089, 35.499598484273385], [34.16303497357137, 35.499598484273385], [34.16303497357137, 35.50013747344386], [34.15980103854852, 35.50013747344386], [34.15980103854852, 35.49905949510291]]]}, "id": "+397340+89984", "properties": {"area_ha": 3.216718646478635, "count": 11, "label": 1, "mean_dnbr": 0.28681629556052507}}, {"type": "Feature", "geometry": {"geodesic": false, "type": "Polygon", "coordinates": [[[34.16842486527608, 35.499598484273385], [34.16950284361704, 35.499598484273385], [34.16950284361704, 35.50013747344386], [34.16896385444656, 35.50013747344386], [34.16896385444656, 35.50067646261433], [34.1716588002989, 35.50067646261433], [34.1716588002989, 35.501215451784795], [34.17111981112845, 35.501215451784795], [34.17111981112845, 35.50175444095527], [34.17058082195797, 35.50175444095527], [34.17058082195797, 35.50283241929621], [34.17004183278749, 35.50283241929621], [34.17004183278749, 35.501215451784795], [34.16896385444656, 35.501215451784795], [34.16896385444656, 35.50067646261433], [34.16842486527608, 35.50067646261433], [34.16842486527608, 35.499598484273385]]]}, "id": "+397353+89983", "properties": {"area_ha": 3.509062247881769, "count": 12, "label": 1, "mean_dnbr": 0.22966965143239207}}]}