{"type": "FeatureCollection", "columns": {"area_ha": "Number", "count": "Long<0, 4294967295>", "label": "Byte<0, 1>", "mean_dnbr": "Object", "system:index": "String"}, "features": [{"type": "Feature", "geometry": {"geodesic": false, "type": "Polygon", "coordinates": [[[33.038703563967374, 35.3411356681547], [33.04247648816067, 35.3411356681547], [33.04247648816067, 35.34167465732517], [33.041937498990194, 35.34167465732517], [33.041937498990194, 35.342213646495644], [33.04301547733115, 35.342213646495644], [33.04301547733115, 35.342752635666116], [33.038703563967374, 35.342752635666116], [33.038703563967374, 35.3411356681547]]]}, "id": "+395262+90277", "properties": {"area_ha": 6.153036589626081, "count": 21, "label": 1, "mean_dnbr": 0.23917327133205404}}, {"type": "Feature", "geometry": {"geodesic": false, "type": "Polygon", "coordinates": [[[33.412223059104264, 35.18644577622932], [33.413840026615674, 35.18644577622932], [33.413840026615674, 35.1886017329112], [33.412223059104264, 35.1886017329112], [33.412223059104264, 35.18644577622932]]]}, "id": "+395951+90564", "properties": {"area_ha": 3.5227191297408913, "count": 12, "label": 1, "mean_dnbr": 0.3023837107213471}}, {"type": "Feature", "geometry": {"geodesic": false, "type": "Polygon", "coordinates": [[[33.41922991832041, 35.18752375457026], [33.41976890749086, 35.18752375457026], [33.41976890749086, 35.1886017329112], [33.42030789666134, 35.1886017329112], [33.42030789666134, 35.189140722081675], [33.42461981002512, 35.189140722081675], [33.42461981002512, 35.18967971125215], [33.4251587991956, 35.18967971125215], [33.4251587991956, 35.19021870042262], [33.42569778836605, 35.19021870042262], [33.42569778836605, 35.19075768959309], [33.42354183168416, 35.19075768959309], [33.42354183168416, 35.19021870042262], [33.4213858750023, 35.19021870042262], [33.4213858750023, 35.18967971125215], [33.41922991832041, 35.18967971125215], [33.41922991832041, 35.18752375457026]]]}, "id": "+395962+90562", "properties": {"area_ha": 7.338777112559377, "count": 25, "label": 1, "mean_dnbr": 0.2679019665247773}}, {"type": "Feature", "geometry": {"geodesic": false, "type": "Polygon", "coordinates": [[[33.43486060426409, 35.1810558845246], [33.43539959343454, 35.1810558845246], [33.43539959343454, 35.18159487369507], [33.43755555011643, 35.18159487369507], [33.43755555011643, 35.18267285203601], [33.4364775717755, 35.18267285203601], [33.4364775717755, 35.183211841206486], [33.43539959343454, 35.183211841206486], [33.43539959343454, 35.18213386286554], [33.43378262592313, 35.18213386286554], [33.43378262592313, 35.18159487369507], [33.43486060426409, 35.18159487369507], [33.43486060426409, 35.1810558845246]]]}, "id": "+395991+90574", "properties": {"area_ha": 4.110108318261756, "count": 14, "label": 1, "mean_dnbr": 0.36606026744359305}}, {"type": "Feature", "geometry": {"geodesic": false, "type": "Polygon", "coordinates": [[[33.454803203571544, 35.203693429684414], [33.455342192741995, 35.203693429684414], [33.455342192741995, 35.204232418854886], [33.455881181912474, 35.204232418854886], [33.455881181912474, 35.20477140802536], [33.455342192741995, 35.20477140802536], [33.455342192741995, 35.205849386366296], [33.454803203571544, 35.205849386366296], [33.454803203571544, 35.20692736470724], [33.453725225230585, 35.20692736470724], [33.453725225230585, 35.20638837553677], [33.453186236060105, 35.20638837553677], [33.453186236060105, 35.205849386366296], [33.452647246889654, 35.205849386366296], [33.452647246889654, 35.20477140802536], [33.454264214401064, 35.20477140802536], [33.454264214401064, 35.204232418854886], [33.454803203571544, 35.204232418854886], [33.454803203571544, 35.203693429684414]]]}, "id": "+396028+90532", "properties": {"area_ha": 5.5764106601809145, "count": 19, "label": 1, "mean_dnbr": 0.5156644067995199}}, {"type": "Feature", "geometry": {"geodesic": false, "type": "Polygon", "coordinates": [[[33.45695916025343, 35.195608592127336], [33.45857612776484, 35.195608592127336], [33.45857612776484, 35.197764548809225], [33.45695916025343, 35.197764548809225], [33.45695916025343, 35.19668657046828], [33.455881181912474, 35.19668657046828], [33.455881181912474, 35.19614758129781], [33.45695916025343, 35.19614758129781], [33.45695916025343, 35.195608592127336]]]}, "id": "+396034+90547", "properties": {"area_ha": 4.109377454669504, "count": 14, "label": 1, "mean_dnbr": 0.2931617603389673}}, {"type": "Feature", "geometry": {"geodesic": false, "type": "Polygon", "coordinates": [[[33.48390861877701, 35.19237465710451], [33.48444760794749, 35.19237465710451], [33.48444760794749, 35.19291364627498], [33.48498659711794, 35.19291364627498], [33.48498659711794, 35.193452635445446], [33.48552558628842, 35.193452635445446], [33.48552558628842, 35.19399162461592], [33.4860645754589, 35.19399162461592], [33.4860645754589, 35.19453061378639], [33.48660356462938, 35.19453061378639], [33.48660356462938, 35.19506960295686], [33.4860645754589, 35.19506960295686], [33.4860645754589, 35.19614758129781], [33.48552558628842, 35.19614758129781], [33.48552558628842, 35.19506960295686], [33.48498659711794, 35.19506960295686], [33.48498659711794, 35.19453061378639], [33.48390861877701, 35.19453061378639], [33.48390861877701, 35.19237465710451]]]}, "id": "+396082+90553", "properties": {"area_ha": 4.403038333482509, "count": 15, "label": 1, "mean_dnbr": 0.2843716946120515}}, {"type": "Feature", "geometry": {"geodesic": false, "type": "Polygon", "coordinates": [[[33.4860645754589, 35.18752375457026], [33.48714255379983, 35.18752375457026], [33.48714255379983, 35.18967971125215], [33.48768154297031, 35.18967971125215], [33.48768154297031, 35.19021870042262], [33.48875952131124, 35.19021870042262], [33.48875952131124, 35.19075768959309], [33.48768154297031, 35.19075768959309], [33.48768154297031, 35.19021870042262], [33.48714255379983, 35.19021870042262], [33.48714255379983, 35.19075768959309], [33.48660356462938, 35.19075768959309], [33.48660356462938, 35.19021870042262], [33.4860645754589, 35.19021870042262], [33.4860645754589, 35.18752375457026]]]}, "id": "+396087+90562", "properties": {"area_ha": 4.109748762560659, "count": 14, "label": 1, "mean_dnbr": 0.23662714684236824}}, {"type": "Feature", "geometry": {"geodesic": false, "type": "Polygon", "coordinates": [[[34.1641129519123, 35.490974657545834], [34.16519093025326, 35.490974657545834], [34.16519093025326, 35.49205263588678], [34.16465194108278, 35.49205263588678], [34.16465194108278, 35.493130614227724], [34.16303497357137, 35.493130614227724], [34.16303497357137, 35.49205263588678], [34.16357396274185, 35.49205263588678], [34.16357396274185, 35.49151364671631], [34.1641129519123, 35.49151364671631], [34.1641129519123, 35.490974657545834]]]}, "id": "+397345+89999", "properties": {"area_ha": 3.2170110289770544, "count": 11, "label": 1, "mean_dnbr": 0.521238790971037}}]}