{"type": "FeatureCollection", "columns": {"area_ha": "Number", "count": "Long<0, 4294967295>", "label": "Byte<0, 1>", "mean_dnbr": "Object", "system:index": "String"}, "features": [{"type": "Feature", "geometry": {"geodesic": false, "type": "Polygon", "coordinates": [[[33.38958551394447, 35.20638837553677], [33.39335843813777, 35.20638837553677], [33.39335843813777, 35.20692736470724], [33.39281944896729, 35.20692736470724], [33.39281944896729, 35.20746635387771], [33.39174147062636, 35.20746635387771], [33.39174147062636, 35.208005343048185], [33.38958551394447, 35.208005343048185], [33.38958551394447, 35.20638837553677]]]}, "id": "+395913+90527", "properties": {"area_ha": 4.989286838985453, "count": 17, "label": 1, "mean_dnbr": 0.586245758821875}}, {"type": "Feature", "geometry": {"geodesic": false, "type": "Polygon", "coordinates": [[[33.4327046475822, 35.19722555963875], [33.43378262592313, 35.19722555963875], [33.43378262592313, 35.1983035379797], [33.43432161509361, 35.1983035379797], [33.43432161509361, 35.197764548809225], [33.43486060426409, 35.197764548809225], [33.43486060426409, 35.1983035379797], [33.43593858260502, 35.1983035379797], [33.43593858260502, 35.19884252715017], [33.43378262592313, 35.19884252715017], [33.43378262592313, 35.199381516320635], [33.43324363675268, 35.199381516320635], [33.43324363675268, 35.1983035379797], [33.4327046475822, 35.1983035379797], [33.4327046475822, 35.19722555963875]]]}, "id": "+395988+90544", "properties": {"area_ha": 3.2287369451363768, "count": 11, "label": 1, "mean_dnbr": 0.2578123050394145}}, {"type": "Feature", "geometry": {"geodesic": false, "type": "Polygon", "coordinates": [[[33.453186236060105, 35.19722555963875], [33.454803203571544, 35.19722555963875], [33.454803203571544, 35.1983035379797], [33.454264214401064, 35.1983035379797], [33.454264214401064, 35.19884252715017], [33.453725225230585, 35.19884252715017], [33.453725225230585, 35.199381516320635], [33.452647246889654, 35.199381516320635], [33.452647246889654, 35.1983035379797], [33.453186236060105, 35.1983035379797], [33.453186236060105, 35.19722555963875]]]}, "id": "+396027+90544", "properties": {"area_ha": 3.228731739646522, "count": 11, "label": 1, "mean_dnbr": 0.17806295938983982}}, {"type": "Feature", "geometry": {"geodesic": false, "type": "Polygon", "coordinates": [[[33.459115116935294, 35.201537473002524], [33.46019309527625, 35.201537473002524], [33.46019309527625, 35.204232418854886], [33.45965410610577, 35.204232418854886], [33.45965410610577, 35.203693429684414], [33.45857612776484, 35.203693429684414], [33.45857612776484, 35.20261545134347], [33.459115116935294, 35.20261545134347], [33.459115116935294, 35.201537473002524]]]}, "id": "+396037+90536", "properties": {"area_ha": 3.228550598064033, "count": 11, "label": 1, "mean_dnbr": 0.35921760468499736}}, {"type": "Feature", "geometry": {"geodesic": false, "type": "Polygon", "coordinates": [[[33.46827793283333, 35.197764548809225], [33.46881692200381, 35.197764548809225], [33.46881692200381, 35.199381516320635], [33.46827793283333, 35.199381516320635], [33.46827793283333, 35.19992050549111], [33.46773894366285, 35.19992050549111], [33.46773894366285, 35.199381516320635], [33.46719995449237, 35.199381516320635], [33.46719995449237, 35.19992050549111], [33.46666096532192, 35.19992050549111], [33.46666096532192, 35.1983035379797], [33.46827793283333, 35.1983035379797], [33.46827793283333, 35.197764548809225]]]}, "id": "+396053+90543", "properties": {"area_ha": 3.2287038216380757, "count": 11, "label": 1, "mean_dnbr": 0.2563424831199424}}, {"type": "Feature", "geometry": {"geodesic": false, "type": "Polygon", "coordinates": [[[33.4785187270723, 35.193452635445446], [33.48013569458371, 35.193452635445446], [33.48013569458371, 35.195608592127336], [33.4785187270723, 35.195608592127336], [33.4785187270723, 35.193452635445446]]]}, "id": "+396074+90551", "properties": {"area_ha": 3.522415345775525, "count": 12, "label": 1, "mean_dnbr": 0.3658829294562591}}, {"type": "Feature", "geometry": {"geodesic": false, "type": "Polygon", "coordinates": [[[33.48175266209512, 35.19237465710451], [33.48336962960653, 35.19237465710451], [33.48336962960653, 35.19453061378639], [33.48175266209512, 35.19453061378639], [33.48175266209512, 35.19237465710451]]]}, "id": "+396080+90553", "properties": {"area_ha": 3.5224620851865343, "count": 12, "label": 1, "mean_dnbr": 0.29722279652685746}}, {"type": "Feature", "geometry": {"geodesic": false, "type": "Polygon", "coordinates": [[[33.49145446716361, 35.18644577622932], [33.493610423845496, 35.18644577622932], [33.493610423845496, 35.18698476539979], [33.49307143467502, 35.18698476539979], [33.49307143467502, 35.18752375457026], [33.492532445504565, 35.18752375457026], [33.492532445504565, 35.18806274374073], [33.490376488822676, 35.18806274374073], [33.490376488822676, 35.18752375457026], [33.4898374996522, 35.18752375457026], [33.4898374996522, 35.18698476539979], [33.49145446716361, 35.18698476539979], [33.49145446716361, 35.18644577622932]]]}, "id": "+396099+90564", "properties": {"area_ha": 4.109850013799505, "count": 14, "label": 1, "mean_dnbr": 0.31961818983036283}}, {"type": "Feature", "geometry": {"geodesic": false, "type": "Polygon", "coordinates": [[[33.496844358868316, 35.1810558845246], [33.499000315550205, 35.1810558845246], [33.499000315550205, 35.18213386286554], [33.498461326379754, 35.18213386286554], [33.498461326379754, 35.183211841206486], [33.497383348038795, 35.183211841206486], [33.497383348038795, 35.18375083037696], [33.496844358868316, 35.18375083037696], [33.496844358868316, 35.1810558845246]]]}, "id": "+396109+90574", "properties": {"area_ha": 4.403684141346429, "count": 15, "label": 1, "mean_dnbr": 0.3694660650778954}}, {"type": "Feature", "geometry": {"geodesic": false, "type": "Polygon", "coordinates": [[[33.60140825793985, 35.173510036138], [33.60248623628078, 35.173510036138], [33.60248623628078, 35.175127003649415], [33.60518118213315, 35.175127003649415], [33.60518118213315, 35.17566599281988], [33.60464219296267, 35.17566599281988], [33.60464219296267, 35.17620498199035], [33.60248623628078, 35.17620498199035], [33.60248623628078, 35.175127003649415], [33.6019472471103, 35.175127003649415], [33.6019472471103, 35.17458801447894], [33.60140825793985, 35.17458801447894], [33.60140825793985, 35.173510036138]]]}, "id": "+396301+90588", "properties": {"area_ha": 4.110458722215325, "count": 14, "label": 1, "mean_dnbr": 0.34986974130585885}}, {"type": "Feature", "geometry": {"geodesic": false, "type": "Polygon", "coordinates": [[[34.06332197703409, 35.34167465732517], [34.06386096620457, 35.34167465732517], [34.06386096620457, 35.342213646495644], [34.06439995537505, 35.342213646495644], [34.06439995537505, 35.34329162483659], [34.06332197703409, 35.34329162483659], [34.06332197703409, 35.34383061400706], [34.06170500952268, 35.34383061400706], [34.06170500952268, 35.342752635666116], [34.06278298786361, 35.342752635666116], [34.06278298786361, 35.342213646495644], [34.06332197703409, 35.342213646495644], [34.06332197703409, 35.34167465732517]]]}, "id": "+397157+90276", "properties": {"area_ha": 3.5159715917083223, "count": 12, "label": 1, "mean_dnbr": 0.1546165303516151}}]}