{"type": "FeatureCollection", "columns": {"area_ha": "Number", "count": "Long<0, 4294967295>", "label": "Byte<0, 1>", "mean_dnbr": "Object", "system:index": "String"}, "features": [{"type": "Feature", "geometry": {"geodesic": false, "type": "Polygon", "coordinates": [[[33.38203966555784, 36.601292348717564], [33.38257865472832, 36.601292348717564], [33.38257865472832, 36.601831337888036], [33.38419562223973, 36.601831337888036], [33.38419562223973, 36.60290931622898], [33.38365663306928, 36.60290931622898], [33.38365663306928, 36.60344830539945], [33.38203966555784, 36.60344830539945], [33.38203966555784, 36.60290931622898], [33.38150067638739, 36.60290931622898], [33.38150067638739, 36.601831337888036], [33.38203966555784, 36.601831337888036], [33.38203966555784, 36.601292348717564]]]}, "id": "+395893+87939", "properties": {"area_ha": 4.037028932018753, "count": 14, "label": 1, "mean_dnbr": 0.3446563393057712}}, {"type": "Feature", "geometry": {"geodesic": false, "type": "Polygon", "coordinates": [[[33.397131362331066, 36.8653970422487], [33.397670351501546, 36.8653970422487], [33.397670351501546, 36.865936031419174], [33.398748329842476, 36.865936031419174], [33.398748329842476, 36.86647502058965], [33.39982630818341, 36.86647502058965], [33.39982630818341, 36.86701400976012], [33.398748329842476, 36.86701400976012], [33.398748329842476, 36.86647502058965], [33.398209340672, 36.86647502058965], [33.398209340672, 36.86755299893059], [33.397670351501546, 36.86755299893059], [33.397670351501546, 36.868091988101064], [33.397131362331066, 36.868091988101064], [33.397131362331066, 36.86701400976012], [33.39659237316059, 36.86701400976012], [33.39659237316059, 36.86647502058965], [33.397131362331066, 36.86647502058965], [33.397131362331066, 36.8653970422487]]]}, "id": "+395921+87449", "properties": {"area_ha": 3.448421417815652, "count": 12, "label": 1, "mean_dnbr": 0.2742605491347318}}, {"type": "Feature", "geometry": {"geodesic": false, "type": "Polygon", "coordinates": [[[33.53080067660804, 36.80880317934918], [33.53133966577852, 36.80880317934918], [33.53133966577852, 36.80934216851964], [33.53241764411945, 36.80934216851964], [33.53241764411945, 36.809881157690114], [33.531878654949, 36.809881157690114], [33.531878654949, 36.81042014686059], [33.5281057307557, 36.81042014686059], [33.5281057307557, 36.809881157690114], [33.52756674158522, 36.809881157690114], [33.52756674158522, 36.80934216851964], [33.5281057307557, 36.80934216851964], [33.5281057307557, 36.80880317934918], [33.52918370909663, 36.80880317934918], [33.52918370909663, 36.80934216851964], [33.53080067660804, 36.80934216851964], [33.53080067660804, 36.80880317934918]]]}, "id": "+396169+87554", "properties": {"area_ha": 5.464102912358405, "count": 19, "label": 1, "mean_dnbr": 0.4478136675323854}}, {"type": "Feature", "geometry": {"geodesic": false, "type": "Polygon", "coordinates": [[[33.677405730976346, 36.18195877409057], [33.678483709317305, 36.18195877409057], [33.678483709317305, 36.18249776326104], [33.679022698487756, 36.18249776326104], [33.679022698487756, 36.18303675243151], [33.679561687658236, 36.18303675243151], [33.679561687658236, 36.183575741601985], [33.680100676828715, 36.183575741601985], [33.680100676828715, 36.1851927091134], [33.679022698487756, 36.1851927091134], [33.679022698487756, 36.18465371994293], [33.677944720146826, 36.18465371994293], [33.677944720146826, 36.1851927091134], [33.677405730976346, 36.1851927091134], [33.677405730976346, 36.18195877409057]]]}, "id": "+396442+88717", "properties": {"area_ha": 6.378171270917303, "count": 22, "label": 1, "mean_dnbr": 0.2452190172041466}}, {"type": "Feature", "geometry": {"geodesic": false, "type": "Polygon", "coordinates": [[[33.682795622681056, 36.18195877409057], [33.683873601022015, 36.18195877409057], [33.683873601022015, 36.18249776326104], [33.684412590192494, 36.18249776326104], [33.684412590192494, 36.18303675243151], [33.685490568533424, 36.18303675243151], [33.685490568533424, 36.18411473077246], [33.686029557703904, 36.18411473077246], [33.686029557703904, 36.1851927091134], [33.685490568533424, 36.1851927091134], [33.685490568533424, 36.185731698283874], [33.683873601022015, 36.185731698283874], [33.683873601022015, 36.1851927091134], [33.683334611851535, 36.1851927091134], [33.683334611851535, 36.18465371994293], [33.683873601022015, 36.18465371994293], [33.683873601022015, 36.18411473077246], [33.682795622681056, 36.18411473077246], [33.682795622681056, 36.18195877409057]]]}, "id": "+396452+88717", "properties": {"area_ha": 7.8277325915737554, "count": 27, "label": 1, "mean_dnbr": 0.20086534968730754}}, {"type": "Feature", "geometry": {"geodesic": false, "type": "Polygon", "coordinates": [[[33.686029557703904, 36.17710787155632], [33.687646525215314, 36.17710787155632], [33.687646525215314, 36.177646860726796], [33.68818551438579, 36.177646860726796], [33.68818551438579, 36.17872483906774], [33.689263492726724, 36.17872483906774], [33.689263492726724, 36.17926382823821], [33.6898024818972, 36.17926382823821], [33.6898024818972, 36.18034180657916], [33.69034147106768, 36.18034180657916], [33.69034147106768, 36.1814197849201], [33.69195843857909, 36.1814197849201], [33.69195843857909, 36.18249776326104], [33.69141944940861, 36.18249776326104], [33.69141944940861, 36.183575741601985], [33.69034147106768, 36.183575741601985], [33.69034147106768, 36.18303675243151], [33.6898024818972, 36.18303675243151], [33.6898024818972, 36.18249776326104], [33.689263492726724, 36.18249776326104], [33.689263492726724, 36.1814197849201], [33.688724503556244, 36.1814197849201], [33.688724503556244, 36.18303675243151], [33.68818551438579, 36.18303675243151], [33.68818551438579, 36.18195877409057], [33.687646525215314, 36.18195877409057], [33.687646525215314, 36.18249776326104], [33.687107536044834, 36.18249776326104], [33.687107536044834, 36.18303675243151], [33.68656854687438, 36.18303675243151], [33.68656854687438, 36.18195877409057], [33.687107536044834, 36.18195877409057], [33.687107536044834, 36.1814197849201], [33.68818551438579, 36.1814197849201], [33.68818551438579, 36.18034180657916], [33.688724503556244, 36.18034180657916], [33.688724503556244, 36.179802817408685], [33.68818551438579, 36.179802817408685], [33.68818551438579, 36.17926382823821], [33.687107536044834, 36.17926382823821], [33.687107536044834, 36.17818584989727], [33.686029557703904, 36.17818584989727], [33.686029557703904, 36.17710787155632]]]}, "id": "+396459+88726", "properties": {"area_ha": 14.206469221357326, "count": 49, "label": 1, "mean_dnbr": 0.2030038937970498}}, {"type": "Feature", "geometry": {"geodesic": false, "type": "Polygon", "coordinates": [[[33.687646525215314, 36.18411473077246], [33.6898024818972, 36.18411473077246], [33.6898024818972, 36.18465371994293], [33.69034147106768, 36.18465371994293], [33.69034147106768, 36.1851927091134], [33.690880460238134, 36.1851927091134], [33.690880460238134, 36.185731698283874], [33.689263492726724, 36.185731698283874], [33.689263492726724, 36.186270687454346], [33.68818551438579, 36.186270687454346], [33.68818551438579, 36.185731698283874], [33.689263492726724, 36.185731698283874], [33.689263492726724, 36.18465371994293], [33.68818551438579, 36.18465371994293], [33.68818551438579, 36.1851927091134], [33.687646525215314, 36.1851927091134], [33.687646525215314, 36.18411473077246]]]}, "id": "+396463+88713", "properties": {"area_ha": 3.478939604825726, "count": 12, "label": 1, "mean_dnbr": 0.16322557122498424}}, {"type": "Feature", "geometry": {"geodesic": false, "type": "Polygon", "coordinates": [[[33.71190103788655, 36.19381653584095], [33.712440027057, 36.19381653584095], [33.712440027057, 36.19435552501142], [33.71297901622748, 36.19435552501142], [33.71297901622748, 36.19489451418189], [33.712440027057, 36.19489451418189], [33.712440027057, 36.19543350335236], [33.71297901622748, 36.19543350335236], [33.71297901622748, 36.19651148169331], [33.71082305954559, 36.19651148169331], [33.71082305954559, 36.19758946003425], [33.70974508120466, 36.19758946003425], [33.70974508120466, 36.19705047086378], [33.70920609203418, 36.19705047086378], [33.70920609203418, 36.19651148169331], [33.70812811369325, 36.19651148169331], [33.70812811369325, 36.195972492522834], [33.70920609203418, 36.195972492522834], [33.70920609203418, 36.19543350335236], [33.70974508120466, 36.19543350335236], [33.70974508120466, 36.195972492522834], [33.71028407037514, 36.195972492522834], [33.71028407037514, 36.19543350335236], [33.71190103788655, 36.19543350335236], [33.71190103788655, 36.19489451418189], [33.712440027057, 36.19489451418189], [33.712440027057, 36.19435552501142], [33.71190103788655, 36.19435552501142], [33.71190103788655, 36.19381653584095]], [[33.70974508120466, 36.195972492522834], [33.70974508120466, 36.19651148169331], [33.70920609203418, 36.19651148169331], [33.70920609203418, 36.195972492522834], [33.70974508120466, 36.195972492522834]]]}, "id": "+396505+88695", "properties": {"area_ha": 6.377171579288468, "count": 22, "label": 1, "mean_dnbr": 0.2023764590581198}}, {"type": "Feature", "geometry": {"geodesic": false, "type": "Polygon", "coordinates": [[[33.730765658853045, 36.256339279615666], [33.732382626364455, 36.256339279615666], [33.732382626364455, 36.25741725795661], [33.731843637194004, 36.25741725795661], [33.731843637194004, 36.25795624712708], [33.730226669682565, 36.25795624712708], [33.730226669682565, 36.25903422546803], [33.729687680512114, 36.25903422546803], [33.729687680512114, 36.25795624712708], [33.730226669682565, 36.25795624712708], [33.730226669682565, 36.25687826878614], [33.730765658853045, 36.25687826878614], [33.730765658853045, 36.256339279615666]]]}, "id": "+396542+88579", "properties": {"area_ha": 3.4757282199754163, "count": 12, "label": 1, "mean_dnbr": 0.15923673658805176}}, {"type": "Feature", "geometry": {"geodesic": false, "type": "Polygon", "coordinates": [[[33.74855230147861, 36.24933242039953], [33.74909129064909, 36.24933242039953], [33.74909129064909, 36.249871409570005], [33.74963027981957, 36.249871409570005], [33.74963027981957, 36.25041039874048], [33.74909129064909, 36.25041039874048], [33.74909129064909, 36.25148837708142], [33.74855230147861, 36.25148837708142], [33.74855230147861, 36.25256635542237], [33.74909129064909, 36.25256635542237], [33.74909129064909, 36.25310534459284], [33.74855230147861, 36.25310534459284], [33.74855230147861, 36.25364433376331], [33.74747432313768, 36.25364433376331], [33.74747432313768, 36.25310534459284], [33.7469353339672, 36.25310534459284], [33.7469353339672, 36.25364433376331], [33.74585735562627, 36.25364433376331], [33.74585735562627, 36.252027366251895], [33.74639634479672, 36.252027366251895], [33.74639634479672, 36.25256635542237], [33.7469353339672, 36.25256635542237], [33.7469353339672, 36.252027366251895], [33.74747432313768, 36.252027366251895], [33.74747432313768, 36.25256635542237], [33.74801331230813, 36.25256635542237], [33.74801331230813, 36.249871409570005], [33.74855230147861, 36.249871409570005], [33.74855230147861, 36.24933242039953]]]}, "id": "+396573+88592", "properties": {"area_ha": 6.372611649779197, "count": 22, "label": 1, "mean_dnbr": 0.17619276265472916}}, {"type": "Feature", "geometry": {"geodesic": false, "type": "Polygon", "coordinates": [[[33.769033889956546, 36.22777285358067], [33.769572879127026, 36.22777285358067], [33.769572879127026, 36.22831184275114], [33.77011186829748, 36.22831184275114], [33.77011186829748, 36.22885083192161], [33.770650857467956, 36.22885083192161], [33.770650857467956, 36.229389821092084], [33.771728835808915, 36.229389821092084], [33.771728835808915, 36.23046779943302], [33.769572879127026, 36.23046779943302], [33.769572879127026, 36.229389821092084], [33.769033889956546, 36.229389821092084], [33.769033889956546, 36.22992881026256], [33.76795591161559, 36.22992881026256], [33.76795591161559, 36.229389821092084], [33.76849490078607, 36.229389821092084], [33.76849490078607, 36.22885083192161], [33.76795591161559, 36.22885083192161], [33.76795591161559, 36.22777285358067], [33.76849490078607, 36.22777285358067], [33.76849490078607, 36.22831184275114], [33.769033889956546, 36.22831184275114], [33.769033889956546, 36.22777285358067]]]}, "id": "+396611+88632", "properties": {"area_ha": 5.7949691529797205, "count": 20, "label": 1, "mean_dnbr": 0.2053882242976664}}, {"type": "Feature", "geometry": {"geodesic": false, "type": "Polygon", "coordinates": [[[33.773345803320325, 36.314011120856144], [33.773884792490776, 36.314011120856144], [33.773884792490776, 36.31508909919708], [33.774962770831735, 36.31508909919708], [33.774962770831735, 36.31562808836755], [33.774423781661255, 36.31562808836755], [33.774423781661255, 36.316167077538026], [33.775501760002214, 36.316167077538026], [33.775501760002214, 36.3167060667085], [33.774962770831735, 36.3167060667085], [33.774962770831735, 36.31724505587897], [33.774423781661255, 36.31724505587897], [33.774423781661255, 36.3167060667085], [33.773884792490776, 36.3167060667085], [33.773884792490776, 36.31562808836755], [33.772267824979366, 36.31562808836755], [33.772267824979366, 36.31508909919708], [33.773345803320325, 36.31508909919708], [33.773345803320325, 36.314011120856144]]]}, "id": "+396619+88472", "properties": {"area_ha": 3.4731331644476615, "count": 12, "label": 1, "mean_dnbr": 0.1817960774848173}}, {"type": "Feature", "geometry": {"geodesic": false, "type": "Polygon", "coordinates": [[[33.92965266275712, 36.32317393675416], [33.93126963026853, 36.32317393675416], [33.93126963026853, 36.324251915095104], [33.93019165192757, 36.324251915095104], [33.93019165192757, 36.324790904265576], [33.92911367358664, 36.324790904265576], [33.92911367358664, 36.32532989343605], [33.92857468441616, 36.32532989343605], [33.92857468441616, 36.324251915095104], [33.92749670607523, 36.324251915095104], [33.92749670607523, 36.32371292592463], [33.92857468441616, 36.32371292592463], [33.92857468441616, 36.324251915095104], [33.92911367358664, 36.324251915095104], [33.92911367358664, 36.32371292592463], [33.92965266275712, 36.32371292592463], [33.92965266275712, 36.32317393675416]], [[33.93019165192757, 36.32371292592463], [33.93019165192757, 36.324251915095104], [33.92965266275712, 36.324251915095104], [33.92965266275712, 36.32371292592463], [33.93019165192757, 36.32371292592463]]]}, "id": "+396911+88455", "properties": {"area_ha": 3.4727569617988485, "count": 12, "label": 1, "mean_dnbr": 0.14962490692237165}}, {"type": "Feature", "geometry": {"geodesic": false, "type": "Polygon", "coordinates": [[[33.958219088792106, 36.33826563352737], [33.959836056303516, 36.33826563352737], [33.959836056303516, 36.338804622697836], [33.960375045473995, 36.338804622697836], [33.960375045473995, 36.33934361186831], [33.960914034644475, 36.33934361186831], [33.960914034644475, 36.33988260103878], [33.961453023814954, 36.33988260103878], [33.961453023814954, 36.34042159020925], [33.960914034644475, 36.34042159020925], [33.960914034644475, 36.34203855772067], [33.960375045473995, 36.34203855772067], [33.960375045473995, 36.3414995685502], [33.959297067133065, 36.3414995685502], [33.959297067133065, 36.340960579379725], [33.958758077962585, 36.340960579379725], [33.958758077962585, 36.34042159020925], [33.958219088792106, 36.34042159020925], [33.958219088792106, 36.33988260103878], [33.957141110451175, 36.33988260103878], [33.957141110451175, 36.338804622697836], [33.958219088792106, 36.338804622697836], [33.958219088792106, 36.33826563352737]], [[33.958758077962585, 36.33934361186831], [33.958758077962585, 36.33988260103878], [33.958219088792106, 36.33988260103878], [33.958219088792106, 36.33934361186831], [33.958758077962585, 36.33934361186831]]]}, "id": "+396964+88427", "properties": {"area_ha": 8.39079323581041, "count": 29, "label": 1, "mean_dnbr": 0.1682928042205781}}, {"type": "Feature", "geometry": {"geodesic": false, "type": "Polygon", "coordinates": [[[34.01912486505543, 36.32910281762935], [34.02020284339636, 36.32910281762935], [34.02020284339636, 36.32964180679982], [34.01912486505543, 36.32964180679982], [34.01912486505543, 36.33125877431124], [34.01966385422588, 36.33125877431124], [34.01966385422588, 36.33179776348171], [34.01858587588495, 36.33179776348171], [34.01858587588495, 36.33125877431124], [34.01750789754399, 36.33125877431124], [34.01750789754399, 36.33018079597029], [34.01858587588495, 36.33018079597029], [34.01858587588495, 36.32964180679982], [34.01912486505543, 36.32964180679982], [34.01912486505543, 36.32910281762935]]]}, "id": "+397076+88444", "properties": {"area_ha": 3.183097829266818, "count": 11, "label": 1, "mean_dnbr": 0.15588734879963637}}, {"type": "Feature", "geometry": {"geodesic": false, "type": "Polygon", "coordinates": [[[34.046613312749486, 36.32101798007227], [34.047691291090416, 36.32101798007227], [34.047691291090416, 36.32155696924274], [34.048230280260896, 36.32155696924274], [34.048230280260896, 36.322095958413215], [34.047691291090416, 36.322095958413215], [34.047691291090416, 36.32317393675416], [34.04499634523805, 36.32317393675416], [34.04499634523805, 36.32263494758369], [34.044457356067596, 36.32263494758369], [34.044457356067596, 36.322095958413215], [34.04499634523805, 36.322095958413215], [34.04499634523805, 36.32263494758369], [34.046074323579006, 36.32263494758369], [34.046074323579006, 36.322095958413215], [34.046613312749486, 36.322095958413215], [34.046613312749486, 36.32263494758369], [34.04715230191994, 36.32263494758369], [34.04715230191994, 36.32155696924274], [34.046613312749486, 36.32155696924274], [34.046613312749486, 36.32101798007227]]]}, "id": "+397127+88459", "properties": {"area_ha": 3.4728480133479085, "count": 12, "label": 1, "mean_dnbr": 0.1700472244454643}}, {"type": "Feature", "geometry": {"geodesic": false, "type": "Polygon", "coordinates": [[[34.057393096158904, 36.392703539745014], [34.059010063670314, 36.392703539745014], [34.059010063670314, 36.39378151808595], [34.06008804201127, 36.39378151808595], [34.06008804201127, 36.394859496426896], [34.059549052840794, 36.394859496426896], [34.059549052840794, 36.39539848559737], [34.06008804201127, 36.39539848559737], [34.06008804201127, 36.39593747476784], [34.06062703118175, 36.39593747476784], [34.06062703118175, 36.39647646393831], [34.059549052840794, 36.39647646393831], [34.059549052840794, 36.39593747476784], [34.05847107449986, 36.39593747476784], [34.05847107449986, 36.39378151808595], [34.056854106988425, 36.39378151808595], [34.056854106988425, 36.39324252891548], [34.057393096158904, 36.39324252891548], [34.057393096158904, 36.392703539745014]]]}, "id": "+397148+88326", "properties": {"area_ha": 5.782701321983093, "count": 20, "label": 1, "mean_dnbr": 0.30127730997933805}}, {"type": "Feature", "geometry": {"geodesic": false, "type": "Polygon", "coordinates": [[[34.22286277149374, 36.61315011046794], [34.22340176066419, 36.61315011046794], [34.22340176066419, 36.613689099638414], [34.22447973900515, 36.613689099638414], [34.22447973900515, 36.614228088808886], [34.2250187281756, 36.614228088808886], [34.2250187281756, 36.61476707797936], [34.22555771734608, 36.61476707797936], [34.22555771734608, 36.61530606714983], [34.22609670651656, 36.61530606714983], [34.22609670651656, 36.6158450563203], [34.22555771734608, 36.6158450563203], [34.22555771734608, 36.61530606714983], [34.22394074983467, 36.61530606714983], [34.22394074983467, 36.6158450563203], [34.22340176066419, 36.6158450563203], [34.22340176066419, 36.61530606714983], [34.22394074983467, 36.61530606714983], [34.22394074983467, 36.614228088808886], [34.22340176066419, 36.614228088808886], [34.22340176066419, 36.61476707797936], [34.22286277149374, 36.61476707797936], [34.22286277149374, 36.61530606714983], [34.22178479315278, 36.61530606714983], [34.22178479315278, 36.61476707797936], [34.22286277149374, 36.61476707797936], [34.22286277149374, 36.614228088808886], [34.22178479315278, 36.614228088808886], [34.22178479315278, 36.613689099638414], [34.22286277149374, 36.613689099638414], [34.22286277149374, 36.61315011046794]], [[34.22340176066419, 36.613689099638414], [34.22340176066419, 36.614228088808886], [34.22286277149374, 36.614228088808886], [34.22286277149374, 36.613689099638414], [34.22340176066419, 36.613689099638414]]]}, "id": "+397453+87917", "properties": {"area_ha": 4.324710441599547, "count": 15, "label": 1, "mean_dnbr": 0.15905920000776627}}]}