{"type": "FeatureCollection", "columns": {"area_ha": "Number", "count": "Long<0, 4294967295>", "label": "Byte<0, 1>", "mean_dnbr": "Object", "system:index": "String"}, "features": [{"type": "Feature", "geometry": {"geodesic": false, "type": "Polygon", "coordinates": [[[33.04840536903586, 36.155009315566986], [33.05110031488823, 36.155009315566986], [33.05110031488823, 36.15554830473746], [33.05002233654727, 36.15554830473746], [33.05002233654727, 36.15608729390793], [33.04948334737679, 36.15608729390793], [33.04948334737679, 36.157165272248875], [33.04894435820634, 36.157165272248875], [33.04894435820634, 36.15824325058981], [33.04840536903586, 36.15824325058981], [33.04840536903586, 36.157165272248875], [33.04624941235397, 36.157165272248875], [33.04624941235397, 36.15554830473746], [33.04840536903586, 36.15554830473746], [33.04840536903586, 36.155009315566986]]]}, "id": "+395278+88767", "properties": {"area_ha": 7.5404701886320105, "count": 26, "label": 1, "mean_dnbr": 0.24614130353687105}}, {"type": "Feature", "geometry": {"geodesic": false, "type": "Polygon", "coordinates": [[[33.216031001052556, 36.47462989365671], [33.218725946904925, 36.47462989365671], [33.218725946904925, 36.475168882827184], [33.219803925245856, 36.475168882827184], [33.219803925245856, 36.475707871997656], [33.217647968563966, 36.475707871997656], [33.217647968563966, 36.4767858503386], [33.216569990223036, 36.4767858503386], [33.216569990223036, 36.475168882827184], [33.216031001052556, 36.475168882827184], [33.216031001052556, 36.47462989365671]]]}, "id": "+395589+88174", "properties": {"area_ha": 4.332492623701117, "count": 15, "label": 1, "mean_dnbr": 0.17918672730049667}}, {"type": "Feature", "geometry": {"geodesic": false, "type": "Polygon", "coordinates": [[[33.403060243206255, 36.878332782340024], [33.404138221547186, 36.878332782340024], [33.404138221547186, 36.87941076068097], [33.405216199888145, 36.87941076068097], [33.405216199888145, 36.880488739021914], [33.404677210717665, 36.880488739021914], [33.404677210717665, 36.881027728192386], [33.403599232376735, 36.881027728192386], [33.403599232376735, 36.87994974985144], [33.404138221547186, 36.87994974985144], [33.404138221547186, 36.87941076068097], [33.403060243206255, 36.87941076068097], [33.403060243206255, 36.878332782340024]]]}, "id": "+395933+87425", "properties": {"area_ha": 3.160514399586121, "count": 11, "label": 1, "mean_dnbr": 0.2964316464074656}}, {"type": "Feature", "geometry": {"geodesic": false, "type": "Polygon", "coordinates": [[[33.62458479227013, 36.22184397270548], [33.62512378144061, 36.22184397270548], [33.62512378144061, 36.22292195104642], [33.62458479227013, 36.22292195104642], [33.62458479227013, 36.223460940216896], [33.62512378144061, 36.223460940216896], [33.62512378144061, 36.22453891855783], [33.62566277061106, 36.22453891855783], [33.62566277061106, 36.225077907728306], [33.62404580309965, 36.225077907728306], [33.62404580309965, 36.22453891855783], [33.62350681392917, 36.22453891855783], [33.62350681392917, 36.223460940216896], [33.62404580309965, 36.223460940216896], [33.62404580309965, 36.22238296187595], [33.62458479227013, 36.22238296187595], [33.62458479227013, 36.22184397270548]]]}, "id": "+396343+88643", "properties": {"area_ha": 3.766993715650118, "count": 13, "label": 1, "mean_dnbr": 0.1775729935591305}}, {"type": "Feature", "geometry": {"geodesic": false, "type": "Polygon", "coordinates": [[[33.66339201254408, 36.76622303488191], [33.66500898005549, 36.76622303488191], [33.66500898005549, 36.76784000239332], [33.66285302337363, 36.76784000239332], [33.66285302337363, 36.76837899156379], [33.66231403420315, 36.76837899156379], [33.66231403420315, 36.76999595907521], [33.66123605586219, 36.76999595907521], [33.66123605586219, 36.771073937416155], [33.66069706669174, 36.771073937416155], [33.66069706669174, 36.77053494824568], [33.65961908835078, 36.77053494824568], [33.65961908835078, 36.76999595907521], [33.6590800991803, 36.76999595907521], [33.6590800991803, 36.76945696990474], [33.65800212083937, 36.76945696990474], [33.65800212083937, 36.77053494824568], [33.65746313166889, 36.77053494824568], [33.65746313166889, 36.76945696990474], [33.65800212083937, 36.76945696990474], [33.65800212083937, 36.768917980734265], [33.65854111000985, 36.768917980734265], [33.65854111000985, 36.76837899156379], [33.65800212083937, 36.76837899156379], [33.65800212083937, 36.76784000239332], [33.65854111000985, 36.76784000239332], [33.65854111000985, 36.76837899156379], [33.6590800991803, 36.76837899156379], [33.6590800991803, 36.76945696990474], [33.66069706669174, 36.76945696990474], [33.66069706669174, 36.768917980734265], [33.66123605586219, 36.768917980734265], [33.66123605586219, 36.76837899156379], [33.66069706669174, 36.76837899156379], [33.66069706669174, 36.76730101322285], [33.66123605586219, 36.76730101322285], [33.66123605586219, 36.76784000239332], [33.66177504503267, 36.76784000239332], [33.66177504503267, 36.76730101322285], [33.66231403420315, 36.76730101322285], [33.66231403420315, 36.76784000239332], [33.66285302337363, 36.76784000239332], [33.66285302337363, 36.76730101322285], [33.66339201254408, 36.76730101322285], [33.66339201254408, 36.76622303488191]]]}, "id": "+396417+87633", "properties": {"area_ha": 10.646273691753102, "count": 37, "label": 1, "mean_dnbr": 0.21421854056672454}}, {"type": "Feature", "geometry": {"geodesic": false, "type": "Polygon", "coordinates": [[[33.78951547843448, 36.316167077538026], [33.79005446760493, 36.316167077538026], [33.79005446760493, 36.31886202339039], [33.79059345677541, 36.31886202339039], [33.79059345677541, 36.31940101256086], [33.78789851092304, 36.31940101256086], [33.78789851092304, 36.318323034219915], [33.78951547843448, 36.318323034219915], [33.78951547843448, 36.31778404504944], [33.788976489264, 36.31778404504944], [33.788976489264, 36.31724505587897], [33.78951547843448, 36.31724505587897], [33.78951547843448, 36.316167077538026]]]}, "id": "+396649+88468", "properties": {"area_ha": 4.0518605771287035, "count": 14, "label": 1, "mean_dnbr": 0.18449039905585837}}, {"type": "Feature", "geometry": {"geodesic": false, "type": "Polygon", "coordinates": [[[33.79813930516201, 36.31994000173133], [33.79867829433249, 36.31994000173133], [33.79867829433249, 36.320478990901805], [33.79921728350297, 36.320478990901805], [33.79921728350297, 36.32101798007227], [33.80083425101438, 36.32101798007227], [33.80083425101438, 36.322095958413215], [33.79975627267342, 36.322095958413215], [33.79975627267342, 36.32155696924274], [33.79921728350297, 36.32155696924274], [33.79921728350297, 36.322095958413215], [33.79867829433249, 36.322095958413215], [33.79867829433249, 36.32155696924274], [33.79813930516201, 36.32155696924274], [33.79813930516201, 36.31994000173133]]]}, "id": "+396665+88461", "properties": {"area_ha": 3.1834755432603514, "count": 11, "label": 1, "mean_dnbr": 0.19826474374794234}}, {"type": "Feature", "geometry": {"geodesic": false, "type": "Polygon", "coordinates": [[[33.92102883602956, 36.38084577799464], [33.92210681437052, 36.38084577799464], [33.92210681437052, 36.3813847671651], [33.92264580354097, 36.3813847671651], [33.92264580354097, 36.381923756335574], [33.92156782520004, 36.381923756335574], [33.92156782520004, 36.38246274550605], [33.92210681437052, 36.38246274550605], [33.92210681437052, 36.38300173467652], [33.92102883602956, 36.38300173467652], [33.92102883602956, 36.38354072384699], [33.919411868518154, 36.38354072384699], [33.919411868518154, 36.38300173467652], [33.918333890177195, 36.38300173467652], [33.918333890177195, 36.38246274550605], [33.917794901006744, 36.38246274550605], [33.917794901006744, 36.381923756335574], [33.918333890177195, 36.381923756335574], [33.918333890177195, 36.3813847671651], [33.918872879347674, 36.3813847671651], [33.918872879347674, 36.38084577799464], [33.920489846859084, 36.38084577799464], [33.920489846859084, 36.381923756335574], [33.92156782520004, 36.381923756335574], [33.92156782520004, 36.3813847671651], [33.92102883602956, 36.3813847671651], [33.92102883602956, 36.38084577799464]], [[33.920489846859084, 36.381923756335574], [33.920489846859084, 36.38246274550605], [33.91995085768863, 36.38246274550605], [33.91995085768863, 36.38300173467652], [33.919411868518154, 36.38300173467652], [33.919411868518154, 36.381923756335574], [33.920489846859084, 36.381923756335574]]]}, "id": "+396894+88348", "properties": {"area_ha": 7.22952277295426, "count": 25, "label": 1, "mean_dnbr": 0.3503122593500583}}, {"type": "Feature", "geometry": {"geodesic": false, "type": "Polygon", "coordinates": [[[33.92749670607523, 36.32910281762935], [33.92911367358664, 36.32910281762935], [33.92911367358664, 36.32964180679982], [33.92965266275712, 36.32964180679982], [33.92965266275712, 36.330719785140765], [33.93019165192757, 36.330719785140765], [33.93019165192757, 36.33125877431124], [33.92911367358664, 36.33125877431124], [33.92911367358664, 36.330719785140765], [33.92803569524571, 36.330719785140765], [33.92803569524571, 36.33018079597029], [33.92749670607523, 36.33018079597029], [33.92749670607523, 36.32910281762935]]]}, "id": "+396907+88444", "properties": {"area_ha": 3.472488733882176, "count": 12, "label": 1, "mean_dnbr": 0.37735278648220266}}, {"type": "Feature", "geometry": {"geodesic": false, "type": "Polygon", "coordinates": [[[33.93827648948465, 36.338804622697836], [33.93989345699609, 36.338804622697836], [33.93989345699609, 36.340960579379725], [33.93827648948465, 36.340960579379725], [33.93827648948465, 36.33988260103878], [33.93881547865513, 36.33988260103878], [33.93881547865513, 36.33934361186831], [33.93827648948465, 36.33934361186831], [33.93827648948465, 36.338804622697836]]]}, "id": "+396927+88426", "properties": {"area_ha": 3.1827147809915286, "count": 11, "label": 1, "mean_dnbr": 0.5180295697157264}}, {"type": "Feature", "geometry": {"geodesic": false, "type": "Polygon", "coordinates": [[[33.957680099621655, 36.337187655186426], [33.958758077962585, 36.337187655186426], [33.958758077962585, 36.33826563352737], [33.957141110451175, 36.33826563352737], [33.957141110451175, 36.338804622697836], [33.956602121280696, 36.338804622697836], [33.956602121280696, 36.33934361186831], [33.956063132110216, 36.33934361186831], [33.956063132110216, 36.34042159020925], [33.954985153769286, 36.34042159020925], [33.954985153769286, 36.33934361186831], [33.956063132110216, 36.33934361186831], [33.956063132110216, 36.33826563352737], [33.957141110451175, 36.33826563352737], [33.957141110451175, 36.3377266443569], [33.957680099621655, 36.3377266443569], [33.957680099621655, 36.337187655186426]]]}, "id": "+396962+88429", "properties": {"area_ha": 3.472106938727452, "count": 12, "label": 1, "mean_dnbr": 0.30276479703582837}}, {"type": "Feature", "geometry": {"geodesic": false, "type": "Polygon", "coordinates": [[[33.96360898049684, 36.37114397292614], [33.964147969667295, 36.37114397292614], [33.964147969667295, 36.371682962096614], [33.964686958837774, 36.371682962096614], [33.964686958837774, 36.372221951267086], [33.96684291551966, 36.372221951267086], [33.96684291551966, 36.37276094043756], [33.96738190469014, 36.37276094043756], [33.96738190469014, 36.37329992960803], [33.965764937178704, 36.37329992960803], [33.965764937178704, 36.374377907948976], [33.964686958837774, 36.374377907948976], [33.964686958837774, 36.3738389187785], [33.96522594800825, 36.3738389187785], [33.96522594800825, 36.37329992960803], [33.965764937178704, 36.37329992960803], [33.965764937178704, 36.37276094043756], [33.964686958837774, 36.37276094043756], [33.964686958837774, 36.37329992960803], [33.96360898049684, 36.37329992960803], [33.96360898049684, 36.37276094043756], [33.963069991326364, 36.37276094043756], [33.963069991326364, 36.371682962096614], [33.96360898049684, 36.371682962096614], [33.96360898049684, 36.37114397292614]]]}, "id": "+396972+88366", "properties": {"area_ha": 5.495097645424258, "count": 19, "label": 1, "mean_dnbr": 0.19906847755865245}}, {"type": "Feature", "geometry": {"geodesic": false, "type": "Polygon", "coordinates": [[[34.002416200770796, 36.349045416936804], [34.003494179111726, 36.349045416936804], [34.003494179111726, 36.35012339527775], [34.004572157452685, 36.35012339527775], [34.004572157452685, 36.35066238444822], [34.004033168282206, 36.35066238444822], [34.004033168282206, 36.351201373618686], [34.005650135793616, 36.351201373618686], [34.005650135793616, 36.35174036278916], [34.005111146623165, 36.35174036278916], [34.005111146623165, 36.35227935195963], [34.003494179111726, 36.35227935195963], [34.003494179111726, 36.3528183411301], [34.001877211600316, 36.3528183411301], [34.001877211600316, 36.35227935195963], [34.003494179111726, 36.35227935195963], [34.003494179111726, 36.35174036278916], [34.002955189941275, 36.35174036278916], [34.002955189941275, 36.351201373618686], [34.002416200770796, 36.351201373618686], [34.002416200770796, 36.35066238444822], [34.002955189941275, 36.35066238444822], [34.002955189941275, 36.351201373618686], [34.003494179111726, 36.351201373618686], [34.003494179111726, 36.35012339527775], [34.002416200770796, 36.35012339527775], [34.002416200770796, 36.349045416936804]]]}, "id": "+397045+88407", "properties": {"area_ha": 5.49662149480619, "count": 19, "label": 1, "mean_dnbr": 0.2026833778283995}}, {"type": "Feature", "geometry": {"geodesic": false, "type": "Polygon", "coordinates": [[[34.007267103305026, 36.36683205956237], [34.007806092475505, 36.36683205956237], [34.007806092475505, 36.367910037903314], [34.008884070816464, 36.367910037903314], [34.008884070816464, 36.36898801624425], [34.007806092475505, 36.36898801624425], [34.007806092475505, 36.3700659945852], [34.006728114134575, 36.3700659945852], [34.006728114134575, 36.369527005414724], [34.006189124964095, 36.369527005414724], [34.006189124964095, 36.36898801624425], [34.006728114134575, 36.36898801624425], [34.006728114134575, 36.367910037903314], [34.006189124964095, 36.367910037903314], [34.006189124964095, 36.36737104873284], [34.007267103305026, 36.36737104873284], [34.007267103305026, 36.36683205956237]]]}, "id": "+397053+88374", "properties": {"area_ha": 4.916932871666076, "count": 17, "label": 1, "mean_dnbr": 0.3598565625151299}}, {"type": "Feature", "geometry": {"geodesic": false, "type": "Polygon", "coordinates": [[[34.008884070816464, 36.3700659945852], [34.009962049157394, 36.3700659945852], [34.009962049157394, 36.37329992960803], [34.008884070816464, 36.37329992960803], [34.008884070816464, 36.3700659945852]]]}, "id": "+397057+88368", "properties": {"area_ha": 3.4706354109691593, "count": 12, "label": 1, "mean_dnbr": 0.2805838817721072}}, {"type": "Feature", "geometry": {"geodesic": false, "type": "Polygon", "coordinates": [[[34.011579016668804, 36.34473350357303], [34.012118005839284, 36.34473350357303], [34.012118005839284, 36.34581148191397], [34.013195984180214, 36.34581148191397], [34.013195984180214, 36.346889460254914], [34.01265699500976, 36.346889460254914], [34.01265699500976, 36.34742844942539], [34.012118005839284, 36.34742844942539], [34.012118005839284, 36.34796743859586], [34.01104002749835, 36.34796743859586], [34.01104002749835, 36.346889460254914], [34.011579016668804, 36.346889460254914], [34.011579016668804, 36.34635047108444], [34.012118005839284, 36.34635047108444], [34.012118005839284, 36.34581148191397], [34.011579016668804, 36.34581148191397], [34.011579016668804, 36.34473350357303]]]}, "id": "+397061+88415", "properties": {"area_ha": 3.471753210055251, "count": 12, "label": 1, "mean_dnbr": 0.36943075481101956}}, {"type": "Feature", "geometry": {"geodesic": false, "type": "Polygon", "coordinates": [[[34.013195984180214, 36.35227935195963], [34.013734973350694, 36.35227935195963], [34.013734973350694, 36.3528183411301], [34.01427396252117, 36.3528183411301], [34.01427396252117, 36.353357330300575], [34.013734973350694, 36.353357330300575], [34.013734973350694, 36.35443530864152], [34.01265699500976, 36.35443530864152], [34.01265699500976, 36.35497429781199], [34.013195984180214, 36.35497429781199], [34.013195984180214, 36.355513286982465], [34.011579016668804, 36.355513286982465], [34.011579016668804, 36.35443530864152], [34.01265699500976, 36.35443530864152], [34.01265699500976, 36.353357330300575], [34.013195984180214, 36.353357330300575], [34.013195984180214, 36.35227935195963]]]}, "id": "+397064+88401", "properties": {"area_ha": 3.4714213395921556, "count": 12, "label": 1, "mean_dnbr": 0.4797350881167344}}, {"type": "Feature", "geometry": {"geodesic": false, "type": "Polygon", "coordinates": [[[34.01427396252117, 36.35012339527775], [34.01642991920306, 36.35012339527775], [34.01642991920306, 36.35174036278916], [34.01589093003258, 36.35174036278916], [34.01589093003258, 36.35227935195963], [34.01481295169165, 36.35227935195963], [34.01481295169165, 36.35174036278916], [34.015351940862104, 36.35174036278916], [34.015351940862104, 36.351201373618686], [34.01427396252117, 36.351201373618686], [34.01427396252117, 36.35012339527775]]]}, "id": "+397069+88405", "properties": {"area_ha": 3.4715517456171847, "count": 12, "label": 1, "mean_dnbr": 0.4605661107000397}}, {"type": "Feature", "geometry": {"geodesic": false, "type": "Polygon", "coordinates": [[[34.02720970261248, 36.324790904265576], [34.02774869178296, 36.324790904265576], [34.02774869178296, 36.32532989343605], [34.02828768095344, 36.32532989343605], [34.02828768095344, 36.3280248392884], [34.02720970261248, 36.3280248392884], [34.02720970261248, 36.324790904265576]]]}, "id": "+397090+88452", "properties": {"area_ha": 3.1832619742868085, "count": 11, "label": 1, "mean_dnbr": 0.3978364741611111}}, {"type": "Feature", "geometry": {"geodesic": false, "type": "Polygon", "coordinates": [[[34.03798948602193, 36.36413711371001], [34.03960645353334, 36.36413711371001], [34.03960645353334, 36.365754081221425], [34.03906746436286, 36.365754081221425], [34.03906746436286, 36.3662930703919], [34.03798948602193, 36.3662930703919], [34.03798948602193, 36.36413711371001]]]}, "id": "+397112+88379", "properties": {"area_ha": 3.181681334070976, "count": 11, "label": 1, "mean_dnbr": 0.4336451656925371}}, {"type": "Feature", "geometry": {"geodesic": false, "type": "Polygon", "coordinates": [[[34.03798948602193, 36.330719785140765], [34.03960645353334, 36.330719785140765], [34.03960645353334, 36.33125877431124], [34.0406844318743, 36.33125877431124], [34.0406844318743, 36.33287574182265], [34.04014544270382, 36.33287574182265], [34.04014544270382, 36.33341473099312], [34.03852847519241, 36.33341473099312], [34.03852847519241, 36.33395372016359], [34.0406844318743, 36.33395372016359], [34.0406844318743, 36.334492709334064], [34.04176241021523, 36.334492709334064], [34.04176241021523, 36.33503169850454], [34.0406844318743, 36.33503169850454], [34.0406844318743, 36.33610967684548], [34.04014544270382, 36.33610967684548], [34.04014544270382, 36.33503169850454], [34.03906746436286, 36.33503169850454], [34.03906746436286, 36.33557068767501], [34.03852847519241, 36.33557068767501], [34.03852847519241, 36.336648666015954], [34.03745049685145, 36.336648666015954], [34.03745049685145, 36.337187655186426], [34.036911507681, 36.337187655186426], [34.036911507681, 36.336648666015954], [34.03637251851052, 36.336648666015954], [34.03637251851052, 36.33610967684548], [34.036911507681, 36.33610967684548], [34.036911507681, 36.33557068767501], [34.03637251851052, 36.33557068767501], [34.03637251851052, 36.33503169850454], [34.03745049685145, 36.33503169850454], [34.03745049685145, 36.334492709334064], [34.03637251851052, 36.334492709334064], [34.03637251851052, 36.33395372016359], [34.036911507681, 36.33395372016359], [34.036911507681, 36.33341473099312], [34.03798948602193, 36.33341473099312], [34.03798948602193, 36.330719785140765]], [[34.03852847519241, 36.33395372016359], [34.03852847519241, 36.334492709334064], [34.03798948602193, 36.334492709334064], [34.03798948602193, 36.33395372016359], [34.03852847519241, 36.33395372016359]]]}, "id": "+397112+88441", "properties": {"area_ha": 15.914800737592307, "count": 55, "label": 1, "mean_dnbr": 0.37103605356789454}}, {"type": "Feature", "geometry": {"geodesic": false, "type": "Polygon", "coordinates": [[[34.04391836689712, 36.33610967684548], [34.044457356067596, 36.33610967684548], [34.044457356067596, 36.336648666015954], [34.04553533440853, 36.336648666015954], [34.04553533440853, 36.337187655186426], [34.046074323579006, 36.337187655186426], [34.046074323579006, 36.3377266443569], [34.04499634523805, 36.3377266443569], [34.04499634523805, 36.337187655186426], [34.044457356067596, 36.337187655186426], [34.044457356067596, 36.3377266443569], [34.04391836689712, 36.3377266443569], [34.04391836689712, 36.33826563352737], [34.04499634523805, 36.33826563352737], [34.04499634523805, 36.338804622697836], [34.04553533440853, 36.338804622697836], [34.04553533440853, 36.33934361186831], [34.046074323579006, 36.33934361186831], [34.046074323579006, 36.34042159020925], [34.04499634523805, 36.34042159020925], [34.04499634523805, 36.340960579379725], [34.04391836689712, 36.340960579379725], [34.04391836689712, 36.34042159020925], [34.04230139938571, 36.34042159020925], [34.04230139938571, 36.338804622697836], [34.042840388556186, 36.338804622697836], [34.042840388556186, 36.33826563352737], [34.04337937772664, 36.33826563352737], [34.04337937772664, 36.337187655186426], [34.04391836689712, 36.337187655186426], [34.04391836689712, 36.33610967684548]]]}, "id": "+397121+88431", "properties": {"area_ha": 10.12694732789132, "count": 35, "label": 1, "mean_dnbr": 0.3886340092489518}}, {"type": "Feature", "geometry": {"geodesic": false, "type": "Polygon", "coordinates": [[[34.047691291090416, 36.365754081221425], [34.048230280260896, 36.365754081221425], [34.048230280260896, 36.36683205956237], [34.048769269431375, 36.36683205956237], [34.048769269431375, 36.36898801624425], [34.04715230191994, 36.36898801624425], [34.04715230191994, 36.36844902707379], [34.047691291090416, 36.36844902707379], [34.047691291090416, 36.367910037903314], [34.048230280260896, 36.367910037903314], [34.048230280260896, 36.36737104873284], [34.046613312749486, 36.36737104873284], [34.046613312749486, 36.36683205956237], [34.047691291090416, 36.36683205956237], [34.047691291090416, 36.365754081221425]]]}, "id": "+397128+88376", "properties": {"area_ha": 3.470822296784501, "count": 12, "label": 1, "mean_dnbr": 0.40324161076502274}}, {"type": "Feature", "geometry": {"geodesic": false, "type": "Polygon", "coordinates": [[[34.052542193624674, 36.62231292636596], [34.053620171965605, 36.62231292636596], [34.053620171965605, 36.62285191553643], [34.053081182795125, 36.62285191553643], [34.053081182795125, 36.6233909047069], [34.052003204454195, 36.6233909047069], [34.052003204454195, 36.623929893877374], [34.051464215283715, 36.623929893877374], [34.051464215283715, 36.62446888304785], [34.052003204454195, 36.62446888304785], [34.052003204454195, 36.62500787221832], [34.051464215283715, 36.62500787221832], [34.051464215283715, 36.62446888304785], [34.050925226113236, 36.62446888304785], [34.050925226113236, 36.623929893877374], [34.049847247772306, 36.623929893877374], [34.049847247772306, 36.6233909047069], [34.050925226113236, 36.6233909047069], [34.050925226113236, 36.623929893877374], [34.051464215283715, 36.623929893877374], [34.051464215283715, 36.62231292636596], [34.052003204454195, 36.62231292636596], [34.052003204454195, 36.62285191553643], [34.052542193624674, 36.62285191553643], [34.052542193624674, 36.62231292636596]]]}, "id": "+397138+87900", "properties": {"area_ha": 3.171092516342926, "count": 11, "label": 1, "mean_dnbr": 0.22185523119570055}}, {"type": "Feature", "geometry": {"geodesic": false, "type": "Polygon", "coordinates": [[[34.053081182795125, 36.359825200346236], [34.056315117817974, 36.359825200346236], [34.056315117817974, 36.36036418951671], [34.055776128647494, 36.36036418951671], [34.055776128647494, 36.36090317868718], [34.056315117817974, 36.36090317868718], [34.056315117817974, 36.36144216785765], [34.055776128647494, 36.36144216785765], [34.055776128647494, 36.361981157028126], [34.054698150306564, 36.361981157028126], [34.054698150306564, 36.3625201461986], [34.055237139477015, 36.3625201461986], [34.055237139477015, 36.36305913536906], [34.054159161136084, 36.36305913536906], [34.054159161136084, 36.361981157028126], [34.053620171965605, 36.361981157028126], [34.053620171965605, 36.36144216785765], [34.053081182795125, 36.36144216785765], [34.053081182795125, 36.359825200346236]]]}, "id": "+397143+88387", "properties": {"area_ha": 6.942197073260485, "count": 24, "label": 1, "mean_dnbr": 0.3975795229567236}}, {"type": "Feature", "geometry": {"geodesic": false, "type": "Polygon", "coordinates": [[[34.0611660203522, 36.33233675265218], [34.06278298786361, 36.33233675265218], [34.06278298786361, 36.33287574182265], [34.06332197703409, 36.33287574182265], [34.06332197703409, 36.33341473099312], [34.06386096620457, 36.33341473099312], [34.06386096620457, 36.33395372016359], [34.06332197703409, 36.33395372016359], [34.06332197703409, 36.33341473099312], [34.06224399869316, 36.33341473099312], [34.06224399869316, 36.33395372016359], [34.06278298786361, 36.33395372016359], [34.06278298786361, 36.334492709334064], [34.0649389445455, 36.334492709334064], [34.0649389445455, 36.33557068767501], [34.06439995537505, 36.33557068767501], [34.06439995537505, 36.33503169850454], [34.06386096620457, 36.33503169850454], [34.06386096620457, 36.336648666015954], [34.06224399869316, 36.336648666015954], [34.06224399869316, 36.337187655186426], [34.06170500952268, 36.337187655186426], [34.06170500952268, 36.3377266443569], [34.06224399869316, 36.3377266443569], [34.06224399869316, 36.338804622697836], [34.06278298786361, 36.338804622697836], [34.06278298786361, 36.33934361186831], [34.06170500952268, 36.33934361186831], [34.06170500952268, 36.3414995685502], [34.06224399869316, 36.3414995685502], [34.06224399869316, 36.34203855772067], [34.06062703118175, 36.34203855772067], [34.06062703118175, 36.34257754689114], [34.06008804201127, 36.34257754689114], [34.06008804201127, 36.340960579379725], [34.057932085329384, 36.340960579379725], [34.057932085329384, 36.34042159020925], [34.057393096158904, 36.34042159020925], [34.057393096158904, 36.33934361186831], [34.05847107449986, 36.33934361186831], [34.05847107449986, 36.338804622697836], [34.059010063670314, 36.338804622697836], [34.059010063670314, 36.33826563352737], [34.057932085329384, 36.33826563352737], [34.057932085329384, 36.3377266443569], [34.05847107449986, 36.3377266443569], [34.05847107449986, 36.337187655186426], [34.059549052840794, 36.337187655186426], [34.059549052840794, 36.3377266443569], [34.059010063670314, 36.3377266443569], [34.059010063670314, 36.33826563352737], [34.06008804201127, 36.33826563352737], [34.06008804201127, 36.3377266443569], [34.0611660203522, 36.3377266443569], [34.0611660203522, 36.337187655186426], [34.06008804201127, 36.337187655186426], [34.06008804201127, 36.336648666015954], [34.06170500952268, 36.336648666015954], [34.06170500952268, 36.33610967684548], [34.06224399869316, 36.33610967684548], [34.06224399869316, 36.33557068767501], [34.06332197703409, 36.33557068767501], [34.06332197703409, 36.33503169850454], [34.06278298786361, 36.33503169850454], [34.06278298786361, 36.334492709334064], [34.06224399869316, 36.334492709334064], [34.06224399869316, 36.33395372016359], [34.06170500952268, 36.33395372016359], [34.06170500952268, 36.33341473099312], [34.0611660203522, 36.33341473099312], [34.0611660203522, 36.33233675265218]]]}, "id": "+397155+88438", "properties": {"area_ha": 23.436910617734476, "count": 81, "label": 1, "mean_dnbr": 0.41443704552219285}}, {"type": "Feature", "geometry": {"geodesic": false, "type": "Polygon", "coordinates": [[[34.06601692288646, 36.33610967684548], [34.06655591205694, 36.33610967684548], [34.06655591205694, 36.336648666015954], [34.06763389039787, 36.336648666015954], [34.06763389039787, 36.337187655186426], [34.06817287956835, 36.337187655186426], [34.06817287956835, 36.3377266443569], [34.0687118687388, 36.3377266443569], [34.0687118687388, 36.33826563352737], [34.06925085790928, 36.33826563352737], [34.06925085790928, 36.33934361186831], [34.06817287956835, 36.33934361186831], [34.06817287956835, 36.338804622697836], [34.06709490122739, 36.338804622697836], [34.06709490122739, 36.3377266443569], [34.06655591205694, 36.3377266443569], [34.06655591205694, 36.337187655186426], [34.06601692288646, 36.337187655186426], [34.06601692288646, 36.33610967684548]]]}, "id": "+397162+88431", "properties": {"area_ha": 4.6295255590468, "count": 16, "label": 1, "mean_dnbr": 0.2983795965032633}}, {"type": "Feature", "geometry": {"geodesic": false, "type": "Polygon", "coordinates": [[[34.07625771712543, 36.66273711415134], [34.07733569546636, 36.66273711415134], [34.07733569546636, 36.66327610332181], [34.08056963048918, 36.66327610332181], [34.08056963048918, 36.66489307083322], [34.07787468463684, 36.66489307083322], [34.07787468463684, 36.665432060003695], [34.07733569546636, 36.665432060003695], [34.07733569546636, 36.66489307083322], [34.07679670629588, 36.66489307083322], [34.07679670629588, 36.665432060003695], [34.07517973878447, 36.665432060003695], [34.07517973878447, 36.66435408166275], [34.07571872795495, 36.66435408166275], [34.07571872795495, 36.663815092492285], [34.07625771712543, 36.663815092492285], [34.07625771712543, 36.66273711415134]], [[34.07625771712543, 36.66435408166275], [34.07625771712543, 36.66489307083322], [34.07571872795495, 36.66489307083322], [34.07571872795495, 36.66435408166275], [34.07625771712543, 36.66435408166275]], [[34.07787468463684, 36.663815092492285], [34.07787468463684, 36.66435408166275], [34.07733569546636, 36.66435408166275], [34.07733569546636, 36.663815092492285], [34.07787468463684, 36.663815092492285]]]}, "id": "+397182+87825", "properties": {"area_ha": 8.931974433381864, "count": 31, "label": 1, "mean_dnbr": 0.2098966940674123}}]}