{"type": "FeatureCollection", "columns": {"area_ha": "Number", "count": "Long<0, 4294967295>", "label": "Byte<0, 1>", "mean_dnbr": "Object", "system:index": "String"}, "features": [{"type": "Feature", "geometry": {"geodesic": false, "type": "Polygon", "coordinates": [[[33.126558798754274, 36.258495236297556], [33.129253744606615, 36.258495236297556], [33.129253744606615, 36.2595732146385], [33.128714755436135, 36.2595732146385], [33.128714755436135, 36.26065119297944], [33.126019809583795, 36.26065119297944], [33.126019809583795, 36.25903422546803], [33.126558798754274, 36.25903422546803], [33.126558798754274, 36.258495236297556]]]}, "id": "+395423+88575", "properties": {"area_ha": 6.082354018023767, "count": 21, "label": 1, "mean_dnbr": 0.3985161682744588}}, {"type": "Feature", "geometry": {"geodesic": false, "type": "Polygon", "coordinates": [[[33.38096168721691, 36.59590245701285], [33.38150067638739, 36.59590245701285], [33.38150067638739, 36.59698043535379], [33.38096168721691, 36.59698043535379], [33.38096168721691, 36.597519424524265], [33.3793447197055, 36.597519424524265], [33.3793447197055, 36.59805841369473], [33.37880573053502, 36.59805841369473], [33.37880573053502, 36.597519424524265], [33.37664977385313, 36.597519424524265], [33.37664977385313, 36.59698043535379], [33.37880573053502, 36.59698043535379], [33.37880573053502, 36.597519424524265], [33.3793447197055, 36.597519424524265], [33.3793447197055, 36.59698043535379], [33.37988370887598, 36.59698043535379], [33.37988370887598, 36.59644144618332], [33.38096168721691, 36.59644144618332], [33.38096168721691, 36.59590245701285]]]}, "id": "+395891+87949", "properties": {"area_ha": 3.460555368253973, "count": 12, "label": 1, "mean_dnbr": 0.18589834216352805}}, {"type": "Feature", "geometry": {"geodesic": false, "type": "Polygon", "coordinates": [[[33.46019309527625, 36.34796743859586], [33.46073208444673, 36.34796743859586], [33.46073208444673, 36.34850642776633], [33.46019309527625, 36.34850642776633], [33.46019309527625, 36.349045416936804], [33.46181006278766, 36.349045416936804], [33.46181006278766, 36.349584406107276], [33.46234905195814, 36.349584406107276], [33.46234905195814, 36.35012339527775], [33.46019309527625, 36.35012339527775], [33.46019309527625, 36.349584406107276], [33.459115116935294, 36.349584406107276], [33.459115116935294, 36.34850642776633], [33.46019309527625, 36.34850642776633], [33.46019309527625, 36.34796743859586]]]}, "id": "+396038+88409", "properties": {"area_ha": 3.471636946286598, "count": 12, "label": 1, "mean_dnbr": 0.21313226786569478}}, {"type": "Feature", "geometry": {"geodesic": false, "type": "Polygon", "coordinates": [[[33.474745802879, 36.82766780031568], [33.47636277039041, 36.82766780031568], [33.47636277039041, 36.82982375699757], [33.47528479204945, 36.82982375699757], [33.47528479204945, 36.83036274616804], [33.474745802879, 36.83036274616804], [33.474745802879, 36.82982375699757], [33.47420681370852, 36.82982375699757], [33.47420681370852, 36.828745778656625], [33.474745802879, 36.828745778656625], [33.474745802879, 36.82766780031568]], [[33.47528479204945, 36.8292847678271], [33.47528479204945, 36.82982375699757], [33.474745802879, 36.82982375699757], [33.474745802879, 36.8292847678271], [33.47528479204945, 36.8292847678271]]]}, "id": "+396067+87519", "properties": {"area_ha": 4.025148702590627, "count": 14, "label": 1, "mean_dnbr": 0.3194686349505588}}, {"type": "Feature", "geometry": {"geodesic": false, "type": "Polygon", "coordinates": [[[33.584699593655216, 36.303231337446704], [33.58577757199615, 36.303231337446704], [33.58577757199615, 36.303770326617176], [33.586316561166626, 36.303770326617176], [33.586316561166626, 36.30430931578765], [33.586855550337106, 36.30430931578765], [33.586855550337106, 36.30538729412859], [33.587394539507585, 36.30538729412859], [33.587394539507585, 36.30646527246954], [33.586855550337106, 36.30646527246954], [33.586855550337106, 36.305926283299065], [33.586316561166626, 36.305926283299065], [33.586316561166626, 36.30538729412859], [33.585238582825696, 36.30538729412859], [33.585238582825696, 36.305926283299065], [33.583621615314286, 36.305926283299065], [33.583621615314286, 36.30538729412859], [33.584699593655216, 36.30538729412859], [33.584699593655216, 36.30484830495812], [33.585238582825696, 36.30484830495812], [33.585238582825696, 36.30430931578765], [33.584699593655216, 36.30430931578765], [33.584699593655216, 36.303231337446704]]]}, "id": "+396270+88492", "properties": {"area_ha": 5.210422046211311, "count": 18, "label": 1, "mean_dnbr": 0.15770006707166523}}, {"type": "Feature", "geometry": {"geodesic": false, "type": "Polygon", "coordinates": [[[33.92102883602956, 36.380306788824164], [33.92156782520004, 36.380306788824164], [33.92156782520004, 36.38084577799464], [33.92210681437052, 36.38084577799464], [33.92210681437052, 36.3813847671651], [33.92264580354097, 36.3813847671651], [33.92264580354097, 36.381923756335574], [33.92210681437052, 36.381923756335574], [33.92210681437052, 36.38246274550605], [33.92156782520004, 36.38246274550605], [33.92156782520004, 36.38300173467652], [33.92102883602956, 36.38300173467652], [33.92102883602956, 36.38354072384699], [33.920489846859084, 36.38354072384699], [33.920489846859084, 36.38300173467652], [33.918333890177195, 36.38300173467652], [33.918333890177195, 36.38246274550605], [33.917794901006744, 36.38246274550605], [33.917794901006744, 36.381923756335574], [33.918333890177195, 36.381923756335574], [33.918333890177195, 36.3813847671651], [33.918872879347674, 36.3813847671651], [33.918872879347674, 36.38084577799464], [33.92102883602956, 36.38084577799464], [33.92102883602956, 36.380306788824164]]]}, "id": "+396893+88349", "properties": {"area_ha": 8.67544626549268, "count": 30, "label": 1, "mean_dnbr": 0.4043537639811225}}, {"type": "Feature", "geometry": {"geodesic": false, "type": "Polygon", "coordinates": [[[33.95390717542833, 36.308082239980955], [33.95444616459881, 36.308082239980955], [33.95444616459881, 36.30862122915142], [33.954985153769286, 36.30862122915142], [33.954985153769286, 36.309699207492365], [33.955524142939765, 36.309699207492365], [33.955524142939765, 36.31131617500378], [33.956602121280696, 36.31131617500378], [33.956602121280696, 36.3129331425152], [33.957141110451175, 36.3129331425152], [33.957141110451175, 36.314550110026616], [33.956063132110216, 36.314550110026616], [33.956063132110216, 36.314011120856144], [33.954985153769286, 36.314011120856144], [33.954985153769286, 36.314550110026616], [33.95390717542833, 36.314550110026616], [33.95390717542833, 36.31562808836755], [33.95229020791692, 36.31562808836755], [33.95229020791692, 36.316167077538026], [33.951751218746466, 36.316167077538026], [33.951751218746466, 36.3167060667085], [33.95067324040551, 36.3167060667085], [33.95067324040551, 36.31562808836755], [33.94959526206458, 36.31562808836755], [33.94959526206458, 36.316167077538026], [33.9490562728941, 36.316167077538026], [33.9490562728941, 36.3167060667085], [33.94851728372362, 36.3167060667085], [33.94851728372362, 36.316167077538026], [33.94797829455314, 36.316167077538026], [33.94797829455314, 36.3167060667085], [33.94743930538269, 36.3167060667085], [33.94743930538269, 36.31724505587897], [33.94474435953032, 36.31724505587897], [33.94474435953032, 36.31778404504944], [33.94420537035984, 36.31778404504944], [33.94420537035984, 36.318323034219915], [33.9415104245075, 36.318323034219915], [33.9415104245075, 36.31724505587897], [33.94097143533702, 36.31724505587897], [33.94097143533702, 36.316167077538026], [33.94043244616654, 36.316167077538026], [33.94043244616654, 36.31508909919708], [33.9415104245075, 36.31508909919708], [33.9415104245075, 36.314550110026616], [33.94258840284843, 36.314550110026616], [33.94258840284843, 36.31508909919708], [33.94312739201891, 36.31508909919708], [33.94312739201891, 36.314550110026616], [33.94582233787128, 36.314550110026616], [33.94582233787128, 36.314011120856144], [33.94690031621221, 36.314011120856144], [33.94690031621221, 36.31347213168567], [33.9490562728941, 36.31347213168567], [33.9490562728941, 36.3129331425152], [33.95013425123503, 36.3129331425152], [33.95013425123503, 36.314011120856144], [33.94959526206458, 36.314011120856144], [33.94959526206458, 36.314550110026616], [33.951751218746466, 36.314550110026616], [33.951751218746466, 36.31077718583331], [33.95121222957599, 36.31077718583331], [33.95121222957599, 36.30862122915142], [33.951751218746466, 36.30862122915142], [33.951751218746466, 36.308082239980955], [33.953368186257876, 36.308082239980955], [33.953368186257876, 36.30862122915142], [33.95390717542833, 36.30862122915142], [33.95390717542833, 36.308082239980955]], [[33.953368186257876, 36.30916021832189], [33.953368186257876, 36.31023819666284], [33.95229020791692, 36.31023819666284], [33.95229020791692, 36.309699207492365], [33.9528291970874, 36.309699207492365], [33.9528291970874, 36.30916021832189], [33.953368186257876, 36.30916021832189]], [[33.95444616459881, 36.30862122915142], [33.95444616459881, 36.30916021832189], [33.95390717542833, 36.30916021832189], [33.95390717542833, 36.30862122915142], [33.95444616459881, 36.30862122915142]]]}, "id": "+396954+88483", "properties": {"area_ha": 61.64945269179236, "count": 213, "label": 1, "mean_dnbr": 0.5301946171561086}}, {"type": "Feature", "geometry": {"geodesic": false, "type": "Polygon", "coordinates": [[[33.98139562312241, 36.36683205956237], [33.98355157980427, 36.36683205956237], [33.98355157980427, 36.36737104873284], [33.98301259063382, 36.36737104873284], [33.98301259063382, 36.367910037903314], [33.98139562312241, 36.367910037903314], [33.98139562312241, 36.36844902707379], [33.98031764478145, 36.36844902707379], [33.98031764478145, 36.36737104873284], [33.98139562312241, 36.36737104873284], [33.98139562312241, 36.36683205956237]]]}, "id": "+397008+88374", "properties": {"area_ha": 3.1815811940590244, "count": 11, "label": 1, "mean_dnbr": 0.4961666884583863}}, {"type": "Feature", "geometry": {"geodesic": false, "type": "Polygon", "coordinates": [[[34.003494179111726, 36.36898801624425], [34.004572157452685, 36.36898801624425], [34.004572157452685, 36.37060498375567], [34.005111146623165, 36.37060498375567], [34.005111146623165, 36.37114397292614], [34.002416200770796, 36.37114397292614], [34.002416200770796, 36.3700659945852], [34.002955189941275, 36.3700659945852], [34.002955189941275, 36.369527005414724], [34.003494179111726, 36.369527005414724], [34.003494179111726, 36.36898801624425]]]}, "id": "+397047+88370", "properties": {"area_ha": 4.049161128311887, "count": 14, "label": 1, "mean_dnbr": 0.33739518455507234}}, {"type": "Feature", "geometry": {"geodesic": false, "type": "Polygon", "coordinates": [[[34.011579016668804, 36.34473350357303], [34.012118005839284, 36.34473350357303], [34.012118005839284, 36.34581148191397], [34.01265699500976, 36.34581148191397], [34.01265699500976, 36.34635047108444], [34.013195984180214, 36.34635047108444], [34.013195984180214, 36.346889460254914], [34.01265699500976, 36.346889460254914], [34.01265699500976, 36.34796743859586], [34.01104002749835, 36.34796743859586], [34.01104002749835, 36.346889460254914], [34.011579016668804, 36.346889460254914], [34.011579016668804, 36.34635047108444], [34.012118005839284, 36.34635047108444], [34.012118005839284, 36.34581148191397], [34.011579016668804, 36.34581148191397], [34.011579016668804, 36.34473350357303]]]}, "id": "+397061+88415", "properties": {"area_ha": 3.471749800528943, "count": 12, "label": 1, "mean_dnbr": 0.31606836029807284}}, {"type": "Feature", "geometry": {"geodesic": false, "type": "Polygon", "coordinates": [[[34.01427396252117, 36.35012339527775], [34.01642991920306, 36.35012339527775], [34.01642991920306, 36.35174036278916], [34.01589093003258, 36.35174036278916], [34.01589093003258, 36.35227935195963], [34.01481295169165, 36.35227935195963], [34.01481295169165, 36.35174036278916], [34.015351940862104, 36.35174036278916], [34.015351940862104, 36.351201373618686], [34.01427396252117, 36.351201373618686], [34.01427396252117, 36.35012339527775]]]}, "id": "+397069+88405", "properties": {"area_ha": 3.4715517456171847, "count": 12, "label": 1, "mean_dnbr": 0.2904956621466764}}, {"type": "Feature", "geometry": {"geodesic": false, "type": "Polygon", "coordinates": [[[34.01642991920306, 36.33018079597029], [34.01750789754399, 36.33018079597029], [34.01750789754399, 36.33233675265218], [34.01804688671447, 36.33233675265218], [34.01804688671447, 36.33287574182265], [34.01589093003258, 36.33287574182265], [34.01589093003258, 36.33179776348171], [34.015351940862104, 36.33179776348171], [34.015351940862104, 36.33125877431124], [34.01589093003258, 36.33125877431124], [34.01589093003258, 36.330719785140765], [34.01642991920306, 36.330719785140765], [34.01642991920306, 36.33018079597029]]]}, "id": "+397071+88442", "properties": {"area_ha": 4.629899136067254, "count": 16, "label": 1, "mean_dnbr": 0.268763348880097}}, {"type": "Feature", "geometry": {"geodesic": false, "type": "Polygon", "coordinates": [[[34.02505374593062, 36.32694686094746], [34.02559273510107, 36.32694686094746], [34.02559273510107, 36.32748585011793], [34.02667071344203, 36.32748585011793], [34.02667071344203, 36.3280248392884], [34.02720970261248, 36.3280248392884], [34.02720970261248, 36.328563828458876], [34.02774869178296, 36.328563828458876], [34.02774869178296, 36.32964180679982], [34.02828768095344, 36.32964180679982], [34.02828768095344, 36.330719785140765], [34.02720970261248, 36.330719785140765], [34.02720970261248, 36.33018079597029], [34.02667071344203, 36.33018079597029], [34.02667071344203, 36.32964180679982], [34.02720970261248, 36.32964180679982], [34.02720970261248, 36.328563828458876], [34.02667071344203, 36.328563828458876], [34.02667071344203, 36.3280248392884], [34.02505374593062, 36.3280248392884], [34.02505374593062, 36.32694686094746]]]}, "id": "+397086+88448", "properties": {"area_ha": 3.4725426765022145, "count": 12, "label": 1, "mean_dnbr": 0.31469492048095726}}, {"type": "Feature", "geometry": {"geodesic": false, "type": "Polygon", "coordinates": [[[34.03798948602193, 36.36413711371001], [34.03960645353334, 36.36413711371001], [34.03960645353334, 36.365754081221425], [34.03906746436286, 36.365754081221425], [34.03906746436286, 36.3662930703919], [34.03798948602193, 36.3662930703919], [34.03798948602193, 36.36413711371001]]]}, "id": "+397112+88379", "properties": {"area_ha": 3.181681334070976, "count": 11, "label": 1, "mean_dnbr": 0.3988497385607766}}, {"type": "Feature", "geometry": {"geodesic": false, "type": "Polygon", "coordinates": [[[34.03906746436286, 36.330719785140765], [34.03960645353334, 36.330719785140765], [34.03960645353334, 36.33125877431124], [34.0406844318743, 36.33125877431124], [34.0406844318743, 36.33233675265218], [34.04122342104475, 36.33233675265218], [34.04122342104475, 36.33287574182265], [34.04176241021523, 36.33287574182265], [34.04176241021523, 36.33395372016359], [34.03960645353334, 36.33395372016359], [34.03960645353334, 36.33341473099312], [34.03852847519241, 36.33341473099312], [34.03852847519241, 36.33287574182265], [34.03798948602193, 36.33287574182265], [34.03798948602193, 36.33233675265218], [34.03852847519241, 36.33233675265218], [34.03852847519241, 36.33125877431124], [34.03906746436286, 36.33125877431124], [34.03906746436286, 36.330719785140765]]]}, "id": "+397112+88441", "properties": {"area_ha": 7.23412917804247, "count": 25, "label": 1, "mean_dnbr": 0.39658508358318434}}, {"type": "Feature", "geometry": {"geodesic": false, "type": "Polygon", "coordinates": [[[34.04391836689712, 36.33610967684548], [34.044457356067596, 36.33610967684548], [34.044457356067596, 36.336648666015954], [34.04553533440853, 36.336648666015954], [34.04553533440853, 36.337187655186426], [34.046074323579006, 36.337187655186426], [34.046074323579006, 36.3377266443569], [34.04499634523805, 36.3377266443569], [34.04499634523805, 36.337187655186426], [34.044457356067596, 36.337187655186426], [34.044457356067596, 36.3377266443569], [34.04391836689712, 36.3377266443569], [34.04391836689712, 36.33826563352737], [34.04499634523805, 36.33826563352737], [34.04499634523805, 36.338804622697836], [34.04553533440853, 36.338804622697836], [34.04553533440853, 36.33934361186831], [34.046074323579006, 36.33934361186831], [34.046074323579006, 36.34042159020925], [34.04499634523805, 36.34042159020925], [34.04499634523805, 36.33988260103878], [34.044457356067596, 36.33988260103878], [34.044457356067596, 36.34042159020925], [34.04230139938571, 36.34042159020925], [34.04230139938571, 36.338804622697836], [34.042840388556186, 36.338804622697836], [34.042840388556186, 36.33826563352737], [34.04337937772664, 36.33826563352737], [34.04337937772664, 36.337187655186426], [34.04391836689712, 36.337187655186426], [34.04391836689712, 36.33610967684548]]]}, "id": "+397121+88431", "properties": {"area_ha": 9.258944188895061, "count": 32, "label": 1, "mean_dnbr": 0.4109149807347246}}, {"type": "Feature", "geometry": {"geodesic": false, "type": "Polygon", "coordinates": [[[34.047691291090416, 36.365754081221425], [34.048230280260896, 36.365754081221425], [34.048230280260896, 36.36683205956237], [34.048769269431375, 36.36683205956237], [34.048769269431375, 36.36898801624425], [34.047691291090416, 36.36898801624425], [34.047691291090416, 36.367910037903314], [34.048230280260896, 36.367910037903314], [34.048230280260896, 36.36737104873284], [34.046613312749486, 36.36737104873284], [34.046613312749486, 36.36683205956237], [34.047691291090416, 36.36683205956237], [34.047691291090416, 36.365754081221425]]]}, "id": "+397128+88376", "properties": {"area_ha": 3.1815897098402104, "count": 11, "label": 1, "mean_dnbr": 0.5149711519693144}}, {"type": "Feature", "geometry": {"geodesic": false, "type": "Polygon", "coordinates": [[[34.054159161136084, 36.359825200346236], [34.056315117817974, 36.359825200346236], [34.056315117817974, 36.36036418951671], [34.055776128647494, 36.36036418951671], [34.055776128647494, 36.36090317868718], [34.056315117817974, 36.36090317868718], [34.056315117817974, 36.36144216785765], [34.055776128647494, 36.36144216785765], [34.055776128647494, 36.361981157028126], [34.055237139477015, 36.361981157028126], [34.055237139477015, 36.36305913536906], [34.055776128647494, 36.36305913536906], [34.055776128647494, 36.363598124539536], [34.055237139477015, 36.363598124539536], [34.055237139477015, 36.36413711371001], [34.054698150306564, 36.36413711371001], [34.054698150306564, 36.36467610288048], [34.053620171965605, 36.36467610288048], [34.053620171965605, 36.36413711371001], [34.052542193624674, 36.36413711371001], [34.052542193624674, 36.363598124539536], [34.053620171965605, 36.363598124539536], [34.053620171965605, 36.36090317868718], [34.054159161136084, 36.36090317868718], [34.054159161136084, 36.359825200346236]]]}, "id": "+397143+88387", "properties": {"area_ha": 9.545408625629232, "count": 33, "label": 1, "mean_dnbr": 0.37104400031457724}}, {"type": "Feature", "geometry": {"geodesic": false, "type": "Polygon", "coordinates": [[[34.059010063670314, 36.35766924366435], [34.059549052840794, 36.35766924366435], [34.059549052840794, 36.35874722200529], [34.059010063670314, 36.35874722200529], [34.059010063670314, 36.359825200346236], [34.06008804201127, 36.359825200346236], [34.06008804201127, 36.36144216785765], [34.059549052840794, 36.36144216785765], [34.059549052840794, 36.36305913536906], [34.059010063670314, 36.36305913536906], [34.059010063670314, 36.3625201461986], [34.05847107449986, 36.3625201461986], [34.05847107449986, 36.36090317868718], [34.059010063670314, 36.36090317868718], [34.059010063670314, 36.359825200346236], [34.057932085329384, 36.359825200346236], [34.057932085329384, 36.35874722200529], [34.059010063670314, 36.35874722200529], [34.059010063670314, 36.35766924366435]]]}, "id": "+397149+88391", "properties": {"area_ha": 5.2066997917438504, "count": 18, "label": 1, "mean_dnbr": 0.34522291761558105}}, {"type": "Feature", "geometry": {"geodesic": false, "type": "Polygon", "coordinates": [[[34.0611660203522, 36.33233675265218], [34.06278298786361, 36.33233675265218], [34.06278298786361, 36.33287574182265], [34.06224399869316, 36.33287574182265], [34.06224399869316, 36.33341473099312], [34.06278298786361, 36.33341473099312], [34.06278298786361, 36.334492709334064], [34.06386096620457, 36.334492709334064], [34.06386096620457, 36.336648666015954], [34.06170500952268, 36.336648666015954], [34.06170500952268, 36.33826563352737], [34.0611660203522, 36.33826563352737], [34.0611660203522, 36.338804622697836], [34.06170500952268, 36.338804622697836], [34.06170500952268, 36.3414995685502], [34.06224399869316, 36.3414995685502], [34.06224399869316, 36.34203855772067], [34.0611660203522, 36.34203855772067], [34.0611660203522, 36.3414995685502], [34.06062703118175, 36.3414995685502], [34.06062703118175, 36.340960579379725], [34.06008804201127, 36.340960579379725], [34.06008804201127, 36.34042159020925], [34.059549052840794, 36.34042159020925], [34.059549052840794, 36.340960579379725], [34.05847107449986, 36.340960579379725], [34.05847107449986, 36.34042159020925], [34.057393096158904, 36.34042159020925], [34.057393096158904, 36.33934361186831], [34.05847107449986, 36.33934361186831], [34.05847107449986, 36.338804622697836], [34.059010063670314, 36.338804622697836], [34.059010063670314, 36.33826563352737], [34.057932085329384, 36.33826563352737], [34.057932085329384, 36.3377266443569], [34.05847107449986, 36.3377266443569], [34.05847107449986, 36.337187655186426], [34.06008804201127, 36.337187655186426], [34.06008804201127, 36.336648666015954], [34.06170500952268, 36.336648666015954], [34.06170500952268, 36.33610967684548], [34.06224399869316, 36.33610967684548], [34.06224399869316, 36.33557068767501], [34.06332197703409, 36.33557068767501], [34.06332197703409, 36.33503169850454], [34.06278298786361, 36.33503169850454], [34.06278298786361, 36.334492709334064], [34.06224399869316, 36.334492709334064], [34.06224399869316, 36.33395372016359], [34.06170500952268, 36.33395372016359], [34.06170500952268, 36.33341473099312], [34.0611660203522, 36.33341473099312], [34.0611660203522, 36.33233675265218]], [[34.0611660203522, 36.337187655186426], [34.0611660203522, 36.3377266443569], [34.06062703118175, 36.3377266443569], [34.06062703118175, 36.33826563352737], [34.059010063670314, 36.33826563352737], [34.059010063670314, 36.3377266443569], [34.06008804201127, 36.3377266443569], [34.06008804201127, 36.337187655186426], [34.0611660203522, 36.337187655186426]]]}, "id": "+397155+88438", "properties": {"area_ha": 18.518063635650606, "count": 64, "label": 1, "mean_dnbr": 0.3208242475253561}}, {"type": "Feature", "geometry": {"geodesic": false, "type": "Polygon", "coordinates": [[[34.06601692288646, 36.33610967684548], [34.06655591205694, 36.33610967684548], [34.06655591205694, 36.336648666015954], [34.06763389039787, 36.336648666015954], [34.06763389039787, 36.337187655186426], [34.06817287956835, 36.337187655186426], [34.06817287956835, 36.33826563352737], [34.0687118687388, 36.33826563352737], [34.0687118687388, 36.338804622697836], [34.06925085790928, 36.338804622697836], [34.06925085790928, 36.33934361186831], [34.06817287956835, 36.33934361186831], [34.06817287956835, 36.338804622697836], [34.06709490122739, 36.338804622697836], [34.06709490122739, 36.3377266443569], [34.06655591205694, 36.3377266443569], [34.06655591205694, 36.337187655186426], [34.06601692288646, 36.337187655186426], [34.06601692288646, 36.33610967684548]]]}, "id": "+397162+88431", "properties": {"area_ha": 4.0508379486553725, "count": 14, "label": 1, "mean_dnbr": 0.31322126714605236}}, {"type": "Feature", "geometry": {"geodesic": false, "type": "Polygon", "coordinates": [[[34.06601692288646, 36.355513286982465], [34.06763389039787, 36.355513286982465], [34.06763389039787, 36.35605227615294], [34.0687118687388, 36.35605227615294], [34.0687118687388, 36.35659126532341], [34.06817287956835, 36.35659126532341], [34.06817287956835, 36.35766924366435], [34.06709490122739, 36.35766924366435], [34.06709490122739, 36.35820823283482], [34.06655591205694, 36.35820823283482], [34.06655591205694, 36.35766924366435], [34.06547793371598, 36.35766924366435], [34.06547793371598, 36.35820823283482], [34.06601692288646, 36.35820823283482], [34.06601692288646, 36.35874722200529], [34.06547793371598, 36.35874722200529], [34.06547793371598, 36.35820823283482], [34.0649389445455, 36.35820823283482], [34.0649389445455, 36.35766924366435], [34.06547793371598, 36.35766924366435], [34.06547793371598, 36.35659126532341], [34.06601692288646, 36.35659126532341], [34.06601692288646, 36.355513286982465]]]}, "id": "+397164+88395", "properties": {"area_ha": 6.074765019922528, "count": 21, "label": 1, "mean_dnbr": 0.41883525895482365}}, {"type": "Feature", "geometry": {"geodesic": false, "type": "Polygon", "coordinates": [[[34.06709490122739, 36.39539848559737], [34.0687118687388, 36.39539848559737], [34.0687118687388, 36.39593747476784], [34.07032883625024, 36.39593747476784], [34.07032883625024, 36.39647646393831], [34.07086782542069, 36.39647646393831], [34.07086782542069, 36.397015453108786], [34.07032883625024, 36.397015453108786], [34.07032883625024, 36.39755444227926], [34.06709490122739, 36.39755444227926], [34.06709490122739, 36.39539848559737]]]}, "id": "+397166+88321", "properties": {"area_ha": 6.360810639202876, "count": 22, "label": 1, "mean_dnbr": 0.4035244247131453}}, {"type": "Feature", "geometry": {"geodesic": false, "type": "Polygon", "coordinates": [[[34.06547793371598, 36.349045416936804], [34.0687118687388, 36.349045416936804], [34.0687118687388, 36.35012339527775], [34.06817287956835, 36.35012339527775], [34.06817287956835, 36.35066238444822], [34.06763389039787, 36.35066238444822], [34.06763389039787, 36.35012339527775], [34.06601692288646, 36.35012339527775], [34.06601692288646, 36.349584406107276], [34.06547793371598, 36.349584406107276], [34.06547793371598, 36.349045416936804]]]}, "id": "+397166+88407", "properties": {"area_ha": 3.471598892028492, "count": 12, "label": 1, "mean_dnbr": 0.3884245425114699}}]}