{"type": "FeatureCollection", "columns": {"area_ha": "Number", "count": "Long<0, 4294967295>", "label": "Byte<0, 1>", "mean_dnbr": "Object", "system:index": "String"}, "features": [{"type": "Feature", "geometry": {"geodesic": false, "type": "Polygon", "coordinates": [[[33.032235693921706, 36.15393133722604], [33.033313672262665, 36.15393133722604], [33.033313672262665, 36.15447032639651], [33.033852661433116, 36.15447032639651], [33.033852661433116, 36.155009315566986], [33.035469628944554, 36.155009315566986], [33.035469628944554, 36.15554830473746], [33.036008618115005, 36.15554830473746], [33.036008618115005, 36.15608729390793], [33.031157715580775, 36.15608729390793], [33.031157715580775, 36.155009315566986], [33.032235693921706, 36.155009315566986], [33.032235693921706, 36.15393133722604]]]}, "id": "+395245+88769", "properties": {"area_ha": 6.3805559866614425, "count": 22, "label": 1, "mean_dnbr": 0.23424649674373438}}, {"type": "Feature", "geometry": {"geodesic": false, "type": "Polygon", "coordinates": [[[33.036008618115005, 36.15824325058981], [33.037086596455964, 36.15824325058981], [33.037086596455964, 36.158782239760285], [33.037625585626415, 36.158782239760285], [33.037625585626415, 36.15932122893076], [33.03924255313785, 36.15932122893076], [33.03924255313785, 36.15986021810123], [33.038703563967374, 36.15986021810123], [33.038703563967374, 36.160938196442174], [33.037086596455964, 36.160938196442174], [33.037086596455964, 36.1603992072717], [33.034930639774075, 36.1603992072717], [33.034930639774075, 36.15986021810123], [33.035469628944554, 36.15986021810123], [33.035469628944554, 36.158782239760285], [33.036008618115005, 36.158782239760285], [33.036008618115005, 36.15824325058981]]]}, "id": "+395252+88761", "properties": {"area_ha": 6.670137031870903, "count": 23, "label": 1, "mean_dnbr": 0.22638146246712817}}, {"type": "Feature", "geometry": {"geodesic": false, "type": "Polygon", "coordinates": [[[33.04571042318349, 36.1205140086568], [33.04678840152445, 36.1205140086568], [33.04678840152445, 36.12213097616821], [33.04624941235397, 36.12213097616821], [33.04624941235397, 36.12266996533868], [33.04571042318349, 36.12266996533868], [33.04571042318349, 36.12320895450915], [33.043554466501604, 36.12320895450915], [33.043554466501604, 36.12213097616821], [33.04409345567208, 36.12213097616821], [33.04409345567208, 36.12159198699774], [33.04463244484256, 36.12159198699774], [33.04463244484256, 36.12105299782727], [33.04571042318349, 36.12105299782727], [33.04571042318349, 36.1205140086568]]]}, "id": "+395270+88831", "properties": {"area_ha": 5.802907949968106, "count": 20, "label": 1, "mean_dnbr": 0.25068103823520244}}, {"type": "Feature", "geometry": {"geodesic": false, "type": "Polygon", "coordinates": [[[33.04840536903586, 36.12320895450915], [33.04948334737679, 36.12320895450915], [33.04948334737679, 36.1242869328501], [33.05002233654727, 36.1242869328501], [33.05002233654727, 36.123747943679625], [33.05056132571775, 36.123747943679625], [33.05056132571775, 36.12536491119104], [33.05110031488823, 36.12536491119104], [33.05110031488823, 36.125903900361514], [33.05056132571775, 36.125903900361514], [33.05056132571775, 36.12536491119104], [33.04948334737679, 36.12536491119104], [33.04948334737679, 36.12482592202057], [33.04840536903586, 36.12482592202057], [33.04840536903586, 36.12320895450915]]]}, "id": "+395275+88826", "properties": {"area_ha": 3.4816347325040513, "count": 12, "label": 1, "mean_dnbr": 0.1973611389985829}}, {"type": "Feature", "geometry": {"geodesic": false, "type": "Polygon", "coordinates": [[[33.04894435820634, 36.157165272248875], [33.05056132571775, 36.157165272248875], [33.05056132571775, 36.15770426141935], [33.04948334737679, 36.15770426141935], [33.04948334737679, 36.15824325058981], [33.04894435820634, 36.15824325058981], [33.04894435820634, 36.15932122893076], [33.04948334737679, 36.15932122893076], [33.04948334737679, 36.16147718561265], [33.05002233654727, 36.16147718561265], [33.05002233654727, 36.16201617478312], [33.04948334737679, 36.16201617478312], [33.04948334737679, 36.163094153124064], [33.04894435820634, 36.163094153124064], [33.04894435820634, 36.163633142294536], [33.04840536903586, 36.163633142294536], [33.04840536903586, 36.163094153124064], [33.04786637986538, 36.163094153124064], [33.04786637986538, 36.16255516395359], [33.04624941235397, 36.16255516395359], [33.04624941235397, 36.1603992072717], [33.04571042318349, 36.1603992072717], [33.04571042318349, 36.15986021810123], [33.04517143401304, 36.15986021810123], [33.04517143401304, 36.15932122893076], [33.04624941235397, 36.15932122893076], [33.04624941235397, 36.15824325058981], [33.04678840152445, 36.15824325058981], [33.04678840152445, 36.158782239760285], [33.04786637986538, 36.158782239760285], [33.04786637986538, 36.15824325058981], [33.04894435820634, 36.15824325058981], [33.04894435820634, 36.157165272248875]], [[33.04678840152445, 36.15932122893076], [33.04678840152445, 36.15986021810123], [33.04624941235397, 36.15986021810123], [33.04624941235397, 36.15932122893076], [33.04678840152445, 36.15932122893076]]]}, "id": "+395277+88763", "properties": {"area_ha": 15.950148820792025, "count": 55, "label": 1, "mean_dnbr": 0.28187203059090954}}, {"type": "Feature", "geometry": {"geodesic": false, "type": "Polygon", "coordinates": [[[33.05056132571775, 36.11566310612255], [33.05110031488823, 36.11566310612255], [33.05110031488823, 36.11674108446349], [33.05163930405868, 36.11674108446349], [33.05163930405868, 36.11835805197491], [33.05110031488823, 36.11835805197491], [33.05110031488823, 36.117819062804436], [33.05056132571775, 36.117819062804436], [33.05056132571775, 36.11943603031585], [33.04948334737679, 36.11943603031585], [33.04948334737679, 36.11674108446349], [33.05002233654727, 36.11674108446349], [33.05002233654727, 36.11620209529302], [33.05056132571775, 36.11620209529302], [33.05056132571775, 36.11566310612255]]]}, "id": "+395278+88840", "properties": {"area_ha": 5.222904930038558, "count": 18, "label": 1, "mean_dnbr": 0.2178842647416729}}, {"type": "Feature", "geometry": {"geodesic": false, "type": "Polygon", "coordinates": [[[33.05056132571775, 36.155009315566986], [33.05163930405868, 36.155009315566986], [33.05163930405868, 36.15554830473746], [33.05217829322916, 36.15554830473746], [33.05217829322916, 36.15608729390793], [33.05271728239964, 36.15608729390793], [33.05271728239964, 36.157165272248875], [33.05217829322916, 36.157165272248875], [33.05217829322916, 36.15770426141935], [33.05163930405868, 36.15770426141935], [33.05163930405868, 36.15824325058981], [33.05110031488823, 36.15824325058981], [33.05110031488823, 36.157165272248875], [33.05163930405868, 36.157165272248875], [33.05163930405868, 36.15554830473746], [33.05110031488823, 36.15554830473746], [33.05110031488823, 36.1566262830784], [33.05002233654727, 36.1566262830784], [33.05002233654727, 36.15608729390793], [33.05056132571775, 36.15608729390793], [33.05056132571775, 36.155009315566986]]]}, "id": "+395279+88767", "properties": {"area_ha": 3.770229306058181, "count": 13, "label": 1, "mean_dnbr": 0.19642894230246918}}, {"type": "Feature", "geometry": {"geodesic": false, "type": "Polygon", "coordinates": [[[33.05217829322916, 36.15932122893076], [33.05379526074057, 36.15932122893076], [33.05379526074057, 36.1603992072717], [33.05433424991105, 36.1603992072717], [33.05433424991105, 36.160938196442174], [33.05325627157012, 36.160938196442174], [33.05325627157012, 36.1603992072717], [33.05271728239964, 36.1603992072717], [33.05271728239964, 36.160938196442174], [33.05217829322916, 36.160938196442174], [33.05217829322916, 36.1603992072717], [33.05002233654727, 36.1603992072717], [33.05002233654727, 36.15986021810123], [33.05110031488823, 36.15986021810123], [33.05110031488823, 36.15932122893076], [33.05163930405868, 36.15932122893076], [33.05163930405868, 36.15986021810123], [33.05217829322916, 36.15986021810123], [33.05217829322916, 36.15932122893076]]]}, "id": "+395283+88759", "properties": {"area_ha": 4.060063899058004, "count": 14, "label": 1, "mean_dnbr": 0.1990526195347139}}, {"type": "Feature", "geometry": {"geodesic": false, "type": "Polygon", "coordinates": [[[33.05379526074057, 36.13291075957765], [33.05487323908153, 36.13291075957765], [33.05487323908153, 36.13344974874812], [33.05595121742246, 36.13344974874812], [33.05595121742246, 36.133988737918585], [33.05541222825198, 36.133988737918585], [33.05541222825198, 36.13452772708906], [33.05433424991105, 36.13452772708906], [33.05433424991105, 36.13506671625953], [33.05271728239964, 36.13506671625953], [33.05271728239964, 36.133988737918585], [33.05379526074057, 36.133988737918585], [33.05379526074057, 36.13291075957765]]]}, "id": "+395285+88808", "properties": {"area_ha": 4.061408661161856, "count": 14, "label": 1, "mean_dnbr": 0.2162158501735789}}, {"type": "Feature", "geometry": {"geodesic": false, "type": "Polygon", "coordinates": [[[33.06349706580906, 36.14961942386227], [33.06403605497954, 36.14961942386227], [33.06403605497954, 36.150697402203214], [33.06349706580906, 36.150697402203214], [33.06349706580906, 36.15177538054416], [33.06295807663861, 36.15177538054416], [33.06295807663861, 36.152314369714624], [33.06241908746813, 36.152314369714624], [33.06241908746813, 36.152853358885096], [33.06349706580906, 36.152853358885096], [33.06349706580906, 36.15339234805557], [33.06403605497954, 36.15339234805557], [33.06403605497954, 36.15393133722604], [33.06295807663861, 36.15393133722604], [33.06295807663861, 36.15447032639651], [33.06188009829765, 36.15447032639651], [33.06188009829765, 36.15339234805557], [33.06241908746813, 36.15339234805557], [33.06241908746813, 36.152853358885096], [33.06134110912717, 36.152853358885096], [33.06134110912717, 36.15339234805557], [33.06080211995672, 36.15339234805557], [33.06080211995672, 36.15393133722604], [33.06026313078624, 36.15393133722604], [33.06026313078624, 36.15339234805557], [33.05972414161576, 36.15339234805557], [33.05972414161576, 36.152853358885096], [33.05918515244531, 36.152853358885096], [33.05918515244531, 36.15177538054416], [33.06080211995672, 36.15177538054416], [33.06080211995672, 36.150697402203214], [33.06295807663861, 36.150697402203214], [33.06295807663861, 36.15015841303274], [33.06349706580906, 36.15015841303274], [33.06349706580906, 36.14961942386227]]]}, "id": "+395302+88777", "properties": {"area_ha": 11.02125807231539, "count": 38, "label": 1, "mean_dnbr": 0.22401210600748692}}, {"type": "Feature", "geometry": {"geodesic": false, "type": "Polygon", "coordinates": [[[33.11901295036765, 36.17602989321538], [33.120090928708606, 36.17602989321538], [33.120090928708606, 36.17656888238585], [33.122246885390496, 36.17656888238585], [33.122246885390496, 36.177646860726796], [33.121707896220016, 36.177646860726796], [33.121707896220016, 36.17872483906774], [33.120629917879086, 36.17872483906774], [33.120629917879086, 36.17818584989727], [33.120090928708606, 36.17818584989727], [33.120090928708606, 36.177646860726796], [33.11955193953813, 36.177646860726796], [33.11955193953813, 36.17710787155632], [33.118473961197196, 36.17710787155632], [33.118473961197196, 36.17656888238585], [33.11901295036765, 36.17656888238585], [33.11901295036765, 36.17602989321538]]]}, "id": "+395406+88728", "properties": {"area_ha": 5.508868397475716, "count": 19, "label": 1, "mean_dnbr": 0.2268789049372256}}, {"type": "Feature", "geometry": {"geodesic": false, "type": "Polygon", "coordinates": [[[33.15943713815304, 36.18950462247717], [33.16051511649397, 36.18950462247717], [33.16051511649397, 36.190043611647646], [33.16105410566445, 36.190043611647646], [33.16105410566445, 36.19058260081812], [33.16213208400541, 36.19058260081812], [33.16213208400541, 36.19112158998859], [33.16321006234634, 36.19112158998859], [33.16321006234634, 36.19166057915906], [33.16374905151682, 36.19166057915906], [33.16374905151682, 36.19273855750001], [33.16321006234634, 36.19273855750001], [33.16321006234634, 36.192199568329535], [33.16267107317586, 36.192199568329535], [33.16267107317586, 36.19166057915906], [33.16105410566445, 36.19166057915906], [33.16105410566445, 36.192199568329535], [33.15997612732352, 36.192199568329535], [33.15997612732352, 36.19166057915906], [33.15943713815304, 36.19166057915906], [33.15943713815304, 36.18950462247717]], [[33.16105410566445, 36.19058260081812], [33.16105410566445, 36.19166057915906], [33.16051511649397, 36.19166057915906], [33.16051511649397, 36.19112158998859], [33.15997612732352, 36.19112158998859], [33.15997612732352, 36.19058260081812], [33.16105410566445, 36.19058260081812]]]}, "id": "+395481+88703", "properties": {"area_ha": 5.507900669321508, "count": 19, "label": 1, "mean_dnbr": 0.23995707904631297}}, {"type": "Feature", "geometry": {"geodesic": false, "type": "Polygon", "coordinates": [[[33.169138943221526, 36.24717646371765], [33.170755910732936, 36.24717646371765], [33.170755910732936, 36.248254442058595], [33.17021692156246, 36.248254442058595], [33.17021692156246, 36.24879343122906], [33.169677932392005, 36.24879343122906], [33.169677932392005, 36.24933242039953], [33.168060964880596, 36.24933242039953], [33.168060964880596, 36.24771545288812], [33.169138943221526, 36.24771545288812], [33.169138943221526, 36.24717646371765]]]}, "id": "+395500+88596", "properties": {"area_ha": 4.34516765991962, "count": 15, "label": 1, "mean_dnbr": 0.2075332534090462}}, {"type": "Feature", "geometry": {"geodesic": false, "type": "Polygon", "coordinates": [[[33.217647968563966, 36.192199568329535], [33.219264936075405, 36.192199568329535], [33.219264936075405, 36.19273855750001], [33.219803925245856, 36.19273855750001], [33.219803925245856, 36.19327754667048], [33.220342914416335, 36.19327754667048], [33.220342914416335, 36.19381653584095], [33.220881903586815, 36.19381653584095], [33.220881903586815, 36.19489451418189], [33.219803925245856, 36.19489451418189], [33.219803925245856, 36.19435552501142], [33.219264936075405, 36.19435552501142], [33.219264936075405, 36.19381653584095], [33.218725946904925, 36.19381653584095], [33.218725946904925, 36.19327754667048], [33.218186957734446, 36.19327754667048], [33.218186957734446, 36.19381653584095], [33.217108979393515, 36.19381653584095], [33.217108979393515, 36.19327754667048], [33.217647968563966, 36.19327754667048], [33.217647968563966, 36.192199568329535]]]}, "id": "+395590+88698", "properties": {"area_ha": 4.927972861582552, "count": 17, "label": 1, "mean_dnbr": 0.18966565580501968}}, {"type": "Feature", "geometry": {"geodesic": false, "type": "Polygon", "coordinates": [[[33.37395482800079, 36.22561689689878], [33.37449381717124, 36.22561689689878], [33.37449381717124, 36.22615588606925], [33.37503280634172, 36.22615588606925], [33.37503280634172, 36.229389821092084], [33.37449381717124, 36.229389821092084], [33.37449381717124, 36.22885083192161], [33.37395482800079, 36.22885083192161], [33.37395482800079, 36.22777285358067], [33.37449381717124, 36.22777285358067], [33.37449381717124, 36.227233864410195], [33.37341583883031, 36.227233864410195], [33.37341583883031, 36.22669487523972], [33.37449381717124, 36.22669487523972], [33.37449381717124, 36.22615588606925], [33.37395482800079, 36.22615588606925], [33.37395482800079, 36.22561689689878]]]}, "id": "+395878+88636", "properties": {"area_ha": 3.1872999547803036, "count": 11, "label": 1, "mean_dnbr": 0.18397797499621232}}, {"type": "Feature", "geometry": {"geodesic": false, "type": "Polygon", "coordinates": [[[33.38203966555784, 36.601292348717564], [33.38257865472832, 36.601292348717564], [33.38257865472832, 36.601831337888036], [33.38365663306928, 36.601831337888036], [33.38365663306928, 36.60290931622898], [33.3831176438988, 36.60290931622898], [33.3831176438988, 36.60344830539945], [33.38203966555784, 36.60344830539945], [33.38203966555784, 36.60290931622898], [33.38150067638739, 36.60290931622898], [33.38150067638739, 36.60237032705851], [33.38096168721691, 36.60237032705851], [33.38096168721691, 36.601831337888036], [33.38203966555784, 36.601831337888036], [33.38203966555784, 36.601292348717564]]]}, "id": "+395893+87939", "properties": {"area_ha": 3.460313030005446, "count": 12, "label": 1, "mean_dnbr": 0.2499640205313478}}, {"type": "Feature", "geometry": {"geodesic": false, "type": "Polygon", "coordinates": [[[33.39497540564918, 36.86647502058965], [33.395514394819656, 36.86647502058965], [33.395514394819656, 36.868091988101064], [33.39605338399011, 36.868091988101064], [33.39605338399011, 36.868630977271536], [33.39659237316059, 36.868630977271536], [33.39659237316059, 36.869708955612474], [33.3944364164787, 36.869708955612474], [33.3944364164787, 36.86916996644201], [33.39497540564918, 36.86916996644201], [33.39497540564918, 36.86647502058965]]]}, "id": "+395917+87447", "properties": {"area_ha": 3.448343407679355, "count": 12, "label": 1, "mean_dnbr": 0.3442682958578591}}, {"type": "Feature", "geometry": {"geodesic": false, "type": "Polygon", "coordinates": [[[33.397670351501546, 36.99906635652569], [33.398748329842476, 36.99906635652569], [33.398748329842476, 36.99960534569616], [33.400904286524366, 36.99960534569616], [33.400904286524366, 37.000683324037105], [33.398748329842476, 37.000683324037105], [33.398748329842476, 37.00014433486663], [33.397670351501546, 37.00014433486663], [33.397670351501546, 36.99906635652569]]]}, "id": "+395923+87201", "properties": {"area_ha": 3.4423978931648156, "count": 12, "label": 1, "mean_dnbr": 0.19524594205628484}}, {"type": "Feature", "geometry": {"geodesic": false, "type": "Polygon", "coordinates": [[[33.397131362331066, 36.8653970422487], [33.399287319012956, 36.8653970422487], [33.399287319012956, 36.86647502058965], [33.39982630818341, 36.86647502058965], [33.39982630818341, 36.86755299893059], [33.397131362331066, 36.86755299893059], [33.397131362331066, 36.86701400976012], [33.39659237316059, 36.86701400976012], [33.39659237316059, 36.86647502058965], [33.397131362331066, 36.86647502058965], [33.397131362331066, 36.8653970422487]], [[33.399287319012956, 36.86647502058965], [33.399287319012956, 36.86701400976012], [33.398209340672, 36.86701400976012], [33.398209340672, 36.86647502058965], [33.399287319012956, 36.86647502058965]]]}, "id": "+395924+87449", "properties": {"area_ha": 4.885282400776403, "count": 17, "label": 1, "mean_dnbr": 0.25545417211759297}}, {"type": "Feature", "geometry": {"geodesic": false, "type": "Polygon", "coordinates": [[[33.50385121808446, 36.85246130215738], [33.504929196425394, 36.85246130215738], [33.504929196425394, 36.85300029132785], [33.50708515310728, 36.85300029132785], [33.50708515310728, 36.853539280498325], [33.50762414227776, 36.853539280498325], [33.50762414227776, 36.85300029132785], [33.50816313144824, 36.85300029132785], [33.50816313144824, 36.85461725883927], [33.50654616393683, 36.85461725883927], [33.50654616393683, 36.8540782696688], [33.50600717476635, 36.8540782696688], [33.50600717476635, 36.853539280498325], [33.50385121808446, 36.853539280498325], [33.50385121808446, 36.85246130215738]]]}, "id": "+396120+87473", "properties": {"area_ha": 4.598689892976793, "count": 16, "label": 1, "mean_dnbr": 0.2295908902631733}}, {"type": "Feature", "geometry": {"geodesic": false, "type": "Polygon", "coordinates": [[[33.51355302315295, 36.198128449204724], [33.51409201232343, 36.198128449204724], [33.51409201232343, 36.198667438375196], [33.51463100149388, 36.198667438375196], [33.51463100149388, 36.19920642754567], [33.51570897983484, 36.19920642754567], [33.51570897983484, 36.198667438375196], [33.51786493651673, 36.198667438375196], [33.51786493651673, 36.19920642754567], [33.51678695817577, 36.19920642754567], [33.51678695817577, 36.19974541671614], [33.51624796900532, 36.19974541671614], [33.51624796900532, 36.19920642754567], [33.51570897983484, 36.19920642754567], [33.51570897983484, 36.200284405886606], [33.51516999066436, 36.200284405886606], [33.51516999066436, 36.20082339505708], [33.51409201232343, 36.20082339505708], [33.51409201232343, 36.19920642754567], [33.51355302315295, 36.19920642754567], [33.51355302315295, 36.198128449204724]]]}, "id": "+396137+88687", "properties": {"area_ha": 4.637732635392843, "count": 16, "label": 1, "mean_dnbr": 0.2192416571039224}}, {"type": "Feature", "geometry": {"geodesic": false, "type": "Polygon", "coordinates": [[[33.53080067660804, 36.80880317934918], [33.53133966577852, 36.80880317934918], [33.53133966577852, 36.80934216851964], [33.531878654949, 36.80934216851964], [33.531878654949, 36.81042014686059], [33.52918370909663, 36.81042014686059], [33.52918370909663, 36.809881157690114], [33.5281057307557, 36.809881157690114], [33.5281057307557, 36.80934216851964], [33.53080067660804, 36.80934216851964], [33.53080067660804, 36.80880317934918]]]}, "id": "+396169+87554", "properties": {"area_ha": 3.7385726225400213, "count": 13, "label": 1, "mean_dnbr": 0.33184440829560047}}, {"type": "Feature", "geometry": {"geodesic": false, "type": "Polygon", "coordinates": [[[33.55128226508597, 36.841142529577475], [33.550743275915494, 36.841142529577475], [33.550743275915494, 36.840603540407], [33.55128226508597, 36.840603540407], [33.55128226508597, 36.83952556206606], [33.549126308404084, 36.83952556206606], [33.549126308404084, 36.837369605384175], [33.550743275915494, 36.837369605384175], [33.550743275915494, 36.83790859455465], [33.550204286745014, 36.83790859455465], [33.550204286745014, 36.83844758372512], [33.55128226508597, 36.83844758372512], [33.55128226508597, 36.83898657289559], [33.55182125425645, 36.83898657289559], [33.55182125425645, 36.83952556206606], [33.552360243426904, 36.83952556206606], [33.552360243426904, 36.840603540407], [33.55128226508597, 36.840603540407], [33.55128226508597, 36.841142529577475]]]}, "id": "+396205+87501", "properties": {"area_ha": 5.4619823080575856, "count": 19, "label": 1, "mean_dnbr": 0.3503626002471663}}, {"type": "Feature", "geometry": {"geodesic": false, "type": "Polygon", "coordinates": [[[33.5561331676202, 36.29299054320774], [33.55721114596116, 36.29299054320774], [33.55721114596116, 36.293529532378216], [33.55775013513164, 36.293529532378216], [33.55775013513164, 36.29460751071916], [33.55721114596116, 36.29460751071916], [33.55721114596116, 36.29514649988963], [33.55667215679068, 36.29514649988963], [33.55667215679068, 36.29622447823058], [33.55505518927927, 36.29622447823058], [33.55505518927927, 36.29406852154869], [33.5561331676202, 36.29406852154869], [33.5561331676202, 36.29299054320774]]]}, "id": "+396217+88511", "properties": {"area_ha": 5.790115337770807, "count": 20, "label": 1, "mean_dnbr": 0.26919336772449687}}, {"type": "Feature", "geometry": {"geodesic": false, "type": "Polygon", "coordinates": [[[33.6057201713036, 36.22777285358067], [33.60733713881504, 36.22777285358067], [33.60733713881504, 36.22831184275114], [33.60679814964456, 36.22831184275114], [33.60679814964456, 36.22885083192161], [33.60733713881504, 36.22885083192161], [33.60733713881504, 36.229389821092084], [33.60679814964456, 36.229389821092084], [33.60679814964456, 36.22992881026256], [33.60625916047408, 36.22992881026256], [33.60625916047408, 36.231006788603494], [33.6057201713036, 36.231006788603494], [33.6057201713036, 36.22992881026256], [33.60625916047408, 36.22992881026256], [33.60625916047408, 36.229389821092084], [33.6057201713036, 36.229389821092084], [33.6057201713036, 36.22777285358067]]]}, "id": "+396310+88632", "properties": {"area_ha": 3.1872374459102426, "count": 11, "label": 1, "mean_dnbr": 0.20708206169369067}}, {"type": "Feature", "geometry": {"geodesic": false, "type": "Polygon", "coordinates": [[[33.7469353339672, 36.322095958413215], [33.74855230147861, 36.322095958413215], [33.74855230147861, 36.32263494758369], [33.74747432313768, 36.32263494758369], [33.74747432313768, 36.32317393675416], [33.74963027981957, 36.32317393675416], [33.74963027981957, 36.324251915095104], [33.7469353339672, 36.324251915095104], [33.7469353339672, 36.32532989343605], [33.74477937728531, 36.32532989343605], [33.74477937728531, 36.32317393675416], [33.7469353339672, 36.32317393675416], [33.7469353339672, 36.322095958413215]], [[33.74747432313768, 36.32317393675416], [33.74747432313768, 36.32371292592463], [33.7469353339672, 36.32371292592463], [33.7469353339672, 36.32317393675416], [33.74747432313768, 36.32317393675416]]]}, "id": "+396572+88457", "properties": {"area_ha": 8.392527362756484, "count": 29, "label": 1, "mean_dnbr": 0.20592632442692313}}, {"type": "Feature", "geometry": {"geodesic": false, "type": "Polygon", "coordinates": [[[33.829400677049364, 36.355513286982465], [33.83047865539032, 36.355513286982465], [33.83047865539032, 36.35605227615294], [33.8310176445608, 36.35605227615294], [33.8310176445608, 36.35659126532341], [33.83155663373125, 36.35659126532341], [33.83155663373125, 36.357130254493875], [33.83209562290173, 36.357130254493875], [33.83209562290173, 36.35766924366435], [33.8310176445608, 36.35766924366435], [33.8310176445608, 36.35820823283482], [33.83047865539032, 36.35820823283482], [33.83047865539032, 36.35874722200529], [33.82886168787891, 36.35874722200529], [33.82886168787891, 36.359286211175764], [33.82832269870843, 36.359286211175764], [33.82832269870843, 36.359825200346236], [33.827783709537954, 36.359825200346236], [33.827783709537954, 36.359286211175764], [33.82670573119702, 36.359286211175764], [33.82670573119702, 36.35820823283482], [33.827244720367474, 36.35820823283482], [33.827244720367474, 36.35766924366435], [33.827783709537954, 36.35766924366435], [33.827783709537954, 36.35659126532341], [33.82670573119702, 36.35659126532341], [33.82670573119702, 36.35605227615294], [33.82886168787891, 36.35605227615294], [33.82886168787891, 36.35659126532341], [33.82832269870843, 36.35659126532341], [33.82832269870843, 36.35766924366435], [33.82993966621984, 36.35766924366435], [33.82993966621984, 36.357130254493875], [33.83047865539032, 36.357130254493875], [33.83047865539032, 36.35659126532341], [33.82993966621984, 36.35659126532341], [33.82993966621984, 36.35605227615294], [33.829400677049364, 36.35605227615294], [33.829400677049364, 36.355513286982465]]]}, "id": "+396724+88395", "properties": {"area_ha": 10.124507595788568, "count": 35, "label": 1, "mean_dnbr": 0.2726242281424874}}, {"type": "Feature", "geometry": {"geodesic": false, "type": "Polygon", "coordinates": [[[33.863895983959566, 36.33610967684548], [33.864973962300496, 36.33610967684548], [33.864973962300496, 36.336648666015954], [33.866590929811935, 36.336648666015954], [33.866590929811935, 36.337187655186426], [33.868207897323344, 36.337187655186426], [33.868207897323344, 36.3377266443569], [33.868746886493796, 36.3377266443569], [33.868746886493796, 36.33988260103878], [33.869285875664275, 36.33988260103878], [33.869285875664275, 36.34042159020925], [33.871441832346164, 36.34042159020925], [33.871441832346164, 36.34257754689114], [33.871980821516644, 36.34257754689114], [33.871980821516644, 36.343116536061615], [33.871441832346164, 36.343116536061615], [33.871441832346164, 36.34473350357303], [33.870363854005234, 36.34473350357303], [33.870363854005234, 36.3452724927435], [33.868746886493796, 36.3452724927435], [33.868746886493796, 36.34635047108444], [33.869285875664275, 36.34635047108444], [33.869285875664275, 36.34581148191397], [33.870363854005234, 36.34581148191397], [33.870363854005234, 36.346889460254914], [33.869285875664275, 36.346889460254914], [33.869285875664275, 36.34742844942539], [33.868207897323344, 36.34742844942539], [33.868207897323344, 36.34796743859586], [33.867129918982386, 36.34796743859586], [33.867129918982386, 36.34850642776633], [33.866590929811935, 36.34850642776633], [33.866590929811935, 36.34796743859586], [33.866051940641455, 36.34796743859586], [33.866051940641455, 36.34742844942539], [33.865512951470976, 36.34742844942539], [33.865512951470976, 36.346889460254914], [33.864434973130045, 36.346889460254914], [33.864434973130045, 36.34742844942539], [33.864973962300496, 36.34742844942539], [33.864973962300496, 36.34796743859586], [33.865512951470976, 36.34796743859586], [33.865512951470976, 36.349045416936804], [33.866051940641455, 36.349045416936804], [33.866051940641455, 36.349584406107276], [33.866590929811935, 36.349584406107276], [33.866590929811935, 36.35066238444822], [33.867129918982386, 36.35066238444822], [33.867129918982386, 36.351201373618686], [33.867668908152865, 36.351201373618686], [33.867668908152865, 36.35174036278916], [33.868207897323344, 36.35174036278916], [33.868207897323344, 36.3528183411301], [33.868746886493796, 36.3528183411301], [33.868746886493796, 36.353357330300575], [33.869285875664275, 36.353357330300575], [33.869285875664275, 36.35389631947105], [33.869824864834754, 36.35389631947105], [33.869824864834754, 36.355513286982465], [33.870363854005234, 36.355513286982465], [33.870363854005234, 36.35659126532341], [33.870902843175685, 36.35659126532341], [33.870902843175685, 36.357130254493875], [33.871441832346164, 36.357130254493875], [33.871441832346164, 36.35766924366435], [33.871980821516644, 36.35766924366435], [33.871980821516644, 36.357130254493875], [33.87251981068712, 36.357130254493875], [33.87251981068712, 36.35766924366435], [33.871980821516644, 36.35766924366435], [33.871980821516644, 36.35874722200529], [33.87251981068712, 36.35874722200529], [33.87251981068712, 36.359286211175764], [33.871980821516644, 36.359286211175764], [33.871980821516644, 36.35874722200529], [33.870902843175685, 36.35874722200529], [33.870902843175685, 36.35766924366435], [33.870363854005234, 36.35766924366435], [33.870363854005234, 36.35820823283482], [33.867668908152865, 36.35820823283482], [33.867668908152865, 36.35874722200529], [33.867129918982386, 36.35874722200529], [33.867129918982386, 36.359286211175764], [33.868207897323344, 36.359286211175764], [33.868207897323344, 36.359825200346236], [33.867129918982386, 36.359825200346236], [33.867129918982386, 36.36090317868718], [33.867668908152865, 36.36090317868718], [33.867668908152865, 36.36144216785765], [33.869824864834754, 36.36144216785765], [33.869824864834754, 36.36036418951671], [33.870363854005234, 36.36036418951671], [33.870363854005234, 36.359825200346236], [33.870902843175685, 36.359825200346236], [33.870902843175685, 36.36090317868718], [33.870363854005234, 36.36090317868718], [33.870363854005234, 36.36144216785765], [33.869824864834754, 36.36144216785765], [33.869824864834754, 36.3625201461986], [33.868746886493796, 36.3625201461986], [33.868746886493796, 36.36413711371001], [33.867129918982386, 36.36413711371001], [33.867129918982386, 36.36467610288048], [33.864973962300496, 36.36467610288048], [33.864973962300496, 36.36521509205095], [33.865512951470976, 36.36521509205095], [33.865512951470976, 36.365754081221425], [33.867668908152865, 36.365754081221425], [33.867668908152865, 36.36521509205095], [33.869285875664275, 36.36521509205095], [33.869285875664275, 36.36467610288048], [33.869824864834754, 36.36467610288048], [33.869824864834754, 36.36521509205095], [33.870363854005234, 36.36521509205095], [33.870363854005234, 36.3662930703919], [33.869285875664275, 36.3662930703919], [33.869285875664275, 36.367910037903314], [33.868746886493796, 36.367910037903314], [33.868746886493796, 36.36844902707379], [33.867129918982386, 36.36844902707379], [33.867129918982386, 36.36898801624425], [33.866051940641455, 36.36898801624425], [33.866051940641455, 36.369527005414724], [33.866590929811935, 36.369527005414724], [33.866590929811935, 36.3700659945852], [33.866051940641455, 36.3700659945852], [33.866051940641455, 36.369527005414724], [33.865512951470976, 36.369527005414724], [33.865512951470976, 36.36898801624425], [33.864973962300496, 36.36898801624425], [33.864973962300496, 36.369527005414724], [33.86281800561861, 36.369527005414724], [33.86281800561861, 36.3700659945852], [33.860123059766266, 36.3700659945852], [33.860123059766266, 36.36844902707379], [33.85958407059579, 36.36844902707379], [33.85958407059579, 36.36898801624425], [33.858506092254856, 36.36898801624425], [33.858506092254856, 36.369527005414724], [33.8574281139139, 36.369527005414724], [33.8574281139139, 36.3700659945852], [33.85581114640249, 36.3700659945852], [33.85581114640249, 36.37060498375567], [33.85527215723201, 36.37060498375567], [33.85527215723201, 36.37329992960803], [33.85473316806156, 36.37329992960803], [33.85473316806156, 36.3738389187785], [33.85419417889108, 36.3738389187785], [33.85419417889108, 36.37329992960803], [33.85257721137967, 36.37329992960803], [33.85257721137967, 36.372221951267086], [33.85096024386823, 36.372221951267086], [33.85096024386823, 36.37114397292614], [33.8498822655273, 36.37114397292614], [33.8498822655273, 36.37276094043756], [33.84880428718637, 36.37276094043756], [33.84880428718637, 36.371682962096614], [33.84826529801589, 36.371682962096614], [33.84826529801589, 36.37114397292614], [33.84772630884541, 36.37114397292614], [33.84772630884541, 36.3700659945852], [33.84718731967493, 36.3700659945852], [33.84718731967493, 36.37114397292614], [33.84664833050448, 36.37114397292614], [33.84664833050448, 36.37060498375567], [33.846109341334, 36.37060498375567], [33.846109341334, 36.3700659945852], [33.84664833050448, 36.3700659945852], [33.84664833050448, 36.369527005414724], [33.84772630884541, 36.369527005414724], [33.84772630884541, 36.36844902707379], [33.84880428718637, 36.36844902707379], [33.84880428718637, 36.367910037903314], [33.85203822220919, 36.367910037903314], [33.85203822220919, 36.3662930703919], [33.85096024386823, 36.3662930703919], [33.85096024386823, 36.36683205956237], [33.8498822655273, 36.36683205956237], [33.8498822655273, 36.36521509205095], [33.84934327635682, 36.36521509205095], [33.84934327635682, 36.36467610288048], [33.84880428718637, 36.36467610288048], [33.84880428718637, 36.36413711371001], [33.84826529801589, 36.36413711371001], [33.84826529801589, 36.363598124539536], [33.84718731967493, 36.363598124539536], [33.84718731967493, 36.36467610288048], [33.84772630884541, 36.36467610288048], [33.84772630884541, 36.36683205956237], [33.84664833050448, 36.36683205956237], [33.84664833050448, 36.365754081221425], [33.84557035216352, 36.365754081221425], [33.84557035216352, 36.36467610288048], [33.84449237382259, 36.36467610288048], [33.84449237382259, 36.36413711371001], [33.84287540631118, 36.36413711371001], [33.84287540631118, 36.36467610288048], [33.84179742797022, 36.36467610288048], [33.84179742797022, 36.363598124539536], [33.8423364171407, 36.363598124539536], [33.8423364171407, 36.3625201461986], [33.84287540631118, 36.3625201461986], [33.84287540631118, 36.36305913536906], [33.84341439548163, 36.36305913536906], [33.84341439548163, 36.3625201461986], [33.84395338465211, 36.3625201461986], [33.84395338465211, 36.36144216785765], [33.84341439548163, 36.36144216785765], [33.84341439548163, 36.36090317868718], [33.84395338465211, 36.36090317868718], [33.84395338465211, 36.36036418951671], [33.84179742797022, 36.36036418951671], [33.84179742797022, 36.36090317868718], [33.8385634929474, 36.36090317868718], [33.8385634929474, 36.36036418951671], [33.83910248211785, 36.36036418951671], [33.83910248211785, 36.359825200346236], [33.84179742797022, 36.359825200346236], [33.84179742797022, 36.359286211175764], [33.84125843879974, 36.359286211175764], [33.84125843879974, 36.35874722200529], [33.8385634929474, 36.35874722200529], [33.8385634929474, 36.35820823283482], [33.83694652543599, 36.35820823283482], [33.83694652543599, 36.35659126532341], [33.83640753626551, 36.35659126532341], [33.83640753626551, 36.35497429781199], [33.83586854709503, 36.35497429781199], [33.83586854709503, 36.35066238444822], [33.83532955792455, 36.35066238444822], [33.83532955792455, 36.349584406107276], [33.8347905687541, 36.349584406107276], [33.8347905687541, 36.349045416936804], [33.83532955792455, 36.349045416936804], [33.83532955792455, 36.34850642776633], [33.8347905687541, 36.34850642776633], [33.8347905687541, 36.34796743859586], [33.83532955792455, 36.34796743859586], [33.83532955792455, 36.3452724927435], [33.83802450377692, 36.3452724927435], [33.83802450377692, 36.34473350357303], [33.83748551460644, 36.34473350357303], [33.83748551460644, 36.34419451440256], [33.83964147128833, 36.34419451440256], [33.83964147128833, 36.34365552523209], [33.84071944962929, 36.34365552523209], [33.84071944962929, 36.34203855772067], [33.84179742797022, 36.34203855772067], [33.84179742797022, 36.340960579379725], [33.84287540631118, 36.340960579379725], [33.84287540631118, 36.34042159020925], [33.84341439548163, 36.34042159020925], [33.84341439548163, 36.33988260103878], [33.84449237382259, 36.33988260103878], [33.84449237382259, 36.338804622697836], [33.84557035216352, 36.338804622697836], [33.84557035216352, 36.3377266443569], [33.84772630884541, 36.3377266443569], [33.84772630884541, 36.337187655186426], [33.84880428718637, 36.337187655186426], [33.84880428718637, 36.3377266443569], [33.85203822220919, 36.3377266443569], [33.85203822220919, 36.33826563352737], [33.85257721137967, 36.33826563352737], [33.85257721137967, 36.338804622697836], [33.85311620055012, 36.338804622697836], [33.85311620055012, 36.33934361186831], [33.8536551897206, 36.33934361186831], [33.8536551897206, 36.338804622697836], [33.85473316806156, 36.338804622697836], [33.85473316806156, 36.33934361186831], [33.85581114640249, 36.33934361186831], [33.85581114640249, 36.340960579379725], [33.85688912474342, 36.340960579379725], [33.85688912474342, 36.3414995685502], [33.8574281139139, 36.3414995685502], [33.8574281139139, 36.34203855772067], [33.858506092254856, 36.34203855772067], [33.858506092254856, 36.3414995685502], [33.85904508142531, 36.3414995685502], [33.85904508142531, 36.34042159020925], [33.858506092254856, 36.34042159020925], [33.858506092254856, 36.33988260103878], [33.85958407059579, 36.33988260103878], [33.85958407059579, 36.33934361186831], [33.860662048936746, 36.33934361186831], [33.860662048936746, 36.34042159020925], [33.8612010381072, 36.34042159020925], [33.8612010381072, 36.33934361186831], [33.862279016448156, 36.33934361186831], [33.862279016448156, 36.338804622697836], [33.861740027277676, 36.338804622697836], [33.861740027277676, 36.337187655186426], [33.86281800561861, 36.337187655186426], [33.86281800561861, 36.336648666015954], [33.863895983959566, 36.336648666015954], [33.863895983959566, 36.33610967684548]], [[33.84880428718637, 36.3700659945852], [33.84880428718637, 36.37060498375567], [33.84826529801589, 36.37060498375567], [33.84826529801589, 36.3700659945852], [33.84880428718637, 36.3700659945852]], [[33.85203822220919, 36.3700659945852], [33.85203822220919, 36.37060498375567], [33.85149923303871, 36.37060498375567], [33.85149923303871, 36.37114397292614], [33.85096024386823, 36.37114397292614], [33.85096024386823, 36.3700659945852], [33.85203822220919, 36.3700659945852]], [[33.8612010381072, 36.36737104873284], [33.8612010381072, 36.367910037903314], [33.860662048936746, 36.367910037903314], [33.860662048936746, 36.36737104873284], [33.8612010381072, 36.36737104873284]], [[33.8536551897206, 36.3662930703919], [33.8536551897206, 36.36683205956237], [33.85311620055012, 36.36683205956237], [33.85311620055012, 36.3662930703919], [33.8536551897206, 36.3662930703919]], [[33.85796710308438, 36.365754081221425], [33.85796710308438, 36.3662930703919], [33.8574281139139, 36.3662930703919], [33.8574281139139, 36.365754081221425], [33.85796710308438, 36.365754081221425]], [[33.85527215723201, 36.36467610288048], [33.85527215723201, 36.36521509205095], [33.85473316806156, 36.36521509205095], [33.85473316806156, 36.36467610288048], [33.85527215723201, 36.36467610288048]], [[33.864434973130045, 36.36467610288048], [33.864434973130045, 36.36521509205095], [33.863895983959566, 36.36521509205095], [33.863895983959566, 36.36467610288048], [33.864434973130045, 36.36467610288048]], [[33.85473316806156, 36.363598124539536], [33.85473316806156, 36.36467610288048], [33.85419417889108, 36.36467610288048], [33.85419417889108, 36.363598124539536], [33.85473316806156, 36.363598124539536]], [[33.83910248211785, 36.35766924366435], [33.83910248211785, 36.35820823283482], [33.8385634929474, 36.35820823283482], [33.8385634929474, 36.35766924366435], [33.83910248211785, 36.35766924366435]], [[33.84557035216352, 36.357130254493875], [33.84557035216352, 36.35820823283482], [33.84449237382259, 36.35820823283482], [33.84449237382259, 36.35874722200529], [33.84287540631118, 36.35874722200529], [33.84287540631118, 36.35820823283482], [33.84341439548163, 36.35820823283482], [33.84341439548163, 36.35766924366435], [33.84395338465211, 36.35766924366435], [33.84395338465211, 36.357130254493875], [33.84557035216352, 36.357130254493875]], [[33.860123059766266, 36.357130254493875], [33.860123059766266, 36.35766924366435], [33.85958407059579, 36.35766924366435], [33.85958407059579, 36.357130254493875], [33.860123059766266, 36.357130254493875]], [[33.868207897323344, 36.357130254493875], [33.868207897323344, 36.35766924366435], [33.867668908152865, 36.35766924366435], [33.867668908152865, 36.357130254493875], [33.868207897323344, 36.357130254493875]], [[33.85473316806156, 36.35605227615294], [33.85473316806156, 36.35659126532341], [33.85527215723201, 36.35659126532341], [33.85527215723201, 36.35820823283482], [33.85257721137967, 36.35820823283482], [33.85257721137967, 36.35874722200529], [33.85203822220919, 36.35874722200529], [33.85203822220919, 36.359286211175764], [33.85096024386823, 36.359286211175764], [33.85096024386823, 36.35874722200529], [33.85149923303871, 36.35874722200529], [33.85149923303871, 36.357130254493875], [33.8536551897206, 36.357130254493875], [33.8536551897206, 36.35605227615294], [33.85473316806156, 36.35605227615294]], [[33.85688912474342, 36.35605227615294], [33.85688912474342, 36.35659126532341], [33.85635013557297, 36.35659126532341], [33.85635013557297, 36.35605227615294], [33.85688912474342, 36.35605227615294]], [[33.85527215723201, 36.355513286982465], [33.85527215723201, 36.35605227615294], [33.85473316806156, 36.35605227615294], [33.85473316806156, 36.355513286982465], [33.85527215723201, 36.355513286982465]], [[33.8574281139139, 36.355513286982465], [33.8574281139139, 36.35605227615294], [33.85688912474342, 36.35605227615294], [33.85688912474342, 36.355513286982465], [33.8574281139139, 36.355513286982465]], [[33.8385634929474, 36.35497429781199], [33.8385634929474, 36.355513286982465], [33.83748551460644, 36.355513286982465], [33.83748551460644, 36.35497429781199], [33.8385634929474, 36.35497429781199]], [[33.84718731967493, 36.35497429781199], [33.84718731967493, 36.355513286982465], [33.84664833050448, 36.355513286982465], [33.84664833050448, 36.35497429781199], [33.84718731967493, 36.35497429781199]], [[33.85796710308438, 36.35497429781199], [33.85796710308438, 36.355513286982465], [33.8574281139139, 36.355513286982465], [33.8574281139139, 36.35497429781199], [33.85796710308438, 36.35497429781199]], [[33.84179742797022, 36.353357330300575], [33.84179742797022, 36.35389631947105], [33.8423364171407, 36.35389631947105], [33.8423364171407, 36.35443530864152], [33.84179742797022, 36.35443530864152], [33.84179742797022, 36.35605227615294], [33.84125843879974, 36.35605227615294], [33.84125843879974, 36.35443530864152], [33.83964147128833, 36.35443530864152], [33.83964147128833, 36.353357330300575], [33.84179742797022, 36.353357330300575]], [[33.84557035216352, 36.3528183411301], [33.84557035216352, 36.35389631947105], [33.84503136299304, 36.35389631947105], [33.84503136299304, 36.353357330300575], [33.84449237382259, 36.353357330300575], [33.84449237382259, 36.3528183411301], [33.84557035216352, 36.3528183411301]], [[33.85311620055012, 36.35174036278916], [33.85311620055012, 36.35227935195963], [33.85257721137967, 36.35227935195963], [33.85257721137967, 36.35174036278916], [33.85311620055012, 36.35174036278916]], [[33.85688912474342, 36.35174036278916], [33.85688912474342, 36.3528183411301], [33.85635013557297, 36.3528183411301], [33.85635013557297, 36.35174036278916], [33.85688912474342, 36.35174036278916]], [[33.860123059766266, 36.35174036278916], [33.860123059766266, 36.35227935195963], [33.860662048936746, 36.35227935195963], [33.860662048936746, 36.3528183411301], [33.85904508142531, 36.3528183411301], [33.85904508142531, 36.35227935195963], [33.85958407059579, 36.35227935195963], [33.85958407059579, 36.35174036278916], [33.860123059766266, 36.35174036278916]], [[33.84125843879974, 36.351201373618686], [33.84125843879974, 36.35227935195963], [33.84071944962929, 36.35227935195963], [33.84071944962929, 36.3528183411301], [33.8385634929474, 36.3528183411301], [33.8385634929474, 36.35227935195963], [33.83964147128833, 36.35227935195963], [33.83964147128833, 36.35174036278916], [33.84071944962929, 36.35174036278916], [33.84071944962929, 36.351201373618686], [33.84125843879974, 36.351201373618686]], [[33.84718731967493, 36.351201373618686], [33.84718731967493, 36.35174036278916], [33.84664833050448, 36.35174036278916], [33.84664833050448, 36.351201373618686], [33.84718731967493, 36.351201373618686]], [[33.85635013557297, 36.351201373618686], [33.85635013557297, 36.35174036278916], [33.85527215723201, 36.35174036278916], [33.85527215723201, 36.351201373618686], [33.85635013557297, 36.351201373618686]], [[33.85796710308438, 36.351201373618686], [33.85796710308438, 36.35174036278916], [33.8574281139139, 36.35174036278916], [33.8574281139139, 36.351201373618686], [33.85796710308438, 36.351201373618686]], [[33.862279016448156, 36.351201373618686], [33.862279016448156, 36.35174036278916], [33.861740027277676, 36.35174036278916], [33.861740027277676, 36.351201373618686], [33.862279016448156, 36.351201373618686]], [[33.864434973130045, 36.35066238444822], [33.864434973130045, 36.3528183411301], [33.863356994789086, 36.3528183411301], [33.863356994789086, 36.35227935195963], [33.862279016448156, 36.35227935195963], [33.862279016448156, 36.35174036278916], [33.86281800561861, 36.35174036278916], [33.86281800561861, 36.351201373618686], [33.863895983959566, 36.351201373618686], [33.863895983959566, 36.35066238444822], [33.864434973130045, 36.35066238444822]], [[33.85042125469778, 36.35012339527775], [33.85042125469778, 36.35066238444822], [33.85096024386823, 36.35066238444822], [33.85096024386823, 36.351201373618686], [33.8498822655273, 36.351201373618686], [33.8498822655273, 36.35174036278916], [33.85203822220919, 36.35174036278916], [33.85203822220919, 36.3528183411301], [33.85419417889108, 36.3528183411301], [33.85419417889108, 36.35389631947105], [33.85473316806156, 36.35389631947105], [33.85473316806156, 36.355513286982465], [33.85419417889108, 36.355513286982465], [33.85419417889108, 36.35497429781199], [33.85311620055012, 36.35497429781199], [33.85311620055012, 36.35605227615294], [33.85149923303871, 36.35605227615294], [33.85149923303871, 36.355513286982465], [33.85096024386823, 36.355513286982465], [33.85096024386823, 36.35605227615294], [33.84880428718637, 36.35605227615294], [33.84880428718637, 36.35659126532341], [33.84718731967493, 36.35659126532341], [33.84718731967493, 36.35605227615294], [33.84772630884541, 36.35605227615294], [33.84772630884541, 36.35497429781199], [33.84826529801589, 36.35497429781199], [33.84826529801589, 36.35443530864152], [33.8498822655273, 36.35443530864152], [33.8498822655273, 36.35389631947105], [33.85042125469778, 36.35389631947105], [33.85042125469778, 36.353357330300575], [33.84934327635682, 36.353357330300575], [33.84934327635682, 36.3528183411301], [33.84880428718637, 36.3528183411301], [33.84880428718637, 36.35066238444822], [33.84718731967493, 36.35066238444822], [33.84718731967493, 36.35012339527775], [33.85042125469778, 36.35012339527775]], [[33.85581114640249, 36.35012339527775], [33.85581114640249, 36.35066238444822], [33.85527215723201, 36.35066238444822], [33.85527215723201, 36.35012339527775], [33.85581114640249, 36.35012339527775]], [[33.84557035216352, 36.349584406107276], [33.84557035216352, 36.35012339527775], [33.846109341334, 36.35012339527775], [33.846109341334, 36.351201373618686], [33.84557035216352, 36.351201373618686], [33.84557035216352, 36.35174036278916], [33.84449237382259, 36.35174036278916], [33.84449237382259, 36.35012339527775], [33.84503136299304, 36.35012339527775], [33.84503136299304, 36.349584406107276], [33.84557035216352, 36.349584406107276]], [[33.84503136299304, 36.349045416936804], [33.84503136299304, 36.349584406107276], [33.84395338465211, 36.349584406107276], [33.84395338465211, 36.349045416936804], [33.84503136299304, 36.349045416936804]], [[33.84880428718637, 36.349045416936804], [33.84880428718637, 36.349584406107276], [33.84718731967493, 36.349584406107276], [33.84718731967493, 36.349045416936804], [33.84880428718637, 36.349045416936804]], [[33.846109341334, 36.34850642776633], [33.846109341334, 36.349045416936804], [33.84557035216352, 36.349045416936804], [33.84557035216352, 36.34850642776633], [33.846109341334, 36.34850642776633]], [[33.84503136299304, 36.34796743859586], [33.84503136299304, 36.34850642776633], [33.84449237382259, 36.34850642776633], [33.84449237382259, 36.34796743859586], [33.84503136299304, 36.34796743859586]], [[33.84341439548163, 36.346889460254914], [33.84341439548163, 36.34742844942539], [33.84287540631118, 36.34742844942539], [33.84287540631118, 36.346889460254914], [33.84341439548163, 36.346889460254914]], [[33.85473316806156, 36.346889460254914], [33.85473316806156, 36.34742844942539], [33.85419417889108, 36.34742844942539], [33.85419417889108, 36.346889460254914], [33.85473316806156, 36.346889460254914]], [[33.85688912474342, 36.346889460254914], [33.85688912474342, 36.34742844942539], [33.8574281139139, 36.34742844942539], [33.8574281139139, 36.34850642776633], [33.85688912474342, 36.34850642776633], [33.85688912474342, 36.349045416936804], [33.85635013557297, 36.349045416936804], [33.85635013557297, 36.34796743859586], [33.85581114640249, 36.34796743859586], [33.85581114640249, 36.346889460254914], [33.85688912474342, 36.346889460254914]], [[33.84449237382259, 36.34635047108444], [33.84449237382259, 36.346889460254914], [33.84395338465211, 36.346889460254914], [33.84395338465211, 36.34635047108444], [33.84449237382259, 36.34635047108444]], [[33.84772630884541, 36.34635047108444], [33.84772630884541, 36.346889460254914], [33.84718731967493, 36.346889460254914], [33.84718731967493, 36.34635047108444], [33.84772630884541, 36.34635047108444]], [[33.84395338465211, 36.3452724927435], [33.84395338465211, 36.34581148191397], [33.84341439548163, 36.34581148191397], [33.84341439548163, 36.3452724927435], [33.84395338465211, 36.3452724927435]], [[33.84826529801589, 36.3452724927435], [33.84826529801589, 36.34635047108444], [33.84772630884541, 36.34635047108444], [33.84772630884541, 36.3452724927435], [33.84826529801589, 36.3452724927435]], [[33.858506092254856, 36.3452724927435], [33.858506092254856, 36.34581148191397], [33.85904508142531, 36.34581148191397], [33.85904508142531, 36.34635047108444], [33.860662048936746, 36.34635047108444], [33.860662048936746, 36.34742844942539], [33.860123059766266, 36.34742844942539], [33.860123059766266, 36.34796743859586], [33.860662048936746, 36.34796743859586], [33.860662048936746, 36.34850642776633], [33.860123059766266, 36.34850642776633], [33.860123059766266, 36.349584406107276], [33.860662048936746, 36.349584406107276], [33.860662048936746, 36.35066238444822], [33.860123059766266, 36.35066238444822], [33.860123059766266, 36.351201373618686], [33.85796710308438, 36.351201373618686], [33.85796710308438, 36.35012339527775], [33.858506092254856, 36.35012339527775], [33.858506092254856, 36.349584406107276], [33.85688912474342, 36.349584406107276], [33.85688912474342, 36.349045416936804], [33.8574281139139, 36.349045416936804], [33.8574281139139, 36.34850642776633], [33.85958407059579, 36.34850642776633], [33.85958407059579, 36.34796743859586], [33.85904508142531, 36.34796743859586], [33.85904508142531, 36.34742844942539], [33.858506092254856, 36.34742844942539], [33.858506092254856, 36.34635047108444], [33.8574281139139, 36.34635047108444], [33.8574281139139, 36.3452724927435], [33.858506092254856, 36.3452724927435]], [[33.862279016448156, 36.34473350357303], [33.862279016448156, 36.3452724927435], [33.8612010381072, 36.3452724927435], [33.8612010381072, 36.34473350357303], [33.862279016448156, 36.34473350357303]], [[33.863356994789086, 36.34473350357303], [33.863356994789086, 36.34581148191397], [33.862279016448156, 36.34581148191397], [33.862279016448156, 36.3452724927435], [33.86281800561861, 36.3452724927435], [33.86281800561861, 36.34473350357303], [33.863356994789086, 36.34473350357303]], [[33.85149923303871, 36.34419451440256], [33.85149923303871, 36.34581148191397], [33.85096024386823, 36.34581148191397], [33.85096024386823, 36.346889460254914], [33.85042125469778, 36.346889460254914], [33.85042125469778, 36.34635047108444], [33.84880428718637, 36.34635047108444], [33.84880428718637, 36.34581148191397], [33.84934327635682, 36.34581148191397], [33.84934327635682, 36.3452724927435], [33.85096024386823, 36.3452724927435], [33.85096024386823, 36.34419451440256], [33.85149923303871, 36.34419451440256]], [[33.868746886493796, 36.34419451440256], [33.868746886493796, 36.34473350357303], [33.868207897323344, 36.34473350357303], [33.868207897323344, 36.34419451440256], [33.868746886493796, 36.34419451440256]], [[33.84503136299304, 36.34365552523209], [33.84503136299304, 36.3452724927435], [33.84395338465211, 36.3452724927435], [33.84395338465211, 36.34419451440256], [33.84449237382259, 36.34419451440256], [33.84449237382259, 36.34365552523209], [33.84503136299304, 36.34365552523209]], [[33.8612010381072, 36.34365552523209], [33.8612010381072, 36.34419451440256], [33.85958407059579, 36.34419451440256], [33.85958407059579, 36.34365552523209], [33.8612010381072, 36.34365552523209]], [[33.864973962300496, 36.34365552523209], [33.864973962300496, 36.34419451440256], [33.863895983959566, 36.34419451440256], [33.863895983959566, 36.34365552523209], [33.864973962300496, 36.34365552523209]], [[33.866051940641455, 36.34365552523209], [33.866051940641455, 36.34419451440256], [33.865512951470976, 36.34419451440256], [33.865512951470976, 36.34365552523209], [33.866051940641455, 36.34365552523209]], [[33.869824864834754, 36.343116536061615], [33.869824864834754, 36.34365552523209], [33.869285875664275, 36.34365552523209], [33.869285875664275, 36.343116536061615], [33.869824864834754, 36.343116536061615]], [[33.865512951470976, 36.34257754689114], [33.865512951470976, 36.343116536061615], [33.864973962300496, 36.343116536061615], [33.864973962300496, 36.34257754689114], [33.865512951470976, 36.34257754689114]], [[33.84503136299304, 36.34203855772067], [33.84503136299304, 36.34257754689114], [33.84557035216352, 36.34257754689114], [33.84557035216352, 36.343116536061615], [33.84341439548163, 36.343116536061615], [33.84341439548163, 36.34257754689114], [33.84395338465211, 36.34257754689114], [33.84395338465211, 36.34203855772067], [33.84503136299304, 36.34203855772067]], [[33.865512951470976, 36.3414995685502], [33.865512951470976, 36.34203855772067], [33.864973962300496, 36.34203855772067], [33.864973962300496, 36.3414995685502], [33.865512951470976, 36.3414995685502]], [[33.85527215723201, 36.34042159020925], [33.85527215723201, 36.343116536061615], [33.85419417889108, 36.343116536061615], [33.85419417889108, 36.34257754689114], [33.85473316806156, 36.34257754689114], [33.85473316806156, 36.34042159020925], [33.85527215723201, 36.34042159020925]], [[33.861740027277676, 36.34042159020925], [33.861740027277676, 36.340960579379725], [33.862279016448156, 36.340960579379725], [33.862279016448156, 36.3414995685502], [33.86281800561861, 36.3414995685502], [33.86281800561861, 36.34203855772067], [33.861740027277676, 36.34203855772067], [33.861740027277676, 36.3414995685502], [33.860662048936746, 36.3414995685502], [33.860662048936746, 36.340960579379725], [33.8612010381072, 36.340960579379725], [33.8612010381072, 36.34042159020925], [33.861740027277676, 36.34042159020925]], [[33.866590929811935, 36.34042159020925], [33.866590929811935, 36.340960579379725], [33.866051940641455, 36.340960579379725], [33.866051940641455, 36.34042159020925], [33.866590929811935, 36.34042159020925]], [[33.868207897323344, 36.33988260103878], [33.868207897323344, 36.34042159020925], [33.867129918982386, 36.34042159020925], [33.867129918982386, 36.33988260103878], [33.868207897323344, 36.33988260103878]], [[33.864434973130045, 36.33934361186831], [33.864434973130045, 36.33988260103878], [33.863895983959566, 36.33988260103878], [33.863895983959566, 36.33934361186831], [33.864434973130045, 36.33934361186831]], [[33.85203822220919, 36.33826563352737], [33.85203822220919, 36.338804622697836], [33.85149923303871, 36.338804622697836], [33.85149923303871, 36.33826563352737], [33.85203822220919, 36.33826563352737]], [[33.863895983959566, 36.33826563352737], [33.863895983959566, 36.33934361186831], [33.863356994789086, 36.33934361186831], [33.863356994789086, 36.33826563352737], [33.863895983959566, 36.33826563352737]]]}, "id": "+396788+88431", "properties": {"area_ha": 819.5483331689873, "count": 2833, "label": 1, "mean_dnbr": 0.3235358509463767}}, {"type": "Feature", "geometry": {"geodesic": false, "type": "Polygon", "coordinates": [[[33.911327030961075, 36.31886202339039], [33.912943998472485, 36.31886202339039], [33.912943998472485, 36.31940101256086], [33.912405009302006, 36.31940101256086], [33.912405009302006, 36.31994000173133], [33.911327030961075, 36.31994000173133], [33.911327030961075, 36.32101798007227], [33.909710063449666, 36.32101798007227], [33.909710063449666, 36.31994000173133], [33.911327030961075, 36.31994000173133], [33.911327030961075, 36.31886202339039]]]}, "id": "+396877+88463", "properties": {"area_ha": 3.183527579325596, "count": 11, "label": 1, "mean_dnbr": 0.309151385491342}}, {"type": "Feature", "geometry": {"geodesic": false, "type": "Polygon", "coordinates": [[[33.91995085768863, 36.38084577799464], [33.92210681437052, 36.38084577799464], [33.92210681437052, 36.3813847671651], [33.92264580354097, 36.3813847671651], [33.92264580354097, 36.381923756335574], [33.92210681437052, 36.381923756335574], [33.92210681437052, 36.38300173467652], [33.92102883602956, 36.38300173467652], [33.92102883602956, 36.38354072384699], [33.91995085768863, 36.38354072384699], [33.91995085768863, 36.38246274550605], [33.919411868518154, 36.38246274550605], [33.919411868518154, 36.3813847671651], [33.91995085768863, 36.3813847671651], [33.91995085768863, 36.38084577799464]]]}, "id": "+396894+88348", "properties": {"area_ha": 6.072798133042187, "count": 21, "label": 1, "mean_dnbr": 0.21453445806281307}}, {"type": "Feature", "geometry": {"geodesic": false, "type": "Polygon", "coordinates": [[[33.93827648948465, 36.338804622697836], [33.93989345699609, 36.338804622697836], [33.93989345699609, 36.340960579379725], [33.93827648948465, 36.340960579379725], [33.93827648948465, 36.338804622697836]]]}, "id": "+396927+88426", "properties": {"area_ha": 3.4720535805450017, "count": 12, "label": 1, "mean_dnbr": 0.48020048735293547}}, {"type": "Feature", "geometry": {"geodesic": false, "type": "Polygon", "coordinates": [[[33.99325338487279, 36.52798982153341], [33.99379237404324, 36.52798982153341], [33.99379237404324, 36.52852881070388], [33.99325338487279, 36.52852881070388], [33.99325338487279, 36.529067799874355], [33.99271439570231, 36.529067799874355], [33.99271439570231, 36.52960678904483], [33.99217540653183, 36.52960678904483], [33.99217540653183, 36.5301457782153], [33.99163641736135, 36.5301457782153], [33.99163641736135, 36.531223756556244], [33.9910974281909, 36.531223756556244], [33.9910974281909, 36.53068476738577], [33.99055843902042, 36.53068476738577], [33.99055843902042, 36.531223756556244], [33.99001944984994, 36.531223756556244], [33.99001944984994, 36.53176274572671], [33.98948046067946, 36.53176274572671], [33.98948046067946, 36.53068476738577], [33.99055843902042, 36.53068476738577], [33.99055843902042, 36.52960678904483], [33.99217540653183, 36.52960678904483], [33.99217540653183, 36.529067799874355], [33.99271439570231, 36.529067799874355], [33.99271439570231, 36.52852881070388], [33.99325338487279, 36.52852881070388], [33.99325338487279, 36.52798982153341]]]}, "id": "+397027+88075", "properties": {"area_ha": 3.463551437584141, "count": 12, "label": 1, "mean_dnbr": 0.1719827200061857}}, {"type": "Feature", "geometry": {"geodesic": false, "type": "Polygon", "coordinates": [[[34.02128082173729, 36.3738389187785], [34.02235880007825, 36.3738389187785], [34.02235880007825, 36.374377907948976], [34.02289778924873, 36.374377907948976], [34.02289778924873, 36.37491689711944], [34.02343677841918, 36.37491689711944], [34.02343677841918, 36.37653386463086], [34.02235880007825, 36.37653386463086], [34.02235880007825, 36.375994875460385], [34.02181981090777, 36.375994875460385], [34.02181981090777, 36.37491689711944], [34.02128082173729, 36.37491689711944], [34.02128082173729, 36.37653386463086], [34.02074183256684, 36.37653386463086], [34.02074183256684, 36.37491689711944], [34.02128082173729, 36.37491689711944], [34.02128082173729, 36.3738389187785]]]}, "id": "+397080+88361", "properties": {"area_ha": 4.6272994638031015, "count": 16, "label": 1, "mean_dnbr": 0.28097385271905134}}, {"type": "Feature", "geometry": {"geodesic": false, "type": "Polygon", "coordinates": [[[34.03852847519241, 36.330719785140765], [34.03960645353334, 36.330719785140765], [34.03960645353334, 36.33125877431124], [34.0406844318743, 36.33125877431124], [34.0406844318743, 36.33233675265218], [34.04014544270382, 36.33233675265218], [34.04014544270382, 36.33287574182265], [34.0406844318743, 36.33287574182265], [34.0406844318743, 36.33341473099312], [34.04014544270382, 36.33341473099312], [34.04014544270382, 36.33395372016359], [34.04122342104475, 36.33395372016359], [34.04122342104475, 36.334492709334064], [34.04176241021523, 36.334492709334064], [34.04176241021523, 36.33557068767501], [34.04122342104475, 36.33557068767501], [34.04122342104475, 36.33610967684548], [34.0406844318743, 36.33610967684548], [34.0406844318743, 36.33557068767501], [34.04014544270382, 36.33557068767501], [34.04014544270382, 36.33610967684548], [34.03906746436286, 36.33610967684548], [34.03906746436286, 36.33557068767501], [34.03852847519241, 36.33557068767501], [34.03852847519241, 36.336648666015954], [34.03637251851052, 36.336648666015954], [34.03637251851052, 36.33610967684548], [34.03745049685145, 36.33610967684548], [34.03745049685145, 36.33557068767501], [34.03637251851052, 36.33557068767501], [34.03637251851052, 36.334492709334064], [34.03475555099911, 36.334492709334064], [34.03475555099911, 36.33395372016359], [34.03529454016956, 36.33395372016359], [34.03529454016956, 36.33341473099312], [34.03421656182863, 36.33341473099312], [34.03421656182863, 36.33287574182265], [34.03475555099911, 36.33287574182265], [34.03475555099911, 36.33179776348171], [34.03529454016956, 36.33179776348171], [34.03529454016956, 36.33233675265218], [34.03583352934004, 36.33233675265218], [34.03583352934004, 36.33287574182265], [34.036911507681, 36.33287574182265], [34.036911507681, 36.33341473099312], [34.03798948602193, 36.33341473099312], [34.03798948602193, 36.33287574182265], [34.03852847519241, 36.33287574182265], [34.03852847519241, 36.33233675265218], [34.03798948602193, 36.33233675265218], [34.03798948602193, 36.33125877431124], [34.03852847519241, 36.33125877431124], [34.03852847519241, 36.330719785140765]], [[34.04014544270382, 36.33179776348171], [34.04014544270382, 36.33233675265218], [34.03906746436286, 36.33233675265218], [34.03906746436286, 36.33179776348171], [34.04014544270382, 36.33179776348171]]]}, "id": "+397112+88441", "properties": {"area_ha": 21.991349625325, "count": 76, "label": 1, "mean_dnbr": 0.39056624319777233}}, {"type": "Feature", "geometry": {"geodesic": false, "type": "Polygon", "coordinates": [[[34.04553533440853, 36.580810760239636], [34.04715230191994, 36.580810760239636], [34.04715230191994, 36.58134974941011], [34.049308258601826, 36.58134974941011], [34.049308258601826, 36.58188873858058], [34.048230280260896, 36.58188873858058], [34.048230280260896, 36.58242772775105], [34.046613312749486, 36.58242772775105], [34.046613312749486, 36.58188873858058], [34.046074323579006, 36.58188873858058], [34.046074323579006, 36.58134974941011], [34.04553533440853, 36.58134974941011], [34.04553533440853, 36.580810760239636]]]}, "id": "+397126+87977", "properties": {"area_ha": 3.461240441433275, "count": 12, "label": 1, "mean_dnbr": 0.23349902015551857}}, {"type": "Feature", "geometry": {"geodesic": false, "type": "Polygon", "coordinates": [[[34.048230280260896, 36.337187655186426], [34.048769269431375, 36.337187655186426], [34.048769269431375, 36.3377266443569], [34.049308258601826, 36.3377266443569], [34.049308258601826, 36.33826563352737], [34.050386236942785, 36.33826563352737], [34.050386236942785, 36.33934361186831], [34.049847247772306, 36.33934361186831], [34.049847247772306, 36.33988260103878], [34.049308258601826, 36.33988260103878], [34.049308258601826, 36.33934361186831], [34.047691291090416, 36.33934361186831], [34.047691291090416, 36.338804622697836], [34.04715230191994, 36.338804622697836], [34.04715230191994, 36.33826563352737], [34.047691291090416, 36.33826563352737], [34.047691291090416, 36.3377266443569], [34.048230280260896, 36.3377266443569], [34.048230280260896, 36.337187655186426]]]}, "id": "+397129+88429", "properties": {"area_ha": 4.629482809468388, "count": 16, "label": 1, "mean_dnbr": 0.49552663446244677}}, {"type": "Feature", "geometry": {"geodesic": false, "type": "Polygon", "coordinates": [[[34.0611660203522, 36.337187655186426], [34.06170500952268, 36.337187655186426], [34.06170500952268, 36.33826563352737], [34.06224399869316, 36.33826563352737], [34.06224399869316, 36.33934361186831], [34.06170500952268, 36.33934361186831], [34.06170500952268, 36.338804622697836], [34.0611660203522, 36.338804622697836], [34.0611660203522, 36.34042159020925], [34.06062703118175, 36.34042159020925], [34.06062703118175, 36.33988260103878], [34.059549052840794, 36.33988260103878], [34.059549052840794, 36.338804622697836], [34.06008804201127, 36.338804622697836], [34.06008804201127, 36.33826563352737], [34.0611660203522, 36.33826563352737], [34.0611660203522, 36.337187655186426]]]}, "id": "+397153+88429", "properties": {"area_ha": 4.050779234334196, "count": 14, "label": 1, "mean_dnbr": 0.20046254093936997}}, {"type": "Feature", "geometry": {"geodesic": false, "type": "Polygon", "coordinates": [[[34.06601692288646, 36.60506527291086], [34.06709490122739, 36.60506527291086], [34.06709490122739, 36.605604262081336], [34.06655591205694, 36.605604262081336], [34.06655591205694, 36.60614325125181], [34.06763389039787, 36.60614325125181], [34.06763389039787, 36.605604262081336], [34.0687118687388, 36.605604262081336], [34.0687118687388, 36.60614325125181], [34.06978984707976, 36.60614325125181], [34.06978984707976, 36.60668224042228], [34.06601692288646, 36.60668224042228], [34.06601692288646, 36.60614325125181], [34.06547793371598, 36.60614325125181], [34.06547793371598, 36.605604262081336], [34.06601692288646, 36.605604262081336], [34.06601692288646, 36.60506527291086]]]}, "id": "+397163+87932", "properties": {"area_ha": 3.748528766246225, "count": 13, "label": 1, "mean_dnbr": 0.17693982607900102}}, {"type": "Feature", "geometry": {"geodesic": false, "type": "Polygon", "coordinates": [[[34.07679670629588, 36.57326491185304], [34.07787468463684, 36.57326491185304], [34.07787468463684, 36.574342890193975], [34.07841367380732, 36.574342890193975], [34.07841367380732, 36.57380390102351], [34.07949165214825, 36.57380390102351], [34.07949165214825, 36.574342890193975], [34.07895266297777, 36.574342890193975], [34.07895266297777, 36.57488187936445], [34.07949165214825, 36.57488187936445], [34.07949165214825, 36.57542086853492], [34.08056963048918, 36.57542086853492], [34.08056963048918, 36.57595985770539], [34.07949165214825, 36.57595985770539], [34.07949165214825, 36.57542086853492], [34.07787468463684, 36.57542086853492], [34.07787468463684, 36.57488187936445], [34.07733569546636, 36.57488187936445], [34.07733569546636, 36.57380390102351], [34.07679670629588, 36.57380390102351], [34.07679670629588, 36.57326491185304]]]}, "id": "+397183+87991", "properties": {"area_ha": 3.7500250734166993, "count": 13, "label": 1, "mean_dnbr": 0.20546018706603436}}, {"type": "Feature", "geometry": {"geodesic": false, "type": "Polygon", "coordinates": [[[34.098895262285225, 36.61099415378605], [34.099434251455705, 36.61099415378605], [34.099434251455705, 36.611533142956525], [34.101051218967115, 36.611533142956525], [34.101051218967115, 36.61261112129747], [34.100512229796635, 36.61261112129747], [34.100512229796635, 36.612072132127], [34.099434251455705, 36.612072132127], [34.099434251455705, 36.613689099638414], [34.098895262285225, 36.613689099638414], [34.098895262285225, 36.61261112129747], [34.097817283944295, 36.61261112129747], [34.097817283944295, 36.61315011046794], [34.097278294773815, 36.61315011046794], [34.097278294773815, 36.61261112129747], [34.097817283944295, 36.61261112129747], [34.097817283944295, 36.612072132127], [34.098356273114746, 36.612072132127], [34.098356273114746, 36.611533142956525], [34.098895262285225, 36.611533142956525], [34.098895262285225, 36.61099415378605]]]}, "id": "+397223+87921", "properties": {"area_ha": 3.7481954765365137, "count": 13, "label": 1, "mean_dnbr": 0.16138315226020655}}, {"type": "Feature", "geometry": {"geodesic": false, "type": "Polygon", "coordinates": [[[34.101051218967115, 36.599136392035675], [34.101590208137594, 36.599136392035675], [34.101590208137594, 36.59967538120615], [34.102668186478525, 36.59967538120615], [34.102668186478525, 36.60075335954709], [34.101590208137594, 36.60075335954709], [34.101590208137594, 36.601292348717564], [34.101051218967115, 36.601292348717564], [34.101051218967115, 36.601831337888036], [34.099973240626184, 36.601831337888036], [34.099973240626184, 36.60075335954709], [34.101051218967115, 36.60075335954709], [34.101051218967115, 36.60021437037662], [34.101590208137594, 36.60021437037662], [34.101590208137594, 36.59967538120615], [34.101051218967115, 36.59967538120615], [34.101051218967115, 36.599136392035675]]]}, "id": "+397227+87943", "properties": {"area_ha": 3.172027575111163, "count": 11, "label": 1, "mean_dnbr": 0.19013549947457753}}, {"type": "Feature", "geometry": {"geodesic": false, "type": "Polygon", "coordinates": [[[34.12045482910409, 36.64117754733247], [34.1220717966155, 36.64117754733247], [34.1220717966155, 36.64225552567341], [34.12261078578598, 36.64225552567341], [34.12261078578598, 36.642794514843885], [34.1220717966155, 36.642794514843885], [34.1220717966155, 36.64333350401436], [34.12045482910409, 36.64333350401436], [34.12045482910409, 36.64117754733247]]]}, "id": "+397265+87865", "properties": {"area_ha": 3.7467352222914014, "count": 13, "label": 1, "mean_dnbr": 0.20176861884328384}}, {"type": "Feature", "geometry": {"geodesic": false, "type": "Polygon", "coordinates": [[[34.12907865583165, 36.61907899134313], [34.12961764500213, 36.61907899134313], [34.12961764500213, 36.6196179805136], [34.13015663417258, 36.6196179805136], [34.13015663417258, 36.620156969684075], [34.13069562334306, 36.620156969684075], [34.13069562334306, 36.62069595885455], [34.13015663417258, 36.62069595885455], [34.13015663417258, 36.62123494802502], [34.12907865583165, 36.62123494802502], [34.12907865583165, 36.62177393719549], [34.12800067749069, 36.62177393719549], [34.12800067749069, 36.62123494802502], [34.12853966666117, 36.62123494802502], [34.12853966666117, 36.62069595885455], [34.12907865583165, 36.62069595885455], [34.12907865583165, 36.61907899134313]]]}, "id": "+397279+87906", "properties": {"area_ha": 3.171208708787124, "count": 11, "label": 1, "mean_dnbr": 0.2012592979593662}}, {"type": "Feature", "geometry": {"geodesic": false, "type": "Polygon", "coordinates": [[[34.16303497357137, 36.67836780009502], [34.1641129519123, 36.67836780009502], [34.1641129519123, 36.67944577843596], [34.16303497357137, 36.67944577843596], [34.16303497357137, 36.679984767606435], [34.16249598440089, 36.679984767606435], [34.16249598440089, 36.68160173511785], [34.16195699523041, 36.68160173511785], [34.16195699523041, 36.68052375677691], [34.16141800605996, 36.68052375677691], [34.16141800605996, 36.682140724288324], [34.16087901688948, 36.682140724288324], [34.16087901688948, 36.68160173511785], [34.15980103854852, 36.68160173511785], [34.15980103854852, 36.68052375677691], [34.16087901688948, 36.68052375677691], [34.16087901688948, 36.679984767606435], [34.16249598440089, 36.679984767606435], [34.16249598440089, 36.67944577843596], [34.16141800605996, 36.67944577843596], [34.16141800605996, 36.67890678926549], [34.16195699523041, 36.67890678926549], [34.16195699523041, 36.67836780009502], [34.16249598440089, 36.67836780009502], [34.16249598440089, 36.67944577843596], [34.16303497357137, 36.67944577843596], [34.16303497357137, 36.67836780009502]]]}, "id": "+397343+87796", "properties": {"area_ha": 5.761368956169403, "count": 20, "label": 1, "mean_dnbr": 0.20642127741563007}}, {"type": "Feature", "geometry": {"geodesic": false, "type": "Polygon", "coordinates": [[[34.18405555121976, 36.696154442720584], [34.185133529560716, 36.696154442720584], [34.185133529560716, 36.69723242106153], [34.18405555121976, 36.69723242106153], [34.18405555121976, 36.697771410232], [34.186211507901646, 36.697771410232], [34.186211507901646, 36.69831039940247], [34.18567251873117, 36.69831039940247], [34.18567251873117, 36.698849388572945], [34.185133529560716, 36.698849388572945], [34.185133529560716, 36.69938837774342], [34.18405555121976, 36.69938837774342], [34.18405555121976, 36.698849388572945], [34.184594540390236, 36.698849388572945], [34.184594540390236, 36.69831039940247], [34.18351656204928, 36.69831039940247], [34.18351656204928, 36.69723242106153], [34.18405555121976, 36.69723242106153], [34.18405555121976, 36.696154442720584]]]}, "id": "+397382+87763", "properties": {"area_ha": 4.032027582902365, "count": 14, "label": 1, "mean_dnbr": 0.21524457762374852}}, {"type": "Feature", "geometry": {"geodesic": false, "type": "Polygon", "coordinates": [[[34.187828475413056, 36.93546563441003], [34.191601399606355, 36.93546563441003], [34.191601399606355, 36.936004623580494], [34.191062410435904, 36.936004623580494], [34.191062410435904, 36.93654361275097], [34.190523421265425, 36.93654361275097], [34.190523421265425, 36.936004623580494], [34.189984432094946, 36.936004623580494], [34.189984432094946, 36.93654361275097], [34.188367464583536, 36.93654361275097], [34.188367464583536, 36.936004623580494], [34.187828475413056, 36.936004623580494], [34.187828475413056, 36.93546563441003]]]}, "id": "+397394+87319", "properties": {"area_ha": 3.1581531893292376, "count": 11, "label": 1, "mean_dnbr": 0.2276848337586032}}, {"type": "Feature", "geometry": {"geodesic": false, "type": "Polygon", "coordinates": [[[34.193757356288245, 36.8616241180554], [34.194296345458724, 36.8616241180554], [34.194296345458724, 36.862163107225875], [34.196452302140614, 36.862163107225875], [34.196452302140614, 36.86270209639635], [34.195913312970134, 36.86270209639635], [34.195913312970134, 36.863780074737285], [34.194835334629204, 36.863780074737285], [34.194835334629204, 36.86324108556681], [34.194296345458724, 36.86324108556681], [34.194296345458724, 36.86270209639635], [34.193757356288245, 36.86270209639635], [34.193757356288245, 36.86324108556681], [34.193218367117794, 36.86324108556681], [34.193218367117794, 36.862163107225875], [34.193757356288245, 36.862163107225875], [34.193757356288245, 36.8616241180554]]]}, "id": "+397399+87456", "properties": {"area_ha": 3.735979171195986, "count": 13, "label": 1, "mean_dnbr": 0.19251576194289047}}, {"type": "Feature", "geometry": {"geodesic": false, "type": "Polygon", "coordinates": [[[34.21693389061855, 36.85084433464597], [34.217472879789, 36.85084433464597], [34.217472879789, 36.85246130215738], [34.21801186895948, 36.85246130215738], [34.21801186895948, 36.85300029132785], [34.21693389061855, 36.85300029132785], [34.21693389061855, 36.853539280498325], [34.21639490144807, 36.853539280498325], [34.21639490144807, 36.85515624800974], [34.21423894476618, 36.85515624800974], [34.21423894476618, 36.8540782696688], [34.21531692310711, 36.8540782696688], [34.21531692310711, 36.85461725883927], [34.21585591227759, 36.85461725883927], [34.21585591227759, 36.853539280498325], [34.21639490144807, 36.853539280498325], [34.21639490144807, 36.85300029132785], [34.21693389061855, 36.85300029132785], [34.21693389061855, 36.85192231298691], [34.21639490144807, 36.85192231298691], [34.21639490144807, 36.851383323816435], [34.21693389061855, 36.851383323816435], [34.21693389061855, 36.85084433464597]]]}, "id": "+397442+87476", "properties": {"area_ha": 4.311281503485953, "count": 15, "label": 1, "mean_dnbr": 0.21271908614998786}}, {"type": "Feature", "geometry": {"geodesic": false, "type": "Polygon", "coordinates": [[[34.2212458039823, 36.84653242128219], [34.22178479315278, 36.84653242128219], [34.22178479315278, 36.84707141045266], [34.2212458039823, 36.84707141045266], [34.2212458039823, 36.847610399623136], [34.22070681481185, 36.847610399623136], [34.22070681481185, 36.84814938879361], [34.2212458039823, 36.84814938879361], [34.2212458039823, 36.84868837796408], [34.21962883647089, 36.84868837796408], [34.21962883647089, 36.84922736713455], [34.22016782564137, 36.84922736713455], [34.22016782564137, 36.849766356305025], [34.217472879789, 36.849766356305025], [34.217472879789, 36.84922736713455], [34.21639490144807, 36.84922736713455], [34.21639490144807, 36.84868837796408], [34.21585591227759, 36.84868837796408], [34.21585591227759, 36.84814938879361], [34.21855085812996, 36.84814938879361], [34.21855085812996, 36.84868837796408], [34.21962883647089, 36.84868837796408], [34.21962883647089, 36.847610399623136], [34.22070681481185, 36.847610399623136], [34.22070681481185, 36.84707141045266], [34.2212458039823, 36.84707141045266], [34.2212458039823, 36.84653242128219]]]}, "id": "+397450+87484", "properties": {"area_ha": 6.611040423926213, "count": 23, "label": 1, "mean_dnbr": 0.28513836072032833}}, {"type": "Feature", "geometry": {"geodesic": false, "type": "Polygon", "coordinates": [[[34.22663569568704, 36.72094794456228], [34.22771367402797, 36.72094794456228], [34.22771367402797, 36.721486933732756], [34.22663569568704, 36.721486933732756], [34.22663569568704, 36.72202592290323], [34.22555771734608, 36.72202592290323], [34.22555771734608, 36.72310390124417], [34.22663569568704, 36.72310390124417], [34.22663569568704, 36.7225649120737], [34.22717468485749, 36.7225649120737], [34.22717468485749, 36.72310390124417], [34.22771367402797, 36.72310390124417], [34.22771367402797, 36.723642890414645], [34.22717468485749, 36.723642890414645], [34.22717468485749, 36.72472086875558], [34.22663569568704, 36.72472086875558], [34.22663569568704, 36.725259857926055], [34.22609670651656, 36.725259857926055], [34.22609670651656, 36.72472086875558], [34.22555771734608, 36.72472086875558], [34.22555771734608, 36.72418187958512], [34.2250187281756, 36.72418187958512], [34.2250187281756, 36.72472086875558], [34.22447973900515, 36.72472086875558], [34.22447973900515, 36.72418187958512], [34.22394074983467, 36.72418187958512], [34.22394074983467, 36.723642890414645], [34.22447973900515, 36.723642890414645], [34.22447973900515, 36.72310390124417], [34.22340176066419, 36.72310390124417], [34.22340176066419, 36.723642890414645], [34.22286277149374, 36.723642890414645], [34.22286277149374, 36.72310390124417], [34.22232378232326, 36.72310390124417], [34.22232378232326, 36.7225649120737], [34.22340176066419, 36.7225649120737], [34.22340176066419, 36.72202592290323], [34.22555771734608, 36.72202592290323], [34.22555771734608, 36.72094794456228], [34.22609670651656, 36.72094794456228], [34.22609670651656, 36.721486933732756], [34.22663569568704, 36.721486933732756], [34.22663569568704, 36.72094794456228]]]}, "id": "+397461+87717", "properties": {"area_ha": 9.788853142258773, "count": 34, "label": 1, "mean_dnbr": 0.19754564844317485}}, {"type": "Feature", "geometry": {"geodesic": false, "type": "Polygon", "coordinates": [[[34.22771367402797, 36.85892917220304], [34.228791652368926, 36.85892917220304], [34.228791652368926, 36.85946816137351], [34.22771367402797, 36.85946816137351], [34.22771367402797, 36.86054613971446], [34.22717468485749, 36.86054613971446], [34.22717468485749, 36.86108512888493], [34.22663569568704, 36.86108512888493], [34.22663569568704, 36.8616241180554], [34.22447973900515, 36.8616241180554], [34.22447973900515, 36.862163107225875], [34.2250187281756, 36.862163107225875], [34.2250187281756, 36.86270209639635], [34.22447973900515, 36.86270209639635], [34.22447973900515, 36.862163107225875], [34.22394074983467, 36.862163107225875], [34.22394074983467, 36.8616241180554], [34.22447973900515, 36.8616241180554], [34.22447973900515, 36.86108512888493], [34.2250187281756, 36.86108512888493], [34.2250187281756, 36.86054613971446], [34.22609670651656, 36.86054613971446], [34.22609670651656, 36.85946816137351], [34.22771367402797, 36.85946816137351], [34.22771367402797, 36.85892917220304]], [[34.22663569568704, 36.86054613971446], [34.22663569568704, 36.86108512888493], [34.22609670651656, 36.86108512888493], [34.22609670651656, 36.86054613971446], [34.22663569568704, 36.86054613971446]]]}, "id": "+397463+87461", "properties": {"area_ha": 4.885656197723001, "count": 17, "label": 1, "mean_dnbr": 0.2557225680886076}}, {"type": "Feature", "geometry": {"geodesic": false, "type": "Polygon", "coordinates": [[[34.228791652368926, 36.706934226130016], [34.22933064153938, 36.706934226130016], [34.22933064153938, 36.711246139493795], [34.228791652368926, 36.711246139493795], [34.228791652368926, 36.71070715032332], [34.22825266319845, 36.71070715032332], [34.22825266319845, 36.711246139493795], [34.22771367402797, 36.711246139493795], [34.22771367402797, 36.71070715032332], [34.22825266319845, 36.71070715032332], [34.22825266319845, 36.71016816115285], [34.22717468485749, 36.71016816115285], [34.22717468485749, 36.70962917198238], [34.22663569568704, 36.70962917198238], [34.22663569568704, 36.709090182811906], [34.22771367402797, 36.709090182811906], [34.22771367402797, 36.70801220447096], [34.22825266319845, 36.70801220447096], [34.22825266319845, 36.70747321530049], [34.228791652368926, 36.70747321530049], [34.228791652368926, 36.706934226130016]]]}, "id": "+397464+87743", "properties": {"area_ha": 6.335112704604183, "count": 22, "label": 1, "mean_dnbr": 0.270892149376613}}]}