{"type": "FeatureCollection", "columns": {"area_ha": "Number", "count": "Long<0, 4294967295>", "label": "Byte<0, 1>", "mean_dnbr": "Object", "system:index": "String"}, "features": [{"type": "Feature", "geometry": {"geodesic": false, "type": "Polygon", "coordinates": [[[35.92984147437764, 35.89898945959292], [35.93145844188905, 35.89898945959292], [35.93145844188905, 35.89952844876339], [35.93199743105953, 35.89952844876339], [35.93199743105953, 35.90006743793386], [35.93307540940046, 35.90006743793386], [35.93307540940046, 35.90114541627481], [35.93199743105953, 35.90114541627481], [35.93199743105953, 35.90168440544528], [35.93145844188905, 35.90168440544528], [35.93145844188905, 35.90222339461575], [35.93091945271857, 35.90222339461575], [35.93091945271857, 35.90168440544528], [35.93038046354812, 35.90168440544528], [35.93038046354812, 35.900606427104336], [35.93091945271857, 35.900606427104336], [35.93091945271857, 35.90114541627481], [35.93199743105953, 35.90114541627481], [35.93199743105953, 35.90006743793386], [35.92984147437764, 35.90006743793386], [35.92984147437764, 35.90114541627481], [35.92930248520716, 35.90114541627481], [35.92930248520716, 35.90006743793386], [35.92984147437764, 35.90006743793386], [35.92984147437764, 35.89898945959292]]]}, "id": "+400622+89242", "properties": {"area_ha": 5.23731602420543, "count": 18, "label": 1, "mean_dnbr": 0.20617746929538158}}, {"type": "Feature", "geometry": {"geodesic": false, "type": "Polygon", "coordinates": [[[35.94116024695754, 35.88335877364924], [35.94277721446895, 35.88335877364924], [35.94277721446895, 35.88443675199019], [35.943855192809906, 35.88443675199019], [35.943855192809906, 35.88497574116066], [35.944394181980385, 35.88497574116066], [35.944394181980385, 35.88551473033113], [35.944933171150836, 35.88551473033113], [35.944933171150836, 35.886053719501604], [35.945472160321316, 35.886053719501604], [35.945472160321316, 35.88497574116066], [35.946011149491795, 35.88497574116066], [35.946011149491795, 35.88551473033113], [35.946550138662275, 35.88551473033113], [35.946550138662275, 35.88659270867207], [35.948167106173685, 35.88659270867207], [35.948167106173685, 35.88713169784254], [35.948706095344136, 35.88713169784254], [35.948706095344136, 35.88874866535396], [35.949245084514615, 35.88874866535396], [35.949245084514615, 35.88928765452443], [35.950323062855574, 35.88928765452443], [35.950323062855574, 35.890365632865375], [35.949784073685095, 35.890365632865375], [35.949784073685095, 35.89090462203585], [35.949245084514615, 35.89090462203585], [35.949245084514615, 35.89144361120632], [35.949784073685095, 35.89144361120632], [35.949784073685095, 35.89467754622915], [35.949245084514615, 35.89467754622915], [35.949245084514615, 35.89575552457009], [35.948167106173685, 35.89575552457009], [35.948167106173685, 35.89521653539962], [35.947089127832726, 35.89521653539962], [35.947089127832726, 35.89306057871773], [35.947628117003205, 35.89306057871773], [35.947628117003205, 35.892521589547265], [35.946550138662275, 35.892521589547265], [35.946550138662275, 35.89198260037679], [35.946011149491795, 35.89198260037679], [35.946011149491795, 35.892521589547265], [35.945472160321316, 35.892521589547265], [35.945472160321316, 35.89198260037679], [35.944933171150836, 35.89198260037679], [35.944933171150836, 35.89144361120632], [35.944394181980385, 35.89144361120632], [35.944394181980385, 35.89090462203585], [35.943855192809906, 35.89090462203585], [35.943855192809906, 35.8898266436949], [35.94331620363943, 35.8898266436949], [35.94331620363943, 35.890365632865375], [35.942238225298496, 35.890365632865375], [35.942238225298496, 35.8898266436949], [35.94169923612802, 35.8898266436949], [35.94169923612802, 35.890365632865375], [35.940621257787086, 35.890365632865375], [35.940621257787086, 35.8898266436949], [35.93954327944613, 35.8898266436949], [35.93954327944613, 35.888209676183486], [35.94008226861661, 35.888209676183486], [35.94008226861661, 35.88713169784254], [35.940621257787086, 35.88713169784254], [35.940621257787086, 35.88659270867207], [35.94116024695754, 35.88659270867207], [35.94116024695754, 35.88335877364924]], [[35.948706095344136, 35.8935995678882], [35.948706095344136, 35.89467754622915], [35.948167106173685, 35.89467754622915], [35.948167106173685, 35.894138557058675], [35.947628117003205, 35.894138557058675], [35.947628117003205, 35.8935995678882], [35.948706095344136, 35.8935995678882]], [[35.947089127832726, 35.89144361120632], [35.947089127832726, 35.89198260037679], [35.946550138662275, 35.89198260037679], [35.946550138662275, 35.89144361120632], [35.947089127832726, 35.89144361120632]], [[35.944394181980385, 35.88659270867207], [35.944394181980385, 35.88713169784254], [35.943855192809906, 35.88713169784254], [35.943855192809906, 35.88659270867207], [35.944394181980385, 35.88659270867207]]]}, "id": "+400643+89271", "properties": {"area_ha": 61.11077248410819, "count": 210, "label": 1, "mean_dnbr": 0.42854251792635256}}, {"type": "Feature", "geometry": {"geodesic": false, "type": "Polygon", "coordinates": [[[35.944394181980385, 35.87257899023981], [35.946011149491795, 35.87257899023981], [35.946011149491795, 35.874195957751226], [35.946550138662275, 35.874195957751226], [35.946550138662275, 35.87473494692169], [35.947089127832726, 35.87473494692169], [35.947089127832726, 35.875273936092164], [35.946550138662275, 35.875273936092164], [35.946550138662275, 35.875812925262636], [35.945472160321316, 35.875812925262636], [35.945472160321316, 35.87635191443311], [35.943855192809906, 35.87635191443311], [35.943855192809906, 35.875273936092164], [35.942238225298496, 35.875273936092164], [35.942238225298496, 35.873656968580754], [35.94277721446895, 35.873656968580754], [35.94277721446895, 35.87311797941028], [35.944394181980385, 35.87311797941028], [35.944394181980385, 35.87257899023981]]]}, "id": "+400649+89291", "properties": {"area_ha": 11.933346959468777, "count": 41, "label": 1, "mean_dnbr": 0.4953434887429026}}, {"type": "Feature", "geometry": {"geodesic": false, "type": "Polygon", "coordinates": [[[35.950862052026025, 35.85209740176188], [35.951401041196505, 35.85209740176188], [35.951401041196505, 35.85263639093235], [35.951940030366984, 35.85263639093235], [35.951940030366984, 35.85425335844377], [35.951401041196505, 35.85425335844377], [35.951401041196505, 35.85479234761424], [35.950862052026025, 35.85479234761424], [35.950862052026025, 35.855331336784715], [35.949245084514615, 35.855331336784715], [35.949245084514615, 35.85425335844377], [35.948706095344136, 35.85425335844377], [35.948706095344136, 35.853175380102826], [35.949784073685095, 35.853175380102826], [35.949784073685095, 35.85263639093235], [35.950862052026025, 35.85263639093235], [35.950862052026025, 35.85209740176188]]]}, "id": "+400659+89329", "properties": {"area_ha": 6.987194039016841, "count": 24, "label": 1, "mean_dnbr": 0.41750546646213527}}, {"type": "Feature", "geometry": {"geodesic": false, "type": "Polygon", "coordinates": [[[35.953556997878394, 35.84616852088669], [35.955173965389804, 35.84616852088669], [35.955173965389804, 35.84724649922764], [35.95409598704887, 35.84724649922764], [35.95409598704887, 35.84778548839811], [35.953556997878394, 35.84778548839811], [35.953556997878394, 35.84832447756858], [35.95247901953746, 35.84832447756858], [35.95247901953746, 35.84724649922764], [35.953018008707915, 35.84724649922764], [35.953018008707915, 35.846707510057165], [35.953556997878394, 35.846707510057165], [35.953556997878394, 35.84616852088669]]]}, "id": "+400666+89340", "properties": {"area_ha": 3.4938889489717475, "count": 12, "label": 1, "mean_dnbr": 0.2457562359121131}}, {"type": "Feature", "geometry": {"geodesic": false, "type": "Polygon", "coordinates": [[[35.955173965389804, 35.8537143692733], [35.956790932901214, 35.8537143692733], [35.956790932901214, 35.85425335844377], [35.95571295456028, 35.85425335844377], [35.95571295456028, 35.855331336784715], [35.955173965389804, 35.855331336784715], [35.955173965389804, 35.85640931512565], [35.95409598704887, 35.85640931512565], [35.95409598704887, 35.85479234761424], [35.954634976219324, 35.85479234761424], [35.954634976219324, 35.85425335844377], [35.955173965389804, 35.85425335844377], [35.955173965389804, 35.8537143692733]]]}, "id": "+400669+89326", "properties": {"area_ha": 3.493544600262957, "count": 12, "label": 1, "mean_dnbr": 0.2970783627570139}}, {"type": "Feature", "geometry": {"geodesic": false, "type": "Polygon", "coordinates": [[[35.96433678128784, 36.04667249230217], [35.96757071631066, 36.04667249230217], [35.96757071631066, 36.047750470643116], [35.96703172714018, 36.047750470643116], [35.96703172714018, 36.047211481472644], [35.9664927379697, 36.047211481472644], [35.9664927379697, 36.04828945981359], [35.96595374879925, 36.04828945981359], [35.96595374879925, 36.049367438154526], [35.96541475962877, 36.049367438154526], [35.96541475962877, 36.04882844898406], [35.96487577045829, 36.04882844898406], [35.96487577045829, 36.049906427325], [35.96541475962877, 36.049906427325], [35.96541475962877, 36.05044541649547], [35.96379779211736, 36.05044541649547], [35.96379779211736, 36.05098440566594], [35.96325880294688, 36.05098440566594], [35.96325880294688, 36.05044541649547], [35.9627198137764, 36.05044541649547], [35.9627198137764, 36.04828945981359], [35.96325880294688, 36.04828945981359], [35.96325880294688, 36.049367438154526], [35.96379779211736, 36.049367438154526], [35.96379779211736, 36.04882844898406], [35.96487577045829, 36.04882844898406], [35.96487577045829, 36.04828945981359], [35.96433678128784, 36.04828945981359], [35.96433678128784, 36.047750470643116], [35.96379779211736, 36.047750470643116], [35.96379779211736, 36.047211481472644], [35.96433678128784, 36.047211481472644], [35.96433678128784, 36.04667249230217]]]}, "id": "+400689+88968", "properties": {"area_ha": 9.583723114254152, "count": 33, "label": 1, "mean_dnbr": 0.21381056476345994}}, {"type": "Feature", "geometry": {"geodesic": false, "type": "Polygon", "coordinates": [[[35.96757071631066, 35.96582411673141], [35.96810970548114, 35.96582411673141], [35.96810970548114, 35.966363105901884], [35.96864869465159, 35.966363105901884], [35.96864869465159, 35.966902095072356], [35.96810970548114, 35.966902095072356], [35.96810970548114, 35.96744108424283], [35.96864869465159, 35.96744108424283], [35.96864869465159, 35.96851906258377], [35.96810970548114, 35.96851906258377], [35.96810970548114, 35.96959704092472], [35.96918768382207, 35.96959704092472], [35.96918768382207, 35.97013603009519], [35.96972667299255, 35.97013603009519], [35.96972667299255, 35.969058051754246], [35.97080465133348, 35.969058051754246], [35.97080465133348, 35.96851906258377], [35.97242161884492, 35.96851906258377], [35.97242161884492, 35.969058051754246], [35.97349959718585, 35.969058051754246], [35.97349959718585, 35.96851906258377], [35.97403858635633, 35.96851906258377], [35.97403858635633, 35.97067501926566], [35.97349959718585, 35.97067501926566], [35.97349959718585, 35.97121400843613], [35.97242161884492, 35.97121400843613], [35.97242161884492, 35.97229198677707], [35.97296060801537, 35.97229198677707], [35.97296060801537, 35.9717529976066], [35.97349959718585, 35.9717529976066], [35.97349959718585, 35.97229198677707], [35.97403858635633, 35.97229198677707], [35.97403858635633, 35.9717529976066], [35.97457757552678, 35.9717529976066], [35.97457757552678, 35.97121400843613], [35.97565555386774, 35.97121400843613], [35.97565555386774, 35.97067501926566], [35.97619454303822, 35.97067501926566], [35.97619454303822, 35.9717529976066], [35.97673353220867, 35.9717529976066], [35.97673353220867, 35.972830975947545], [35.97619454303822, 35.972830975947545], [35.97619454303822, 35.9717529976066], [35.97457757552678, 35.9717529976066], [35.97457757552678, 35.97229198677707], [35.97511656469726, 35.97229198677707], [35.97511656469726, 35.97336996511802], [35.97457757552678, 35.97336996511802], [35.97457757552678, 35.97390895428849], [35.97296060801537, 35.97390895428849], [35.97296060801537, 35.97336996511802], [35.97188262967444, 35.97336996511802], [35.97188262967444, 35.97229198677707], [35.97080465133348, 35.97229198677707], [35.97080465133348, 35.9717529976066], [35.97026566216303, 35.9717529976066], [35.97026566216303, 35.97121400843613], [35.96918768382207, 35.97121400843613], [35.96918768382207, 35.97013603009519], [35.96810970548114, 35.97013603009519], [35.96810970548114, 35.96959704092472], [35.96703172714018, 35.96959704092472], [35.96703172714018, 35.969058051754246], [35.9664927379697, 35.969058051754246], [35.9664927379697, 35.96851906258377], [35.96541475962877, 35.96851906258377], [35.96541475962877, 35.96744108424283], [35.96595374879925, 35.96744108424283], [35.96595374879925, 35.966902095072356], [35.96703172714018, 35.966902095072356], [35.96703172714018, 35.966363105901884], [35.96757071631066, 35.966363105901884], [35.96757071631066, 35.96582411673141]], [[35.96703172714018, 35.9679800734133], [35.96703172714018, 35.96851906258377], [35.9664927379697, 35.96851906258377], [35.9664927379697, 35.9679800734133], [35.96703172714018, 35.9679800734133]]]}, "id": "+400690+89118", "properties": {"area_ha": 27.035582382593585, "count": 93, "label": 1, "mean_dnbr": 0.2863742208546996}}, {"type": "Feature", "geometry": {"geodesic": false, "type": "Polygon", "coordinates": [[[35.96595374879925, 35.84401256420481], [35.96810970548114, 35.84401256420481], [35.96810970548114, 35.844551553375275], [35.96918768382207, 35.844551553375275], [35.96918768382207, 35.84509054254575], [35.97026566216303, 35.84509054254575], [35.97026566216303, 35.84616852088669], [35.96918768382207, 35.84616852088669], [35.96918768382207, 35.84724649922764], [35.96864869465159, 35.84724649922764], [35.96864869465159, 35.84778548839811], [35.96703172714018, 35.84778548839811], [35.96703172714018, 35.84832447756858], [35.9664927379697, 35.84832447756858], [35.9664927379697, 35.84940245590953], [35.96541475962877, 35.84940245590953], [35.96541475962877, 35.848863466739054], [35.96487577045829, 35.848863466739054], [35.96487577045829, 35.84940245590953], [35.96433678128784, 35.84940245590953], [35.96433678128784, 35.84832447756858], [35.96379779211736, 35.84832447756858], [35.96379779211736, 35.84778548839811], [35.96218082460595, 35.84778548839811], [35.96218082460595, 35.846707510057165], [35.9627198137764, 35.846707510057165], [35.9627198137764, 35.84562953171622], [35.96325880294688, 35.84562953171622], [35.96325880294688, 35.84616852088669], [35.96541475962877, 35.84616852088669], [35.96541475962877, 35.84562953171622], [35.96487577045829, 35.84562953171622], [35.96487577045829, 35.844551553375275], [35.96595374879925, 35.844551553375275], [35.96595374879925, 35.84401256420481]]]}, "id": "+400690+89344", "properties": {"area_ha": 23.87509293609335, "count": 82, "label": 1, "mean_dnbr": 0.42173071854026695}}, {"type": "Feature", "geometry": {"geodesic": false, "type": "Polygon", "coordinates": [[[35.97296060801537, 35.85209740176188], [35.97349959718585, 35.85209740176188], [35.97349959718585, 35.85263639093235], [35.97296060801537, 35.85263639093235], [35.97296060801537, 35.853175380102826], [35.97242161884492, 35.853175380102826], [35.97242161884492, 35.8537143692733], [35.97080465133348, 35.8537143692733], [35.97080465133348, 35.85209740176188], [35.97242161884492, 35.85209740176188], [35.97242161884492, 35.85263639093235], [35.97296060801537, 35.85263639093235], [35.97296060801537, 35.85209740176188]]]}, "id": "+400700+89329", "properties": {"area_ha": 3.202502508996671, "count": 11, "label": 1, "mean_dnbr": 0.3176373835271872}}, {"type": "Feature", "geometry": {"geodesic": false, "type": "Polygon", "coordinates": [[[35.98320140225434, 35.97013603009519], [35.98374039142482, 35.97013603009519], [35.98374039142482, 35.97067501926566], [35.98320140225434, 35.97067501926566], [35.98320140225434, 35.97121400843613], [35.98212342391341, 35.97121400843613], [35.98212342391341, 35.9717529976066], [35.98158443474293, 35.9717529976066], [35.98158443474293, 35.97229198677707], [35.97835049972011, 35.97229198677707], [35.97835049972011, 35.9717529976066], [35.97781151054963, 35.9717529976066], [35.97781151054963, 35.97067501926566], [35.98104544557245, 35.97067501926566], [35.98104544557245, 35.97013603009519], [35.98158443474293, 35.97013603009519], [35.98158443474293, 35.97067501926566], [35.98320140225434, 35.97067501926566], [35.98320140225434, 35.97013603009519]]]}, "id": "+400719+89110", "properties": {"area_ha": 7.5582239647031235, "count": 26, "label": 1, "mean_dnbr": 0.2351365972895774}}, {"type": "Feature", "geometry": {"geodesic": false, "type": "Polygon", "coordinates": [[[35.98643533727716, 35.966902095072356], [35.98859129395905, 35.966902095072356], [35.98859129395905, 35.969058051754246], [35.98643533727716, 35.969058051754246], [35.98643533727716, 35.9679800734133], [35.98589634810671, 35.9679800734133], [35.98589634810671, 35.96744108424283], [35.98643533727716, 35.96744108424283], [35.98643533727716, 35.966902095072356]], [[35.988052304788596, 35.9679800734133], [35.988052304788596, 35.96851906258377], [35.987513315618116, 35.96851906258377], [35.987513315618116, 35.9679800734133], [35.988052304788596, 35.9679800734133]]]}, "id": "+400728+89116", "properties": {"area_ha": 4.6514146064693955, "count": 16, "label": 1, "mean_dnbr": 0.2017870845202902}}, {"type": "Feature", "geometry": {"geodesic": false, "type": "Polygon", "coordinates": [[[35.988052304788596, 35.97444794345896], [35.989669272300006, 35.97444794345896], [35.989669272300006, 35.974986932629434], [35.989130283129526, 35.974986932629434], [35.989130283129526, 35.97552592179991], [35.987513315618116, 35.97552592179991], [35.987513315618116, 35.97606491097038], [35.988052304788596, 35.97606491097038], [35.988052304788596, 35.97660390014085], [35.989130283129526, 35.97660390014085], [35.989130283129526, 35.97714288931132], [35.989669272300006, 35.97714288931132], [35.989669272300006, 35.97768187848179], [35.990747250640936, 35.97768187848179], [35.990747250640936, 35.97822086765226], [35.989669272300006, 35.97822086765226], [35.989669272300006, 35.978759856822734], [35.98859129395905, 35.978759856822734], [35.98859129395905, 35.97822086765226], [35.988052304788596, 35.97822086765226], [35.988052304788596, 35.978759856822734], [35.987513315618116, 35.978759856822734], [35.987513315618116, 35.97822086765226], [35.98697432644764, 35.97822086765226], [35.98697432644764, 35.97768187848179], [35.988052304788596, 35.97768187848179], [35.988052304788596, 35.97660390014085], [35.987513315618116, 35.97660390014085], [35.987513315618116, 35.97606491097038], [35.98697432644764, 35.97606491097038], [35.98697432644764, 35.97552592179991], [35.987513315618116, 35.97552592179991], [35.987513315618116, 35.974986932629434], [35.988052304788596, 35.974986932629434], [35.988052304788596, 35.97444794345896]]]}, "id": "+400730+89102", "properties": {"area_ha": 6.685647731115372, "count": 23, "label": 1, "mean_dnbr": 0.18899665710066976}}, {"type": "Feature", "geometry": {"geodesic": false, "type": "Polygon", "coordinates": [[[35.991286239811416, 35.96312917087906], [35.991825228981895, 35.96312917087906], [35.991825228981895, 35.96366816004953], [35.992364218152346, 35.96366816004953], [35.992364218152346, 35.964746138390474], [35.992903207322826, 35.964746138390474], [35.992903207322826, 35.96582411673141], [35.992364218152346, 35.96582411673141], [35.992364218152346, 35.966363105901884], [35.991825228981895, 35.966363105901884], [35.991825228981895, 35.966902095072356], [35.990208261470485, 35.966902095072356], [35.990208261470485, 35.96744108424283], [35.990747250640936, 35.96744108424283], [35.990747250640936, 35.9679800734133], [35.991286239811416, 35.9679800734133], [35.991286239811416, 35.97013603009519], [35.991825228981895, 35.97013603009519], [35.991825228981895, 35.97067501926566], [35.992903207322826, 35.97067501926566], [35.992903207322826, 35.97121400843613], [35.991825228981895, 35.97121400843613], [35.991825228981895, 35.9717529976066], [35.991286239811416, 35.9717529976066], [35.991286239811416, 35.97229198677707], [35.991825228981895, 35.97229198677707], [35.991825228981895, 35.972830975947545], [35.991286239811416, 35.972830975947545], [35.991286239811416, 35.97336996511802], [35.990208261470485, 35.97336996511802], [35.990208261470485, 35.97229198677707], [35.990747250640936, 35.97229198677707], [35.990747250640936, 35.97067501926566], [35.990208261470485, 35.97067501926566], [35.990208261470485, 35.96959704092472], [35.990747250640936, 35.96959704092472], [35.990747250640936, 35.969058051754246], [35.989130283129526, 35.969058051754246], [35.989130283129526, 35.9679800734133], [35.989669272300006, 35.9679800734133], [35.989669272300006, 35.966363105901884], [35.990208261470485, 35.966363105901884], [35.990208261470485, 35.96420714922], [35.991286239811416, 35.96420714922], [35.991286239811416, 35.96312917087906]]]}, "id": "+400734+89123", "properties": {"area_ha": 15.698538527756252, "count": 54, "label": 1, "mean_dnbr": 0.2340057775063739}}, {"type": "Feature", "geometry": {"geodesic": false, "type": "Polygon", "coordinates": [[[36.00368299073227, 35.97768187848179], [36.0047609690732, 35.97768187848179], [36.0047609690732, 35.978759856822734], [36.00583894741416, 35.978759856822734], [36.00583894741416, 35.97983783516368], [36.00745591492557, 35.97983783516368], [36.00745591492557, 35.98091581350462], [36.00799490409605, 35.98091581350462], [36.00799490409605, 35.981454802675096], [36.00745591492557, 35.981454802675096], [36.00745591492557, 35.98091581350462], [36.00691692575509, 35.98091581350462], [36.00691692575509, 35.98037682433415], [36.00529995824368, 35.98037682433415], [36.00529995824368, 35.97983783516368], [36.00368299073227, 35.97983783516368], [36.00368299073227, 35.979298845993206], [36.004221979902724, 35.979298845993206], [36.004221979902724, 35.97822086765226], [36.00368299073227, 35.97822086765226], [36.00368299073227, 35.97768187848179]]]}, "id": "+400758+89096", "properties": {"area_ha": 4.650735056045726, "count": 16, "label": 1, "mean_dnbr": 0.22909948591058796}}, {"type": "Feature", "geometry": {"geodesic": false, "type": "Polygon", "coordinates": [[[36.00368299073227, 35.862877185171314], [36.00529995824368, 35.862877185171314], [36.00529995824368, 35.863416174341786], [36.00583894741416, 35.863416174341786], [36.00583894741416, 35.8650331418532], [36.0047609690732, 35.8650331418532], [36.0047609690732, 35.86449415268273], [36.004221979902724, 35.86449415268273], [36.004221979902724, 35.8650331418532], [36.00314400156179, 35.8650331418532], [36.00314400156179, 35.86395516351226], [36.00368299073227, 35.86395516351226], [36.00368299073227, 35.862877185171314]]]}, "id": "+400759+89309", "properties": {"area_ha": 4.657528097064515, "count": 16, "label": 1, "mean_dnbr": 0.3258245678660525}}, {"type": "Feature", "geometry": {"geodesic": false, "type": "Polygon", "coordinates": [[[36.01823569833499, 35.865572131023676], [36.01877468750547, 35.865572131023676], [36.01877468750547, 35.86611112019415], [36.01931367667595, 35.86611112019415], [36.01931367667595, 35.86665010936462], [36.02039165501688, 35.86665010936462], [36.02039165501688, 35.86718909853509], [36.02093064418736, 35.86718909853509], [36.02093064418736, 35.86611112019415], [36.02146963335784, 35.86611112019415], [36.02146963335784, 35.86718909853509], [36.02093064418736, 35.86718909853509], [36.02093064418736, 35.867728087705565], [36.01769670916454, 35.867728087705565], [36.01769670916454, 35.86826707687604], [36.01823569833499, 35.86826707687604], [36.01823569833499, 35.8688060660465], [36.01877468750547, 35.8688060660465], [36.01877468750547, 35.869345055216975], [36.01931367667595, 35.869345055216975], [36.01931367667595, 35.86988404438745], [36.01985266584643, 35.86988404438745], [36.01985266584643, 35.87042303355792], [36.01823569833499, 35.87042303355792], [36.01823569833499, 35.87096202272839], [36.01769670916454, 35.87096202272839], [36.01769670916454, 35.869345055216975], [36.01823569833499, 35.869345055216975], [36.01823569833499, 35.8688060660465], [36.01769670916454, 35.8688060660465], [36.01769670916454, 35.86826707687604], [36.01715771999406, 35.86826707687604], [36.01715771999406, 35.867728087705565], [36.01769670916454, 35.867728087705565], [36.01769670916454, 35.86718909853509], [36.01715771999406, 35.86718909853509], [36.01715771999406, 35.86665010936462], [36.01823569833499, 35.86665010936462], [36.01823569833499, 35.865572131023676]]]}, "id": "+400784+89304", "properties": {"area_ha": 8.15029168161297, "count": 28, "label": 1, "mean_dnbr": 0.301457724334999}}, {"type": "Feature", "geometry": {"geodesic": false, "type": "Polygon", "coordinates": [[[36.01877468750547, 35.87204000106934], [36.02039165501688, 35.87204000106934], [36.02039165501688, 35.87257899023981], [36.02200862252829, 35.87257899023981], [36.02200862252829, 35.87311797941028], [36.02146963335784, 35.87311797941028], [36.02146963335784, 35.873656968580754], [36.02093064418736, 35.873656968580754], [36.02093064418736, 35.87473494692169], [36.02200862252829, 35.87473494692169], [36.02200862252829, 35.875812925262636], [36.02146963335784, 35.875812925262636], [36.02146963335784, 35.87742989277405], [36.02200862252829, 35.87742989277405], [36.02200862252829, 35.877968881944525], [36.02632053589207, 35.877968881944525], [36.02632053589207, 35.875812925262636], [36.02685952506255, 35.875812925262636], [36.02685952506255, 35.87689090360358], [36.02739851423303, 35.87689090360358], [36.02739851423303, 35.87635191443311], [36.02901548174444, 35.87635191443311], [36.02901548174444, 35.87742989277405], [36.02955447091492, 35.87742989277405], [36.02955447091492, 35.88066382779688], [36.02901548174444, 35.88066382779688], [36.02901548174444, 35.88120281696735], [36.02739851423303, 35.88120281696735], [36.02739851423303, 35.881741806137825], [36.02685952506255, 35.881741806137825], [36.02685952506255, 35.8822807953083], [36.02578154672162, 35.8822807953083], [36.02578154672162, 35.881741806137825], [36.02524255755114, 35.881741806137825], [36.02524255755114, 35.8822807953083], [36.02470356838066, 35.8822807953083], [36.02470356838066, 35.881741806137825], [36.02254761169877, 35.881741806137825], [36.02254761169877, 35.88120281696735], [36.02200862252829, 35.88120281696735], [36.02200862252829, 35.88066382779688], [36.01715771999406, 35.88066382779688], [36.01715771999406, 35.88120281696735], [36.0160797416531, 35.88120281696735], [36.0160797416531, 35.88066382779688], [36.01392378497124, 35.88066382779688], [36.01392378497124, 35.880124838626415], [36.00691692575509, 35.880124838626415], [36.00691692575509, 35.88066382779688], [36.00152703405038, 35.88066382779688], [36.00152703405038, 35.880124838626415], [36.000449055709424, 35.880124838626415], [36.000449055709424, 35.87958584945594], [35.99991006653897, 35.87958584945594], [35.99991006653897, 35.87904686028547], [36.00152703405038, 35.87904686028547], [36.00152703405038, 35.878507871115], [36.00206602322086, 35.878507871115], [36.00206602322086, 35.87742989277405], [36.004221979902724, 35.87742989277405], [36.004221979902724, 35.877968881944525], [36.00529995824368, 35.877968881944525], [36.00529995824368, 35.878507871115], [36.00691692575509, 35.878507871115], [36.00691692575509, 35.877968881944525], [36.00745591492557, 35.877968881944525], [36.00745591492557, 35.87742989277405], [36.00637793658461, 35.87742989277405], [36.00637793658461, 35.87635191443311], [36.00691692575509, 35.87635191443311], [36.00691692575509, 35.87689090360358], [36.00745591492557, 35.87689090360358], [36.00745591492557, 35.87635191443311], [36.0085338932665, 35.87635191443311], [36.0085338932665, 35.87689090360358], [36.01122883911887, 35.87689090360358], [36.01122883911887, 35.875812925262636], [36.01176782828935, 35.875812925262636], [36.01176782828935, 35.875273936092164], [36.01284580663028, 35.875273936092164], [36.01284580663028, 35.875812925262636], [36.01392378497124, 35.875812925262636], [36.01392378497124, 35.87689090360358], [36.01446277414169, 35.87689090360358], [36.01446277414169, 35.875812925262636], [36.01500176331217, 35.875812925262636], [36.01500176331217, 35.875273936092164], [36.0160797416531, 35.875273936092164], [36.0160797416531, 35.874195957751226], [36.01500176331217, 35.874195957751226], [36.01500176331217, 35.873656968580754], [36.0160797416531, 35.873656968580754], [36.0160797416531, 35.87311797941028], [36.01661873082358, 35.87311797941028], [36.01661873082358, 35.873656968580754], [36.0160797416531, 35.873656968580754], [36.0160797416531, 35.874195957751226], [36.01769670916454, 35.874195957751226], [36.01769670916454, 35.87257899023981], [36.01877468750547, 35.87257899023981], [36.01877468750547, 35.87204000106934]], [[36.02524255755114, 35.87904686028547], [36.02524255755114, 35.87958584945594], [36.02578154672162, 35.87958584945594], [36.02578154672162, 35.880124838626415], [36.02470356838066, 35.880124838626415], [36.02470356838066, 35.87904686028547], [36.02524255755114, 35.87904686028547]], [[36.02901548174444, 35.878507871115], [36.02901548174444, 35.87904686028547], [36.02847649257396, 35.87904686028547], [36.02847649257396, 35.878507871115], [36.02901548174444, 35.878507871115]], [[36.01284580663028, 35.87689090360358], [36.01284580663028, 35.87742989277405], [36.01122883911887, 35.87742989277405], [36.01122883911887, 35.87689090360358], [36.01284580663028, 35.87689090360358]], [[36.02093064418736, 35.87473494692169], [36.02093064418736, 35.875273936092164], [36.02039165501688, 35.875273936092164], [36.02039165501688, 35.87473494692169], [36.02093064418736, 35.87473494692169]]]}, "id": "+400787+89292", "properties": {"area_ha": 128.93270257517042, "count": 443, "label": 1, "mean_dnbr": 0.4579879218359221}}, {"type": "Feature", "geometry": {"geodesic": false, "type": "Polygon", "coordinates": [[[36.02739851423303, 35.85587032595519], [36.02847649257396, 35.85587032595519], [36.02847649257396, 35.856948304296125], [36.02901548174444, 35.856948304296125], [36.02901548174444, 35.85640931512565], [36.03009346008537, 35.85640931512565], [36.03009346008537, 35.86072122848943], [36.02901548174444, 35.86072122848943], [36.02901548174444, 35.861260217659904], [36.02847649257396, 35.861260217659904], [36.02847649257396, 35.86233819600085], [36.02793750340348, 35.86233819600085], [36.02793750340348, 35.861799206830376], [36.02739851423303, 35.861799206830376], [36.02739851423303, 35.86233819600085], [36.02685952506255, 35.86233819600085], [36.02685952506255, 35.861799206830376], [36.02632053589207, 35.861799206830376], [36.02632053589207, 35.86395516351226], [36.02524255755114, 35.86395516351226], [36.02524255755114, 35.862877185171314], [36.02578154672162, 35.862877185171314], [36.02578154672162, 35.861260217659904], [36.02739851423303, 35.861260217659904], [36.02739851423303, 35.86072122848943], [36.02793750340348, 35.86072122848943], [36.02793750340348, 35.859104260978015], [36.02847649257396, 35.859104260978015], [36.02847649257396, 35.85802628263707], [36.02793750340348, 35.85802628263707], [36.02793750340348, 35.85640931512565], [36.02739851423303, 35.85640931512565], [36.02739851423303, 35.85587032595519]]]}, "id": "+400802+89322", "properties": {"area_ha": 13.68223702080909, "count": 47, "label": 1, "mean_dnbr": 0.2568744411006186}}, {"type": "Feature", "geometry": {"geodesic": false, "type": "Polygon", "coordinates": [[[36.045185156858594, 35.148177545125826], [36.04734111354048, 35.148177545125826], [36.04734111354048, 35.14925552346677], [36.046802124370004, 35.14925552346677], [36.046802124370004, 35.150333501807715], [36.045724146029045, 35.150333501807715], [36.045724146029045, 35.14979451263724], [36.044646167688114, 35.14979451263724], [36.044646167688114, 35.14925552346677], [36.044107178517635, 35.14925552346677], [36.044107178517635, 35.1487165342963], [36.045185156858594, 35.1487165342963], [36.045185156858594, 35.148177545125826]]]}, "id": "+400837+90635", "properties": {"area_ha": 4.699171699566085, "count": 16, "label": 1, "mean_dnbr": 0.40793985069132394}}, {"type": "Feature", "geometry": {"geodesic": false, "type": "Polygon", "coordinates": [[[36.05273100524519, 36.006248304516795], [36.05380898358612, 36.006248304516795], [36.05380898358612, 36.00678729368727], [36.0543479727566, 36.00678729368727], [36.0543479727566, 36.007865272028205], [36.05488696192708, 36.007865272028205], [36.05488696192708, 36.00840426119868], [36.05380898358612, 36.00840426119868], [36.05380898358612, 36.00894325036915], [36.0543479727566, 36.00894325036915], [36.0543479727566, 36.00948223953962], [36.05326999441567, 36.00948223953962], [36.05326999441567, 36.00894325036915], [36.05273100524519, 36.00894325036915], [36.05273100524519, 36.00840426119868], [36.05219201607471, 36.00840426119868], [36.05219201607471, 36.00732628285773], [36.05273100524519, 36.00732628285773], [36.05273100524519, 36.006248304516795]]]}, "id": "+400849+89043", "properties": {"area_ha": 5.230197038478236, "count": 18, "label": 1, "mean_dnbr": 0.3040931678037045}}, {"type": "Feature", "geometry": {"geodesic": false, "type": "Polygon", "coordinates": [[[36.07590753957547, 35.33897971147281], [36.07698551791643, 35.33897971147281], [36.07698551791643, 35.33951870064328], [36.07644652874595, 35.33951870064328], [36.07644652874595, 35.34059667898423], [36.07536855040499, 35.34059667898423], [36.07536855040499, 35.33951870064328], [36.07482956123454, 35.33951870064328], [36.07482956123454, 35.34059667898423], [36.07321259372313, 35.34059667898423], [36.07321259372313, 35.340057689813754], [36.07267360455265, 35.340057689813754], [36.07267360455265, 35.33951870064328], [36.07429057206406, 35.33951870064328], [36.07429057206406, 35.33897971147281], [36.07536855040499, 35.33897971147281], [36.07536855040499, 35.33951870064328], [36.07590753957547, 35.33951870064328], [36.07590753957547, 35.33897971147281]]]}, "id": "+400892+90281", "properties": {"area_ha": 4.395129658467845, "count": 15, "label": 1, "mean_dnbr": 0.23806514123645395}}, {"type": "Feature", "geometry": {"geodesic": false, "type": "Polygon", "coordinates": [[[36.089921258007735, 36.02295696880142], [36.091538225519145, 36.02295696880142], [36.091538225519145, 36.02403494714236], [36.0926162038601, 36.02403494714236], [36.0926162038601, 36.024573936312834], [36.093155193030555, 36.024573936312834], [36.093155193030555, 36.026190903824244], [36.092077214689624, 36.026190903824244], [36.092077214689624, 36.026729892994716], [36.091538225519145, 36.026729892994716], [36.091538225519145, 36.026190903824244], [36.090999236348694, 36.026190903824244], [36.090999236348694, 36.02565191465377], [36.089921258007735, 36.02565191465377], [36.089921258007735, 36.025112925483306], [36.089382268837255, 36.025112925483306], [36.089382268837255, 36.02565191465377], [36.088843279666804, 36.02565191465377], [36.088843279666804, 36.02403494714236], [36.089921258007735, 36.02403494714236], [36.089921258007735, 36.02295696880142]]]}, "id": "+400919+89012", "properties": {"area_ha": 9.5866296959723, "count": 33, "label": 1, "mean_dnbr": 0.27057991734286807}}, {"type": "Feature", "geometry": {"geodesic": false, "type": "Polygon", "coordinates": [[[36.12172161906557, 35.813829170658394], [36.12333858657698, 35.813829170658394], [36.12333858657698, 35.81652411651075], [36.12226060823605, 35.81652411651075], [36.12226060823605, 35.815446138169804], [36.12172161906557, 35.815446138169804], [36.12172161906557, 35.813829170658394]]]}, "id": "+400978+89400", "properties": {"area_ha": 3.7865774975807946, "count": 13, "label": 1, "mean_dnbr": 0.23072166644524728}}, {"type": "Feature", "geometry": {"geodesic": false, "type": "Polygon", "coordinates": [[[36.16645772021471, 35.71357718495065], [36.16915266606708, 35.71357718495065], [36.16915266606708, 35.714655163291596], [36.1686136768966, 35.714655163291596], [36.1686136768966, 35.71519415246207], [36.16753569855567, 35.71519415246207], [36.16753569855567, 35.714655163291596], [36.16645772021471, 35.714655163291596], [36.16645772021471, 35.71357718495065]]]}, "id": "+401063+89586", "properties": {"area_ha": 3.499724492904923, "count": 12, "label": 1, "mean_dnbr": 0.22162733680879965}}, {"type": "Feature", "geometry": {"geodesic": false, "type": "Polygon", "coordinates": [[[36.19340717873831, 35.86826707687604], [36.19448515707924, 35.86826707687604], [36.19448515707924, 35.869345055216975], [36.19502414624972, 35.869345055216975], [36.19502414624972, 35.86988404438745], [36.19448515707924, 35.86988404438745], [36.19448515707924, 35.87096202272839], [36.19394616790879, 35.87096202272839], [36.19394616790879, 35.87042303355792], [36.19286818956783, 35.87042303355792], [36.19286818956783, 35.8688060660465], [36.19340717873831, 35.8688060660465], [36.19340717873831, 35.86826707687604]]]}, "id": "+401110+89299", "properties": {"area_ha": 3.7839795737992907, "count": 13, "label": 1, "mean_dnbr": 0.5285846250873624}}, {"type": "Feature", "geometry": {"geodesic": false, "type": "Polygon", "coordinates": [[[36.233831366523674, 35.32119306884724], [36.23490934486463, 35.32119306884724], [36.23490934486463, 35.32281003635866], [36.23598732320556, 35.32281003635866], [36.23598732320556, 35.323888014699605], [36.23544833403511, 35.323888014699605], [36.23544833403511, 35.32442700387008], [36.23437035569415, 35.32442700387008], [36.23437035569415, 35.32496599304055], [36.233831366523674, 35.32496599304055], [36.233831366523674, 35.323888014699605], [36.23275338818274, 35.323888014699605], [36.23275338818274, 35.32334902552913], [36.232214399012264, 35.32334902552913], [36.232214399012264, 35.321732058017716], [36.233831366523674, 35.321732058017716], [36.233831366523674, 35.32119306884724]]]}, "id": "+401185+90314", "properties": {"area_ha": 8.49902167445431, "count": 29, "label": 1, "mean_dnbr": 0.399353733630668}}, {"type": "Feature", "geometry": {"geodesic": false, "type": "Polygon", "coordinates": [[[36.23706530154652, 35.50175444095527], [36.23814327988745, 35.50175444095527], [36.23814327988745, 35.503371408466684], [36.23706530154652, 35.503371408466684], [36.23706530154652, 35.503910397637156], [36.23652631237604, 35.503910397637156], [36.23652631237604, 35.50444938680763], [36.23490934486463, 35.50444938680763], [36.23490934486463, 35.5049883759781], [36.23437035569415, 35.5049883759781], [36.23437035569415, 35.50552736514857], [36.233831366523674, 35.50552736514857], [36.233831366523674, 35.5049883759781], [36.232214399012264, 35.5049883759781], [36.232214399012264, 35.50552736514857], [36.231136420671334, 35.50552736514857], [36.231136420671334, 35.506066354319046], [36.23167540984181, 35.506066354319046], [36.23167540984181, 35.50714433265998], [36.230597431500854, 35.50714433265998], [36.230597431500854, 35.506066354319046], [36.227363496478034, 35.506066354319046], [36.227363496478034, 35.50444938680763], [36.226285518137075, 35.50444938680763], [36.226285518137075, 35.5049883759781], [36.224668550625665, 35.5049883759781], [36.224668550625665, 35.50552736514857], [36.224129561455186, 35.50552736514857], [36.224129561455186, 35.5049883759781], [36.223590572284735, 35.5049883759781], [36.223590572284735, 35.503910397637156], [36.224668550625665, 35.503910397637156], [36.224668550625665, 35.503371408466684], [36.226285518137075, 35.503371408466684], [36.226285518137075, 35.50283241929621], [36.228441474818965, 35.50283241929621], [36.228441474818965, 35.50175444095527], [36.228980463989444, 35.50175444095527], [36.228980463989444, 35.50229343012574], [36.229519453159924, 35.50229343012574], [36.229519453159924, 35.50283241929621], [36.230058442330375, 35.50283241929621], [36.230058442330375, 35.503371408466684], [36.23167540984181, 35.503371408466684], [36.23167540984181, 35.503910397637156], [36.232214399012264, 35.503910397637156], [36.232214399012264, 35.503371408466684], [36.23275338818274, 35.503371408466684], [36.23275338818274, 35.50283241929621], [36.233831366523674, 35.50283241929621], [36.233831366523674, 35.503371408466684], [36.23598732320556, 35.503371408466684], [36.23598732320556, 35.50229343012574], [36.23706530154652, 35.50229343012574], [36.23706530154652, 35.50175444095527]], [[36.225746528966596, 35.503910397637156], [36.225746528966596, 35.50444938680763], [36.225207539796145, 35.50444938680763], [36.225207539796145, 35.503910397637156], [36.225746528966596, 35.503910397637156]]]}, "id": "+401191+89979", "properties": {"area_ha": 31.580449442440003, "count": 108, "label": 1, "mean_dnbr": 0.530139313118847}}, {"type": "Feature", "geometry": {"geodesic": false, "type": "Polygon", "coordinates": [[[36.24676710661501, 35.220402093969035], [36.24730609578549, 35.220402093969035], [36.24730609578549, 35.22148007230998], [36.24784508495594, 35.22148007230998], [36.24784508495594, 35.2230970398214], [36.24676710661501, 35.2230970398214], [36.24676710661501, 35.22201906148045], [36.24622811744453, 35.22201906148045], [36.24622811744453, 35.222558050650925], [36.2451501391036, 35.222558050650925], [36.2451501391036, 35.22148007230998], [36.24622811744453, 35.22148007230998], [36.24622811744453, 35.22094108313951], [36.24676710661501, 35.22094108313951], [36.24676710661501, 35.220402093969035]]]}, "id": "+401208+90501", "properties": {"area_ha": 4.108100077368443, "count": 14, "label": 1, "mean_dnbr": 0.2926440110296647}}, {"type": "Feature", "geometry": {"geodesic": false, "type": "Polygon", "coordinates": [[[36.24568912827405, 35.38910570432668], [36.24838407412642, 35.38910570432668], [36.24838407412642, 35.390183682667626], [36.2489230632969, 35.390183682667626], [36.2489230632969, 35.389644693497154], [36.24946205246738, 35.389644693497154], [36.24946205246738, 35.390183682667626], [36.25054003080831, 35.390183682667626], [36.25054003080831, 35.3907226718381], [36.25000104163783, 35.3907226718381], [36.25000104163783, 35.39233963934951], [36.24946205246738, 35.39233963934951], [36.24946205246738, 35.39287862851998], [36.24838407412642, 35.39287862851998], [36.24838407412642, 35.39341761769045], [36.24784508495594, 35.39341761769045], [36.24784508495594, 35.3944955960314], [36.24730609578549, 35.3944955960314], [36.24730609578549, 35.39557357437234], [36.24676710661501, 35.39557357437234], [36.24676710661501, 35.39665155271329], [36.24622811744453, 35.39665155271329], [36.24622811744453, 35.396112563542815], [36.24568912827405, 35.396112563542815], [36.24568912827405, 35.39719054188376], [36.24461114993312, 35.39719054188376], [36.24461114993312, 35.396112563542815], [36.24568912827405, 35.396112563542815], [36.24568912827405, 35.39557357437234], [36.24461114993312, 35.39557357437234], [36.24461114993312, 35.39503458520187], [36.24407216076264, 35.39503458520187], [36.24407216076264, 35.39557357437234], [36.24245519325123, 35.39557357437234], [36.24245519325123, 35.396112563542815], [36.24191620408075, 35.396112563542815], [36.24191620408075, 35.39557357437234], [36.2413772149103, 35.39557357437234], [36.2413772149103, 35.39503458520187], [36.23922125822841, 35.39503458520187], [36.23922125822841, 35.39341761769045], [36.24029923656934, 35.39341761769045], [36.24029923656934, 35.393956606860925], [36.2413772149103, 35.393956606860925], [36.2413772149103, 35.39341761769045], [36.24353317159219, 35.39341761769045], [36.24353317159219, 35.39287862851998], [36.24299418242171, 35.39287862851998], [36.24299418242171, 35.39233963934951], [36.24191620408075, 35.39233963934951], [36.24191620408075, 35.39180065017904], [36.2413772149103, 35.39180065017904], [36.2413772149103, 35.3907226718381], [36.24191620408075, 35.3907226718381], [36.24191620408075, 35.390183682667626], [36.24245519325123, 35.390183682667626], [36.24245519325123, 35.3907226718381], [36.24461114993312, 35.3907226718381], [36.24461114993312, 35.390183682667626], [36.24622811744453, 35.390183682667626], [36.24622811744453, 35.389644693497154], [36.24568912827405, 35.389644693497154], [36.24568912827405, 35.38910570432668]], [[36.2451501391036, 35.39233963934951], [36.2451501391036, 35.39287862851998], [36.24568912827405, 35.39287862851998], [36.24568912827405, 35.39341761769045], [36.2451501391036, 35.39341761769045], [36.2451501391036, 35.39503458520187], [36.24461114993312, 35.39503458520187], [36.24461114993312, 35.39341761769045], [36.24407216076264, 35.39341761769045], [36.24407216076264, 35.39287862851998], [36.24461114993312, 35.39287862851998], [36.24461114993312, 35.39233963934951], [36.2451501391036, 35.39233963934951]]]}, "id": "+401210+90188", "properties": {"area_ha": 42.751206440146575, "count": 146, "label": 1, "mean_dnbr": 0.6029831882499529}}, {"type": "Feature", "geometry": {"geodesic": false, "type": "Polygon", "coordinates": [[[36.2526959874902, 35.367546137507816], [36.25377396583113, 35.367546137507816], [36.25377396583113, 35.36808512667828], [36.25700790085398, 35.36808512667828], [36.25700790085398, 35.36862411584875], [36.25808587919491, 35.36862411584875], [36.25808587919491, 35.369163105019226], [36.25862486836539, 35.369163105019226], [36.25862486836539, 35.3697020941897], [36.26078082504728, 35.3697020941897], [36.26078082504728, 35.37078007253064], [36.26239779255869, 35.37078007253064], [36.26239779255869, 35.37024108336017], [36.26293678172917, 35.37024108336017], [36.26293678172917, 35.371319061701115], [36.26347577089962, 35.371319061701115], [36.26347577089962, 35.37239704004206], [36.26239779255869, 35.37239704004206], [36.26239779255869, 35.373475018383004], [36.26185880338821, 35.373475018383004], [36.26185880338821, 35.37401400755348], [36.26078082504728, 35.37401400755348], [36.26078082504728, 35.37455299672394], [36.2602418358768, 35.37455299672394], [36.2602418358768, 35.375091985894414], [36.25862486836539, 35.375091985894414], [36.25862486836539, 35.37563097506489], [36.25808587919491, 35.37563097506489], [36.25808587919491, 35.375091985894414], [36.25700790085398, 35.375091985894414], [36.25700790085398, 35.37455299672394], [36.2564689116835, 35.37455299672394], [36.2564689116835, 35.37401400755348], [36.25592992251302, 35.37401400755348], [36.25592992251302, 35.37455299672394], [36.25431295500161, 35.37455299672394], [36.25431295500161, 35.373475018383004], [36.25377396583113, 35.373475018383004], [36.25377396583113, 35.37293602921253], [36.25323497666068, 35.37293602921253], [36.25323497666068, 35.37185805087159], [36.2526959874902, 35.37185805087159], [36.2526959874902, 35.37239704004206], [36.25161800914924, 35.37239704004206], [36.25161800914924, 35.37293602921253], [36.25107901997879, 35.37293602921253], [36.25107901997879, 35.373475018383004], [36.25161800914924, 35.373475018383004], [36.25161800914924, 35.37455299672394], [36.25107901997879, 35.37455299672394], [36.25107901997879, 35.37401400755348], [36.25054003080831, 35.37401400755348], [36.25054003080831, 35.373475018383004], [36.24946205246738, 35.373475018383004], [36.24946205246738, 35.37293602921253], [36.24838407412642, 35.37293602921253], [36.24838407412642, 35.37185805087159], [36.24784508495594, 35.37185805087159], [36.24784508495594, 35.371319061701115], [36.24730609578549, 35.371319061701115], [36.24730609578549, 35.37024108336017], [36.24784508495594, 35.37024108336017], [36.24784508495594, 35.37078007253064], [36.24946205246738, 35.37078007253064], [36.24946205246738, 35.3697020941897], [36.25000104163783, 35.3697020941897], [36.25000104163783, 35.369163105019226], [36.24946205246738, 35.369163105019226], [36.24946205246738, 35.367546137507816], [36.25107901997879, 35.367546137507816], [36.25107901997879, 35.36808512667828], [36.2526959874902, 35.36808512667828], [36.2526959874902, 35.367546137507816]], [[36.25916385753587, 35.37401400755348], [36.25916385753587, 35.37455299672394], [36.25808587919491, 35.37455299672394], [36.25808587919491, 35.37401400755348], [36.25916385753587, 35.37401400755348]], [[36.25107901997879, 35.371319061701115], [36.25107901997879, 35.37239704004206], [36.25054003080831, 35.37239704004206], [36.25054003080831, 35.37185805087159], [36.25000104163783, 35.37185805087159], [36.25000104163783, 35.371319061701115], [36.25107901997879, 35.371319061701115]]]}, "id": "+401220+90228", "properties": {"area_ha": 73.80934489339475, "count": 252, "label": 1, "mean_dnbr": 0.5967653596034134}}, {"type": "Feature", "geometry": {"geodesic": false, "type": "Polygon", "coordinates": [[[36.2564689116835, 35.49636454925055], [36.25700790085398, 35.49636454925055], [36.25700790085398, 35.49690353842102], [36.25754689002443, 35.49690353842102], [36.25754689002443, 35.497442527591495], [36.25700790085398, 35.497442527591495], [36.25700790085398, 35.49798151676197], [36.25754689002443, 35.49798151676197], [36.25754689002443, 35.49852050593244], [36.25700790085398, 35.49852050593244], [36.25700790085398, 35.49905949510291], [36.25754689002443, 35.49905949510291], [36.25754689002443, 35.50283241929621], [36.2564689116835, 35.50283241929621], [36.2564689116835, 35.501215451784795], [36.25700790085398, 35.501215451784795], [36.25700790085398, 35.50067646261433], [36.2564689116835, 35.50067646261433], [36.2564689116835, 35.49636454925055]]]}, "id": "+401226+89989", "properties": {"area_ha": 5.848548356546133, "count": 20, "label": 1, "mean_dnbr": 0.15830867242425822}}, {"type": "Feature", "geometry": {"geodesic": false, "type": "Polygon", "coordinates": [[[36.25754689002443, 35.487201733352535], [36.25808587919491, 35.487201733352535], [36.25808587919491, 35.493669603398196], [36.25862486836539, 35.493669603398196], [36.25862486836539, 35.494747581739134], [36.25808587919491, 35.494747581739134], [36.25808587919491, 35.495286570909606], [36.25862486836539, 35.495286570909606], [36.25862486836539, 35.49582556008008], [36.25754689002443, 35.49582556008008], [36.25754689002443, 35.495286570909606], [36.25539093334257, 35.495286570909606], [36.25539093334257, 35.494747581739134], [36.25592992251302, 35.494747581739134], [36.25592992251302, 35.49420859256867], [36.25539093334257, 35.49420859256867], [36.25539093334257, 35.493669603398196], [36.25592992251302, 35.493669603398196], [36.25592992251302, 35.49259162505725], [36.25539093334257, 35.49259162505725], [36.25539093334257, 35.49151364671631], [36.2564689116835, 35.49151364671631], [36.2564689116835, 35.490974657545834], [36.25539093334257, 35.490974657545834], [36.25539093334257, 35.48989667920489], [36.25592992251302, 35.48989667920489], [36.25592992251302, 35.48935769003442], [36.2564689116835, 35.48935769003442], [36.2564689116835, 35.48774072252301], [36.25700790085398, 35.48774072252301], [36.25700790085398, 35.48827971169348], [36.25754689002443, 35.48827971169348], [36.25754689002443, 35.487201733352535]], [[36.2564689116835, 35.48989667920489], [36.2564689116835, 35.49043566837536], [36.25592992251302, 35.49043566837536], [36.25592992251302, 35.48989667920489], [36.2564689116835, 35.48989667920489]], [[36.25754689002443, 35.48935769003442], [36.25754689002443, 35.49043566837536], [36.25700790085398, 35.49043566837536], [36.25700790085398, 35.48935769003442], [36.25754689002443, 35.48935769003442]]]}, "id": "+401228+90006", "properties": {"area_ha": 17.254890779615632, "count": 59, "label": 1, "mean_dnbr": 0.20372486019215666}}, {"type": "Feature", "geometry": {"geodesic": false, "type": "Polygon", "coordinates": [[[36.26347577089962, 35.447316534737624], [36.26455374924058, 35.447316534737624], [36.26455374924058, 35.447855523908096], [36.2640147600701, 35.447855523908096], [36.2640147600701, 35.44893350224904], [36.26455374924058, 35.44893350224904], [36.26455374924058, 35.452167437271875], [36.2640147600701, 35.452167437271875], [36.2640147600701, 35.44893350224904], [36.26293678172917, 35.44893350224904], [36.26293678172917, 35.44947249141951], [36.26239779255869, 35.44947249141951], [36.26239779255869, 35.450011480589986], [36.26131981421776, 35.450011480589986], [36.26131981421776, 35.45055046976046], [36.26078082504728, 35.45055046976046], [36.26078082504728, 35.45108945893093], [36.2602418358768, 35.45108945893093], [36.2602418358768, 35.45055046976046], [36.26078082504728, 35.45055046976046], [36.26078082504728, 35.450011480589986], [36.26131981421776, 35.450011480589986], [36.26131981421776, 35.44947249141951], [36.26185880338821, 35.44947249141951], [36.26185880338821, 35.44893350224904], [36.26131981421776, 35.44893350224904], [36.26131981421776, 35.447855523908096], [36.26185880338821, 35.447855523908096], [36.26185880338821, 35.44893350224904], [36.26239779255869, 35.44893350224904], [36.26239779255869, 35.447316534737624], [36.26293678172917, 35.447316534737624], [36.26293678172917, 35.44839451307857], [36.26347577089962, 35.44839451307857], [36.26347577089962, 35.447316534737624]]]}, "id": "+401240+90080", "properties": {"area_ha": 6.437448226069397, "count": 22, "label": 1, "mean_dnbr": 0.1629567791963147}}, {"type": "Feature", "geometry": {"geodesic": false, "type": "Polygon", "coordinates": [[[36.267248695092945, 35.5049883759781], [36.268865662604355, 35.5049883759781], [36.268865662604355, 35.5087613001714], [36.269404651774806, 35.5087613001714], [36.269404651774806, 35.51037826768282], [36.268865662604355, 35.51037826768282], [36.268865662604355, 35.51253422436471], [36.268326673433876, 35.51253422436471], [36.268326673433876, 35.51145624602376], [36.267787684263396, 35.51145624602376], [36.267787684263396, 35.5087613001714], [36.267248695092945, 35.5087613001714], [36.267248695092945, 35.5049883759781]]]}, "id": "+401248+89973", "properties": {"area_ha": 10.526273341509382, "count": 36, "label": 1, "mean_dnbr": 0.17850566668860765}}, {"type": "Feature", "geometry": {"geodesic": false, "type": "Polygon", "coordinates": [[[36.270482630115765, 35.412821227827436], [36.273177575968134, 35.412821227827436], [36.273177575968134, 35.41336021699791], [36.275872521820475, 35.41336021699791], [36.275872521820475, 35.41389920616838], [36.276411510990954, 35.41389920616838], [36.276411510990954, 35.41605516285027], [36.273177575968134, 35.41605516285027], [36.273177575968134, 35.41713314119121], [36.271560608456696, 35.41713314119121], [36.271560608456696, 35.41605516285027], [36.271021619286245, 35.41605516285027], [36.271021619286245, 35.4155161736798], [36.272099597627175, 35.4155161736798], [36.272099597627175, 35.414977184509326], [36.271560608456696, 35.414977184509326], [36.271560608456696, 35.41443819533885], [36.270482630115765, 35.41443819533885], [36.270482630115765, 35.41389920616838], [36.271560608456696, 35.41389920616838], [36.271560608456696, 35.41336021699791], [36.270482630115765, 35.41336021699791], [36.270482630115765, 35.412821227827436]], [[36.272638586797655, 35.41605516285027], [36.272638586797655, 35.416594152020735], [36.272099597627175, 35.416594152020735], [36.272099597627175, 35.41605516285027], [36.272638586797655, 35.41605516285027]], [[36.272638586797655, 35.41336021699791], [36.272638586797655, 35.41389920616838], [36.272099597627175, 35.41389920616838], [36.272099597627175, 35.41336021699791], [36.272638586797655, 35.41336021699791]]]}, "id": "+401256+90144", "properties": {"area_ha": 16.100516665872135, "count": 55, "label": 1, "mean_dnbr": 0.18808237633101788}}, {"type": "Feature", "geometry": {"geodesic": false, "type": "Polygon", "coordinates": [[[36.27910645684332, 35.38641075847432], [36.28018443518425, 35.38641075847432], [36.28018443518425, 35.38694974764479], [36.28072342435473, 35.38694974764479], [36.28072342435473, 35.38802772598574], [36.28018443518425, 35.38802772598574], [36.28018443518425, 35.38856671515621], [36.279645446013774, 35.38856671515621], [36.279645446013774, 35.38910570432668], [36.27910645684332, 35.38910570432668], [36.27910645684332, 35.38641075847432]]]}, "id": "+401269+90193", "properties": {"area_ha": 3.221187631563385, "count": 11, "label": 1, "mean_dnbr": 0.1788969078700196}}, {"type": "Feature", "geometry": {"geodesic": false, "type": "Polygon", "coordinates": [[[36.28180140269566, 35.459174296488], [36.28449634854803, 35.459174296488], [36.28449634854803, 35.459713285658474], [36.28557432688896, 35.459713285658474], [36.28557432688896, 35.460252274828946], [36.28180140269566, 35.460252274828946], [36.28180140269566, 35.459174296488]]]}, "id": "+401277+90058", "properties": {"area_ha": 3.510900405884548, "count": 12, "label": 1, "mean_dnbr": 0.17150281186873534}}, {"type": "Feature", "geometry": {"geodesic": false, "type": "Polygon", "coordinates": [[[36.29258118610511, 35.460252274828946], [36.29312017527556, 35.460252274828946], [36.29312017527556, 35.46133025316989], [36.28665230522992, 35.46133025316989], [36.28665230522992, 35.46186924234036], [36.28557432688896, 35.46186924234036], [36.28557432688896, 35.46133025316989], [36.28611331605944, 35.46133025316989], [36.28611331605944, 35.46079126399942], [36.29042522942322, 35.46079126399942], [36.29042522942322, 35.460252274828946], [36.29204219693463, 35.460252274828946], [36.29204219693463, 35.46079126399942], [36.29258118610511, 35.46079126399942], [36.29258118610511, 35.460252274828946]]]}, "id": "+401293+90056", "properties": {"area_ha": 5.558932920356636, "count": 19, "label": 1, "mean_dnbr": 0.21346820689744678}}, {"type": "Feature", "geometry": {"geodesic": false, "type": "Polygon", "coordinates": [[[36.29527613195745, 35.650515452005465], [36.29581512112793, 35.650515452005465], [36.29581512112793, 35.65267140868735], [36.29635411029841, 35.65267140868735], [36.29635411029841, 35.65321039785782], [36.29581512112793, 35.65321039785782], [36.29581512112793, 35.654288376198764], [36.29527613195745, 35.654288376198764], [36.29527613195745, 35.65321039785782], [36.29365916444604, 35.65321039785782], [36.29365916444604, 35.65267140868735], [36.29312017527556, 35.65267140868735], [36.29312017527556, 35.652132419516875], [36.29419815361652, 35.652132419516875], [36.29419815361652, 35.65267140868735], [36.294737142787, 35.65267140868735], [36.294737142787, 35.652132419516875], [36.29527613195745, 35.652132419516875], [36.29527613195745, 35.6515934303464], [36.294737142787, 35.6515934303464], [36.294737142787, 35.65105444117594], [36.29527613195745, 35.65105444117594], [36.29527613195745, 35.650515452005465]]]}, "id": "+401298+89703", "properties": {"area_ha": 4.378060802618507, "count": 15, "label": 1, "mean_dnbr": 0.2057237013582154}}, {"type": "Feature", "geometry": {"geodesic": false, "type": "Polygon", "coordinates": [[[36.30012703449171, 35.71519415246207], [36.30282198034408, 35.71519415246207], [36.30282198034408, 35.71573314163254], [36.30443894785549, 35.71573314163254], [36.30443894785549, 35.71627213080301], [36.30497793702594, 35.71627213080301], [36.30497793702594, 35.71573314163254], [36.3060559153669, 35.71573314163254], [36.3060559153669, 35.71735010914396], [36.30659490453738, 35.71735010914396], [36.30659490453738, 35.71788909831442], [36.3060559153669, 35.71788909831442], [36.3060559153669, 35.718428087484895], [36.30389995868501, 35.718428087484895], [36.30389995868501, 35.71896707665537], [36.30282198034408, 35.71896707665537], [36.30282198034408, 35.71950606582584], [36.3022829911736, 35.71950606582584], [36.3022829911736, 35.71896707665537], [36.30282198034408, 35.71896707665537], [36.30282198034408, 35.71788909831442], [36.30174400200312, 35.71788909831442], [36.30174400200312, 35.71735010914396], [36.30012703449171, 35.71735010914396], [36.30012703449171, 35.71627213080301], [36.29904905615075, 35.71627213080301], [36.29904905615075, 35.71573314163254], [36.30012703449171, 35.71573314163254], [36.30012703449171, 35.71519415246207]]]}, "id": "+401311+89583", "properties": {"area_ha": 16.62318827516783, "count": 57, "label": 1, "mean_dnbr": 0.21655634157611536}}, {"type": "Feature", "geometry": {"geodesic": false, "type": "Polygon", "coordinates": [[[36.29743208863934, 35.60524036168584], [36.29743208863934, 35.60577935085631], [36.29635411029841, 35.60577935085631], [36.29635411029841, 35.604701372515365], [36.29904905615075, 35.604701372515365], [36.29904905615075, 35.60416238334489], [36.29958804532123, 35.60416238334489], [36.29958804532123, 35.604701372515365], [36.30066602366219, 35.604701372515365], [36.30066602366219, 35.60416238334489], [36.30120501283264, 35.60416238334489], [36.30120501283264, 35.604701372515365], [36.30174400200312, 35.604701372515365], [36.30174400200312, 35.60416238334489], [36.3022829911736, 35.60416238334489], [36.3022829911736, 35.60362339417442], [36.30336096951453, 35.60362339417442], [36.30336096951453, 35.60416238334489], [36.30282198034408, 35.60416238334489], [36.30282198034408, 35.60577935085631], [36.29797107780982, 35.60577935085631], [36.29797107780982, 35.60524036168584], [36.29743208863934, 35.60524036168584]]]}, "id": "+401312+89790", "properties": {"area_ha": 8.469336511886285, "count": 29, "label": 1, "mean_dnbr": 0.23294923491462804}}, {"type": "Feature", "geometry": {"geodesic": false, "type": "Polygon", "coordinates": [[[36.3060559153669, 35.4554013722947], [36.30659490453738, 35.4554013722947], [36.30659490453738, 35.455940361465174], [36.308750861219266, 35.455940361465174], [36.308750861219266, 35.45647935063565], [36.31144580707161, 35.45647935063565], [36.31144580707161, 35.45701833980612], [36.311984796242086, 35.45701833980612], [36.311984796242086, 35.45755732897659], [36.314679742094455, 35.45755732897659], [36.314679742094455, 35.45701833980612], [36.315757720435386, 35.45701833980612], [36.315757720435386, 35.458096318147064], [36.310367828730676, 35.458096318147064], [36.310367828730676, 35.459174296488], [36.31090681790113, 35.459174296488], [36.31090681790113, 35.459713285658474], [36.30928985038972, 35.459713285658474], [36.30928985038972, 35.459174296488], [36.3098288395602, 35.459174296488], [36.3098288395602, 35.458096318147064], [36.30767288287831, 35.458096318147064], [36.30767288287831, 35.45755732897659], [36.30551692619642, 35.45755732897659], [36.30551692619642, 35.45701833980612], [36.308750861219266, 35.45701833980612], [36.308750861219266, 35.45647935063565], [36.3060559153669, 35.45647935063565], [36.3060559153669, 35.4554013722947]]]}, "id": "+401318+90065", "properties": {"area_ha": 13.166248006282126, "count": 45, "label": 1, "mean_dnbr": 0.2639998555187567}}, {"type": "Feature", "geometry": {"geodesic": false, "type": "Polygon", "coordinates": [[[36.308750861219266, 35.650515452005465], [36.310367828730676, 35.650515452005465], [36.310367828730676, 35.65105444117594], [36.31144580707161, 35.65105444117594], [36.31144580707161, 35.6515934303464], [36.30821187204879, 35.6515934303464], [36.30821187204879, 35.652132419516875], [36.30713389370783, 35.652132419516875], [36.30713389370783, 35.6515934303464], [36.30767288287831, 35.6515934303464], [36.30767288287831, 35.65105444117594], [36.308750861219266, 35.65105444117594], [36.308750861219266, 35.650515452005465]]]}, "id": "+401325+89703", "properties": {"area_ha": 3.5025189894383293, "count": 12, "label": 1, "mean_dnbr": 0.21218230586698655}}, {"type": "Feature", "geometry": {"geodesic": false, "type": "Polygon", "coordinates": [[[36.31090681790113, 35.59338259993546], [36.31144580707161, 35.59338259993546], [36.31144580707161, 35.59392158910593], [36.31090681790113, 35.59392158910593], [36.31090681790113, 35.594460578276404], [36.311984796242086, 35.594460578276404], [36.311984796242086, 35.59392158910593], [36.313601763753496, 35.59392158910593], [36.313601763753496, 35.59499956744688], [36.314140752923976, 35.59499956744688], [36.314140752923976, 35.59553855661735], [36.314679742094455, 35.59553855661735], [36.314679742094455, 35.59607754578782], [36.313601763753496, 35.59607754578782], [36.313601763753496, 35.59499956744688], [36.31090681790113, 35.59499956744688], [36.31090681790113, 35.594460578276404], [36.310367828730676, 35.594460578276404], [36.310367828730676, 35.59392158910593], [36.31090681790113, 35.59392158910593], [36.31090681790113, 35.59338259993546]]]}, "id": "+401327+89809", "properties": {"area_ha": 3.7970711314343455, "count": 13, "label": 1, "mean_dnbr": 0.26154318667309684}}, {"type": "Feature", "geometry": {"geodesic": false, "type": "Polygon", "coordinates": [[[36.30659490453738, 35.53193783450168], [36.313601763753496, 35.53193783450168], [36.313601763753496, 35.53301581284263], [36.30659490453738, 35.53301581284263], [36.30659490453738, 35.53193783450168]]]}, "id": "+401331+89923", "properties": {"area_ha": 7.600019164308939, "count": 26, "label": 1, "mean_dnbr": 0.21468646529097862}}, {"type": "Feature", "geometry": {"geodesic": false, "type": "Polygon", "coordinates": [[[36.314679742094455, 35.50930028934187], [36.315757720435386, 35.50930028934187], [36.315757720435386, 35.509839278512345], [36.316835698776316, 35.509839278512345], [36.316835698776316, 35.51037826768282], [36.318991655458206, 35.51037826768282], [36.318991655458206, 35.51091725685329], [36.316296709605865, 35.51091725685329], [36.316296709605865, 35.51037826768282], [36.314679742094455, 35.51037826768282], [36.314679742094455, 35.50930028934187]]]}, "id": "+401335+89965", "properties": {"area_ha": 3.2162908475185708, "count": 11, "label": 1, "mean_dnbr": 0.16138483948881968}}, {"type": "Feature", "geometry": {"geodesic": false, "type": "Polygon", "coordinates": [[[36.311984796242086, 35.468876101556496], [36.316835698776316, 35.468876101556496], [36.316835698776316, 35.46941509072697], [36.313601763753496, 35.46941509072697], [36.313601763753496, 35.46995407989744], [36.311984796242086, 35.46995407989744], [36.311984796242086, 35.468876101556496]]]}, "id": "+401337+90040", "properties": {"area_ha": 3.5104093507462735, "count": 12, "label": 1, "mean_dnbr": 0.28267861423935364}}, {"type": "Feature", "geometry": {"geodesic": false, "type": "Polygon", "coordinates": [[[36.316296709605865, 35.45486238312423], [36.317374687946796, 35.45486238312423], [36.317374687946796, 35.4554013722947], [36.316296709605865, 35.4554013722947], [36.316296709605865, 35.455940361465174], [36.316835698776316, 35.455940361465174], [36.316835698776316, 35.45647935063565], [36.316296709605865, 35.45647935063565], [36.316296709605865, 35.455940361465174], [36.31144580707161, 35.455940361465174], [36.31144580707161, 35.4554013722947], [36.316296709605865, 35.4554013722947], [36.316296709605865, 35.45486238312423]]]}, "id": "+401338+90066", "properties": {"area_ha": 3.511057981643719, "count": 12, "label": 1, "mean_dnbr": 0.15583952386259647}}, {"type": "Feature", "geometry": {"geodesic": false, "type": "Polygon", "coordinates": [[[36.317374687946796, 35.617098123436215], [36.322225590481054, 35.617098123436215], [36.322225590481054, 35.61763711260669], [36.322764579651505, 35.61763711260669], [36.322764579651505, 35.61817610177716], [36.322225590481054, 35.61817610177716], [36.322225590481054, 35.61871509094763], [36.321147612140095, 35.61871509094763], [36.321147612140095, 35.61817610177716], [36.317913677117275, 35.61817610177716], [36.317913677117275, 35.61871509094763], [36.316835698776316, 35.61871509094763], [36.316835698776316, 35.61763711260669], [36.317374687946796, 35.61763711260669], [36.317374687946796, 35.617098123436215]]]}, "id": "+401347+89765", "properties": {"area_ha": 7.007880256542766, "count": 24, "label": 1, "mean_dnbr": 0.25139916517796485}}, {"type": "Feature", "geometry": {"geodesic": false, "type": "Polygon", "coordinates": [[[36.32438154716294, 35.48181184164782], [36.32653750384483, 35.48181184164782], [36.32653750384483, 35.482889819988756], [36.32599851467435, 35.482889819988756], [36.32599851467435, 35.48235083081829], [36.325459525503874, 35.48235083081829], [36.325459525503874, 35.482889819988756], [36.322225590481054, 35.482889819988756], [36.322225590481054, 35.48235083081829], [36.32438154716294, 35.48235083081829], [36.32438154716294, 35.48181184164782]]]}, "id": "+401355+90016", "properties": {"area_ha": 3.2174072261145463, "count": 11, "label": 1, "mean_dnbr": 0.23817663914795803}}, {"type": "Feature", "geometry": {"geodesic": false, "type": "Polygon", "coordinates": [[[36.327076493015284, 35.48666274418206], [36.32761548218576, 35.48666274418206], [36.32761548218576, 35.487201733352535], [36.32815447135624, 35.487201733352535], [36.32815447135624, 35.48774072252301], [36.327076493015284, 35.48774072252301], [36.327076493015284, 35.48827971169348], [36.32815447135624, 35.48827971169348], [36.32815447135624, 35.48989667920489], [36.32761548218576, 35.48989667920489], [36.32761548218576, 35.49043566837536], [36.325459525503874, 35.49043566837536], [36.325459525503874, 35.48935769003442], [36.323303568821984, 35.48935769003442], [36.323303568821984, 35.48774072252301], [36.323842557992464, 35.48774072252301], [36.323842557992464, 35.487201733352535], [36.327076493015284, 35.487201733352535], [36.327076493015284, 35.48666274418206]]]}, "id": "+401357+90007", "properties": {"area_ha": 12.576121186238773, "count": 43, "label": 1, "mean_dnbr": 0.3686757296142704}}, {"type": "Feature", "geometry": {"geodesic": false, "type": "Polygon", "coordinates": [[[36.32761548218576, 35.4839677983297], [36.32977143886765, 35.4839677983297], [36.32977143886765, 35.48450678750017], [36.33138840637906, 35.48450678750017], [36.33138840637906, 35.485045776670646], [36.33084941720858, 35.485045776670646], [36.33084941720858, 35.48558476584112], [36.32815447135624, 35.48558476584112], [36.32815447135624, 35.485045776670646], [36.32761548218576, 35.485045776670646], [36.32761548218576, 35.4839677983297]], [[36.32923244969717, 35.48450678750017], [36.32923244969717, 35.485045776670646], [36.32815447135624, 35.485045776670646], [36.32815447135624, 35.48450678750017], [36.32923244969717, 35.48450678750017]]]}, "id": "+401361+90012", "properties": {"area_ha": 4.094751625900057, "count": 14, "label": 1, "mean_dnbr": 0.2354394079966542}}, {"type": "Feature", "geometry": {"geodesic": false, "type": "Polygon", "coordinates": [[[36.32815447135624, 35.47588296077263], [36.33031042803813, 35.47588296077263], [36.33031042803813, 35.47696093911357], [36.32761548218576, 35.47696093911357], [36.32761548218576, 35.47749992828404], [36.32653750384483, 35.47749992828404], [36.32653750384483, 35.4764219499431], [36.32815447135624, 35.4764219499431], [36.32815447135624, 35.47588296077263]]]}, "id": "+401362+90027", "properties": {"area_ha": 3.8026584872381433, "count": 13, "label": 1, "mean_dnbr": 0.16629895383335921}}, {"type": "Feature", "geometry": {"geodesic": false, "type": "Polygon", "coordinates": [[[36.32923244969717, 35.49205263588678], [36.33138840637906, 35.49205263588678], [36.33138840637906, 35.49259162505725], [36.33192739554954, 35.49259162505725], [36.33192739554954, 35.493130614227724], [36.33138840637906, 35.493130614227724], [36.33138840637906, 35.493669603398196], [36.33192739554954, 35.493669603398196], [36.33192739554954, 35.49420859256867], [36.33084941720858, 35.49420859256867], [36.33084941720858, 35.493130614227724], [36.32923244969717, 35.493130614227724], [36.32923244969717, 35.49205263588678]]]}, "id": "+401364+89997", "properties": {"area_ha": 3.5094271330665556, "count": 12, "label": 1, "mean_dnbr": 0.1954040181597751}}, {"type": "Feature", "geometry": {"geodesic": false, "type": "Polygon", "coordinates": [[[36.33084941720858, 35.452167437271875], [36.33138840637906, 35.452167437271875], [36.33138840637906, 35.45270642644234], [36.33246638472002, 35.45270642644234], [36.33246638472002, 35.45324541561281], [36.33462234140188, 35.45324541561281], [36.33462234140188, 35.453784404783285], [36.33246638472002, 35.453784404783285], [36.33246638472002, 35.45324541561281], [36.33138840637906, 35.45324541561281], [36.33138840637906, 35.453784404783285], [36.33084941720858, 35.453784404783285], [36.33084941720858, 35.45432339395376], [36.32599851467435, 35.45432339395376], [36.32599851467435, 35.453784404783285], [36.324920536333394, 35.453784404783285], [36.324920536333394, 35.452167437271875], [36.32977143886765, 35.452167437271875], [36.32977143886765, 35.45270642644234], [36.33084941720858, 35.45270642644234], [36.33084941720858, 35.452167437271875]], [[36.32815447135624, 35.45324541561281], [36.32815447135624, 35.453784404783285], [36.327076493015284, 35.453784404783285], [36.327076493015284, 35.45324541561281], [36.32815447135624, 35.45324541561281]]]}, "id": "+401364+90071", "properties": {"area_ha": 13.752053566000528, "count": 47, "label": 1, "mean_dnbr": 0.23900048435752105}}, {"type": "Feature", "geometry": {"geodesic": false, "type": "Polygon", "coordinates": [[[36.33300537389047, 35.5087613001714], [36.33408335223143, 35.5087613001714], [36.33408335223143, 35.50930028934187], [36.33462234140188, 35.50930028934187], [36.33462234140188, 35.509839278512345], [36.33408335223143, 35.509839278512345], [36.33408335223143, 35.51037826768282], [36.33138840637906, 35.51037826768282], [36.33138840637906, 35.509839278512345], [36.33246638472002, 35.509839278512345], [36.33246638472002, 35.50930028934187], [36.33300537389047, 35.50930028934187], [36.33300537389047, 35.5087613001714]]]}, "id": "+401369+89966", "properties": {"area_ha": 3.21631633852403, "count": 11, "label": 1, "mean_dnbr": 0.1815928221140064}}, {"type": "Feature", "geometry": {"geodesic": false, "type": "Polygon", "coordinates": [[[36.33408335223143, 35.460252274828946], [36.33462234140188, 35.460252274828946], [36.33462234140188, 35.46079126399942], [36.33623930891332, 35.46079126399942], [36.33623930891332, 35.46133025316989], [36.32923244969717, 35.46133025316989], [36.32923244969717, 35.46079126399942], [36.33408335223143, 35.46079126399942], [36.33408335223143, 35.460252274828946]]]}, "id": "+401370+90056", "properties": {"area_ha": 4.09611562186393, "count": 14, "label": 1, "mean_dnbr": 0.2163132508732511}}, {"type": "Feature", "geometry": {"geodesic": false, "type": "Polygon", "coordinates": [[[36.33408335223143, 35.44947249141951], [36.33623930891332, 35.44947249141951], [36.33623930891332, 35.450011480589986], [36.33516133057236, 35.450011480589986], [36.33516133057236, 35.45055046976046], [36.33731728725425, 35.45055046976046], [36.33731728725425, 35.45108945893093], [36.33516133057236, 35.45108945893093], [36.33516133057236, 35.45055046976046], [36.33246638472002, 35.45055046976046], [36.33246638472002, 35.44947249141951], [36.33354436306095, 35.44947249141951], [36.33354436306095, 35.450011480589986], [36.33408335223143, 35.450011480589986], [36.33408335223143, 35.44947249141951]]]}, "id": "+401373+90076", "properties": {"area_ha": 4.389124439898773, "count": 15, "label": 1, "mean_dnbr": 0.23003814213749935}}, {"type": "Feature", "geometry": {"geodesic": false, "type": "Polygon", "coordinates": [[[36.33354436306095, 35.47318801492027], [36.33785627642473, 35.47318801492027], [36.33785627642473, 35.47372700409074], [36.33731728725425, 35.47372700409074], [36.33731728725425, 35.47426599326121], [36.33354436306095, 35.47426599326121], [36.33354436306095, 35.474804982431685], [36.33031042803813, 35.474804982431685], [36.33031042803813, 35.47372700409074], [36.33354436306095, 35.47372700409074], [36.33354436306095, 35.47318801492027]]]}, "id": "+401376+90032", "properties": {"area_ha": 7.898062033873806, "count": 27, "label": 1, "mean_dnbr": 0.18431142893003902}}, {"type": "Feature", "geometry": {"geodesic": false, "type": "Polygon", "coordinates": [[[36.33516133057236, 35.59284361076499], [36.33839526559521, 35.59284361076499], [36.33839526559521, 35.59338259993546], [36.34001223310662, 35.59338259993546], [36.34001223310662, 35.59392158910593], [36.34109021144755, 35.59392158910593], [36.34109021144755, 35.59338259993546], [36.34216818978851, 35.59338259993546], [36.34216818978851, 35.59392158910593], [36.34270717895896, 35.59392158910593], [36.34270717895896, 35.594460578276404], [36.34109021144755, 35.594460578276404], [36.34109021144755, 35.59499956744688], [36.33947324393614, 35.59499956744688], [36.33947324393614, 35.59553855661735], [36.33462234140188, 35.59553855661735], [36.33462234140188, 35.59499956744688], [36.33570031974284, 35.59499956744688], [36.33570031974284, 35.594460578276404], [36.33516133057236, 35.594460578276404], [36.33516133057236, 35.59284361076499]]]}, "id": "+401377+89810", "properties": {"area_ha": 14.604216579972219, "count": 50, "label": 1, "mean_dnbr": 0.21388138201919268}}, {"type": "Feature", "geometry": {"geodesic": false, "type": "Polygon", "coordinates": [[[36.33893425476566, 35.59931148081065], [36.33947324393614, 35.59931148081065], [36.33947324393614, 35.59985046998112], [36.34216818978851, 35.59985046998112], [36.34216818978851, 35.600928448322065], [36.34162920061803, 35.600928448322065], [36.34162920061803, 35.60038945915159], [36.33731728725425, 35.60038945915159], [36.33731728725425, 35.59985046998112], [36.33300537389047, 35.59985046998112], [36.33300537389047, 35.59931148081065], [36.33839526559521, 35.59931148081065], [36.33839526559521, 35.59985046998112], [36.33893425476566, 35.59985046998112], [36.33893425476566, 35.59931148081065]]]}, "id": "+401379+89798", "properties": {"area_ha": 6.1333058800713545, "count": 21, "label": 1, "mean_dnbr": 0.2012183426118127}}, {"type": "Feature", "geometry": {"geodesic": false, "type": "Polygon", "coordinates": [[[36.33785627642473, 35.526008953626494], [36.33947324393614, 35.526008953626494], [36.33947324393614, 35.528703899478856], [36.33731728725425, 35.528703899478856], [36.33731728725425, 35.528164910308384], [36.33893425476566, 35.528164910308384], [36.33893425476566, 35.52708693196744], [36.33731728725425, 35.52708693196744], [36.33731728725425, 35.52654794279697], [36.33785627642473, 35.52654794279697], [36.33785627642473, 35.526008953626494]]]}, "id": "+401379+89934", "properties": {"area_ha": 3.800257955426847, "count": 13, "label": 1, "mean_dnbr": 0.21256217448887652}}, {"type": "Feature", "geometry": {"geodesic": false, "type": "Polygon", "coordinates": [[[36.33947324393614, 35.42198404372546], [36.34001223310662, 35.42198404372546], [36.34001223310662, 35.424678989577814], [36.34055122227707, 35.424678989577814], [36.34055122227707, 35.42629595708923], [36.33947324393614, 35.42629595708923], [36.33947324393614, 35.42198404372546]]]}, "id": "+401380+90127", "properties": {"area_ha": 3.2197147960902446, "count": 11, "label": 1, "mean_dnbr": 0.22280764783459603}}, {"type": "Feature", "geometry": {"geodesic": false, "type": "Polygon", "coordinates": [[[36.34486313564085, 35.59338259993546], [36.34701909232274, 35.59338259993546], [36.34701909232274, 35.59392158910593], [36.34917504900463, 35.59392158910593], [36.34917504900463, 35.594460578276404], [36.35025302734559, 35.594460578276404], [36.35025302734559, 35.59499956744688], [36.34863605983415, 35.59499956744688], [36.34863605983415, 35.59553855661735], [36.34701909232274, 35.59553855661735], [36.34701909232274, 35.59499956744688], [36.3480970706637, 35.59499956744688], [36.3480970706637, 35.594460578276404], [36.34648010315226, 35.594460578276404], [36.34648010315226, 35.59499956744688], [36.34594111398181, 35.59499956744688], [36.34594111398181, 35.59392158910593], [36.34486313564085, 35.59392158910593], [36.34486313564085, 35.59338259993546]]]}, "id": "+401393+89809", "properties": {"area_ha": 5.2574817590075025, "count": 18, "label": 1, "mean_dnbr": 0.16192092805896538}}, {"type": "Feature", "geometry": {"geodesic": false, "type": "Polygon", "coordinates": [[[36.35294797319793, 35.487201733352535], [36.35456494070934, 35.487201733352535], [36.35456494070934, 35.48827971169348], [36.35402595153889, 35.48827971169348], [36.35402595153889, 35.488818700863945], [36.35348696236841, 35.488818700863945], [36.35348696236841, 35.490974657545834], [36.35294797319793, 35.490974657545834], [36.35294797319793, 35.48989667920489], [36.35240898402745, 35.48989667920489], [36.35240898402745, 35.48774072252301], [36.35294797319793, 35.48774072252301], [36.35294797319793, 35.487201733352535]]]}, "id": "+401407+90006", "properties": {"area_ha": 4.67948574590195, "count": 16, "label": 1, "mean_dnbr": 0.1983310844609548}}, {"type": "Feature", "geometry": {"geodesic": false, "type": "Polygon", "coordinates": [[[36.34540212481133, 35.53139884533121], [36.3556429190503, 35.53139884533121], [36.3556429190503, 35.53193783450168], [36.35510392987982, 35.53193783450168], [36.35510392987982, 35.532476823672155], [36.35240898402745, 35.532476823672155], [36.35240898402745, 35.53193783450168], [36.35133100568652, 35.53193783450168], [36.35133100568652, 35.532476823672155], [36.35079201651604, 35.532476823672155], [36.35079201651604, 35.53193783450168], [36.34701909232274, 35.53193783450168], [36.34701909232274, 35.532476823672155], [36.34594111398181, 35.532476823672155], [36.34594111398181, 35.53193783450168], [36.34540212481133, 35.53193783450168], [36.34540212481133, 35.53139884533121]]]}, "id": "+401409+89924", "properties": {"area_ha": 7.891700853204448, "count": 27, "label": 1, "mean_dnbr": 0.23398180450652487}}, {"type": "Feature", "geometry": {"geodesic": false, "type": "Polygon", "coordinates": [[[36.35510392987982, 35.481272852477346], [36.35725988656171, 35.481272852477346], [36.35725988656171, 35.48181184164782], [36.3556429190503, 35.48181184164782], [36.3556429190503, 35.48235083081829], [36.35294797319793, 35.48235083081829], [36.35294797319793, 35.481272852477346], [36.35402595153889, 35.481272852477346], [36.35402595153889, 35.48181184164782], [36.35510392987982, 35.48181184164782], [36.35510392987982, 35.481272852477346]]]}, "id": "+401412+90017", "properties": {"area_ha": 3.217430772680475, "count": 11, "label": 1, "mean_dnbr": 0.17230548949534408}}, {"type": "Feature", "geometry": {"geodesic": false, "type": "Polygon", "coordinates": [[[36.3556429190503, 35.47696093911357], [36.359415843243596, 35.47696093911357], [36.359415843243596, 35.47749992828404], [36.35672089739123, 35.47749992828404], [36.35672089739123, 35.47803891745451], [36.35725988656171, 35.47803891745451], [36.35725988656171, 35.478577906624984], [36.35672089739123, 35.478577906624984], [36.35672089739123, 35.47803891745451], [36.35402595153889, 35.47803891745451], [36.35402595153889, 35.47749992828404], [36.3556429190503, 35.47749992828404], [36.3556429190503, 35.47696093911357]]]}, "id": "+401416+90025", "properties": {"area_ha": 3.80259778608615, "count": 13, "label": 1, "mean_dnbr": 0.19589793246651951}}, {"type": "Feature", "geometry": {"geodesic": false, "type": "Polygon", "coordinates": [[[36.35887685407312, 35.34706454902989], [36.361571799925485, 35.34706454902989], [36.361571799925485, 35.34814252737083], [36.359954832414076, 35.34814252737083], [36.359954832414076, 35.348681516541305], [36.35887685407312, 35.348681516541305], [36.35887685407312, 35.34706454902989]]]}, "id": "+401420+90266", "properties": {"area_ha": 3.515750076660716, "count": 12, "label": 1, "mean_dnbr": 0.19830490692817787}}, {"type": "Feature", "geometry": {"geodesic": false, "type": "Polygon", "coordinates": [[[36.363188767436895, 35.551341444638666], [36.363727756607375, 35.551341444638666], [36.363727756607375, 35.55241942297961], [36.364266745777854, 35.55241942297961], [36.364266745777854, 35.55295841215008], [36.363188767436895, 35.55295841215008], [36.363188767436895, 35.55241942297961], [36.359415843243596, 35.55241942297961], [36.359415843243596, 35.55188043380914], [36.363188767436895, 35.55188043380914], [36.363188767436895, 35.551341444638666]]]}, "id": "+401424+89887", "properties": {"area_ha": 3.2146027716679084, "count": 11, "label": 1, "mean_dnbr": 0.13611513554578725}}, {"type": "Feature", "geometry": {"geodesic": false, "type": "Polygon", "coordinates": [[[36.362110789095965, 35.39934649856564], [36.365344724118785, 35.39934649856564], [36.365344724118785, 35.40096346607706], [36.364805734948305, 35.40096346607706], [36.364805734948305, 35.402041444418], [36.364266745777854, 35.402041444418], [36.364266745777854, 35.402580433588476], [36.361032810755006, 35.402580433588476], [36.361032810755006, 35.402041444418], [36.361571799925485, 35.402041444418], [36.361571799925485, 35.40096346607706], [36.362110789095965, 35.40096346607706], [36.362110789095965, 35.39934649856564]], [[36.363727756607375, 35.40096346607706], [36.363727756607375, 35.40150245524753], [36.363188767436895, 35.40150245524753], [36.363188767436895, 35.40096346607706], [36.363727756607375, 35.40096346607706]]]}, "id": "+401427+90169", "properties": {"area_ha": 10.247539510576559, "count": 35, "label": 1, "mean_dnbr": 0.2679836783527268}}, {"type": "Feature", "geometry": {"geodesic": false, "type": "Polygon", "coordinates": [[[36.362110789095965, 36.024573936312834], [36.365883713289264, 36.024573936312834], [36.365883713289264, 36.026190903824244], [36.362649778266416, 36.026190903824244], [36.362649778266416, 36.02565191465377], [36.362110789095965, 36.02565191465377], [36.362110789095965, 36.024573936312834]]]}, "id": "+401428+89009", "properties": {"area_ha": 5.8100239538806155, "count": 20, "label": 1, "mean_dnbr": 0.21440996653752276}}, {"type": "Feature", "geometry": {"geodesic": false, "type": "Polygon", "coordinates": [[[36.365344724118785, 35.54649054210442], [36.365883713289264, 35.54649054210442], [36.365883713289264, 35.547029531274895], [36.368039669971154, 35.547029531274895], [36.368039669971154, 35.54756852044537], [36.367500680800674, 35.54756852044537], [36.367500680800674, 35.54864649878631], [36.366961691630195, 35.54864649878631], [36.366961691630195, 35.54810750961584], [36.363727756607375, 35.54810750961584], [36.363727756607375, 35.54756852044537], [36.363188767436895, 35.54756852044537], [36.363188767436895, 35.547029531274895], [36.365344724118785, 35.547029531274895], [36.365344724118785, 35.54649054210442]]]}, "id": "+401428+89896", "properties": {"area_ha": 5.260573532103946, "count": 18, "label": 1, "mean_dnbr": 0.20302848354254777}}, {"type": "Feature", "geometry": {"geodesic": false, "type": "Polygon", "coordinates": [[[36.364805734948305, 35.52061906192178], [36.366422702459715, 35.52061906192178], [36.366422702459715, 35.52115805109225], [36.365883713289264, 35.52115805109225], [36.365883713289264, 35.52169704026272], [36.363188767436895, 35.52169704026272], [36.363188767436895, 35.522236029433195], [36.35887685407312, 35.522236029433195], [36.35887685407312, 35.52277501860367], [36.357798875732186, 35.52277501860367], [36.357798875732186, 35.522236029433195], [36.35833786490264, 35.522236029433195], [36.35833786490264, 35.52169704026272], [36.362649778266416, 35.52169704026272], [36.362649778266416, 35.52115805109225], [36.364805734948305, 35.52115805109225], [36.364805734948305, 35.52061906192178]]]}, "id": "+401429+89944", "properties": {"area_ha": 5.846958538228271, "count": 20, "label": 1, "mean_dnbr": 0.18607245927888802}}, {"type": "Feature", "geometry": {"geodesic": false, "type": "Polygon", "coordinates": [[[36.365883713289264, 36.04559451396123], [36.367500680800674, 36.04559451396123], [36.367500680800674, 36.04667249230217], [36.368039669971154, 36.04667249230217], [36.368039669971154, 36.047211481472644], [36.368578659141605, 36.047211481472644], [36.368578659141605, 36.047750470643116], [36.366961691630195, 36.047750470643116], [36.366961691630195, 36.04828945981359], [36.366422702459715, 36.04828945981359], [36.366422702459715, 36.047211481472644], [36.365883713289264, 36.047211481472644], [36.365883713289264, 36.04559451396123]]]}, "id": "+401431+88970", "properties": {"area_ha": 4.356339965158831, "count": 15, "label": 1, "mean_dnbr": 0.25530716658658953}}, {"type": "Feature", "geometry": {"geodesic": false, "type": "Polygon", "coordinates": [[[36.366422702459715, 35.532476823672155], [36.368039669971154, 35.532476823672155], [36.368039669971154, 35.53301581284263], [36.368578659141605, 35.53301581284263], [36.368578659141605, 35.5335548020131], [36.369656637482564, 35.5335548020131], [36.369656637482564, 35.53301581284263], [36.37019562665304, 35.53301581284263], [36.37019562665304, 35.53624974786546], [36.369656637482564, 35.53624974786546], [36.369656637482564, 35.53571075869499], [36.368578659141605, 35.53571075869499], [36.368578659141605, 35.5373277262064], [36.368039669971154, 35.5373277262064], [36.368039669971154, 35.53786671537687], [36.367500680800674, 35.53786671537687], [36.367500680800674, 35.538405704547344], [36.366422702459715, 35.538405704547344], [36.366422702459715, 35.53517176952452], [36.366961691630195, 35.53517176952452], [36.366961691630195, 35.534632780354045], [36.366422702459715, 35.534632780354045], [36.366422702459715, 35.5335548020131], [36.365344724118785, 35.5335548020131], [36.365344724118785, 35.53301581284263], [36.366422702459715, 35.53301581284263], [36.366422702459715, 35.532476823672155]]]}, "id": "+401432+89922", "properties": {"area_ha": 16.07644001994042, "count": 55, "label": 1, "mean_dnbr": 0.5691477804122114}}, {"type": "Feature", "geometry": {"geodesic": false, "type": "Polygon", "coordinates": [[[36.367500680800674, 35.488818700863945], [36.369117648312084, 35.488818700863945], [36.369117648312084, 35.48935769003442], [36.369656637482564, 35.48935769003442], [36.369656637482564, 35.48989667920489], [36.368039669971154, 35.48989667920489], [36.368039669971154, 35.490974657545834], [36.369656637482564, 35.490974657545834], [36.369656637482564, 35.49151364671631], [36.368039669971154, 35.49151364671631], [36.368039669971154, 35.493130614227724], [36.366422702459715, 35.493130614227724], [36.366422702459715, 35.49259162505725], [36.367500680800674, 35.49259162505725], [36.367500680800674, 35.488818700863945]]]}, "id": "+401434+90003", "properties": {"area_ha": 5.264285833405966, "count": 18, "label": 1, "mean_dnbr": 0.2305607484863597}}, {"type": "Feature", "geometry": {"geodesic": false, "type": "Polygon", "coordinates": [[[36.37396855084634, 35.55403639049103], [36.37450754001679, 35.55403639049103], [36.37450754001679, 35.55565335800244], [36.37396855084634, 35.55565335800244], [36.37396855084634, 35.557270325513855], [36.37450754001679, 35.557270325513855], [36.37450754001679, 35.55780931468433], [36.37342956167586, 35.55780931468433], [36.37342956167586, 35.5583483038548], [36.37289057250538, 35.5583483038548], [36.37289057250538, 35.559426282195744], [36.372351583334904, 35.559426282195744], [36.372351583334904, 35.5583483038548], [36.370734615823494, 35.5583483038548], [36.370734615823494, 35.55780931468433], [36.37342956167586, 35.55780931468433], [36.37342956167586, 35.5545753796615], [36.37396855084634, 35.5545753796615], [36.37396855084634, 35.55403639049103]]]}, "id": "+401444+89882", "properties": {"area_ha": 4.967720019589614, "count": 17, "label": 1, "mean_dnbr": 0.18387516975151205}}, {"type": "Feature", "geometry": {"geodesic": false, "type": "Polygon", "coordinates": [[[36.37396855084634, 36.03158079552896], [36.37666349669868, 36.03158079552896], [36.37666349669868, 36.032658773869905], [36.37774147503964, 36.032658773869905], [36.37774147503964, 36.03373675221085], [36.37720248586916, 36.03373675221085], [36.37720248586916, 36.03427574138132], [36.37558551835775, 36.03427574138132], [36.37558551835775, 36.032658773869905], [36.37396855084634, 36.032658773869905], [36.37396855084634, 36.034814730551794], [36.37342956167586, 36.034814730551794], [36.37342956167586, 36.032658773869905], [36.37396855084634, 36.032658773869905], [36.37396855084634, 36.03158079552896]]]}, "id": "+401448+88996", "properties": {"area_ha": 7.261838450580767, "count": 25, "label": 1, "mean_dnbr": 0.212534328491294}}, {"type": "Feature", "geometry": {"geodesic": false, "type": "Polygon", "coordinates": [[[36.37989743172153, 35.311491263778755], [36.38043642089198, 35.311491263778755], [36.38043642089198, 35.31203025294923], [36.38205338840342, 35.31203025294923], [36.38205338840342, 35.3125692421197], [36.38420934508528, 35.3125692421197], [36.38420934508528, 35.31310823129017], [36.38474833425576, 35.31310823129017], [36.38474833425576, 35.313647220460645], [36.38582631259672, 35.313647220460645], [36.38582631259672, 35.31472519880158], [36.38474833425576, 35.31472519880158], [36.38474833425576, 35.31418620963111], [36.38420934508528, 35.31418620963111], [36.38420934508528, 35.313647220460645], [36.38205338840342, 35.313647220460645], [36.38205338840342, 35.31310823129017], [36.38097541006246, 35.31310823129017], [36.38097541006246, 35.3125692421197], [36.37989743172153, 35.3125692421197], [36.37989743172153, 35.311491263778755]]]}, "id": "+401455+90332", "properties": {"area_ha": 6.1552139229949585, "count": 21, "label": 1, "mean_dnbr": 0.26034141191232146}}, {"type": "Feature", "geometry": {"geodesic": false, "type": "Polygon", "coordinates": [[[36.39013822596047, 36.08979162593991], [36.39067721513095, 36.08979162593991], [36.39067721513095, 36.09033061511038], [36.39121620430143, 36.09033061511038], [36.39121620430143, 36.09140859345133], [36.39067721513095, 36.09140859345133], [36.39067721513095, 36.09194758262179], [36.39121620430143, 36.09194758262179], [36.39121620430143, 36.094642528474154], [36.39067721513095, 36.094642528474154], [36.39067721513095, 36.095181517644626], [36.38959923679002, 36.095181517644626], [36.38959923679002, 36.09356455013321], [36.39013822596047, 36.09356455013321], [36.39013822596047, 36.092486571792264], [36.38959923679002, 36.092486571792264], [36.38959923679002, 36.09140859345133], [36.38906024761954, 36.09140859345133], [36.38906024761954, 36.09194758262179], [36.38852125844906, 36.09194758262179], [36.38852125844906, 36.090869604280854], [36.38798226927861, 36.090869604280854], [36.38798226927861, 36.09033061511038], [36.39013822596047, 36.09033061511038], [36.39013822596047, 36.08979162593991]]]}, "id": "+401474+88888", "properties": {"area_ha": 8.7076446508068, "count": 30, "label": 1, "mean_dnbr": 0.253882610435598}}, {"type": "Feature", "geometry": {"geodesic": false, "type": "Polygon", "coordinates": [[[36.406307901074626, 35.679620867210936], [36.408463857756516, 35.679620867210936], [36.408463857756516, 35.68015985638141], [36.406846890245106, 35.68015985638141], [36.406846890245106, 35.68069884555188], [36.406307901074626, 35.68069884555188], [36.406307901074626, 35.68123783472235], [36.40415194439274, 35.68123783472235], [36.40415194439274, 35.68069884555188], [36.405229922733696, 35.68069884555188], [36.405229922733696, 35.679620867210936], [36.405768911904175, 35.679620867210936], [36.405768911904175, 35.68015985638141], [36.406307901074626, 35.68015985638141], [36.406307901074626, 35.679620867210936]]]}, "id": "+401507+89649", "properties": {"area_ha": 3.50122477678785, "count": 12, "label": 1, "mean_dnbr": 0.24291284943669667}}, {"type": "Feature", "geometry": {"geodesic": false, "type": "Polygon", "coordinates": [[[36.409541836097475, 35.68015985638141], [36.410080825267926, 35.68015985638141], [36.410080825267926, 35.68123783472235], [36.410619814438405, 35.68123783472235], [36.410619814438405, 35.68231581306329], [36.410080825267926, 35.68231581306329], [36.410080825267926, 35.68285480223376], [36.407385879415585, 35.68285480223376], [36.407385879415585, 35.68177682389282], [36.409541836097475, 35.68177682389282], [36.409541836097475, 35.68015985638141]]]}, "id": "+401510+89648", "properties": {"area_ha": 4.3764478228106105, "count": 15, "label": 1, "mean_dnbr": 0.23767390261689889}}]}