{"type": "FeatureCollection", "columns": {"area_ha": "Number", "count": "Long<0, 4294967295>", "label": "Byte<0, 1>", "mean_dnbr": "Object", "system:index": "String"}, "features": [{"type": "Feature", "geometry": {"geodesic": false, "type": "Polygon", "coordinates": [[[36.135735337497835, 37.63561256685278], [36.136813315838765, 37.63561256685278], [36.136813315838765, 37.63669054519372], [36.137891294179724, 37.63669054519372], [36.137891294179724, 37.637229534364195], [36.138969272520654, 37.637229534364195], [36.138969272520654, 37.63776852353467], [36.139508261691134, 37.63776852353467], [36.139508261691134, 37.63884650187561], [36.1384302833502, 37.63884650187561], [36.1384302833502, 37.639385491046085], [36.137891294179724, 37.639385491046085], [36.137891294179724, 37.63992448021656], [36.1384302833502, 37.63992448021656], [36.1384302833502, 37.64046346938703], [36.137891294179724, 37.64046346938703], [36.137891294179724, 37.64208043689844], [36.136813315838765, 37.64208043689844], [36.136813315838765, 37.64154144772797], [36.135196348327355, 37.64154144772797], [36.135196348327355, 37.641002458557494], [36.133579380815945, 37.641002458557494], [36.133579380815945, 37.64046346938703], [36.134118369986425, 37.64046346938703], [36.134118369986425, 37.63884650187561], [36.134657359156904, 37.63884650187561], [36.134657359156904, 37.63830751270514], [36.135735337497835, 37.63830751270514], [36.135735337497835, 37.63669054519372], [36.135196348327355, 37.63669054519372], [36.135196348327355, 37.63615155602325], [36.135735337497835, 37.63615155602325], [36.135735337497835, 37.63561256685278]], [[36.136813315838765, 37.63830751270514], [36.136813315838765, 37.641002458557494], [36.135735337497835, 37.641002458557494], [36.135735337497835, 37.63992448021656], [36.135196348327355, 37.63992448021656], [36.135196348327355, 37.639385491046085], [36.135735337497835, 37.639385491046085], [36.135735337497835, 37.63884650187561], [36.136274326668314, 37.63884650187561], [36.136274326668314, 37.63830751270514], [36.136813315838765, 37.63830751270514]]]}, "id": "+401003+86020", "properties": {"area_ha": 16.781840891514506, "count": 59, "label": 1, "mean_dnbr": 0.31700106944072354}}, {"type": "Feature", "geometry": {"geodesic": false, "type": "Polygon", "coordinates": [[[36.14489815339584, 37.61566996754533], [36.1459761317368, 37.61566996754533], [36.1459761317368, 37.6162089567158], [36.14705411007773, 37.6162089567158], [36.14705411007773, 37.616747945886274], [36.14759309924821, 37.616747945886274], [36.14759309924821, 37.61782592422721], [36.14705411007773, 37.61782592422721], [36.14705411007773, 37.61728693505674], [36.14651512090728, 37.61728693505674], [36.14651512090728, 37.61890390256816], [36.14543714256632, 37.61890390256816], [36.14543714256632, 37.61944289173863], [36.1459761317368, 37.61944289173863], [36.1459761317368, 37.6199818809091], [36.14651512090728, 37.6199818809091], [36.14651512090728, 37.61944289173863], [36.14705411007773, 37.61944289173863], [36.14705411007773, 37.6199818809091], [36.14651512090728, 37.6199818809091], [36.14651512090728, 37.620520870079574], [36.1459761317368, 37.620520870079574], [36.1459761317368, 37.6199818809091], [36.14489815339584, 37.6199818809091], [36.14489815339584, 37.61728693505674], [36.1459761317368, 37.61728693505674], [36.1459761317368, 37.616747945886274], [36.14489815339584, 37.616747945886274], [36.14489815339584, 37.61566996754533]], [[36.1459761317368, 37.61782592422721], [36.1459761317368, 37.618364913397684], [36.14543714256632, 37.618364913397684], [36.14543714256632, 37.61782592422721], [36.1459761317368, 37.61782592422721]]]}, "id": "+401020+86057", "properties": {"area_ha": 6.543932450462505, "count": 23, "label": 1, "mean_dnbr": 0.192483347116071}}, {"type": "Feature", "geometry": {"geodesic": false, "type": "Polygon", "coordinates": [[[36.15136602344151, 37.63022267514806], [36.15298299095292, 37.63022267514806], [36.15298299095292, 37.631300653489006], [36.15190501261199, 37.631300653489006], [36.15190501261199, 37.63291762100042], [36.15136602344151, 37.63291762100042], [36.15136602344151, 37.633456610170896], [36.15244400178247, 37.633456610170896], [36.15244400178247, 37.63399559934137], [36.15190501261199, 37.63399559934137], [36.15190501261199, 37.635073577682306], [36.15136602344151, 37.635073577682306], [36.15136602344151, 37.63561256685278], [36.15082703427103, 37.63561256685278], [36.15082703427103, 37.63453458851184], [36.15028804510058, 37.63453458851184], [36.15028804510058, 37.63561256685278], [36.1497490559301, 37.63561256685278], [36.1497490559301, 37.63615155602325], [36.15028804510058, 37.63615155602325], [36.15028804510058, 37.63669054519372], [36.14921006675962, 37.63669054519372], [36.14921006675962, 37.637229534364195], [36.1497490559301, 37.637229534364195], [36.1497490559301, 37.63776852353467], [36.14921006675962, 37.63776852353467], [36.14921006675962, 37.637229534364195], [36.14867107758914, 37.637229534364195], [36.14867107758914, 37.63669054519372], [36.14759309924821, 37.63669054519372], [36.14759309924821, 37.63830751270514], [36.1459761317368, 37.63830751270514], [36.1459761317368, 37.63776852353467], [36.14543714256632, 37.63776852353467], [36.14543714256632, 37.63669054519372], [36.1459761317368, 37.63669054519372], [36.1459761317368, 37.637229534364195], [36.14705411007773, 37.637229534364195], [36.14705411007773, 37.63615155602325], [36.14759309924821, 37.63615155602325], [36.14759309924821, 37.635073577682306], [36.14867107758914, 37.635073577682306], [36.14867107758914, 37.63453458851184], [36.14921006675962, 37.63453458851184], [36.14921006675962, 37.633456610170896], [36.15028804510058, 37.633456610170896], [36.15028804510058, 37.63291762100042], [36.14921006675962, 37.63291762100042], [36.14921006675962, 37.631300653489006], [36.15082703427103, 37.631300653489006], [36.15082703427103, 37.630761664318534], [36.15136602344151, 37.630761664318534], [36.15136602344151, 37.63022267514806]]]}, "id": "+401033+86030", "properties": {"area_ha": 19.058529795202777, "count": 67, "label": 1, "mean_dnbr": 0.23977557435235072}}, {"type": "Feature", "geometry": {"geodesic": false, "type": "Polygon", "coordinates": [[[36.15459995846433, 37.643158415239384], [36.15675591514622, 37.643158415239384], [36.15675591514622, 37.64423639358033], [36.15783389348718, 37.64423639358033], [36.15783389348718, 37.6447753827508], [36.15621692597577, 37.6447753827508], [36.15621692597577, 37.64423639358033], [36.15567793680529, 37.64423639358033], [36.15567793680529, 37.6447753827508], [36.15459995846433, 37.6447753827508], [36.15459995846433, 37.643158415239384]]]}, "id": "+401040+86006", "properties": {"area_ha": 3.6974370162435255, "count": 13, "label": 1, "mean_dnbr": 0.22808036770831247}}, {"type": "Feature", "geometry": {"geodesic": false, "type": "Polygon", "coordinates": [[[36.16807468772615, 37.60111725994259], [36.16915266606708, 37.60111725994259], [36.16915266606708, 37.60273422745401], [36.1686136768966, 37.60273422745401], [36.1686136768966, 37.60327321662448], [36.16807468772615, 37.60327321662448], [36.16807468772615, 37.60381220579495], [36.16753569855567, 37.60381220579495], [36.16753569855567, 37.604351194965425], [36.16699670938519, 37.604351194965425], [36.16699670938519, 37.60381220579495], [36.16753569855567, 37.60381220579495], [36.16753569855567, 37.60327321662448], [36.16699670938519, 37.60327321662448], [36.16699670938519, 37.60273422745401], [36.16807468772615, 37.60273422745401], [36.16807468772615, 37.60111725994259]]]}, "id": "+401063+86084", "properties": {"area_ha": 3.130347327925738, "count": 11, "label": 1, "mean_dnbr": 0.17437930300804508}}, {"type": "Feature", "geometry": {"geodesic": false, "type": "Polygon", "coordinates": [[[36.175081546942266, 37.635073577682306], [36.176159525283225, 37.635073577682306], [36.176159525283225, 37.63561256685278], [36.176698514453676, 37.63561256685278], [36.176698514453676, 37.63615155602325], [36.178315481965086, 37.63615155602325], [36.178315481965086, 37.63669054519372], [36.177776492794635, 37.63669054519372], [36.177776492794635, 37.637229534364195], [36.177237503624156, 37.637229534364195], [36.177237503624156, 37.63776852353467], [36.176159525283225, 37.63776852353467], [36.176159525283225, 37.637229534364195], [36.175620536112746, 37.637229534364195], [36.175620536112746, 37.63561256685278], [36.175081546942266, 37.63561256685278], [36.175081546942266, 37.635073577682306]]]}, "id": "+401076+86021", "properties": {"area_ha": 4.266706973054248, "count": 15, "label": 1, "mean_dnbr": 0.18882895271228697}}, {"type": "Feature", "geometry": {"geodesic": false, "type": "Polygon", "coordinates": [[[36.177237503624156, 37.60650715164731], [36.178315481965086, 37.60650715164731], [36.178315481965086, 37.60758512998825], [36.179393460306045, 37.60758512998825], [36.179393460306045, 37.608124119158724], [36.181010427817455, 37.608124119158724], [36.181010427817455, 37.608663108329196], [36.179932449476524, 37.608663108329196], [36.179932449476524, 37.60920209749967], [36.178854471135566, 37.60920209749967], [36.178854471135566, 37.608663108329196], [36.178315481965086, 37.608663108329196], [36.178315481965086, 37.608124119158724], [36.177776492794635, 37.608124119158724], [36.177776492794635, 37.608663108329196], [36.176698514453676, 37.608663108329196], [36.176698514453676, 37.608124119158724], [36.177237503624156, 37.608124119158724], [36.177237503624156, 37.60758512998825], [36.177776492794635, 37.60758512998825], [36.177776492794635, 37.60704614081778], [36.177237503624156, 37.60704614081778], [36.177237503624156, 37.60650715164731]]]}, "id": "+401080+86074", "properties": {"area_ha": 4.552896153136256, "count": 16, "label": 1, "mean_dnbr": 0.18678640313333586}}, {"type": "Feature", "geometry": {"geodesic": false, "type": "Polygon", "coordinates": [[[36.23544833403511, 37.605968162476834], [36.23652631237604, 37.605968162476834], [36.23652631237604, 37.60704614081778], [36.23544833403511, 37.60704614081778], [36.23544833403511, 37.60758512998825], [36.23598732320556, 37.60758512998825], [36.23598732320556, 37.608124119158724], [36.23437035569415, 37.608124119158724], [36.23437035569415, 37.608663108329196], [36.23544833403511, 37.608663108329196], [36.23544833403511, 37.60920209749967], [36.23490934486463, 37.60920209749967], [36.23490934486463, 37.60974108667014], [36.233831366523674, 37.60974108667014], [36.233831366523674, 37.608124119158724], [36.23437035569415, 37.608124119158724], [36.23437035569415, 37.60758512998825], [36.23490934486463, 37.60758512998825], [36.23490934486463, 37.60704614081778], [36.23544833403511, 37.60704614081778], [36.23544833403511, 37.605968162476834]]]}, "id": "+401188+86075", "properties": {"area_ha": 3.9837951073623104, "count": 14, "label": 1, "mean_dnbr": 0.18869849658287882}}, {"type": "Feature", "geometry": {"geodesic": false, "type": "Polygon", "coordinates": [[[36.48769526581586, 37.67549776546769], [36.48877324415682, 37.67549776546769], [36.48877324415682, 37.67603675463816], [36.48931223332727, 37.67603675463816], [36.48931223332727, 37.67765372214957], [36.48715627664538, 37.67765372214957], [36.48715627664538, 37.676575743808634], [36.48607829830445, 37.676575743808634], [36.48607829830445, 37.67603675463816], [36.48769526581586, 37.67603675463816], [36.48769526581586, 37.67549776546769]]]}, "id": "+401656+85946", "properties": {"area_ha": 4.54870034779773, "count": 16, "label": 1, "mean_dnbr": 0.3071376274923508}}, {"type": "Feature", "geometry": {"geodesic": false, "type": "Polygon", "coordinates": [[[36.48985122249775, 37.68735552721807], [36.49254616835012, 37.68735552721807], [36.49254616835012, 37.68789451638854], [36.49308515752057, 37.68789451638854], [36.49308515752057, 37.68843350555901], [36.48985122249775, 37.68843350555901], [36.48985122249775, 37.68735552721807]]]}, "id": "+401663+85924", "properties": {"area_ha": 3.1267631947029018, "count": 11, "label": 1, "mean_dnbr": 0.2613168505758988}}, {"type": "Feature", "geometry": {"geodesic": false, "type": "Polygon", "coordinates": [[[36.497936060054826, 37.68735552721807], [36.498475049225306, 37.68735552721807], [36.498475049225306, 37.688972494729484], [36.494702125032006, 37.688972494729484], [36.494702125032006, 37.68951148389995], [36.49362414669105, 37.68951148389995], [36.49362414669105, 37.688972494729484], [36.494702125032006, 37.688972494729484], [36.494702125032006, 37.68789451638854], [36.497936060054826, 37.68789451638854], [36.497936060054826, 37.68735552721807]]]}, "id": "+401674+85924", "properties": {"area_ha": 4.8322323593886285, "count": 17, "label": 1, "mean_dnbr": 0.28406845376970674}}, {"type": "Feature", "geometry": {"geodesic": false, "type": "Polygon", "coordinates": [[[36.499553027566236, 37.71753892076448], [36.500631005907195, 37.71753892076448], [36.500631005907195, 37.718077909934955], [36.501169995077646, 37.718077909934955], [36.501169995077646, 37.71861689910543], [36.500631005907195, 37.71861689910543], [36.500631005907195, 37.72023386661684], [36.499553027566236, 37.72023386661684], [36.499553027566236, 37.7191558882759], [36.49901403839576, 37.7191558882759], [36.49901403839576, 37.71861689910543], [36.498475049225306, 37.71861689910543], [36.498475049225306, 37.718077909934955], [36.499553027566236, 37.718077909934955], [36.499553027566236, 37.71753892076448]], [[36.500092016736716, 37.718077909934955], [36.500092016736716, 37.71861689910543], [36.499553027566236, 37.71861689910543], [36.499553027566236, 37.718077909934955], [36.500092016736716, 37.718077909934955]]]}, "id": "+401678+85868", "properties": {"area_ha": 3.693714119800983, "count": 13, "label": 1, "mean_dnbr": 0.2522447964856462}}]}