{"type": "FeatureCollection", "columns": {"area_ha": "Number", "count": "Long<0, 4294967295>", "label": "Byte<0, 1>", "mean_dnbr": "Object", "system:index": "String"}, "features": [{"type": "Feature", "geometry": {"geodesic": false, "type": "Polygon", "coordinates": [[[36.1190266732132, 37.60165624911306], [36.11956566238368, 37.60165624911306], [36.11956566238368, 37.60327321662448], [36.1190266732132, 37.60327321662448], [36.1190266732132, 37.60381220579495], [36.11848768404275, 37.60381220579495], [36.11848768404275, 37.60327321662448], [36.11794869487227, 37.60327321662448], [36.11794869487227, 37.60381220579495], [36.11687071653134, 37.60381220579495], [36.11687071653134, 37.602195238283535], [36.1190266732132, 37.602195238283535], [36.1190266732132, 37.60165624911306]]]}, "id": "+400971+86083", "properties": {"area_ha": 3.984058871204087, "count": 14, "label": 1, "mean_dnbr": 0.2848098651581696}}, {"type": "Feature", "geometry": {"geodesic": false, "type": "Polygon", "coordinates": [[[36.12549454325887, 37.79623133965335], [36.126572521599826, 37.79623133965335], [36.126572521599826, 37.796770328823825], [36.12603353242935, 37.796770328823825], [36.12603353242935, 37.79892628550571], [36.12549454325887, 37.79892628550571], [36.12549454325887, 37.79946527467618], [36.12495555408839, 37.79946527467618], [36.12495555408839, 37.80000426384665], [36.12441656491794, 37.80000426384665], [36.12441656491794, 37.798387296335235], [36.12495555408839, 37.798387296335235], [36.12495555408839, 37.7973093179943], [36.12549454325887, 37.7973093179943], [36.12549454325887, 37.79623133965335]]]}, "id": "+400984+85722", "properties": {"area_ha": 3.6897559743502395, "count": 13, "label": 1, "mean_dnbr": 0.2762501496743734}}, {"type": "Feature", "geometry": {"geodesic": false, "type": "Polygon", "coordinates": [[[36.129267467452166, 37.60165624911306], [36.130884434963576, 37.60165624911306], [36.130884434963576, 37.604351194965425], [36.130345445793125, 37.604351194965425], [36.130345445793125, 37.60381220579495], [36.129806456622646, 37.60381220579495], [36.129806456622646, 37.60327321662448], [36.128728478281715, 37.60327321662448], [36.128728478281715, 37.602195238283535], [36.129267467452166, 37.602195238283535], [36.129267467452166, 37.60165624911306]]]}, "id": "+400992+86083", "properties": {"area_ha": 3.9840668771466734, "count": 14, "label": 1, "mean_dnbr": 0.26469427404672063}}, {"type": "Feature", "geometry": {"geodesic": false, "type": "Polygon", "coordinates": [[[36.133579380815945, 37.62914469680712], [36.134118369986425, 37.62914469680712], [36.134118369986425, 37.62968368597759], [36.135196348327355, 37.62968368597759], [36.135196348327355, 37.63022267514806], [36.134118369986425, 37.63022267514806], [36.134118369986425, 37.631300653489006], [36.135196348327355, 37.631300653489006], [36.135196348327355, 37.63183964265948], [36.135735337497835, 37.63183964265948], [36.135735337497835, 37.63291762100042], [36.136274326668314, 37.63291762100042], [36.136274326668314, 37.633456610170896], [36.136813315838765, 37.633456610170896], [36.136813315838765, 37.63399559934137], [36.136274326668314, 37.63399559934137], [36.136274326668314, 37.63453458851184], [36.136813315838765, 37.63453458851184], [36.136813315838765, 37.635073577682306], [36.134657359156904, 37.635073577682306], [36.134657359156904, 37.63453458851184], [36.133040391645466, 37.63453458851184], [36.133040391645466, 37.63291762100042], [36.132501402475015, 37.63291762100042], [36.132501402475015, 37.633456610170896], [36.131962413304535, 37.633456610170896], [36.131962413304535, 37.63237863182995], [36.132501402475015, 37.63237863182995], [36.132501402475015, 37.631300653489006], [36.131962413304535, 37.631300653489006], [36.131962413304535, 37.630761664318534], [36.132501402475015, 37.630761664318534], [36.132501402475015, 37.62968368597759], [36.133579380815945, 37.62968368597759], [36.133579380815945, 37.62914469680712]], [[36.135196348327355, 37.63237863182995], [36.135196348327355, 37.63291762100042], [36.134657359156904, 37.63291762100042], [36.134657359156904, 37.63237863182995], [36.135196348327355, 37.63237863182995]], [[36.133040391645466, 37.630761664318534], [36.133040391645466, 37.631300653489006], [36.132501402475015, 37.631300653489006], [36.132501402475015, 37.630761664318534], [36.133040391645466, 37.630761664318534]]]}, "id": "+400998+86032", "properties": {"area_ha": 15.076521760424418, "count": 53, "label": 1, "mean_dnbr": 0.2609043147135833}}, {"type": "Feature", "geometry": {"geodesic": false, "type": "Polygon", "coordinates": [[[36.14166421837302, 37.62644975095476], [36.1422032075435, 37.62644975095476], [36.1422032075435, 37.62752772929571], [36.142742196713954, 37.62752772929571], [36.142742196713954, 37.62860570763665], [36.1422032075435, 37.62860570763665], [36.1422032075435, 37.63022267514806], [36.141125229202544, 37.63022267514806], [36.141125229202544, 37.62806671846618], [36.14166421837302, 37.62806671846618], [36.14166421837302, 37.62644975095476]]]}, "id": "+401013+86037", "properties": {"area_ha": 3.6982111839387244, "count": 13, "label": 1, "mean_dnbr": 0.330823106986198}}, {"type": "Feature", "geometry": {"geodesic": false, "type": "Polygon", "coordinates": [[[36.16430176353285, 37.64046346938703], [36.1648407527033, 37.64046346938703], [36.1648407527033, 37.64154144772797], [36.16537974187378, 37.64154144772797], [36.16537974187378, 37.64208043689844], [36.16591873104426, 37.64208043689844], [36.16591873104426, 37.64261942606891], [36.16376277436237, 37.64261942606891], [36.16376277436237, 37.643158415239384], [36.16268479602141, 37.643158415239384], [36.16268479602141, 37.64423639358033], [36.16160681768048, 37.64423639358033], [36.16160681768048, 37.64261942606891], [36.16214580685096, 37.64261942606891], [36.16214580685096, 37.64208043689844], [36.16268479602141, 37.64208043689844], [36.16268479602141, 37.64261942606891], [36.16376277436237, 37.64261942606891], [36.16376277436237, 37.64154144772797], [36.16430176353285, 37.64154144772797], [36.16430176353285, 37.64046346938703]]]}, "id": "+401055+86011", "properties": {"area_ha": 5.119642582439534, "count": 18, "label": 1, "mean_dnbr": 0.24569055055911568}}, {"type": "Feature", "geometry": {"geodesic": false, "type": "Polygon", "coordinates": [[[36.16699670938519, 37.635073577682306], [36.16807468772615, 37.635073577682306], [36.16807468772615, 37.63615155602325], [36.1686136768966, 37.63615155602325], [36.1686136768966, 37.63669054519372], [36.16807468772615, 37.63669054519372], [36.16807468772615, 37.637229534364195], [36.1686136768966, 37.637229534364195], [36.1686136768966, 37.63776852353467], [36.16915266606708, 37.63776852353467], [36.16915266606708, 37.639385491046085], [36.170230644408036, 37.639385491046085], [36.170230644408036, 37.64046346938703], [36.16969165523756, 37.64046346938703], [36.16969165523756, 37.641002458557494], [36.1686136768966, 37.641002458557494], [36.1686136768966, 37.64154144772797], [36.16807468772615, 37.64154144772797], [36.16807468772615, 37.63992448021656], [36.16753569855567, 37.63992448021656], [36.16753569855567, 37.63776852353467], [36.16807468772615, 37.63776852353467], [36.16807468772615, 37.637229534364195], [36.16699670938519, 37.637229534364195], [36.16699670938519, 37.63776852353467], [36.16645772021471, 37.63776852353467], [36.16645772021471, 37.637229534364195], [36.16699670938519, 37.637229534364195], [36.16699670938519, 37.635073577682306]]]}, "id": "+401061+86021", "properties": {"area_ha": 9.38650805377138, "count": 33, "label": 1, "mean_dnbr": 0.308021672454298}}, {"type": "Feature", "geometry": {"geodesic": false, "type": "Polygon", "coordinates": [[[36.28180140269566, 37.649626285285045], [36.28234039186614, 37.649626285285045], [36.28234039186614, 37.65016527445552], [36.28287938103662, 37.65016527445552], [36.28287938103662, 37.65070426362599], [36.28341837020707, 37.65070426362599], [36.28341837020707, 37.65124325279646], [36.28180140269566, 37.65124325279646], [36.28180140269566, 37.65232123113741], [36.28072342435473, 37.65232123113741], [36.28072342435473, 37.651782241966934], [36.279645446013774, 37.651782241966934], [36.279645446013774, 37.65232123113741], [36.27910645684332, 37.65232123113741], [36.27910645684332, 37.651782241966934], [36.279645446013774, 37.651782241966934], [36.279645446013774, 37.65124325279646], [36.28072342435473, 37.65124325279646], [36.28072342435473, 37.65070426362599], [36.28018443518425, 37.65070426362599], [36.28018443518425, 37.65016527445552], [36.28180140269566, 37.65016527445552], [36.28180140269566, 37.649626285285045]]]}, "id": "+401273+85994", "properties": {"area_ha": 5.119047910829731, "count": 18, "label": 1, "mean_dnbr": 0.2567854905958153}}, {"type": "Feature", "geometry": {"geodesic": false, "type": "Polygon", "coordinates": [[[36.29689309946889, 37.56392700718004], [36.29743208863934, 37.56392700718004], [36.29743208863934, 37.56446599635051], [36.2985100669803, 37.56446599635051], [36.2985100669803, 37.565004985520986], [36.29797107780982, 37.565004985520986], [36.29797107780982, 37.567160942202875], [36.29527613195745, 37.567160942202875], [36.29527613195745, 37.5666219530324], [36.29743208863934, 37.5666219530324], [36.29743208863934, 37.56554397469146], [36.29689309946889, 37.56554397469146], [36.29689309946889, 37.565004985520986], [36.29743208863934, 37.565004985520986], [36.29743208863934, 37.56446599635051], [36.29689309946889, 37.56446599635051], [36.29689309946889, 37.56392700718004]]]}, "id": "+401301+86153", "properties": {"area_ha": 3.416613699544515, "count": 12, "label": 1, "mean_dnbr": 0.22455717030042702}}, {"type": "Feature", "geometry": {"geodesic": false, "type": "Polygon", "coordinates": [[[36.320608622969644, 37.585486573998914], [36.321147612140095, 37.585486573998914], [36.321147612140095, 37.586025563169386], [36.321686601310574, 37.586025563169386], [36.321686601310574, 37.58656455233986], [36.320608622969644, 37.58656455233986], [36.320608622969644, 37.58818151985127], [36.319530644628685, 37.58818151985127], [36.319530644628685, 37.587642530680796], [36.318991655458206, 37.587642530680796], [36.318991655458206, 37.587103541510324], [36.318452666287754, 37.587103541510324], [36.318452666287754, 37.586025563169386], [36.320608622969644, 37.586025563169386], [36.320608622969644, 37.585486573998914]], [[36.320069633799164, 37.58656455233986], [36.320069633799164, 37.587103541510324], [36.319530644628685, 37.587103541510324], [36.319530644628685, 37.58656455233986], [36.320069633799164, 37.58656455233986]]]}, "id": "+401345+86113", "properties": {"area_ha": 4.269556442009496, "count": 15, "label": 1, "mean_dnbr": 0.20455533682763638}}, {"type": "Feature", "geometry": {"geodesic": false, "type": "Polygon", "coordinates": [[[36.320069633799164, 37.56985588805523], [36.321147612140095, 37.56985588805523], [36.321147612140095, 37.5703948772257], [36.322225590481054, 37.5703948772257], [36.322225590481054, 37.570933866396174], [36.322764579651505, 37.570933866396174], [36.322764579651505, 37.57147285556665], [36.321686601310574, 37.57147285556665], [36.321686601310574, 37.57201184473712], [36.321147612140095, 37.57201184473712], [36.321147612140095, 37.57147285556665], [36.320069633799164, 37.57147285556665], [36.320069633799164, 37.56985588805523]]]}, "id": "+401345+86142", "properties": {"area_ha": 3.416379192679285, "count": 12, "label": 1, "mean_dnbr": 0.2600177457442581}}, {"type": "Feature", "geometry": {"geodesic": false, "type": "Polygon", "coordinates": [[[36.33192739554954, 37.68789451638854], [36.33354436306095, 37.68789451638854], [36.33354436306095, 37.68951148389995], [36.33246638472002, 37.68951148389995], [36.33246638472002, 37.688972494729484], [36.33084941720858, 37.688972494729484], [36.33084941720858, 37.68789451638854], [36.33138840637906, 37.68789451638854], [36.33138840637906, 37.68843350555901], [36.33192739554954, 37.68843350555901], [36.33192739554954, 37.68789451638854]]]}, "id": "+401368+85923", "properties": {"area_ha": 3.126725217724944, "count": 11, "label": 1, "mean_dnbr": 0.2177314714722917}}, {"type": "Feature", "geometry": {"geodesic": false, "type": "Polygon", "coordinates": [[[36.3443241464704, 37.554764191282025], [36.34486313564085, 37.554764191282025], [36.34486313564085, 37.5553031804525], [36.34648010315226, 37.5553031804525], [36.34648010315226, 37.55584216962297], [36.34701909232274, 37.55584216962297], [36.34701909232274, 37.55638115879344], [36.34755808149322, 37.55638115879344], [36.34755808149322, 37.55584216962297], [36.3480970706637, 37.55584216962297], [36.3480970706637, 37.55638115879344], [36.34755808149322, 37.55638115879344], [36.34755808149322, 37.55692014796391], [36.34701909232274, 37.55692014796391], [36.34701909232274, 37.55638115879344], [36.34648010315226, 37.55638115879344], [36.34648010315226, 37.55692014796391], [36.34594111398181, 37.55692014796391], [36.34594111398181, 37.55638115879344], [36.34486313564085, 37.55638115879344], [36.34486313564085, 37.5553031804525], [36.3443241464704, 37.5553031804525], [36.3443241464704, 37.554764191282025]]]}, "id": "+401389+86170", "properties": {"area_ha": 3.1323064182193714, "count": 11, "label": 1, "mean_dnbr": 0.2313418832000676}}, {"type": "Feature", "geometry": {"geodesic": false, "type": "Polygon", "coordinates": [[[36.34648010315226, 37.71107105071882], [36.34755808149322, 37.71107105071882], [36.34755808149322, 37.711610039889294], [36.34701909232274, 37.711610039889294], [36.34701909232274, 37.712149029059766], [36.34648010315226, 37.712149029059766], [36.34648010315226, 37.71268801823024], [36.34594111398181, 37.71268801823024], [36.34594111398181, 37.71322700740071], [36.34486313564085, 37.71322700740071], [36.34486313564085, 37.711610039889294], [36.34648010315226, 37.711610039889294], [36.34648010315226, 37.71107105071882]]]}, "id": "+401394+85880", "properties": {"area_ha": 3.1257301271904585, "count": 11, "label": 1, "mean_dnbr": 0.34164870152596793}}, {"type": "Feature", "geometry": {"geodesic": false, "type": "Polygon", "coordinates": [[[36.34755808149322, 37.712149029059766], [36.34917504900463, 37.712149029059766], [36.34917504900463, 37.71430498574165], [36.34863605983415, 37.71430498574165], [36.34863605983415, 37.713765996571176], [36.3480970706637, 37.713765996571176], [36.3480970706637, 37.71430498574165], [36.34755808149322, 37.71430498574165], [36.34755808149322, 37.712149029059766]]]}, "id": "+401397+85878", "properties": {"area_ha": 3.1256867213863, "count": 11, "label": 1, "mean_dnbr": 0.323168626906342}}, {"type": "Feature", "geometry": {"geodesic": false, "type": "Polygon", "coordinates": [[[36.48715627664538, 37.70675913735505], [36.48823425498634, 37.70675913735505], [36.48823425498634, 37.707298126525515], [36.48931223332727, 37.707298126525515], [36.48931223332727, 37.70783711569599], [36.49039021166823, 37.70783711569599], [36.49039021166823, 37.70837610486646], [36.48931223332727, 37.70837610486646], [36.48931223332727, 37.70783711569599], [36.48715627664538, 37.70783711569599], [36.48715627664538, 37.70891509403693], [36.48823425498634, 37.70891509403693], [36.48823425498634, 37.709454083207405], [36.48877324415682, 37.709454083207405], [36.48877324415682, 37.71053206154835], [36.48823425498634, 37.71053206154835], [36.48823425498634, 37.70999307237788], [36.48769526581586, 37.70999307237788], [36.48769526581586, 37.709454083207405], [36.48715627664538, 37.709454083207405], [36.48715627664538, 37.70891509403693], [36.48661728747493, 37.70891509403693], [36.48661728747493, 37.70999307237788], [36.48607829830445, 37.70999307237788], [36.48607829830445, 37.709454083207405], [36.48553930913397, 37.709454083207405], [36.48553930913397, 37.70999307237788], [36.48446133079304, 37.70999307237788], [36.48446133079304, 37.71053206154835], [36.48607829830445, 37.71053206154835], [36.48607829830445, 37.71107105071882], [36.48500031996349, 37.71107105071882], [36.48500031996349, 37.712149029059766], [36.48284436328163, 37.712149029059766], [36.48284436328163, 37.70891509403693], [36.48446133079304, 37.70891509403693], [36.48446133079304, 37.70837610486646], [36.48338335245208, 37.70837610486646], [36.48338335245208, 37.70783711569599], [36.48392234162256, 37.70783711569599], [36.48392234162256, 37.707298126525515], [36.48446133079304, 37.707298126525515], [36.48446133079304, 37.70783711569599], [36.48500031996349, 37.70783711569599], [36.48500031996349, 37.70837610486646], [36.48553930913397, 37.70837610486646], [36.48553930913397, 37.70891509403693], [36.48661728747493, 37.70891509403693], [36.48661728747493, 37.70783711569599], [36.48715627664538, 37.70783711569599], [36.48715627664538, 37.70675913735505]], [[36.48500031996349, 37.70891509403693], [36.48500031996349, 37.709454083207405], [36.48446133079304, 37.709454083207405], [36.48446133079304, 37.70891509403693], [36.48500031996349, 37.70891509403693]]]}, "id": "+401655+85888", "properties": {"area_ha": 14.208380633539669, "count": 50, "label": 1, "mean_dnbr": 0.22258069603105474}}, {"type": "Feature", "geometry": {"geodesic": false, "type": "Polygon", "coordinates": [[[36.49039021166823, 37.71268801823024], [36.49146819000916, 37.71268801823024], [36.49146819000916, 37.713765996571176], [36.49362414669105, 37.713765996571176], [36.49362414669105, 37.71430498574165], [36.49308515752057, 37.71430498574165], [36.49308515752057, 37.71484397491212], [36.49362414669105, 37.71484397491212], [36.49362414669105, 37.71538296408259], [36.49200717917964, 37.71538296408259], [36.49200717917964, 37.715921953253066], [36.49146819000916, 37.715921953253066], [36.49146819000916, 37.71538296408259], [36.49092920083871, 37.71538296408259], [36.49092920083871, 37.715921953253066], [36.49039021166823, 37.715921953253066], [36.49039021166823, 37.71538296408259], [36.49092920083871, 37.71538296408259], [36.49092920083871, 37.71430498574165], [36.49039021166823, 37.71430498574165], [36.49039021166823, 37.713765996571176], [36.48877324415682, 37.713765996571176], [36.48877324415682, 37.71484397491212], [36.48823425498634, 37.71484397491212], [36.48823425498634, 37.71322700740071], [36.48877324415682, 37.71322700740071], [36.48877324415682, 37.71268801823024], [36.48985122249775, 37.71268801823024], [36.48985122249775, 37.71322700740071], [36.49039021166823, 37.71322700740071], [36.49039021166823, 37.71268801823024]], [[36.49146819000916, 37.713765996571176], [36.49146819000916, 37.71430498574165], [36.49092920083871, 37.71430498574165], [36.49092920083871, 37.713765996571176], [36.49146819000916, 37.713765996571176]], [[36.49092920083871, 37.71322700740071], [36.49092920083871, 37.713765996571176], [36.49039021166823, 37.713765996571176], [36.49039021166823, 37.71322700740071], [36.49092920083871, 37.71322700740071]]]}, "id": "+401661+85877", "properties": {"area_ha": 7.672036037740368, "count": 27, "label": 1, "mean_dnbr": 0.20574243409162432}}, {"type": "Feature", "geometry": {"geodesic": false, "type": "Polygon", "coordinates": [[[36.49524111420246, 37.69975227813892], [36.496319092543416, 37.69975227813892], [36.496319092543416, 37.70029126730939], [36.496858081713896, 37.70029126730939], [36.496858081713896, 37.70083025647986], [36.496319092543416, 37.70083025647986], [36.496319092543416, 37.7019082348208], [36.494702125032006, 37.7019082348208], [36.494702125032006, 37.70244722399127], [36.49362414669105, 37.70244722399127], [36.49362414669105, 37.701369245650326], [36.49254616835012, 37.701369245650326], [36.49254616835012, 37.70244722399127], [36.49200717917964, 37.70244722399127], [36.49200717917964, 37.701369245650326], [36.49254616835012, 37.701369245650326], [36.49254616835012, 37.70083025647986], [36.49362414669105, 37.70083025647986], [36.49362414669105, 37.70029126730939], [36.49416313586153, 37.70029126730939], [36.49416313586153, 37.70083025647986], [36.494702125032006, 37.70083025647986], [36.494702125032006, 37.701369245650326], [36.49578010337294, 37.701369245650326], [36.49578010337294, 37.70083025647986], [36.49524111420246, 37.70083025647986], [36.49524111420246, 37.69975227813892]]]}, "id": "+401670+85901", "properties": {"area_ha": 5.683989515822625, "count": 20, "label": 1, "mean_dnbr": 0.2141977898968679}}, {"type": "Feature", "geometry": {"geodesic": false, "type": "Polygon", "coordinates": [[[36.501708984248125, 37.7019082348208], [36.503325951759535, 37.7019082348208], [36.503325951759535, 37.70244722399127], [36.503864940930015, 37.70244722399127], [36.503864940930015, 37.70298621316174], [36.502786962589084, 37.70298621316174], [36.502786962589084, 37.703525202332216], [36.503325951759535, 37.703525202332216], [36.503325951759535, 37.70460318067316], [36.504403930100494, 37.70460318067316], [36.504403930100494, 37.70406419150269], [36.505481908441425, 37.70406419150269], [36.505481908441425, 37.70460318067316], [36.506020897611904, 37.70460318067316], [36.506020897611904, 37.70514216984363], [36.505481908441425, 37.70514216984363], [36.505481908441425, 37.70622014818458], [36.504942919270945, 37.70622014818458], [36.504942919270945, 37.705681159014105], [36.504403930100494, 37.705681159014105], [36.504403930100494, 37.70622014818458], [36.503864940930015, 37.70622014818458], [36.503864940930015, 37.705681159014105], [36.502786962589084, 37.705681159014105], [36.502786962589084, 37.70675913735505], [36.503325951759535, 37.70675913735505], [36.503325951759535, 37.707298126525515], [36.502786962589084, 37.707298126525515], [36.502786962589084, 37.70783711569599], [36.501708984248125, 37.70783711569599], [36.501708984248125, 37.707298126525515], [36.501169995077646, 37.707298126525515], [36.501169995077646, 37.70622014818458], [36.49901403839576, 37.70622014818458], [36.49901403839576, 37.705681159014105], [36.498475049225306, 37.705681159014105], [36.498475049225306, 37.70622014818458], [36.497936060054826, 37.70622014818458], [36.497936060054826, 37.705681159014105], [36.498475049225306, 37.705681159014105], [36.498475049225306, 37.70514216984363], [36.49739707088435, 37.70514216984363], [36.49739707088435, 37.70460318067316], [36.49901403839576, 37.70460318067316], [36.49901403839576, 37.705681159014105], [36.499553027566236, 37.705681159014105], [36.499553027566236, 37.70460318067316], [36.500092016736716, 37.70460318067316], [36.500092016736716, 37.70406419150269], [36.501708984248125, 37.70406419150269], [36.501708984248125, 37.703525202332216], [36.500092016736716, 37.703525202332216], [36.500092016736716, 37.70298621316174], [36.501169995077646, 37.70298621316174], [36.501169995077646, 37.70244722399127], [36.501708984248125, 37.70244722399127], [36.501708984248125, 37.7019082348208]], [[36.501708984248125, 37.70514216984363], [36.501708984248125, 37.705681159014105], [36.502247973418605, 37.705681159014105], [36.502247973418605, 37.70622014818458], [36.501169995077646, 37.70622014818458], [36.501169995077646, 37.705681159014105], [36.500092016736716, 37.705681159014105], [36.500092016736716, 37.70514216984363], [36.501708984248125, 37.70514216984363]]]}, "id": "+401683+85897", "properties": {"area_ha": 18.47205772659954, "count": 65, "label": 1, "mean_dnbr": 0.20096350156064727}}, {"type": "Feature", "geometry": {"geodesic": false, "type": "Polygon", "coordinates": [[[36.503325951759535, 37.70783711569599], [36.503864940930015, 37.70783711569599], [36.503864940930015, 37.70891509403693], [36.504403930100494, 37.70891509403693], [36.504403930100494, 37.70837610486646], [36.505481908441425, 37.70837610486646], [36.505481908441425, 37.70891509403693], [36.507098875952835, 37.70891509403693], [36.507098875952835, 37.709454083207405], [36.505481908441425, 37.709454083207405], [36.505481908441425, 37.70891509403693], [36.504403930100494, 37.70891509403693], [36.504403930100494, 37.709454083207405], [36.503325951759535, 37.709454083207405], [36.503325951759535, 37.70999307237788], [36.504403930100494, 37.70999307237788], [36.504403930100494, 37.71053206154835], [36.503864940930015, 37.71053206154835], [36.503864940930015, 37.711610039889294], [36.503325951759535, 37.711610039889294], [36.503325951759535, 37.70999307237788], [36.501708984248125, 37.70999307237788], [36.501708984248125, 37.709454083207405], [36.502247973418605, 37.709454083207405], [36.502247973418605, 37.70891509403693], [36.503325951759535, 37.70891509403693], [36.503325951759535, 37.70783711569599]]]}, "id": "+401684+85886", "properties": {"area_ha": 5.115021616520262, "count": 18, "label": 1, "mean_dnbr": 0.1990857143830823}}, {"type": "Feature", "geometry": {"geodesic": false, "type": "Polygon", "coordinates": [[[36.505481908441425, 37.697057332286555], [36.506559886782384, 37.697057332286555], [36.506559886782384, 37.6981353106275], [36.506020897611904, 37.6981353106275], [36.506020897611904, 37.69867429979797], [36.507637865123314, 37.69867429979797], [36.507637865123314, 37.699213288968444], [36.508176854293794, 37.699213288968444], [36.508176854293794, 37.69975227813892], [36.50871584346427, 37.69975227813892], [36.50871584346427, 37.70029126730939], [36.508176854293794, 37.70029126730939], [36.508176854293794, 37.69975227813892], [36.506020897611904, 37.69975227813892], [36.506020897611904, 37.699213288968444], [36.504942919270945, 37.699213288968444], [36.504942919270945, 37.6981353106275], [36.505481908441425, 37.6981353106275], [36.505481908441425, 37.697057332286555]]]}, "id": "+401689+85906", "properties": {"area_ha": 4.5473451978219925, "count": 16, "label": 1, "mean_dnbr": 0.23452330223058798}}, {"type": "Feature", "geometry": {"geodesic": false, "type": "Polygon", "coordinates": [[[36.50871584346427, 37.70406419150269], [36.51033281097568, 37.70406419150269], [36.51033281097568, 37.70514216984363], [36.509793821805204, 37.70514216984363], [36.509793821805204, 37.705681159014105], [36.509254832634724, 37.705681159014105], [36.509254832634724, 37.70514216984363], [36.508176854293794, 37.70514216984363], [36.508176854293794, 37.705681159014105], [36.507637865123314, 37.705681159014105], [36.507637865123314, 37.70675913735505], [36.508176854293794, 37.70675913735505], [36.508176854293794, 37.707298126525515], [36.50871584346427, 37.707298126525515], [36.50871584346427, 37.70675913735505], [36.509793821805204, 37.70675913735505], [36.509793821805204, 37.70622014818458], [36.51033281097568, 37.70622014818458], [36.51033281097568, 37.70675913735505], [36.509793821805204, 37.70675913735505], [36.509793821805204, 37.707298126525515], [36.50871584346427, 37.707298126525515], [36.50871584346427, 37.70837610486646], [36.508176854293794, 37.70837610486646], [36.508176854293794, 37.70891509403693], [36.507637865123314, 37.70891509403693], [36.507637865123314, 37.70837610486646], [36.506559886782384, 37.70837610486646], [36.506559886782384, 37.70622014818458], [36.507098875952835, 37.70622014818458], [36.507098875952835, 37.70514216984363], [36.508176854293794, 37.70514216984363], [36.508176854293794, 37.70460318067316], [36.50871584346427, 37.70460318067316], [36.50871584346427, 37.70406419150269]], [[36.508176854293794, 37.707298126525515], [36.508176854293794, 37.70783711569599], [36.507637865123314, 37.70783711569599], [36.507637865123314, 37.707298126525515], [36.508176854293794, 37.707298126525515]]]}, "id": "+401696+85893", "properties": {"area_ha": 7.672842747458136, "count": 27, "label": 1, "mean_dnbr": 0.2023109472400274}}, {"type": "Feature", "geometry": {"geodesic": false, "type": "Polygon", "coordinates": [[[36.52272956189651, 37.73370859587863], [36.52434652940795, 37.73370859587863], [36.52434652940795, 37.73478657421958], [36.52380754023747, 37.73478657421958], [36.52380754023747, 37.73586455256052], [36.52272956189651, 37.73586455256052], [36.52272956189651, 37.73532556339005], [36.52219057272606, 37.73532556339005], [36.52219057272606, 37.734247585049104], [36.52272956189651, 37.734247585049104], [36.52272956189651, 37.73370859587863]]]}, "id": "+401722+85838", "properties": {"area_ha": 3.4088493094857926, "count": 12, "label": 1, "mean_dnbr": 0.252285331238518}}, {"type": "Feature", "geometry": {"geodesic": false, "type": "Polygon", "coordinates": [[[36.56153678217049, 37.79084144794864], [36.56369273885238, 37.79084144794864], [36.56369273885238, 37.791919426289574], [36.56153678217049, 37.791919426289574], [36.56153678217049, 37.79245841546005], [36.56099779300001, 37.79245841546005], [36.56099779300001, 37.79299740463052], [36.56045880382953, 37.79299740463052], [36.56045880382953, 37.79245841546005], [36.56099779300001, 37.79245841546005], [36.56099779300001, 37.79138043711911], [36.56153678217049, 37.79138043711911], [36.56153678217049, 37.79084144794864]]]}, "id": "+401795+85732", "properties": {"area_ha": 3.122377169441326, "count": 11, "label": 1, "mean_dnbr": 0.3047541120223763}}, {"type": "Feature", "geometry": {"geodesic": false, "type": "Polygon", "coordinates": [[[36.58147938147795, 37.77467177283448], [36.58255735981888, 37.77467177283448], [36.58255735981888, 37.77521076200495], [36.58309634898936, 37.77521076200495], [36.58309634898936, 37.775749751175425], [36.58363533815984, 37.775749751175425], [36.58363533815984, 37.7762887403459], [36.58309634898936, 37.7762887403459], [36.58309634898936, 37.77682772951637], [36.5820183706484, 37.77682772951637], [36.5820183706484, 37.7762887403459], [36.58147938147795, 37.7762887403459], [36.58147938147795, 37.77736671868684], [36.58040140313699, 37.77736671868684], [36.58040140313699, 37.777905707857315], [36.57986241396654, 37.777905707857315], [36.57986241396654, 37.77682772951637], [36.58094039230747, 37.77682772951637], [36.58094039230747, 37.7762887403459], [36.58040140313699, 37.7762887403459], [36.58040140313699, 37.775749751175425], [36.57932342479606, 37.775749751175425], [36.57932342479606, 37.77521076200495], [36.58147938147795, 37.77521076200495], [36.58147938147795, 37.77467177283448]]]}, "id": "+401830+85762", "properties": {"area_ha": 6.246063134504036, "count": 22, "label": 1, "mean_dnbr": 0.2511501281837615}}, {"type": "Feature", "geometry": {"geodesic": false, "type": "Polygon", "coordinates": [[[36.60842884000152, 37.686816538047594], [36.60950681834248, 37.686816538047594], [36.60950681834248, 37.68789451638854], [36.61004580751293, 37.68789451638854], [36.61004580751293, 37.68843350555901], [36.61058479668341, 37.68843350555901], [36.61058479668341, 37.68951148389995], [36.60950681834248, 37.68951148389995], [36.60950681834248, 37.688972494729484], [36.608967829172, 37.688972494729484], [36.608967829172, 37.68843350555901], [36.60842884000152, 37.68843350555901], [36.60842884000152, 37.68789451638854], [36.608967829172, 37.68789451638854], [36.608967829172, 37.68735552721807], [36.60842884000152, 37.68735552721807], [36.60842884000152, 37.686816538047594]]]}, "id": "+401880+85925", "properties": {"area_ha": 3.1267390314028014, "count": 11, "label": 1, "mean_dnbr": 0.17749687265640177}}, {"type": "Feature", "geometry": {"geodesic": false, "type": "Polygon", "coordinates": [[[36.76689165612021, 37.570933866396174], [36.76743064529069, 37.570933866396174], [36.76743064529069, 37.57201184473712], [36.76958660197258, 37.57201184473712], [36.76958660197258, 37.573089823078064], [36.7690476128021, 37.573089823078064], [36.7690476128021, 37.574706790589474], [36.76850862363162, 37.574706790589474], [36.76850862363162, 37.57416780141901], [36.76796963446117, 37.57416780141901], [36.76796963446117, 37.574706790589474], [36.76743064529069, 37.574706790589474], [36.76743064529069, 37.573089823078064], [36.76689165612021, 37.573089823078064], [36.76689165612021, 37.57255083390759], [36.76581367777928, 37.57255083390759], [36.76581367777928, 37.57147285556665], [36.76689165612021, 37.57147285556665], [36.76689165612021, 37.570933866396174]]]}, "id": "+402173+86140", "properties": {"area_ha": 6.832576782195269, "count": 24, "label": 1, "mean_dnbr": 0.21665326761670425}}, {"type": "Feature", "geometry": {"geodesic": false, "type": "Polygon", "coordinates": [[[36.77066458031351, 37.57632375810089], [36.774976493677286, 37.57632375810089], [36.774976493677286, 37.57794072561231], [36.7728205369954, 37.57794072561231], [36.7728205369954, 37.577401736441836], [36.77228154782492, 37.577401736441836], [36.77228154782492, 37.57686274727136], [36.771742558654466, 37.57686274727136], [36.771742558654466, 37.577401736441836], [36.77066458031351, 37.577401736441836], [36.77066458031351, 37.57632375810089]]]}, "id": "+402187+86130", "properties": {"area_ha": 5.408774581415278, "count": 19, "label": 1, "mean_dnbr": 0.1857649030105475}}, {"type": "Feature", "geometry": {"geodesic": false, "type": "Polygon", "coordinates": [[[36.79114616879144, 37.550452277918254], [36.79168515796192, 37.550452277918254], [36.79168515796192, 37.55153025625919], [36.79276313630285, 37.55153025625919], [36.79276313630285, 37.552069245429664], [36.79222414713237, 37.552069245429664], [36.79222414713237, 37.552608234600136], [36.79114616879144, 37.552608234600136], [36.79114616879144, 37.55314722377061], [36.790068190450484, 37.55314722377061], [36.790068190450484, 37.55368621294108], [36.788451222939074, 37.55368621294108], [36.788451222939074, 37.55422520211155], [36.78899021210955, 37.55422520211155], [36.78899021210955, 37.554764191282025], [36.788451222939074, 37.554764191282025], [36.788451222939074, 37.5553031804525], [36.78737324459814, 37.5553031804525], [36.78737324459814, 37.55584216962297], [36.786834255427664, 37.55584216962297], [36.786834255427664, 37.55422520211155], [36.78737324459814, 37.55422520211155], [36.78737324459814, 37.55314722377061], [36.787912233768594, 37.55314722377061], [36.787912233768594, 37.552069245429664], [36.788451222939074, 37.552069245429664], [36.788451222939074, 37.55153025625919], [36.78899021210955, 37.55153025625919], [36.78899021210955, 37.55099126708872], [36.79114616879144, 37.55099126708872], [36.79114616879144, 37.550452277918254]]]}, "id": "+402218+86178", "properties": {"area_ha": 12.244993051353335, "count": 43, "label": 1, "mean_dnbr": 0.3975563705937365}}, {"type": "Feature", "geometry": {"geodesic": false, "type": "Polygon", "coordinates": [[[36.80246494137134, 37.596266357408346], [36.8035429197123, 37.596266357408346], [36.8035429197123, 37.59680534657882], [36.80623786556464, 37.59680534657882], [36.80623786556464, 37.59788332491976], [36.80785483307605, 37.59788332491976], [36.80785483307605, 37.598422314090236], [36.80677685473512, 37.598422314090236], [36.80677685473512, 37.5989613032607], [36.80569887639416, 37.5989613032607], [36.80569887639416, 37.59734433574929], [36.80515988722371, 37.59734433574929], [36.80515988722371, 37.59788332491976], [36.80462089805323, 37.59788332491976], [36.80462089805323, 37.5989613032607], [36.80246494137134, 37.5989613032607], [36.80246494137134, 37.59950029243117], [36.80300393054182, 37.59950029243117], [36.80300393054182, 37.600039281601646], [36.80462089805323, 37.600039281601646], [36.80462089805323, 37.60111725994259], [36.80246494137134, 37.60111725994259], [36.80246494137134, 37.60057827077212], [36.80192595220086, 37.60057827077212], [36.80192595220086, 37.600039281601646], [36.80138696303041, 37.600039281601646], [36.80138696303041, 37.59950029243117], [36.80192595220086, 37.59950029243117], [36.80192595220086, 37.5989613032607], [36.80246494137134, 37.5989613032607], [36.80246494137134, 37.59788332491976], [36.80192595220086, 37.59788332491976], [36.80192595220086, 37.59734433574929], [36.80246494137134, 37.59734433574929], [36.80246494137134, 37.596266357408346]]]}, "id": "+402240+86093", "properties": {"area_ha": 12.237476304100447, "count": 43, "label": 1, "mean_dnbr": 0.2095200852938912}}, {"type": "Feature", "geometry": {"geodesic": false, "type": "Polygon", "coordinates": [[[36.8073158439056, 37.579557693123725], [36.81216674643983, 37.579557693123725], [36.81216674643983, 37.58171364980561], [36.81162775726935, 37.58171364980561], [36.81162775726935, 37.58225263897608], [36.81001078975794, 37.58225263897608], [36.81001078975794, 37.58063567146467], [36.80947180058749, 37.58063567146467], [36.80947180058749, 37.58171364980561], [36.80785483307605, 37.58171364980561], [36.80785483307605, 37.581174660635135], [36.8073158439056, 37.581174660635135], [36.8073158439056, 37.579557693123725]]]}, "id": "+402256+86124", "properties": {"area_ha": 10.24771543773048, "count": 36, "label": 1, "mean_dnbr": 0.2266630294098707}}, {"type": "Feature", "geometry": {"geodesic": false, "type": "Polygon", "coordinates": [[[36.81647865980361, 37.54991328874778], [36.81701764897409, 37.54991328874778], [36.81701764897409, 37.550452277918254], [36.81755663814454, 37.550452277918254], [36.81755663814454, 37.55099126708872], [36.81809562731502, 37.55099126708872], [36.81809562731502, 37.550452277918254], [36.81971259482643, 37.550452277918254], [36.81971259482643, 37.55153025625919], [36.81647865980361, 37.55153025625919], [36.81647865980361, 37.54991328874778]]]}, "id": "+402265+86179", "properties": {"area_ha": 3.4173138319187912, "count": 12, "label": 1, "mean_dnbr": 0.23673249725182047}}, {"type": "Feature", "geometry": {"geodesic": false, "type": "Polygon", "coordinates": [[[36.819173605655976, 37.5418284511907], [36.821329562337866, 37.5418284511907], [36.821329562337866, 37.54290642953165], [36.82186855150832, 37.54290642953165], [36.82186855150832, 37.54344541870212], [36.821329562337866, 37.54344541870212], [36.821329562337866, 37.54398440787259], [36.820790573167386, 37.54398440787259], [36.820790573167386, 37.54452339704306], [36.82025158399691, 37.54452339704306], [36.82025158399691, 37.54398440787259], [36.820790573167386, 37.54398440787259], [36.820790573167386, 37.54290642953165], [36.81971259482643, 37.54290642953165], [36.81971259482643, 37.542367440361176], [36.819173605655976, 37.542367440361176], [36.819173605655976, 37.5418284511907]]]}, "id": "+402273+86194", "properties": {"area_ha": 3.1328564903904814, "count": 11, "label": 1, "mean_dnbr": 0.26261462849118483}}, {"type": "Feature", "geometry": {"geodesic": false, "type": "Polygon", "coordinates": [[[36.821329562337866, 37.55314722377061], [36.82186855150832, 37.55314722377061], [36.82186855150832, 37.55422520211155], [36.822946529849276, 37.55422520211155], [36.822946529849276, 37.554764191282025], [36.82348551901973, 37.554764191282025], [36.82348551901973, 37.5553031804525], [36.822407540678796, 37.5553031804525], [36.822407540678796, 37.55584216962297], [36.820790573167386, 37.55584216962297], [36.820790573167386, 37.5553031804525], [36.821329562337866, 37.5553031804525], [36.821329562337866, 37.554764191282025], [36.82186855150832, 37.554764191282025], [36.82186855150832, 37.55422520211155], [36.821329562337866, 37.55422520211155], [36.821329562337866, 37.55314722377061]]]}, "id": "+402274+86173", "properties": {"area_ha": 3.132358319245836, "count": 11, "label": 1, "mean_dnbr": 0.21942840004270592}}, {"type": "Feature", "geometry": {"geodesic": false, "type": "Polygon", "coordinates": [[[36.81971259482643, 37.573628812248536], [36.82348551901973, 37.573628812248536], [36.82348551901973, 37.57578476893042], [36.82186855150832, 37.57578476893042], [36.82186855150832, 37.57632375810089], [36.820790573167386, 37.57632375810089], [36.820790573167386, 37.57686274727136], [36.82025158399691, 37.57686274727136], [36.82025158399691, 37.57632375810089], [36.820790573167386, 37.57632375810089], [36.820790573167386, 37.575245779759946], [36.82025158399691, 37.575245779759946], [36.82025158399691, 37.574706790589474], [36.81971259482643, 37.574706790589474], [36.81971259482643, 37.57578476893042], [36.8186346164855, 37.57578476893042], [36.8186346164855, 37.57416780141901], [36.81971259482643, 37.57416780141901], [36.81971259482643, 37.573628812248536]]]}, "id": "+402277+86135", "properties": {"area_ha": 9.67919534112844, "count": 34, "label": 1, "mean_dnbr": 0.20554858147253594}}, {"type": "Feature", "geometry": {"geodesic": false, "type": "Polygon", "coordinates": [[[36.82348551901973, 37.54290642953165], [36.824024508190206, 37.54290642953165], [36.824024508190206, 37.54452339704306], [36.824563497360685, 37.54452339704306], [36.824563497360685, 37.546140364554475], [36.824024508190206, 37.546140364554475], [36.824024508190206, 37.545601375384], [36.82348551901973, 37.545601375384], [36.82348551901973, 37.54506238621353], [36.822946529849276, 37.54506238621353], [36.822946529849276, 37.545601375384], [36.822407540678796, 37.545601375384], [36.822407540678796, 37.546140364554475], [36.82186855150832, 37.546140364554475], [36.82186855150832, 37.54667935372495], [36.822946529849276, 37.54667935372495], [36.822946529849276, 37.548296321236364], [36.824563497360685, 37.548296321236364], [36.824563497360685, 37.54883531040684], [36.825102486531165, 37.54883531040684], [36.825102486531165, 37.54991328874778], [36.82348551901973, 37.54991328874778], [36.82348551901973, 37.55099126708872], [36.822946529849276, 37.55099126708872], [36.822946529849276, 37.55153025625919], [36.82348551901973, 37.55153025625919], [36.82348551901973, 37.552069245429664], [36.824563497360685, 37.552069245429664], [36.824563497360685, 37.552608234600136], [36.82348551901973, 37.552608234600136], [36.82348551901973, 37.552069245429664], [36.822946529849276, 37.552069245429664], [36.822946529849276, 37.552608234600136], [36.82186855150832, 37.552608234600136], [36.82186855150832, 37.552069245429664], [36.820790573167386, 37.552069245429664], [36.820790573167386, 37.55153025625919], [36.82025158399691, 37.55153025625919], [36.82025158399691, 37.55099126708872], [36.822946529849276, 37.55099126708872], [36.822946529849276, 37.54991328874778], [36.822407540678796, 37.54991328874778], [36.822407540678796, 37.54883531040684], [36.82186855150832, 37.54883531040684], [36.82186855150832, 37.548296321236364], [36.821329562337866, 37.548296321236364], [36.821329562337866, 37.54775733206589], [36.820790573167386, 37.54775733206589], [36.820790573167386, 37.54667935372495], [36.82025158399691, 37.54667935372495], [36.82025158399691, 37.54506238621353], [36.821329562337866, 37.54506238621353], [36.821329562337866, 37.54452339704306], [36.82186855150832, 37.54452339704306], [36.82186855150832, 37.54398440787259], [36.822407540678796, 37.54398440787259], [36.822407540678796, 37.54344541870212], [36.82348551901973, 37.54344541870212], [36.82348551901973, 37.54290642953165]], [[36.821329562337866, 37.546140364554475], [36.821329562337866, 37.54667935372495], [36.820790573167386, 37.54667935372495], [36.820790573167386, 37.546140364554475], [36.821329562337866, 37.546140364554475]], [[36.822407540678796, 37.54452339704306], [36.822407540678796, 37.545601375384], [36.82186855150832, 37.545601375384], [36.82186855150832, 37.54452339704306], [36.822407540678796, 37.54452339704306]]]}, "id": "+402278+86192", "properties": {"area_ha": 19.365456820084912, "count": 68, "label": 1, "mean_dnbr": 0.2469921462670204}}, {"type": "Feature", "geometry": {"geodesic": false, "type": "Polygon", "coordinates": [[[36.822946529849276, 37.57686274727136], [36.825102486531165, 37.57686274727136], [36.825102486531165, 37.577401736441836], [36.824024508190206, 37.577401736441836], [36.824024508190206, 37.57794072561231], [36.825641475701616, 37.57794072561231], [36.825641475701616, 37.577401736441836], [36.827258443213054, 37.577401736441836], [36.827258443213054, 37.57794072561231], [36.826719454042575, 37.57794072561231], [36.826719454042575, 37.579557693123725], [36.825641475701616, 37.579557693123725], [36.825641475701616, 37.57901870395325], [36.825102486531165, 37.57901870395325], [36.825102486531165, 37.579557693123725], [36.824563497360685, 37.579557693123725], [36.824563497360685, 37.57901870395325], [36.824024508190206, 37.57901870395325], [36.824024508190206, 37.57794072561231], [36.82348551901973, 37.57794072561231], [36.82348551901973, 37.577401736441836], [36.822946529849276, 37.577401736441836], [36.822946529849276, 37.57686274727136]]]}, "id": "+402280+86129", "properties": {"area_ha": 5.978067537913221, "count": 21, "label": 1, "mean_dnbr": 0.15600717855788657}}, {"type": "Feature", "geometry": {"geodesic": false, "type": "Polygon", "coordinates": [[[36.827797432383505, 37.57578476893042], [36.828875410724464, 37.57578476893042], [36.828875410724464, 37.57632375810089], [36.829953389065395, 37.57632375810089], [36.829953389065395, 37.57686274727136], [36.830492378235874, 37.57686274727136], [36.830492378235874, 37.57632375810089], [36.831031367406354, 37.57632375810089], [36.831031367406354, 37.57686274727136], [36.830492378235874, 37.57686274727136], [36.830492378235874, 37.57794072561231], [36.831031367406354, 37.57794072561231], [36.831031367406354, 37.577401736441836], [36.831570356576805, 37.577401736441836], [36.831570356576805, 37.57794072561231], [36.831031367406354, 37.57794072561231], [36.831031367406354, 37.57901870395325], [36.831570356576805, 37.57901870395325], [36.831570356576805, 37.579557693123725], [36.830492378235874, 37.579557693123725], [36.830492378235874, 37.5800966822942], [36.829953389065395, 37.5800966822942], [36.829953389065395, 37.57847971478278], [36.829414399894915, 37.57847971478278], [36.829414399894915, 37.577401736441836], [36.828875410724464, 37.577401736441836], [36.828875410724464, 37.57632375810089], [36.827797432383505, 37.57632375810089], [36.827797432383505, 37.57578476893042]]]}, "id": "+402287+86131", "properties": {"area_ha": 5.693436463062184, "count": 20, "label": 1, "mean_dnbr": 0.19159949295287595}}, {"type": "Feature", "geometry": {"geodesic": false, "type": "Polygon", "coordinates": [[[36.832109345747284, 37.52242484105372], [36.83318732408824, 37.52242484105372], [36.83318732408824, 37.52296383022419], [36.83426530242917, 37.52296383022419], [36.83426530242917, 37.52404180856514], [36.835343280770104, 37.52404180856514], [36.835343280770104, 37.523502819394665], [36.83588226994058, 37.523502819394665], [36.83588226994058, 37.52511978690608], [36.835343280770104, 37.52511978690608], [36.835343280770104, 37.52673675441749], [36.83588226994058, 37.52673675441749], [36.83588226994058, 37.527814732758436], [36.835343280770104, 37.527814732758436], [36.835343280770104, 37.52835372192891], [36.83480429159965, 37.52835372192891], [36.83480429159965, 37.52943170026985], [36.83426530242917, 37.52943170026985], [36.83426530242917, 37.529970689440326], [36.833726313258694, 37.529970689440326], [36.833726313258694, 37.5305096786108], [36.830492378235874, 37.5305096786108], [36.830492378235874, 37.52943170026985], [36.831570356576805, 37.52943170026985], [36.831570356576805, 37.52889271109938], [36.829953389065395, 37.52889271109938], [36.829953389065395, 37.52835372192891], [36.832648334917764, 37.52835372192891], [36.832648334917764, 37.527275743587964], [36.832109345747284, 37.527275743587964], [36.832109345747284, 37.526197765247026], [36.832648334917764, 37.526197765247026], [36.832648334917764, 37.52511978690608], [36.832109345747284, 37.52511978690608], [36.832109345747284, 37.52458079773561], [36.831570356576805, 37.52458079773561], [36.831570356576805, 37.52404180856514], [36.832648334917764, 37.52404180856514], [36.832648334917764, 37.523502819394665], [36.83318732408824, 37.523502819394665], [36.83318732408824, 37.52296383022419], [36.832109345747284, 37.52296383022419], [36.832109345747284, 37.523502819394665], [36.831570356576805, 37.523502819394665], [36.831570356576805, 37.52296383022419], [36.832109345747284, 37.52296383022419], [36.832109345747284, 37.52242484105372]]]}, "id": "+402295+86230", "properties": {"area_ha": 24.49852469713342, "count": 86, "label": 1, "mean_dnbr": 0.41240601387578635}}, {"type": "Feature", "geometry": {"geodesic": false, "type": "Polygon", "coordinates": [[[36.83588226994058, 37.54506238621353], [36.83642125911106, 37.54506238621353], [36.83642125911106, 37.546140364554475], [36.83696024828154, 37.546140364554475], [36.83696024828154, 37.54667935372495], [36.83803822662247, 37.54667935372495], [36.83803822662247, 37.54721834289542], [36.83911620496343, 37.54721834289542], [36.83911620496343, 37.54775733206589], [36.83857721579295, 37.54775733206589], [36.83857721579295, 37.54883531040684], [36.83803822662247, 37.54883531040684], [36.83803822662247, 37.548296321236364], [36.83749923745199, 37.548296321236364], [36.83749923745199, 37.54775733206589], [36.83696024828154, 37.54775733206589], [36.83696024828154, 37.54721834289542], [36.835343280770104, 37.54721834289542], [36.835343280770104, 37.54667935372495], [36.83480429159965, 37.54667935372495], [36.83480429159965, 37.545601375384], [36.83588226994058, 37.545601375384], [36.83588226994058, 37.54506238621353]]]}, "id": "+402301+86188", "properties": {"area_ha": 5.695799841206268, "count": 20, "label": 1, "mean_dnbr": 0.20596117564842803}}, {"type": "Feature", "geometry": {"geodesic": false, "type": "Polygon", "coordinates": [[[36.83588226994058, 37.57255083390759], [36.83696024828154, 37.57255083390759], [36.83696024828154, 37.573089823078064], [36.83749923745199, 37.573089823078064], [36.83749923745199, 37.573628812248536], [36.83965519413388, 37.573628812248536], [36.83965519413388, 37.575245779759946], [36.84019418330436, 37.575245779759946], [36.84019418330436, 37.57686274727136], [36.83803822662247, 37.57686274727136], [36.83803822662247, 37.57578476893042], [36.83749923745199, 37.57578476893042], [36.83749923745199, 37.574706790589474], [36.83480429159965, 37.574706790589474], [36.83480429159965, 37.575245779759946], [36.83426530242917, 37.575245779759946], [36.83426530242917, 37.574706790589474], [36.83480429159965, 37.574706790589474], [36.83480429159965, 37.573628812248536], [36.835343280770104, 37.573628812248536], [36.835343280770104, 37.573089823078064], [36.83588226994058, 37.573089823078064], [36.83588226994058, 37.57255083390759]], [[36.83642125911106, 37.573089823078064], [36.83642125911106, 37.573628812248536], [36.83696024828154, 37.573628812248536], [36.83696024828154, 37.57416780141901], [36.835343280770104, 37.57416780141901], [36.835343280770104, 37.573628812248536], [36.83588226994058, 37.573628812248536], [36.83588226994058, 37.573089823078064], [36.83642125911106, 37.573089823078064]]]}, "id": "+402302+86137", "properties": {"area_ha": 10.817976859084704, "count": 38, "label": 1, "mean_dnbr": 0.23483639043266288}}, {"type": "Feature", "geometry": {"geodesic": false, "type": "Polygon", "coordinates": [[[36.83480429159965, 37.56769993137335], [36.83696024828154, 37.56769993137335], [36.83696024828154, 37.568777909714285], [36.83749923745199, 37.568777909714285], [36.83749923745199, 37.5703948772257], [36.83642125911106, 37.5703948772257], [36.83642125911106, 37.570933866396174], [36.83588226994058, 37.570933866396174], [36.83588226994058, 37.57147285556665], [36.835343280770104, 37.57147285556665], [36.835343280770104, 37.57201184473712], [36.832648334917764, 37.57201184473712], [36.832648334917764, 37.5703948772257], [36.83318732408824, 37.5703948772257], [36.83318732408824, 37.568777909714285], [36.833726313258694, 37.568777909714285], [36.833726313258694, 37.56823892054382], [36.83480429159965, 37.56823892054382], [36.83480429159965, 37.56769993137335]]]}, "id": "+402302+86146", "properties": {"area_ha": 14.804517526509537, "count": 52, "label": 1, "mean_dnbr": 0.18206439837988064}}, {"type": "Feature", "geometry": {"geodesic": false, "type": "Polygon", "coordinates": [[[36.83803822662247, 37.55638115879344], [36.83857721579295, 37.55638115879344], [36.83857721579295, 37.55692014796391], [36.83965519413388, 37.55692014796391], [36.83965519413388, 37.558537115475325], [36.83911620496343, 37.558537115475325], [36.83911620496343, 37.55799812630485], [36.83857721579295, 37.55799812630485], [36.83857721579295, 37.55745913713438], [36.83803822662247, 37.55745913713438], [36.83803822662247, 37.55799812630485], [36.83749923745199, 37.55799812630485], [36.83749923745199, 37.558537115475325], [36.83696024828154, 37.558537115475325], [36.83696024828154, 37.55692014796391], [36.83749923745199, 37.55692014796391], [36.83749923745199, 37.55745913713438], [36.83803822662247, 37.55745913713438], [36.83803822662247, 37.55638115879344]]]}, "id": "+402305+86167", "properties": {"area_ha": 3.132241803490813, "count": 11, "label": 1, "mean_dnbr": 0.3353705617797155}}, {"type": "Feature", "geometry": {"geodesic": false, "type": "Polygon", "coordinates": [[[36.84127216164529, 37.56823892054382], [36.84181115081577, 37.56823892054382], [36.84181115081577, 37.56931689888476], [36.84235013998625, 37.56931689888476], [36.84235013998625, 37.5703948772257], [36.84127216164529, 37.5703948772257], [36.84127216164529, 37.57201184473712], [36.84073317247484, 37.57201184473712], [36.84073317247484, 37.57147285556665], [36.83965519413388, 37.57147285556665], [36.83965519413388, 37.570933866396174], [36.83911620496343, 37.570933866396174], [36.83911620496343, 37.5703948772257], [36.84127216164529, 37.5703948772257], [36.84127216164529, 37.56985588805523], [36.84181115081577, 37.56985588805523], [36.84181115081577, 37.56931689888476], [36.84127216164529, 37.56931689888476], [36.84127216164529, 37.56823892054382]]]}, "id": "+402311+86145", "properties": {"area_ha": 3.7010958030060728, "count": 13, "label": 1, "mean_dnbr": 0.15817333109304813}}, {"type": "Feature", "geometry": {"geodesic": false, "type": "Polygon", "coordinates": [[[36.84019418330436, 37.57255083390759], [36.84235013998625, 37.57255083390759], [36.84235013998625, 37.57416780141901], [36.84073317247484, 37.57416780141901], [36.84073317247484, 37.573628812248536], [36.84019418330436, 37.573628812248536], [36.84019418330436, 37.57255083390759]]]}, "id": "+402312+86137", "properties": {"area_ha": 3.1315752267043573, "count": 11, "label": 1, "mean_dnbr": 0.16931541453227902}}, {"type": "Feature", "geometry": {"geodesic": false, "type": "Polygon", "coordinates": [[[36.84235013998625, 37.502482241746264], [36.84288912915673, 37.502482241746264], [36.84288912915673, 37.50302123091674], [36.84450609666814, 37.50302123091674], [36.84450609666814, 37.50356022008721], [36.84504508583862, 37.50356022008721], [36.84504508583862, 37.50409920925768], [36.84666205335003, 37.50409920925768], [36.84666205335003, 37.504638198428154], [36.84774003169096, 37.504638198428154], [36.84774003169096, 37.50679415511004], [36.84666205335003, 37.50679415511004], [36.84666205335003, 37.50625516593957], [36.84342811832718, 37.50625516593957], [36.84342811832718, 37.5057161767691], [36.84288912915673, 37.5057161767691], [36.84288912915673, 37.505177187598626], [36.84396710749766, 37.505177187598626], [36.84396710749766, 37.50409920925768], [36.84342811832718, 37.50409920925768], [36.84342811832718, 37.50356022008721], [36.84288912915673, 37.50356022008721], [36.84288912915673, 37.50302123091674], [36.84235013998625, 37.50302123091674], [36.84235013998625, 37.502482241746264]]]}, "id": "+402313+86267", "properties": {"area_ha": 10.828113633574656, "count": 38, "label": 1, "mean_dnbr": 0.2088723300200386}}, {"type": "Feature", "geometry": {"geodesic": false, "type": "Polygon", "coordinates": [[[36.84235013998625, 37.542367440361176], [36.84342811832718, 37.542367440361176], [36.84342811832718, 37.54344541870212], [36.84396710749766, 37.54344541870212], [36.84396710749766, 37.54290642953165], [36.84450609666814, 37.54290642953165], [36.84450609666814, 37.54452339704306], [36.84504508583862, 37.54452339704306], [36.84504508583862, 37.545601375384], [36.84342811832718, 37.545601375384], [36.84342811832718, 37.54452339704306], [36.84288912915673, 37.54452339704306], [36.84288912915673, 37.54398440787259], [36.84235013998625, 37.54398440787259], [36.84235013998625, 37.542367440361176]]]}, "id": "+402314+86193", "properties": {"area_ha": 5.126417245622061, "count": 18, "label": 1, "mean_dnbr": 0.1853343720945224}}, {"type": "Feature", "geometry": {"geodesic": false, "type": "Polygon", "coordinates": [[[36.84396710749766, 37.56392700718004], [36.84450609666814, 37.56392700718004], [36.84450609666814, 37.56554397469146], [36.84504508583862, 37.56554397469146], [36.84504508583862, 37.56608296386193], [36.84396710749766, 37.56608296386193], [36.84396710749766, 37.5666219530324], [36.84288912915673, 37.5666219530324], [36.84288912915673, 37.56608296386193], [36.84235013998625, 37.56608296386193], [36.84235013998625, 37.565004985520986], [36.84288912915673, 37.565004985520986], [36.84288912915673, 37.56446599635051], [36.84396710749766, 37.56446599635051], [36.84396710749766, 37.56392700718004]]]}, "id": "+402316+86153", "properties": {"area_ha": 4.270788302365131, "count": 15, "label": 1, "mean_dnbr": 0.1744357606540956}}, {"type": "Feature", "geometry": {"geodesic": false, "type": "Polygon", "coordinates": [[[36.84396710749766, 37.521346862712775], [36.84612306417955, 37.521346862712775], [36.84612306417955, 37.52188585188325], [36.84720104252048, 37.52188585188325], [36.84720104252048, 37.52242484105372], [36.84666205335003, 37.52242484105372], [36.84666205335003, 37.52296383022419], [36.84558407500907, 37.52296383022419], [36.84558407500907, 37.52242484105372], [36.84450609666814, 37.52242484105372], [36.84450609666814, 37.52188585188325], [36.84396710749766, 37.52188585188325], [36.84396710749766, 37.521346862712775]]]}, "id": "+402319+86232", "properties": {"area_ha": 3.133727245031904, "count": 11, "label": 1, "mean_dnbr": 0.22054015185775033}}, {"type": "Feature", "geometry": {"geodesic": false, "type": "Polygon", "coordinates": [[[36.84612306417955, 37.51218404681476], [36.84666205335003, 37.51218404681476], [36.84666205335003, 37.51380101432618], [36.84612306417955, 37.51380101432618], [36.84612306417955, 37.51434000349664], [36.84558407500907, 37.51434000349664], [36.84558407500907, 37.514878992667114], [36.84666205335003, 37.514878992667114], [36.84666205335003, 37.51434000349664], [36.84720104252048, 37.51434000349664], [36.84720104252048, 37.51541798183759], [36.84612306417955, 37.51541798183759], [36.84612306417955, 37.51595697100806], [36.84558407500907, 37.51595697100806], [36.84558407500907, 37.51649596017853], [36.84396710749766, 37.51649596017853], [36.84396710749766, 37.51595697100806], [36.84504508583862, 37.51595697100806], [36.84504508583862, 37.514878992667114], [36.84450609666814, 37.514878992667114], [36.84450609666814, 37.51434000349664], [36.84396710749766, 37.51434000349664], [36.84396710749766, 37.51380101432618], [36.84450609666814, 37.51380101432618], [36.84450609666814, 37.513262025155704], [36.84504508583862, 37.513262025155704], [36.84504508583862, 37.51272303598523], [36.84612306417955, 37.51272303598523], [36.84612306417955, 37.51218404681476]]]}, "id": "+402320+86249", "properties": {"area_ha": 6.837936007905223, "count": 24, "label": 1, "mean_dnbr": 0.23588616516199212}}]}