{"type": "FeatureCollection", "columns": {"area_ha": "Number", "count": "Long<0, 4294967295>", "label": "Byte<0, 1>", "mean_dnbr": "Object", "system:index": "String"}, "features": [{"type": "Feature", "geometry": {"geodesic": false, "type": "Polygon", "coordinates": [[[35.6371703548115, 36.860007150543986], [35.63770934398198, 36.860007150543986], [35.63770934398198, 36.86054613971446], [35.63824833315243, 36.86054613971446], [35.63824833315243, 36.86108512888493], [35.64040428983432, 36.86108512888493], [35.64040428983432, 36.8616241180554], [35.63986530066387, 36.8616241180554], [35.63986530066387, 36.862163107225875], [35.63878732232291, 36.862163107225875], [35.63878732232291, 36.86270209639635], [35.63824833315243, 36.86270209639635], [35.63824833315243, 36.86324108556681], [35.63770934398198, 36.86324108556681], [35.63770934398198, 36.86270209639635], [35.63824833315243, 36.86270209639635], [35.63824833315243, 36.862163107225875], [35.63770934398198, 36.862163107225875], [35.63770934398198, 36.8616241180554], [35.6371703548115, 36.8616241180554], [35.6371703548115, 36.862163107225875], [35.63609237647054, 36.862163107225875], [35.63609237647054, 36.86108512888493], [35.63663136564102, 36.86108512888493], [35.63663136564102, 36.86054613971446], [35.6371703548115, 36.86054613971446], [35.6371703548115, 36.860007150543986]]]}, "id": "+400077+87459", "properties": {"area_ha": 5.747754804939506, "count": 20, "label": 1, "mean_dnbr": 0.3321567851522644}}, {"type": "Feature", "geometry": {"geodesic": false, "type": "Polygon", "coordinates": [[[35.63609237647054, 36.926302818512006], [35.63878732232291, 36.926302818512006], [35.63878732232291, 36.92738079685295], [35.6371703548115, 36.92738079685295], [35.6371703548115, 36.92791978602342], [35.63609237647054, 36.92791978602342], [35.63609237647054, 36.92738079685295], [35.63555338730009, 36.92738079685295], [35.63555338730009, 36.92684180768248], [35.63609237647054, 36.92684180768248], [35.63609237647054, 36.926302818512006]]]}, "id": "+400079+87336", "properties": {"area_ha": 3.7328309842165233, "count": 13, "label": 1, "mean_dnbr": 0.28408718427777696}}, {"type": "Feature", "geometry": {"geodesic": false, "type": "Polygon", "coordinates": [[[35.64040428983432, 36.76568404571144], [35.6409432790048, 36.76568404571144], [35.6409432790048, 36.76622303488191], [35.64148226817528, 36.76622303488191], [35.64148226817528, 36.766762024052376], [35.64040428983432, 36.766762024052376], [35.64040428983432, 36.768917980734265], [35.63878732232291, 36.768917980734265], [35.63878732232291, 36.76730101322285], [35.63932631149339, 36.76730101322285], [35.63932631149339, 36.766762024052376], [35.64040428983432, 36.766762024052376], [35.64040428983432, 36.76568404571144]]]}, "id": "+400083+87634", "properties": {"area_ha": 4.028375480504359, "count": 14, "label": 1, "mean_dnbr": 0.2732321118558241}}, {"type": "Feature", "geometry": {"geodesic": false, "type": "Polygon", "coordinates": [[[35.63986530066387, 36.84275949708889], [35.64148226817528, 36.84275949708889], [35.64148226817528, 36.84383747542984], [35.64202125734573, 36.84383747542984], [35.64202125734573, 36.84491545377078], [35.64148226817528, 36.84491545377078], [35.64148226817528, 36.84545444294125], [35.64256024651621, 36.84545444294125], [35.64256024651621, 36.84437646460031], [35.64309923568669, 36.84437646460031], [35.64309923568669, 36.84653242128219], [35.6409432790048, 36.84653242128219], [35.6409432790048, 36.847610399623136], [35.64202125734573, 36.847610399623136], [35.64202125734573, 36.84868837796408], [35.64148226817528, 36.84868837796408], [35.64148226817528, 36.84922736713455], [35.64040428983432, 36.84922736713455], [35.64040428983432, 36.84814938879361], [35.63986530066387, 36.84814938879361], [35.63986530066387, 36.847610399623136], [35.63932631149339, 36.847610399623136], [35.63932631149339, 36.84707141045266], [35.63986530066387, 36.84707141045266], [35.63986530066387, 36.84599343211172], [35.64040428983432, 36.84599343211172], [35.64040428983432, 36.84545444294125], [35.63986530066387, 36.84545444294125], [35.63986530066387, 36.84491545377078], [35.63932631149339, 36.84491545377078], [35.63932631149339, 36.84437646460031], [35.63878732232291, 36.84437646460031], [35.63878732232291, 36.84275949708889], [35.63932631149339, 36.84275949708889], [35.63932631149339, 36.84383747542984], [35.63986530066387, 36.84383747542984], [35.63986530066387, 36.84275949708889]]]}, "id": "+400084+87491", "properties": {"area_ha": 14.084940940121308, "count": 49, "label": 1, "mean_dnbr": 0.3020010323918955}}, {"type": "Feature", "geometry": {"geodesic": false, "type": "Polygon", "coordinates": [[[35.64202125734573, 36.86054613971446], [35.64256024651621, 36.86054613971446], [35.64256024651621, 36.86270209639635], [35.64202125734573, 36.86270209639635], [35.64202125734573, 36.86324108556681], [35.64309923568669, 36.86324108556681], [35.64309923568669, 36.86270209639635], [35.64363822485717, 36.86270209639635], [35.64363822485717, 36.86324108556681], [35.64309923568669, 36.86324108556681], [35.64309923568669, 36.863780074737285], [35.64148226817528, 36.863780074737285], [35.64148226817528, 36.86431906390776], [35.64202125734573, 36.86431906390776], [35.64202125734573, 36.86485805307823], [35.64148226817528, 36.86485805307823], [35.64148226817528, 36.865936031419174], [35.6409432790048, 36.865936031419174], [35.6409432790048, 36.8653970422487], [35.64040428983432, 36.8653970422487], [35.64040428983432, 36.865936031419174], [35.63986530066387, 36.865936031419174], [35.63986530066387, 36.86647502058965], [35.63932631149339, 36.86647502058965], [35.63932631149339, 36.86701400976012], [35.63878732232291, 36.86701400976012], [35.63878732232291, 36.86647502058965], [35.63824833315243, 36.86647502058965], [35.63824833315243, 36.865936031419174], [35.63770934398198, 36.865936031419174], [35.63770934398198, 36.8653970422487], [35.6371703548115, 36.8653970422487], [35.6371703548115, 36.86485805307823], [35.63663136564102, 36.86485805307823], [35.63663136564102, 36.86431906390776], [35.63878732232291, 36.86431906390776], [35.63878732232291, 36.863780074737285], [35.63986530066387, 36.863780074737285], [35.63986530066387, 36.86431906390776], [35.63932631149339, 36.86431906390776], [35.63932631149339, 36.86485805307823], [35.64040428983432, 36.86485805307823], [35.64040428983432, 36.86431906390776], [35.6409432790048, 36.86431906390776], [35.6409432790048, 36.863780074737285], [35.64148226817528, 36.863780074737285], [35.64148226817528, 36.86324108556681], [35.6409432790048, 36.86324108556681], [35.6409432790048, 36.862163107225875], [35.64148226817528, 36.862163107225875], [35.64148226817528, 36.8616241180554], [35.64202125734573, 36.8616241180554], [35.64202125734573, 36.86054613971446]], [[35.63932631149339, 36.86485805307823], [35.63932631149339, 36.8653970422487], [35.63878732232291, 36.8653970422487], [35.63878732232291, 36.86485805307823], [35.63932631149339, 36.86485805307823]], [[35.64148226817528, 36.86431906390776], [35.64148226817528, 36.86485805307823], [35.6409432790048, 36.86485805307823], [35.6409432790048, 36.86431906390776], [35.64148226817528, 36.86431906390776]]]}, "id": "+400086+87458", "properties": {"area_ha": 11.495094544586372, "count": 40, "label": 1, "mean_dnbr": 0.2665138728898545}}, {"type": "Feature", "geometry": {"geodesic": false, "type": "Polygon", "coordinates": [[[35.64202125734573, 36.94516743947852], [35.64309923568669, 36.94516743947852], [35.64309923568669, 36.94624541781946], [35.64202125734573, 36.94624541781946], [35.64202125734573, 36.946784406989934], [35.64148226817528, 36.946784406989934], [35.64148226817528, 36.94732339616041], [35.63878732232291, 36.94732339616041], [35.63878732232291, 36.94786238533087], [35.63663136564102, 36.94786238533087], [35.63663136564102, 36.94732339616041], [35.6371703548115, 36.94732339616041], [35.6371703548115, 36.946784406989934], [35.63932631149339, 36.946784406989934], [35.63932631149339, 36.94624541781946], [35.6409432790048, 36.94624541781946], [35.6409432790048, 36.94570642864899], [35.64202125734573, 36.94570642864899], [35.64202125734573, 36.94516743947852]]]}, "id": "+400087+87301", "properties": {"area_ha": 6.602558036122378, "count": 23, "label": 1, "mean_dnbr": 0.4019160808923204}}, {"type": "Feature", "geometry": {"geodesic": false, "type": "Polygon", "coordinates": [[[35.64256024651621, 36.77646382912087], [35.64363822485717, 36.77646382912087], [35.64363822485717, 36.77700281829134], [35.6447162031981, 36.77700281829134], [35.6447162031981, 36.7796977641437], [35.64417721402762, 36.7796977641437], [35.64417721402762, 36.779158774973226], [35.64363822485717, 36.779158774973226], [35.64363822485717, 36.77861978580276], [35.64309923568669, 36.77861978580276], [35.64309923568669, 36.777541807461816], [35.64256024651621, 36.777541807461816], [35.64256024651621, 36.77646382912087]]]}, "id": "+400088+87614", "properties": {"area_ha": 4.315531959719321, "count": 15, "label": 1, "mean_dnbr": 0.2690491161979347}}, {"type": "Feature", "geometry": {"geodesic": false, "type": "Polygon", "coordinates": [[[35.64309923568669, 36.865936031419174], [35.64525519236858, 36.865936031419174], [35.64525519236858, 36.86701400976012], [35.6447162031981, 36.86701400976012], [35.6447162031981, 36.86755299893059], [35.64417721402762, 36.86755299893059], [35.64417721402762, 36.868091988101064], [35.64363822485717, 36.868091988101064], [35.64363822485717, 36.868630977271536], [35.64148226817528, 36.868630977271536], [35.64148226817528, 36.868091988101064], [35.64202125734573, 36.868091988101064], [35.64202125734573, 36.86701400976012], [35.64309923568669, 36.86701400976012], [35.64309923568669, 36.865936031419174]]]}, "id": "+400091+87448", "properties": {"area_ha": 6.034691847262968, "count": 21, "label": 1, "mean_dnbr": 0.34888863625904004}}, {"type": "Feature", "geometry": {"geodesic": false, "type": "Polygon", "coordinates": [[[35.64579418153906, 36.872403901464835], [35.64687215987999, 36.872403901464835], [35.64687215987999, 36.87348187980578], [35.64633317070951, 36.87348187980578], [35.64633317070951, 36.87402086897625], [35.64579418153906, 36.87402086897625], [35.64579418153906, 36.874559858146725], [35.6447162031981, 36.874559858146725], [35.6447162031981, 36.87348187980578], [35.64417721402762, 36.87348187980578], [35.64417721402762, 36.872403901464835], [35.64525519236858, 36.872403901464835], [35.64525519236858, 36.87294289063531], [35.64579418153906, 36.87294289063531], [35.64579418153906, 36.872403901464835]]]}, "id": "+400094+87436", "properties": {"area_ha": 4.0228093771632025, "count": 14, "label": 1, "mean_dnbr": 0.23484585645589676}}, {"type": "Feature", "geometry": {"geodesic": false, "type": "Polygon", "coordinates": [[[35.64633317070951, 36.8653970422487], [35.64741114905047, 36.8653970422487], [35.64741114905047, 36.86755299893059], [35.64687215987999, 36.86755299893059], [35.64687215987999, 36.868091988101064], [35.64633317070951, 36.868091988101064], [35.64633317070951, 36.86916996644201], [35.64579418153906, 36.86916996644201], [35.64579418153906, 36.869708955612474], [35.64525519236858, 36.869708955612474], [35.64525519236858, 36.86916996644201], [35.64579418153906, 36.86916996644201], [35.64579418153906, 36.868091988101064], [35.64633317070951, 36.868091988101064], [35.64633317070951, 36.86701400976012], [35.64687215987999, 36.86701400976012], [35.64687215987999, 36.86647502058965], [35.64633317070951, 36.86647502058965], [35.64633317070951, 36.8653970422487]]]}, "id": "+400095+87449", "properties": {"area_ha": 3.161030780768966, "count": 11, "label": 1, "mean_dnbr": 0.3268116558486483}}, {"type": "Feature", "geometry": {"geodesic": false, "type": "Polygon", "coordinates": [[[35.64579418153906, 36.953252277035595], [35.64795013822092, 36.953252277035595], [35.64795013822092, 36.95379126620606], [35.64902811656188, 36.95379126620606], [35.64902811656188, 36.954869244547005], [35.64633317070951, 36.954869244547005], [35.64633317070951, 36.95433025537653], [35.64525519236858, 36.95433025537653], [35.64525519236858, 36.95379126620606], [35.64579418153906, 36.95379126620606], [35.64579418153906, 36.953252277035595]]]}, "id": "+400096+87286", "properties": {"area_ha": 4.592637865546438, "count": 16, "label": 1, "mean_dnbr": 0.24625039016805111}}, {"type": "Feature", "geometry": {"geodesic": false, "type": "Polygon", "coordinates": [[[35.64633317070951, 36.77808079663229], [35.64795013822092, 36.77808079663229], [35.64795013822092, 36.78023675331417], [35.6484891273914, 36.78023675331417], [35.6484891273914, 36.781314731655115], [35.64902811656188, 36.781314731655115], [35.64902811656188, 36.78239270999606], [35.6484891273914, 36.78239270999606], [35.6484891273914, 36.781314731655115], [35.64795013822092, 36.781314731655115], [35.64795013822092, 36.78077574248464], [35.64741114905047, 36.78077574248464], [35.64741114905047, 36.78239270999606], [35.64687215987999, 36.78239270999606], [35.64687215987999, 36.78293169916653], [35.64633317070951, 36.78293169916653], [35.64633317070951, 36.78239270999606], [35.64579418153906, 36.78239270999606], [35.64579418153906, 36.78185372082559], [35.64525519236858, 36.78185372082559], [35.64525519236858, 36.781314731655115], [35.64687215987999, 36.781314731655115], [35.64687215987999, 36.78077574248464], [35.64579418153906, 36.78077574248464], [35.64579418153906, 36.779158774973226], [35.64633317070951, 36.779158774973226], [35.64633317070951, 36.77808079663229]]]}, "id": "+400096+87611", "properties": {"area_ha": 8.918469083181675, "count": 31, "label": 1, "mean_dnbr": 0.292300811972209}}, {"type": "Feature", "geometry": {"geodesic": false, "type": "Polygon", "coordinates": [[[35.65010609490281, 36.86485805307823], [35.65118407324377, 36.86485805307823], [35.65118407324377, 36.86701400976012], [35.65064508407329, 36.86701400976012], [35.65064508407329, 36.86755299893059], [35.64795013822092, 36.86755299893059], [35.64795013822092, 36.86647502058965], [35.64902811656188, 36.86647502058965], [35.64902811656188, 36.8653970422487], [35.65010609490281, 36.8653970422487], [35.65010609490281, 36.86485805307823]]]}, "id": "+400102+87450", "properties": {"area_ha": 6.034772452030475, "count": 21, "label": 1, "mean_dnbr": 0.3395996131443822}}, {"type": "Feature", "geometry": {"geodesic": false, "type": "Polygon", "coordinates": [[[35.65064508407329, 36.87078693395342], [35.65172306241425, 36.87078693395342], [35.65172306241425, 36.87294289063531], [35.65118407324377, 36.87294289063531], [35.65118407324377, 36.87402086897625], [35.65172306241425, 36.87402086897625], [35.65172306241425, 36.87348187980578], [35.6522620515847, 36.87348187980578], [35.6522620515847, 36.87402086897625], [35.65172306241425, 36.87402086897625], [35.65172306241425, 36.874559858146725], [35.65010609490281, 36.874559858146725], [35.65010609490281, 36.8750988473172], [35.64956710573236, 36.8750988473172], [35.64956710573236, 36.876176825658135], [35.65010609490281, 36.876176825658135], [35.65010609490281, 36.87725480399908], [35.65064508407329, 36.87725480399908], [35.65064508407329, 36.876176825658135], [35.65172306241425, 36.876176825658135], [35.65172306241425, 36.8750988473172], [35.65280104075518, 36.8750988473172], [35.65280104075518, 36.87563783648766], [35.65387901909611, 36.87563783648766], [35.65387901909611, 36.876176825658135], [35.65334002992566, 36.876176825658135], [35.65334002992566, 36.87671581482861], [35.65280104075518, 36.87671581482861], [35.65280104075518, 36.876176825658135], [35.6522620515847, 36.876176825658135], [35.6522620515847, 36.87671581482861], [35.65172306241425, 36.87671581482861], [35.65172306241425, 36.87725480399908], [35.6522620515847, 36.87725480399908], [35.6522620515847, 36.87779379316955], [35.65280104075518, 36.87779379316955], [35.65280104075518, 36.878332782340024], [35.6522620515847, 36.878332782340024], [35.6522620515847, 36.8788717715105], [35.65172306241425, 36.8788717715105], [35.65172306241425, 36.87941076068097], [35.65118407324377, 36.87941076068097], [35.65118407324377, 36.880488739021914], [35.65064508407329, 36.880488739021914], [35.65064508407329, 36.87941076068097], [35.65118407324377, 36.87941076068097], [35.65118407324377, 36.878332782340024], [35.65064508407329, 36.878332782340024], [35.65064508407329, 36.8788717715105], [35.64956710573236, 36.8788717715105], [35.64956710573236, 36.878332782340024], [35.65010609490281, 36.878332782340024], [35.65010609490281, 36.87725480399908], [35.64902811656188, 36.87725480399908], [35.64902811656188, 36.87671581482861], [35.64956710573236, 36.87671581482861], [35.64956710573236, 36.876176825658135], [35.6484891273914, 36.876176825658135], [35.6484891273914, 36.87563783648766], [35.64741114905047, 36.87563783648766], [35.64741114905047, 36.874559858146725], [35.64795013822092, 36.874559858146725], [35.64795013822092, 36.8750988473172], [35.6484891273914, 36.8750988473172], [35.6484891273914, 36.874559858146725], [35.64902811656188, 36.874559858146725], [35.64902811656188, 36.87402086897625], [35.6484891273914, 36.87402086897625], [35.6484891273914, 36.87348187980578], [35.64795013822092, 36.87348187980578], [35.64795013822092, 36.87402086897625], [35.64741114905047, 36.87402086897625], [35.64741114905047, 36.87348187980578], [35.64795013822092, 36.87348187980578], [35.64795013822092, 36.87294289063531], [35.64741114905047, 36.87294289063531], [35.64741114905047, 36.87186491229436], [35.64795013822092, 36.87186491229436], [35.64795013822092, 36.87294289063531], [35.6484891273914, 36.87294289063531], [35.6484891273914, 36.87186491229436], [35.64902811656188, 36.87186491229436], [35.64902811656188, 36.87132592312389], [35.64956710573236, 36.87132592312389], [35.64956710573236, 36.87186491229436], [35.65010609490281, 36.87186491229436], [35.65010609490281, 36.87132592312389], [35.65064508407329, 36.87132592312389], [35.65064508407329, 36.87078693395342]], [[35.65172306241425, 36.87725480399908], [35.65172306241425, 36.878332782340024], [35.65118407324377, 36.878332782340024], [35.65118407324377, 36.87725480399908], [35.65172306241425, 36.87725480399908]]]}, "id": "+400103+87439", "properties": {"area_ha": 22.125012662426002, "count": 77, "label": 1, "mean_dnbr": 0.3295691121024934}}, {"type": "Feature", "geometry": {"geodesic": false, "type": "Polygon", "coordinates": [[[35.65118407324377, 36.86755299893059], [35.65172306241425, 36.86755299893059], [35.65172306241425, 36.86916996644201], [35.65280104075518, 36.86916996644201], [35.65280104075518, 36.869708955612474], [35.65064508407329, 36.869708955612474], [35.65064508407329, 36.86916996644201], [35.65010609490281, 36.86916996644201], [35.65010609490281, 36.868091988101064], [35.65118407324377, 36.868091988101064], [35.65118407324377, 36.86755299893059]]]}, "id": "+400103+87445", "properties": {"area_ha": 3.1609697189175314, "count": 11, "label": 1, "mean_dnbr": 0.306509510861868}}, {"type": "Feature", "geometry": {"geodesic": false, "type": "Polygon", "coordinates": [[[35.65495699743707, 36.98505263809342], [35.656034975778, 36.98505263809342], [35.656034975778, 36.985591627263894], [35.65711295411896, 36.985591627263894], [35.65711295411896, 36.986130616434366], [35.65765194328944, 36.986130616434366], [35.65765194328944, 36.98666960560484], [35.65819093245989, 36.98666960560484], [35.65819093245989, 36.98774758394578], [35.65765194328944, 36.98774758394578], [35.65765194328944, 36.988286573116255], [35.65711295411896, 36.988286573116255], [35.65711295411896, 36.98774758394578], [35.65280104075518, 36.98774758394578], [35.65280104075518, 36.988286573116255], [35.6522620515847, 36.988286573116255], [35.6522620515847, 36.9893645514572], [35.65280104075518, 36.9893645514572], [35.65280104075518, 36.99044252979814], [35.6522620515847, 36.99044252979814], [35.6522620515847, 36.99098151896861], [35.65172306241425, 36.99098151896861], [35.65172306241425, 36.99152050813908], [35.65118407324377, 36.99152050813908], [35.65118407324377, 36.99044252979814], [35.65064508407329, 36.99044252979814], [35.65064508407329, 36.989903540627665], [35.65010609490281, 36.989903540627665], [35.65010609490281, 36.9893645514572], [35.64956710573236, 36.9893645514572], [35.64956710573236, 36.98720859477531], [35.6522620515847, 36.98720859477531], [35.6522620515847, 36.986130616434366], [35.65280104075518, 36.986130616434366], [35.65280104075518, 36.985591627263894], [35.65495699743707, 36.985591627263894], [35.65495699743707, 36.98505263809342]]]}, "id": "+400111+87227", "properties": {"area_ha": 21.8054099736268, "count": 76, "label": 1, "mean_dnbr": 0.35026406120636283}}, {"type": "Feature", "geometry": {"geodesic": false, "type": "Polygon", "coordinates": [[[35.65441800826659, 36.872403901464835], [35.65657396494848, 36.872403901464835], [35.65657396494848, 36.87348187980578], [35.656034975778, 36.87348187980578], [35.656034975778, 36.87402086897625], [35.65549598660755, 36.87402086897625], [35.65549598660755, 36.874559858146725], [35.65280104075518, 36.874559858146725], [35.65280104075518, 36.87348187980578], [35.65387901909611, 36.87348187980578], [35.65387901909611, 36.87294289063531], [35.65441800826659, 36.87294289063531], [35.65441800826659, 36.872403901464835]], [[35.65549598660755, 36.87348187980578], [35.65549598660755, 36.87402086897625], [35.65441800826659, 36.87402086897625], [35.65441800826659, 36.87348187980578], [35.65549598660755, 36.87348187980578]]]}, "id": "+400112+87436", "properties": {"area_ha": 5.172177702692863, "count": 18, "label": 1, "mean_dnbr": 0.3248213674721782}}, {"type": "Feature", "geometry": {"geodesic": false, "type": "Polygon", "coordinates": [[[35.65495699743707, 36.86701400976012], [35.65657396494848, 36.86701400976012], [35.65657396494848, 36.86755299893059], [35.656034975778, 36.86755299893059], [35.656034975778, 36.868091988101064], [35.65549598660755, 36.868091988101064], [35.65549598660755, 36.870247944782946], [35.65387901909611, 36.870247944782946], [35.65387901909611, 36.869708955612474], [35.65334002992566, 36.869708955612474], [35.65334002992566, 36.86916996644201], [35.65387901909611, 36.86916996644201], [35.65387901909611, 36.868630977271536], [35.65495699743707, 36.868630977271536], [35.65495699743707, 36.868091988101064], [35.65549598660755, 36.868091988101064], [35.65549598660755, 36.86755299893059], [35.65495699743707, 36.86755299893059], [35.65495699743707, 36.86701400976012]]]}, "id": "+400112+87446", "properties": {"area_ha": 4.310406816496174, "count": 15, "label": 1, "mean_dnbr": 0.3514627791370276}}, {"type": "Feature", "geometry": {"geodesic": false, "type": "Polygon", "coordinates": [[[35.65711295411896, 36.84437646460031], [35.65765194328944, 36.84437646460031], [35.65765194328944, 36.84545444294125], [35.65657396494848, 36.84545444294125], [35.65657396494848, 36.84653242128219], [35.656034975778, 36.84653242128219], [35.656034975778, 36.84599343211172], [35.65495699743707, 36.84599343211172], [35.65495699743707, 36.84707141045266], [35.65334002992566, 36.84707141045266], [35.65334002992566, 36.84599343211172], [35.6522620515847, 36.84599343211172], [35.6522620515847, 36.84491545377078], [35.65441800826659, 36.84491545377078], [35.65441800826659, 36.84599343211172], [35.65495699743707, 36.84599343211172], [35.65495699743707, 36.84491545377078], [35.656034975778, 36.84491545377078], [35.656034975778, 36.84545444294125], [35.65657396494848, 36.84545444294125], [35.65657396494848, 36.84491545377078], [35.65711295411896, 36.84491545377078], [35.65711295411896, 36.84437646460031]], [[35.65441800826659, 36.84599343211172], [35.65441800826659, 36.84653242128219], [35.65387901909611, 36.84653242128219], [35.65387901909611, 36.84599343211172], [35.65441800826659, 36.84599343211172]], [[35.65387901909611, 36.84545444294125], [35.65387901909611, 36.84599343211172], [35.65334002992566, 36.84599343211172], [35.65334002992566, 36.84545444294125], [35.65387901909611, 36.84545444294125]]]}, "id": "+400114+87488", "properties": {"area_ha": 6.03639441319061, "count": 21, "label": 1, "mean_dnbr": 0.2745257855914476}}, {"type": "Feature", "geometry": {"geodesic": false, "type": "Polygon", "coordinates": [[[35.65765194328944, 36.87294289063531], [35.65872992163037, 36.87294289063531], [35.65872992163037, 36.87348187980578], [35.66034688914178, 36.87348187980578], [35.66034688914178, 36.87402086897625], [35.65926891080085, 36.87402086897625], [35.65926891080085, 36.874559858146725], [35.65765194328944, 36.874559858146725], [35.65765194328944, 36.8750988473172], [35.65872992163037, 36.8750988473172], [35.65872992163037, 36.87671581482861], [35.65819093245989, 36.87671581482861], [35.65819093245989, 36.87779379316955], [35.65765194328944, 36.87779379316955], [35.65765194328944, 36.8788717715105], [35.65657396494848, 36.8788717715105], [35.65657396494848, 36.87994974985144], [35.65495699743707, 36.87994974985144], [35.65495699743707, 36.878332782340024], [35.65549598660755, 36.878332782340024], [35.65549598660755, 36.87779379316955], [35.65711295411896, 36.87779379316955], [35.65711295411896, 36.87671581482861], [35.65765194328944, 36.87671581482861], [35.65765194328944, 36.87563783648766], [35.65657396494848, 36.87563783648766], [35.65657396494848, 36.874559858146725], [35.65765194328944, 36.874559858146725], [35.65765194328944, 36.87294289063531]], [[35.656034975778, 36.8788717715105], [35.656034975778, 36.87941076068097], [35.65549598660755, 36.87941076068097], [35.65549598660755, 36.8788717715105], [35.656034975778, 36.8788717715105]]]}, "id": "+400116+87435", "properties": {"area_ha": 10.918608093332024, "count": 38, "label": 1, "mean_dnbr": 0.2767774404703299}}, {"type": "Feature", "geometry": {"geodesic": false, "type": "Polygon", "coordinates": [[[35.65819093245989, 36.868091988101064], [35.65872992163037, 36.868091988101064], [35.65872992163037, 36.86916996644201], [35.65819093245989, 36.86916996644201], [35.65819093245989, 36.869708955612474], [35.65711295411896, 36.869708955612474], [35.65711295411896, 36.870247944782946], [35.65765194328944, 36.870247944782946], [35.65765194328944, 36.87132592312389], [35.65711295411896, 36.87132592312389], [35.65711295411896, 36.87186491229436], [35.656034975778, 36.87186491229436], [35.656034975778, 36.87078693395342], [35.65657396494848, 36.87078693395342], [35.65657396494848, 36.869708955612474], [35.65711295411896, 36.869708955612474], [35.65711295411896, 36.86916996644201], [35.65765194328944, 36.86916996644201], [35.65765194328944, 36.868630977271536], [35.65819093245989, 36.868630977271536], [35.65819093245989, 36.868091988101064]]]}, "id": "+400116+87444", "properties": {"area_ha": 3.735621404395999, "count": 13, "label": 1, "mean_dnbr": 0.20194380071930984}}, {"type": "Feature", "geometry": {"geodesic": false, "type": "Polygon", "coordinates": [[[35.65819093245989, 36.967265995467855], [35.6598078999713, 36.967265995467855], [35.6598078999713, 36.96780498463833], [35.66034688914178, 36.96780498463833], [35.66034688914178, 36.96888296297927], [35.65926891080085, 36.96888296297927], [35.65926891080085, 36.969421952149744], [35.65765194328944, 36.969421952149744], [35.65765194328944, 36.96780498463833], [35.65819093245989, 36.96780498463833], [35.65819093245989, 36.967265995467855]]]}, "id": "+400118+87260", "properties": {"area_ha": 4.591772615961572, "count": 16, "label": 1, "mean_dnbr": 0.5055080838568563}}, {"type": "Feature", "geometry": {"geodesic": false, "type": "Polygon", "coordinates": [[[35.66088587831226, 36.87402086897625], [35.66196385665319, 36.87402086897625], [35.66196385665319, 36.874559858146725], [35.66250284582367, 36.874559858146725], [35.66250284582367, 36.8750988473172], [35.66304183499415, 36.8750988473172], [35.66304183499415, 36.87563783648766], [35.66411981333508, 36.87563783648766], [35.66411981333508, 36.876176825658135], [35.665197791676036, 36.876176825658135], [35.665197791676036, 36.87779379316955], [35.666275770016966, 36.87779379316955], [35.666275770016966, 36.87725480399908], [35.666814759187446, 36.87725480399908], [35.666814759187446, 36.87779379316955], [35.666275770016966, 36.87779379316955], [35.666275770016966, 36.878332782340024], [35.667353748357925, 36.878332782340024], [35.667353748357925, 36.8788717715105], [35.667892737528376, 36.8788717715105], [35.667892737528376, 36.87994974985144], [35.666814759187446, 36.87994974985144], [35.666814759187446, 36.87941076068097], [35.66573678084649, 36.87941076068097], [35.66573678084649, 36.8788717715105], [35.665197791676036, 36.8788717715105], [35.665197791676036, 36.878332782340024], [35.663580824164626, 36.878332782340024], [35.663580824164626, 36.87725480399908], [35.66250284582367, 36.87725480399908], [35.66250284582367, 36.878332782340024], [35.66304183499415, 36.878332782340024], [35.66304183499415, 36.8788717715105], [35.66250284582367, 36.8788717715105], [35.66250284582367, 36.87941076068097], [35.66196385665319, 36.87941076068097], [35.66196385665319, 36.8788717715105], [35.66250284582367, 36.8788717715105], [35.66250284582367, 36.878332782340024], [35.66142486748274, 36.878332782340024], [35.66142486748274, 36.8788717715105], [35.66088587831226, 36.8788717715105], [35.66088587831226, 36.87941076068097], [35.66034688914178, 36.87941076068097], [35.66034688914178, 36.8788717715105], [35.6598078999713, 36.8788717715105], [35.6598078999713, 36.87994974985144], [35.65872992163037, 36.87994974985144], [35.65872992163037, 36.8788717715105], [35.65819093245989, 36.8788717715105], [35.65819093245989, 36.878332782340024], [35.65872992163037, 36.878332782340024], [35.65872992163037, 36.87725480399908], [35.6598078999713, 36.87725480399908], [35.6598078999713, 36.87779379316955], [35.66088587831226, 36.87779379316955], [35.66088587831226, 36.87725480399908], [35.66142486748274, 36.87725480399908], [35.66142486748274, 36.876176825658135], [35.66034688914178, 36.876176825658135], [35.66034688914178, 36.8750988473172], [35.66142486748274, 36.8750988473172], [35.66142486748274, 36.874559858146725], [35.66088587831226, 36.874559858146725], [35.66088587831226, 36.87402086897625]]]}, "id": "+400122+87433", "properties": {"area_ha": 21.262277857754647, "count": 74, "label": 1, "mean_dnbr": 0.329991634318588}}, {"type": "Feature", "geometry": {"geodesic": false, "type": "Polygon", "coordinates": [[[35.66088587831226, 36.87994974985144], [35.66250284582367, 36.87994974985144], [35.66250284582367, 36.88156671736285], [35.663580824164626, 36.88156671736285], [35.663580824164626, 36.88210570653332], [35.66411981333508, 36.88210570653332], [35.66411981333508, 36.882644695703796], [35.664658802505556, 36.882644695703796], [35.664658802505556, 36.88318368487427], [35.665197791676036, 36.88318368487427], [35.665197791676036, 36.88372267404474], [35.663580824164626, 36.88372267404474], [35.663580824164626, 36.882644695703796], [35.66196385665319, 36.882644695703796], [35.66196385665319, 36.88210570653332], [35.66142486748274, 36.88210570653332], [35.66142486748274, 36.88156671736285], [35.66196385665319, 36.88156671736285], [35.66196385665319, 36.880488739021914], [35.66088587831226, 36.880488739021914], [35.66088587831226, 36.87994974985144]]]}, "id": "+400123+87422", "properties": {"area_ha": 5.171600598927493, "count": 18, "label": 1, "mean_dnbr": 0.4224608105008151}}, {"type": "Feature", "geometry": {"geodesic": false, "type": "Polygon", "coordinates": [[[35.664658802505556, 36.8616241180554], [35.665197791676036, 36.8616241180554], [35.665197791676036, 36.862163107225875], [35.66573678084649, 36.862163107225875], [35.66573678084649, 36.86270209639635], [35.666275770016966, 36.86270209639635], [35.666275770016966, 36.86324108556681], [35.666814759187446, 36.86324108556681], [35.666814759187446, 36.86485805307823], [35.667353748357925, 36.86485805307823], [35.667353748357925, 36.863780074737285], [35.668431726698856, 36.863780074737285], [35.668431726698856, 36.86485805307823], [35.667353748357925, 36.86485805307823], [35.667353748357925, 36.8653970422487], [35.666814759187446, 36.8653970422487], [35.666814759187446, 36.865936031419174], [35.666275770016966, 36.865936031419174], [35.666275770016966, 36.86647502058965], [35.66573678084649, 36.86647502058965], [35.66573678084649, 36.86431906390776], [35.665197791676036, 36.86431906390776], [35.665197791676036, 36.863780074737285], [35.664658802505556, 36.863780074737285], [35.664658802505556, 36.8616241180554]]]}, "id": "+400128+87456", "properties": {"area_ha": 7.184461812962349, "count": 25, "label": 1, "mean_dnbr": 0.2815173865163263}}, {"type": "Feature", "geometry": {"geodesic": false, "type": "Polygon", "coordinates": [[[35.664658802505556, 36.884800652385685], [35.66573678084649, 36.884800652385685], [35.66573678084649, 36.88533964155616], [35.666275770016966, 36.88533964155616], [35.666275770016966, 36.88587863072663], [35.667353748357925, 36.88587863072663], [35.667353748357925, 36.8864176198971], [35.667892737528376, 36.8864176198971], [35.667892737528376, 36.88749559823804], [35.66573678084649, 36.88749559823804], [35.66573678084649, 36.8864176198971], [35.666275770016966, 36.8864176198971], [35.666275770016966, 36.88587863072663], [35.66573678084649, 36.88587863072663], [35.66573678084649, 36.88533964155616], [35.664658802505556, 36.88533964155616], [35.664658802505556, 36.884800652385685]]]}, "id": "+400129+87413", "properties": {"area_ha": 3.734831048935131, "count": 13, "label": 1, "mean_dnbr": 0.24085974191921358}}, {"type": "Feature", "geometry": {"geodesic": false, "type": "Polygon", "coordinates": [[[35.667353748357925, 36.874559858146725], [35.667892737528376, 36.874559858146725], [35.667892737528376, 36.876176825658135], [35.668431726698856, 36.876176825658135], [35.668431726698856, 36.87563783648766], [35.668970715869335, 36.87563783648766], [35.668970715869335, 36.876176825658135], [35.670587683380745, 36.876176825658135], [35.670587683380745, 36.87671581482861], [35.666275770016966, 36.87671581482861], [35.666275770016966, 36.876176825658135], [35.666814759187446, 36.876176825658135], [35.666814759187446, 36.87563783648766], [35.667353748357925, 36.87563783648766], [35.667353748357925, 36.874559858146725]]]}, "id": "+400133+87432", "properties": {"area_ha": 3.7353820674416296, "count": 13, "label": 1, "mean_dnbr": 0.2454360819185146}}, {"type": "Feature", "geometry": {"geodesic": false, "type": "Polygon", "coordinates": [[[35.667353748357925, 36.87078693395342], [35.668431726698856, 36.87078693395342], [35.668431726698856, 36.872403901464835], [35.668970715869335, 36.872403901464835], [35.668970715869335, 36.87186491229436], [35.669509705039815, 36.87186491229436], [35.669509705039815, 36.872403901464835], [35.668970715869335, 36.872403901464835], [35.668970715869335, 36.87348187980578], [35.667353748357925, 36.87348187980578], [35.667353748357925, 36.872403901464835], [35.666814759187446, 36.872403901464835], [35.666814759187446, 36.87132592312389], [35.667353748357925, 36.87132592312389], [35.667353748357925, 36.87078693395342]]]}, "id": "+400134+87439", "properties": {"area_ha": 4.310218833404035, "count": 15, "label": 1, "mean_dnbr": 0.26203986988113925}}, {"type": "Feature", "geometry": {"geodesic": false, "type": "Polygon", "coordinates": [[[35.668970715869335, 36.8788717715105], [35.670048694210266, 36.8788717715105], [35.670048694210266, 36.87994974985144], [35.671126672551225, 36.87994974985144], [35.671126672551225, 36.880488739021914], [35.670048694210266, 36.880488739021914], [35.670048694210266, 36.881027728192386], [35.669509705039815, 36.881027728192386], [35.669509705039815, 36.88210570653332], [35.668431726698856, 36.88210570653332], [35.668431726698856, 36.88318368487427], [35.670048694210266, 36.88318368487427], [35.670048694210266, 36.88533964155616], [35.668431726698856, 36.88533964155616], [35.668431726698856, 36.884800652385685], [35.668970715869335, 36.884800652385685], [35.668970715869335, 36.88372267404474], [35.668431726698856, 36.88372267404474], [35.668431726698856, 36.88426166321521], [35.667892737528376, 36.88426166321521], [35.667892737528376, 36.884800652385685], [35.667353748357925, 36.884800652385685], [35.667353748357925, 36.88426166321521], [35.666275770016966, 36.88426166321521], [35.666275770016966, 36.88372267404474], [35.66573678084649, 36.88372267404474], [35.66573678084649, 36.88318368487427], [35.666275770016966, 36.88318368487427], [35.666275770016966, 36.88210570653332], [35.664658802505556, 36.88210570653332], [35.664658802505556, 36.88156671736285], [35.66411981333508, 36.88156671736285], [35.66411981333508, 36.881027728192386], [35.663580824164626, 36.881027728192386], [35.663580824164626, 36.880488739021914], [35.66411981333508, 36.880488739021914], [35.66411981333508, 36.881027728192386], [35.665197791676036, 36.881027728192386], [35.665197791676036, 36.88156671736285], [35.666814759187446, 36.88156671736285], [35.666814759187446, 36.88210570653332], [35.668431726698856, 36.88210570653332], [35.668431726698856, 36.881027728192386], [35.668970715869335, 36.881027728192386], [35.668970715869335, 36.880488739021914], [35.668431726698856, 36.880488739021914], [35.668431726698856, 36.87994974985144], [35.668970715869335, 36.87994974985144], [35.668970715869335, 36.8788717715105]]]}, "id": "+400137+87424", "properties": {"area_ha": 14.36547417993656, "count": 50, "label": 1, "mean_dnbr": 0.26445281818746064}}, {"type": "Feature", "geometry": {"geodesic": false, "type": "Polygon", "coordinates": [[[35.673282629233114, 36.86485805307823], [35.673821618403565, 36.86485805307823], [35.673821618403565, 36.868630977271536], [35.673282629233114, 36.868630977271536], [35.673282629233114, 36.87294289063531], [35.673821618403565, 36.87294289063531], [35.673821618403565, 36.87348187980578], [35.674360607574044, 36.87348187980578], [35.674360607574044, 36.87294289063531], [35.674899596744524, 36.87294289063531], [35.674899596744524, 36.87186491229436], [35.675438585915, 36.87186491229436], [35.675438585915, 36.87294289063531], [35.676516564255934, 36.87294289063531], [35.676516564255934, 36.8750988473172], [35.674899596744524, 36.8750988473172], [35.674899596744524, 36.874559858146725], [35.673821618403565, 36.874559858146725], [35.673821618403565, 36.87402086897625], [35.672204650892155, 36.87402086897625], [35.672204650892155, 36.87348187980578], [35.671665661721676, 36.87348187980578], [35.671665661721676, 36.874559858146725], [35.672204650892155, 36.874559858146725], [35.672204650892155, 36.8750988473172], [35.671126672551225, 36.8750988473172], [35.671126672551225, 36.874559858146725], [35.670048694210266, 36.874559858146725], [35.670048694210266, 36.87402086897625], [35.670587683380745, 36.87402086897625], [35.670587683380745, 36.87294289063531], [35.671126672551225, 36.87294289063531], [35.671126672551225, 36.87132592312389], [35.669509705039815, 36.87132592312389], [35.669509705039815, 36.86916996644201], [35.668970715869335, 36.86916996644201], [35.668970715869335, 36.868630977271536], [35.669509705039815, 36.868630977271536], [35.669509705039815, 36.868091988101064], [35.670587683380745, 36.868091988101064], [35.670587683380745, 36.86701400976012], [35.672743640062635, 36.86701400976012], [35.672743640062635, 36.86647502058965], [35.673282629233114, 36.86647502058965], [35.673282629233114, 36.86485805307823]], [[35.673282629233114, 36.87294289063531], [35.673282629233114, 36.87348187980578], [35.672743640062635, 36.87348187980578], [35.672743640062635, 36.87294289063531], [35.673282629233114, 36.87294289063531]], [[35.672743640062635, 36.868091988101064], [35.672743640062635, 36.87078693395342], [35.672204650892155, 36.87078693395342], [35.672204650892155, 36.87132592312389], [35.671665661721676, 36.87132592312389], [35.671665661721676, 36.86916996644201], [35.671126672551225, 36.86916996644201], [35.671126672551225, 36.868091988101064], [35.672743640062635, 36.868091988101064]]]}, "id": "+400144+87450", "properties": {"area_ha": 27.011105613103933, "count": 94, "label": 1, "mean_dnbr": 0.37335913284384853}}, {"type": "Feature", "geometry": {"geodesic": false, "type": "Polygon", "coordinates": [[[35.675438585915, 36.868630977271536], [35.676516564255934, 36.868630977271536], [35.676516564255934, 36.870247944782946], [35.67705555342641, 36.870247944782946], [35.67705555342641, 36.87186491229436], [35.675977575085454, 36.87186491229436], [35.675977575085454, 36.87078693395342], [35.675438585915, 36.87078693395342], [35.675438585915, 36.868630977271536]]]}, "id": "+400149+87443", "properties": {"area_ha": 3.73561605218648, "count": 13, "label": 1, "mean_dnbr": 0.3917849218764119}}, {"type": "Feature", "geometry": {"geodesic": false, "type": "Polygon", "coordinates": [[[35.677594542596864, 36.87294289063531], [35.67867252093782, 36.87294289063531], [35.67867252093782, 36.87402086897625], [35.678133531767344, 36.87402086897625], [35.678133531767344, 36.8750988473172], [35.6792115101083, 36.8750988473172], [35.6792115101083, 36.87563783648766], [35.67867252093782, 36.87563783648766], [35.67867252093782, 36.87779379316955], [35.678133531767344, 36.87779379316955], [35.678133531767344, 36.87725480399908], [35.677594542596864, 36.87725480399908], [35.677594542596864, 36.878332782340024], [35.678133531767344, 36.878332782340024], [35.678133531767344, 36.8788717715105], [35.677594542596864, 36.8788717715105], [35.677594542596864, 36.878332782340024], [35.67705555342641, 36.878332782340024], [35.67705555342641, 36.87941076068097], [35.677594542596864, 36.87941076068097], [35.677594542596864, 36.880488739021914], [35.67705555342641, 36.880488739021914], [35.67705555342641, 36.87994974985144], [35.676516564255934, 36.87994974985144], [35.676516564255934, 36.87941076068097], [35.674899596744524, 36.87941076068097], [35.674899596744524, 36.881027728192386], [35.67705555342641, 36.881027728192386], [35.67705555342641, 36.88156671736285], [35.68028948844923, 36.88156671736285], [35.68028948844923, 36.882644695703796], [35.6792115101083, 36.882644695703796], [35.6792115101083, 36.88318368487427], [35.68028948844923, 36.88318368487427], [35.68028948844923, 36.88372267404474], [35.68136746679019, 36.88372267404474], [35.68136746679019, 36.88426166321521], [35.68190645596064, 36.88426166321521], [35.68190645596064, 36.884800652385685], [35.68082847761971, 36.884800652385685], [35.68082847761971, 36.88426166321521], [35.67867252093782, 36.88426166321521], [35.67867252093782, 36.88533964155616], [35.678133531767344, 36.88533964155616], [35.678133531767344, 36.8864176198971], [35.676516564255934, 36.8864176198971], [35.676516564255934, 36.886956609067575], [35.675977575085454, 36.886956609067575], [35.675977575085454, 36.8864176198971], [35.676516564255934, 36.8864176198971], [35.676516564255934, 36.88426166321521], [35.67705555342641, 36.88426166321521], [35.67705555342641, 36.88372267404474], [35.674360607574044, 36.88372267404474], [35.674360607574044, 36.88318368487427], [35.673821618403565, 36.88318368487427], [35.673821618403565, 36.884800652385685], [35.674360607574044, 36.884800652385685], [35.674360607574044, 36.88426166321521], [35.674899596744524, 36.88426166321521], [35.674899596744524, 36.884800652385685], [35.675438585915, 36.884800652385685], [35.675438585915, 36.8864176198971], [35.674899596744524, 36.8864176198971], [35.674899596744524, 36.88749559823804], [35.673821618403565, 36.88749559823804], [35.673821618403565, 36.88803458740851], [35.673282629233114, 36.88803458740851], [35.673282629233114, 36.8864176198971], [35.673821618403565, 36.8864176198971], [35.673821618403565, 36.884800652385685], [35.671665661721676, 36.884800652385685], [35.671665661721676, 36.88318368487427], [35.672204650892155, 36.88318368487427], [35.672204650892155, 36.882644695703796], [35.672743640062635, 36.882644695703796], [35.672743640062635, 36.88210570653332], [35.673282629233114, 36.88210570653332], [35.673282629233114, 36.88156671736285], [35.674360607574044, 36.88156671736285], [35.674360607574044, 36.880488739021914], [35.672743640062635, 36.880488739021914], [35.672743640062635, 36.881027728192386], [35.672204650892155, 36.881027728192386], [35.672204650892155, 36.88210570653332], [35.671665661721676, 36.88210570653332], [35.671665661721676, 36.882644695703796], [35.671126672551225, 36.882644695703796], [35.671126672551225, 36.88156671736285], [35.671665661721676, 36.88156671736285], [35.671665661721676, 36.880488739021914], [35.672743640062635, 36.880488739021914], [35.672743640062635, 36.87994974985144], [35.672204650892155, 36.87994974985144], [35.672204650892155, 36.8788717715105], [35.672743640062635, 36.8788717715105], [35.672743640062635, 36.87725480399908], [35.672204650892155, 36.87725480399908], [35.672204650892155, 36.87779379316955], [35.671665661721676, 36.87779379316955], [35.671665661721676, 36.8788717715105], [35.670587683380745, 36.8788717715105], [35.670587683380745, 36.878332782340024], [35.671126672551225, 36.878332782340024], [35.671126672551225, 36.87779379316955], [35.671665661721676, 36.87779379316955], [35.671665661721676, 36.87671581482861], [35.672743640062635, 36.87671581482861], [35.672743640062635, 36.87725480399908], [35.673282629233114, 36.87725480399908], [35.673282629233114, 36.87563783648766], [35.673821618403565, 36.87563783648766], [35.673821618403565, 36.8750988473172], [35.674360607574044, 36.8750988473172], [35.674360607574044, 36.87563783648766], [35.676516564255934, 36.87563783648766], [35.676516564255934, 36.876176825658135], [35.67705555342641, 36.876176825658135], [35.67705555342641, 36.87563783648766], [35.677594542596864, 36.87563783648766], [35.677594542596864, 36.8750988473172], [35.67705555342641, 36.8750988473172], [35.67705555342641, 36.874559858146725], [35.677594542596864, 36.874559858146725], [35.677594542596864, 36.87294289063531]], [[35.673821618403565, 36.882644695703796], [35.673821618403565, 36.88318368487427], [35.673282629233114, 36.88318368487427], [35.673282629233114, 36.882644695703796], [35.673821618403565, 36.882644695703796]], [[35.674360607574044, 36.87725480399908], [35.674360607574044, 36.87779379316955], [35.673821618403565, 36.87779379316955], [35.673821618403565, 36.878332782340024], [35.674360607574044, 36.878332782340024], [35.674360607574044, 36.87941076068097], [35.672743640062635, 36.87941076068097], [35.672743640062635, 36.8788717715105], [35.673282629233114, 36.8788717715105], [35.673282629233114, 36.87725480399908], [35.674360607574044, 36.87725480399908]], [[35.676516564255934, 36.87671581482861], [35.676516564255934, 36.87779379316955], [35.675977575085454, 36.87779379316955], [35.675977575085454, 36.87725480399908], [35.675438585915, 36.87725480399908], [35.675438585915, 36.87671581482861], [35.676516564255934, 36.87671581482861]], [[35.677594542596864, 36.876176825658135], [35.677594542596864, 36.87725480399908], [35.67705555342641, 36.87725480399908], [35.67705555342641, 36.876176825658135], [35.677594542596864, 36.876176825658135]]]}, "id": "+400153+87435", "properties": {"area_ha": 56.88827245294758, "count": 198, "label": 1, "mean_dnbr": 0.2974824122242532}}, {"type": "Feature", "geometry": {"geodesic": false, "type": "Polygon", "coordinates": [[[35.67867252093782, 36.97481184385446], [35.679750499278754, 36.97481184385446], [35.679750499278754, 36.97696780053635], [35.6792115101083, 36.97696780053635], [35.6792115101083, 36.97750678970682], [35.67867252093782, 36.97750678970682], [35.67867252093782, 36.97804577887729], [35.678133531767344, 36.97804577887729], [35.678133531767344, 36.97750678970682], [35.677594542596864, 36.97750678970682], [35.677594542596864, 36.97804577887729], [35.67705555342641, 36.97804577887729], [35.67705555342641, 36.97696780053635], [35.677594542596864, 36.97696780053635], [35.677594542596864, 36.97642881136588], [35.678133531767344, 36.97642881136588], [35.678133531767344, 36.97535083302493], [35.67867252093782, 36.97535083302493], [35.67867252093782, 36.97481184385446]]]}, "id": "+400155+87246", "properties": {"area_ha": 5.165190046644436, "count": 18, "label": 1, "mean_dnbr": 0.3599095480534424}}, {"type": "Feature", "geometry": {"geodesic": false, "type": "Polygon", "coordinates": [[[35.68136746679019, 36.8864176198971], [35.6829844343016, 36.8864176198971], [35.6829844343016, 36.886956609067575], [35.68352342347205, 36.886956609067575], [35.68352342347205, 36.88749559823804], [35.68406241264253, 36.88749559823804], [35.68406241264253, 36.888573576578985], [35.68352342347205, 36.888573576578985], [35.68352342347205, 36.88911256574946], [35.68406241264253, 36.88911256574946], [35.68406241264253, 36.8901905440904], [35.6829844343016, 36.8901905440904], [35.6829844343016, 36.88965155491993], [35.68244544513112, 36.88965155491993], [35.68244544513112, 36.8901905440904], [35.68136746679019, 36.8901905440904], [35.68136746679019, 36.88911256574946], [35.68082847761971, 36.88911256574946], [35.68082847761971, 36.888573576578985], [35.68352342347205, 36.888573576578985], [35.68352342347205, 36.88749559823804], [35.6829844343016, 36.88749559823804], [35.6829844343016, 36.886956609067575], [35.68136746679019, 36.886956609067575], [35.68136746679019, 36.8864176198971]]]}, "id": "+400161+87410", "properties": {"area_ha": 5.74570242138569, "count": 20, "label": 1, "mean_dnbr": 0.2521432278651829}}, {"type": "Feature", "geometry": {"geodesic": false, "type": "Polygon", "coordinates": [[[35.68621836932442, 36.98074072472965], [35.68729634766538, 36.98074072472965], [35.68729634766538, 36.98127971390012], [35.6867573584949, 36.98127971390012], [35.6867573584949, 36.981818703070594], [35.68621836932442, 36.981818703070594], [35.68621836932442, 36.98235769224107], [35.68567938015394, 36.98235769224107], [35.68567938015394, 36.98343567058201], [35.68460140181301, 36.98343567058201], [35.68460140181301, 36.98397465975248], [35.68406241264253, 36.98397465975248], [35.68406241264253, 36.98451364892295], [35.6829844343016, 36.98451364892295], [35.6829844343016, 36.98343567058201], [35.68460140181301, 36.98343567058201], [35.68460140181301, 36.98289668141154], [35.68514039098349, 36.98289668141154], [35.68514039098349, 36.98235769224107], [35.68567938015394, 36.98235769224107], [35.68567938015394, 36.98127971390012], [35.68621836932442, 36.98127971390012], [35.68621836932442, 36.98074072472965]]]}, "id": "+400169+87235", "properties": {"area_ha": 3.73010652450852, "count": 13, "label": 1, "mean_dnbr": 0.31657930006537216}}, {"type": "Feature", "geometry": {"geodesic": false, "type": "Polygon", "coordinates": [[[35.69592017439291, 36.98397465975248], [35.69699815273387, 36.98397465975248], [35.69699815273387, 36.98451364892295], [35.69753714190432, 36.98451364892295], [35.69753714190432, 36.98505263809342], [35.6980761310748, 36.98505263809342], [35.6980761310748, 36.985591627263894], [35.69753714190432, 36.985591627263894], [35.69753714190432, 36.986130616434366], [35.69645916356339, 36.986130616434366], [35.69645916356339, 36.985591627263894], [35.69592017439291, 36.985591627263894], [35.69592017439291, 36.986130616434366], [35.6943032068815, 36.986130616434366], [35.6943032068815, 36.98505263809342], [35.69484219605198, 36.98505263809342], [35.69484219605198, 36.98451364892295], [35.69592017439291, 36.98451364892295], [35.69592017439291, 36.98397465975248]]]}, "id": "+400187+87229", "properties": {"area_ha": 5.451522871371018, "count": 19, "label": 1, "mean_dnbr": 0.3441586153344007}}, {"type": "Feature", "geometry": {"geodesic": false, "type": "Polygon", "coordinates": [[[35.69592017439291, 36.99152050813908], [35.69753714190432, 36.99152050813908], [35.69753714190432, 36.992059497309555], [35.6980761310748, 36.992059497309555], [35.6980761310748, 36.99259848648003], [35.69861512024528, 36.99259848648003], [35.69861512024528, 36.9931374756505], [35.69699815273387, 36.9931374756505], [35.69699815273387, 36.99367646482097], [35.69538118522243, 36.99367646482097], [35.69538118522243, 36.99259848648003], [35.69699815273387, 36.99259848648003], [35.69699815273387, 36.992059497309555], [35.69592017439291, 36.992059497309555], [35.69592017439291, 36.99152050813908]]]}, "id": "+400188+87215", "properties": {"area_ha": 4.016516506784129, "count": 14, "label": 1, "mean_dnbr": 0.23827503486722612}}, {"type": "Feature", "geometry": {"geodesic": false, "type": "Polygon", "coordinates": [[[35.69861512024528, 36.985591627263894], [35.69969309858621, 36.985591627263894], [35.69969309858621, 36.986130616434366], [35.70023208775669, 36.986130616434366], [35.70023208775669, 36.98774758394578], [35.69861512024528, 36.98774758394578], [35.69861512024528, 36.985591627263894]]]}, "id": "+400192+87226", "properties": {"area_ha": 3.1560819783962764, "count": 11, "label": 1, "mean_dnbr": 0.21705241253819588}}, {"type": "Feature", "geometry": {"geodesic": false, "type": "Polygon", "coordinates": [[[35.6980761310748, 36.97804577887729], [35.69969309858621, 36.97804577887729], [35.69969309858621, 36.979662746388705], [35.70023208775669, 36.979662746388705], [35.70023208775669, 36.98074072472965], [35.69969309858621, 36.98074072472965], [35.69969309858621, 36.981818703070594], [35.69861512024528, 36.981818703070594], [35.69861512024528, 36.98235769224107], [35.69699815273387, 36.98235769224107], [35.69699815273387, 36.981818703070594], [35.69753714190432, 36.981818703070594], [35.69753714190432, 36.979662746388705], [35.6980761310748, 36.979662746388705], [35.6980761310748, 36.97804577887729]]]}, "id": "+400192+87240", "properties": {"area_ha": 8.608223623150572, "count": 30, "label": 1, "mean_dnbr": 0.22447864269964599}}, {"type": "Feature", "geometry": {"geodesic": false, "type": "Polygon", "coordinates": [[[35.714245806188956, 36.994754443161916], [35.715323784529886, 36.994754443161916], [35.715323784529886, 36.99529343233239], [35.717479741211775, 36.99529343233239], [35.717479741211775, 36.99583242150286], [35.716940752041324, 36.99583242150286], [35.716940752041324, 36.996371410673326], [35.716401762870845, 36.996371410673326], [35.716401762870845, 36.9969103998438], [35.714784795359435, 36.9969103998438], [35.714784795359435, 36.99744938901427], [35.715323784529886, 36.99744938901427], [35.715323784529886, 36.99798837818474], [35.714245806188956, 36.99798837818474], [35.714245806188956, 36.99744938901427], [35.712089849507066, 36.99744938901427], [35.712089849507066, 36.9969103998438], [35.710472881995656, 36.9969103998438], [35.710472881995656, 36.996371410673326], [35.711011871166136, 36.996371410673326], [35.711011871166136, 36.99583242150286], [35.712628838677546, 36.99583242150286], [35.712628838677546, 36.996371410673326], [35.712089849507066, 36.996371410673326], [35.712089849507066, 36.9969103998438], [35.713167827848025, 36.9969103998438], [35.713167827848025, 36.99583242150286], [35.713706817018476, 36.99583242150286], [35.713706817018476, 36.99529343233239], [35.714245806188956, 36.99529343233239], [35.714245806188956, 36.994754443161916]]]}, "id": "+400221+87209", "properties": {"area_ha": 10.040810721350923, "count": 35, "label": 1, "mean_dnbr": 0.22904716004522876}}]}