{"type": "FeatureCollection", "columns": {"area_ha": "Number", "count": "Long<0, 4294967295>", "label": "Byte<0, 1>", "mean_dnbr": "Object", "system:index": "String"}, "features": [{"type": "Feature", "geometry": {"geodesic": false, "type": "Polygon", "coordinates": [[[27.952801751396265, 37.018110640549025], [27.953340740566745, 37.018110640549025], [27.953340740566745, 37.01829030360585], [27.95423905585085, 37.01829030360585], [27.95423905585085, 37.01846996666267], [27.954418718907675, 37.01846996666267], [27.954418718907675, 37.018829292776324], [27.9545983819645, 37.018829292776324], [27.9545983819645, 37.01972760806044], [27.954418718907675, 37.01972760806044], [27.954418718907675, 37.01990727111727], [27.95352040362357, 37.01990727111727], [27.95352040362357, 37.01972760806044], [27.95262208833944, 37.01972760806044], [27.95262208833944, 37.019547945003616], [27.952442425282612, 37.019547945003616], [27.952442425282612, 37.0186496297195], [27.95262208833944, 37.0186496297195], [27.95262208833944, 37.01829030360585], [27.952801751396265, 37.01829030360585], [27.952801751396265, 37.018110640549025]]]}, "id": "+1157462+261499", "properties": {"area_ha": 3.0910074118627753, "count": 97, "label": 1, "mean_dnbr": 0.33374352209512925}}, {"type": "Feature", "geometry": {"geodesic": false, "type": "Polygon", "coordinates": [[[28.342131595533658, 37.036436272345064], [28.343748563045096, 37.036436272345064], [28.343748563045096, 37.03661593540189], [28.343928226101895, 37.03661593540189], [28.343928226101895, 37.03805323985648], [28.34410788915872, 37.03805323985648], [28.34410788915872, 37.03877189208377], [28.343928226101895, 37.03877189208377], [28.343928226101895, 37.0389515551406], [28.34356889998827, 37.0389515551406], [28.34356889998827, 37.03877189208377], [28.34249092164731, 37.03877189208377], [28.34249092164731, 37.03859222902695], [28.342311258590485, 37.03859222902695], [28.342311258590485, 37.03841256597013], [28.342131595533658, 37.03841256597013], [28.342131595533658, 37.0382329029133], [28.34195193247683, 37.0382329029133], [28.34195193247683, 37.03805323985648], [28.342131595533658, 37.03805323985648], [28.342131595533658, 37.037693913742835], [28.34195193247683, 37.037693913742835], [28.34195193247683, 37.037873576799655], [28.341772269420034, 37.037873576799655], [28.341772269420034, 37.037693913742835], [28.341592606363207, 37.037693913742835], [28.341592606363207, 37.03751425068601], [28.341772269420034, 37.03751425068601], [28.341772269420034, 37.03733458762918], [28.34195193247683, 37.03733458762918], [28.34195193247683, 37.03715492457236], [28.341772269420034, 37.03715492457236], [28.341772269420034, 37.036975261515536], [28.341592606363207, 37.036975261515536], [28.341592606363207, 37.03679559845871], [28.341772269420034, 37.03679559845871], [28.341772269420034, 37.03661593540189], [28.342131595533658, 37.03661593540189], [28.342131595533658, 37.036436272345064]]]}, "id": "+1159635+261397", "properties": {"area_ha": 4.683164012214488, "count": 147, "label": 1, "mean_dnbr": 0.33209869624307187}}, {"type": "Feature", "geometry": {"geodesic": false, "type": "Polygon", "coordinates": [[[28.34410788915872, 36.954689581490186], [28.344287552215548, 36.954689581490186], [28.344287552215548, 36.95486924454701], [28.344467215272374, 36.95486924454701], [28.344467215272374, 36.95504890760384], [28.3446468783292, 36.95504890760384], [28.3446468783292, 36.95522857066066], [28.344467215272374, 36.95522857066066], [28.344467215272374, 36.955408233717485], [28.34410788915872, 36.955408233717485], [28.34410788915872, 36.95576755983113], [28.344287552215548, 36.95576755983113], [28.344287552215548, 36.95558789677431], [28.3446468783292, 36.95558789677431], [28.3446468783292, 36.95576755983113], [28.344826541386027, 36.95576755983113], [28.344826541386027, 36.95594722288796], [28.3446468783292, 36.95594722288796], [28.3446468783292, 36.9563065490016], [28.34518586749968, 36.9563065490016], [28.34518586749968, 36.95576755983113], [28.345365530556506, 36.95576755983113], [28.345365530556506, 36.95558789677431], [28.34518586749968, 36.95558789677431], [28.34518586749968, 36.955408233717485], [28.345006204442853, 36.955408233717485], [28.345006204442853, 36.95522857066066], [28.34518586749968, 36.95522857066066], [28.34518586749968, 36.95504890760384], [28.345365530556506, 36.95504890760384], [28.345365530556506, 36.95522857066066], [28.345545193613333, 36.95522857066066], [28.345545193613333, 36.955408233717485], [28.345904519726957, 36.955408233717485], [28.345904519726957, 36.95522857066066], [28.346084182783784, 36.95522857066066], [28.346084182783784, 36.95504890760384], [28.34626384584061, 36.95504890760384], [28.34626384584061, 36.95522857066066], [28.346623171954263, 36.95522857066066], [28.346623171954263, 36.955408233717485], [28.34680283501109, 36.955408233717485], [28.34680283501109, 36.95558789677431], [28.346982498067916, 36.95558789677431], [28.346982498067916, 36.95594722288796], [28.347162161124743, 36.95594722288796], [28.347162161124743, 36.95612688594478], [28.346982498067916, 36.95612688594478], [28.346982498067916, 36.9563065490016], [28.34680283501109, 36.9563065490016], [28.34680283501109, 36.9570252012289], [28.346982498067916, 36.9570252012289], [28.346982498067916, 36.956845538172075], [28.347162161124743, 36.956845538172075], [28.347162161124743, 36.95666587511525], [28.347701150295222, 36.95666587511525], [28.347701150295222, 36.956845538172075], [28.34788081335202, 36.956845538172075], [28.34788081335202, 36.9570252012289], [28.347701150295222, 36.9570252012289], [28.347701150295222, 36.95720486428572], [28.34788081335202, 36.95720486428572], [28.34788081335202, 36.95738452734255], [28.348060476408847, 36.95738452734255], [28.348060476408847, 36.957564190399374], [28.34788081335202, 36.957564190399374], [28.34788081335202, 36.95774385345619], [28.348060476408847, 36.95774385345619], [28.348060476408847, 36.95792351651302], [28.34788081335202, 36.95792351651302], [28.34788081335202, 36.95810317956984], [28.348060476408847, 36.95810317956984], [28.348060476408847, 36.958282842626666], [28.34788081335202, 36.958282842626666], [28.34788081335202, 36.95846250568349], [28.348060476408847, 36.95846250568349], [28.348060476408847, 36.95864216874031], [28.34788081335202, 36.95864216874031], [28.34788081335202, 36.95882183179714], [28.348060476408847, 36.95882183179714], [28.348060476408847, 36.959001494853965], [28.34788081335202, 36.959001494853965], [28.34788081335202, 36.959181157910784], [28.347701150295222, 36.959181157910784], [28.347701150295222, 36.959001494853965], [28.347521487238396, 36.959001494853965], [28.347521487238396, 36.95882183179714], [28.34734182418157, 36.95882183179714], [28.34734182418157, 36.95864216874031], [28.347162161124743, 36.95864216874031], [28.347162161124743, 36.95846250568349], [28.346982498067916, 36.95846250568349], [28.346982498067916, 36.958282842626666], [28.34680283501109, 36.958282842626666], [28.34680283501109, 36.95846250568349], [28.34626384584061, 36.95846250568349], [28.34626384584061, 36.95864216874031], [28.346084182783784, 36.95864216874031], [28.346084182783784, 36.95846250568349], [28.345904519726957, 36.95846250568349], [28.345904519726957, 36.958282842626666], [28.34572485667016, 36.958282842626666], [28.34572485667016, 36.95810317956984], [28.345904519726957, 36.95810317956984], [28.345904519726957, 36.95792351651302], [28.346084182783784, 36.95792351651302], [28.346084182783784, 36.95774385345619], [28.345904519726957, 36.95774385345619], [28.345904519726957, 36.957564190399374], [28.34572485667016, 36.957564190399374], [28.34572485667016, 36.95738452734255], [28.345545193613333, 36.95738452734255], [28.345545193613333, 36.95720486428572], [28.345365530556506, 36.95720486428572], [28.345365530556506, 36.9570252012289], [28.345006204442853, 36.9570252012289], [28.345006204442853, 36.957564190399374], [28.344826541386027, 36.957564190399374], [28.344826541386027, 36.95792351651302], [28.345365530556506, 36.95792351651302], [28.345365530556506, 36.95810317956984], [28.345545193613333, 36.95810317956984], [28.345545193613333, 36.958282842626666], [28.345365530556506, 36.958282842626666], [28.345365530556506, 36.95864216874031], [28.34572485667016, 36.95864216874031], [28.34572485667016, 36.95882183179714], [28.34626384584061, 36.95882183179714], [28.34626384584061, 36.959001494853965], [28.346443508897437, 36.959001494853965], [28.346443508897437, 36.959181157910784], [28.346623171954263, 36.959181157910784], [28.346623171954263, 36.95936082096761], [28.346443508897437, 36.95936082096761], [28.346443508897437, 36.95954048402444], [28.346623171954263, 36.95954048402444], [28.346623171954263, 36.959720147081256], [28.34680283501109, 36.959720147081256], [28.34680283501109, 36.95989981013808], [28.346623171954263, 36.95989981013808], [28.346623171954263, 36.9600794731949], [28.346443508897437, 36.9600794731949], [28.346443508897437, 36.95989981013808], [28.34626384584061, 36.95989981013808], [28.34626384584061, 36.959720147081256], [28.346084182783784, 36.959720147081256], [28.346084182783784, 36.95936082096761], [28.34572485667016, 36.95936082096761], [28.34572485667016, 36.959181157910784], [28.345365530556506, 36.959181157910784], [28.345365530556506, 36.95936082096761], [28.34518586749968, 36.95936082096761], [28.34518586749968, 36.95954048402444], [28.345006204442853, 36.95954048402444], [28.345006204442853, 36.959720147081256], [28.34518586749968, 36.959720147081256], [28.34518586749968, 36.96025913625173], [28.345904519726957, 36.96025913625173], [28.345904519726957, 36.960438799308555], [28.346084182783784, 36.960438799308555], [28.346084182783784, 36.96097778847903], [28.346443508897437, 36.96097778847903], [28.346443508897437, 36.96115745153585], [28.346623171954263, 36.96115745153585], [28.346623171954263, 36.96097778847903], [28.34680283501109, 36.96097778847903], [28.34680283501109, 36.960618462365375], [28.346623171954263, 36.960618462365375], [28.346623171954263, 36.960438799308555], [28.34680283501109, 36.960438799308555], [28.34680283501109, 36.96025913625173], [28.346982498067916, 36.96025913625173], [28.346982498067916, 36.960438799308555], [28.347162161124743, 36.960438799308555], [28.347162161124743, 36.960618462365375], [28.346982498067916, 36.960618462365375], [28.346982498067916, 36.96097778847903], [28.347162161124743, 36.96097778847903], [28.347162161124743, 36.96115745153585], [28.34734182418157, 36.96115745153585], [28.34734182418157, 36.96097778847903], [28.347521487238396, 36.96097778847903], [28.347521487238396, 36.96115745153585], [28.347701150295222, 36.96115745153585], [28.347701150295222, 36.96133711459267], [28.34788081335202, 36.96133711459267], [28.34788081335202, 36.9615167776495], [28.348060476408847, 36.9615167776495], [28.348060476408847, 36.96169644070632], [28.34788081335202, 36.96169644070632], [28.34788081335202, 36.961876103763146], [28.347701150295222, 36.961876103763146], [28.347701150295222, 36.96169644070632], [28.347521487238396, 36.96169644070632], [28.347521487238396, 36.9615167776495], [28.34734182418157, 36.9615167776495], [28.34734182418157, 36.96133711459267], [28.347162161124743, 36.96133711459267], [28.347162161124743, 36.96115745153585], [28.346982498067916, 36.96115745153585], [28.346982498067916, 36.96133711459267], [28.34680283501109, 36.96133711459267], [28.34680283501109, 36.96115745153585], [28.346623171954263, 36.96115745153585], [28.346623171954263, 36.9615167776495], [28.34680283501109, 36.9615167776495], [28.34680283501109, 36.96169644070632], [28.346623171954263, 36.96169644070632], [28.346623171954263, 36.961876103763146], [28.346443508897437, 36.961876103763146], [28.346443508897437, 36.962055766819965], [28.346623171954263, 36.962055766819965], [28.346623171954263, 36.96241509293362], [28.346443508897437, 36.96241509293362], [28.346443508897437, 36.96259475599044], [28.346623171954263, 36.96259475599044], [28.346623171954263, 36.96313374516091], [28.346443508897437, 36.96313374516091], [28.346443508897437, 36.963313408217736], [28.34626384584061, 36.963313408217736], [28.34626384584061, 36.96349307127456], [28.346443508897437, 36.96349307127456], [28.346443508897437, 36.96367273433138], [28.346623171954263, 36.96367273433138], [28.346623171954263, 36.96385239738821], [28.34680283501109, 36.96385239738821], [28.34680283501109, 36.96403206044503], [28.346623171954263, 36.96403206044503], [28.346623171954263, 36.964211723501855], [28.346443508897437, 36.964211723501855], [28.346443508897437, 36.96403206044503], [28.34626384584061, 36.96403206044503], [28.34626384584061, 36.964211723501855], [28.346084182783784, 36.964211723501855], [28.346084182783784, 36.96439138655868], [28.34572485667016, 36.96439138655868], [28.34572485667016, 36.964211723501855], [28.345545193613333, 36.964211723501855], [28.345545193613333, 36.96385239738821], [28.345365530556506, 36.96385239738821], [28.345365530556506, 36.96403206044503], [28.345006204442853, 36.96403206044503], [28.345006204442853, 36.964211723501855], [28.344826541386027, 36.964211723501855], [28.344826541386027, 36.96439138655868], [28.3446468783292, 36.96439138655868], [28.3446468783292, 36.964211723501855], [28.344467215272374, 36.964211723501855], [28.344467215272374, 36.9645710496155], [28.344287552215548, 36.9645710496155], [28.344287552215548, 36.96475071267233], [28.343928226101895, 36.96475071267233], [28.343928226101895, 36.9645710496155], [28.34356889998827, 36.9645710496155], [28.34356889998827, 36.96439138655868], [28.34302991081779, 36.96439138655868], [28.34302991081779, 36.9645710496155], [28.342670584704138, 36.9645710496155], [28.342670584704138, 36.96439138655868], [28.34249092164731, 36.96439138655868], [28.34249092164731, 36.964211723501855], [28.342311258590485, 36.964211723501855], [28.342311258590485, 36.96403206044503], [28.34195193247683, 36.96403206044503], [28.34195193247683, 36.964211723501855], [28.341772269420034, 36.964211723501855], [28.341772269420034, 36.96439138655868], [28.341592606363207, 36.96439138655868], [28.341592606363207, 36.9645710496155], [28.341233280249554, 36.9645710496155], [28.341233280249554, 36.96439138655868], [28.341053617192728, 36.96439138655868], [28.341053617192728, 36.96367273433138], [28.3408739541359, 36.96367273433138], [28.3408739541359, 36.96385239738821], [28.340694291079075, 36.96385239738821], [28.340694291079075, 36.96403206044503], [28.340514628022248, 36.96403206044503], [28.340514628022248, 36.964211723501855], [28.34033496496542, 36.964211723501855], [28.34033496496542, 36.96403206044503], [28.33997563885177, 36.96403206044503], [28.33997563885177, 36.964211723501855], [28.339616312738144, 36.964211723501855], [28.339616312738144, 36.96403206044503], [28.339436649681318, 36.96403206044503], [28.339436649681318, 36.96349307127456], [28.33925698662449, 36.96349307127456], [28.33925698662449, 36.96367273433138], [28.339077323567665, 36.96367273433138], [28.339077323567665, 36.96349307127456], [28.33871799745401, 36.96349307127456], [28.33871799745401, 36.963313408217736], [28.338538334397185, 36.963313408217736], [28.338538334397185, 36.96295408210409], [28.33871799745401, 36.96295408210409], [28.33871799745401, 36.96259475599044], [28.338538334397185, 36.96259475599044], [28.338538334397185, 36.962774419047264], [28.33835867134036, 36.962774419047264], [28.33835867134036, 36.96259475599044], [28.338179008283532, 36.96259475599044], [28.338179008283532, 36.962055766819965], [28.337999345226706, 36.962055766819965], [28.337999345226706, 36.961876103763146], [28.337819682169908, 36.961876103763146], [28.337819682169908, 36.96223542987679], [28.33764001911308, 36.96223542987679], [28.33764001911308, 36.96241509293362], [28.337460356056255, 36.96241509293362], [28.337460356056255, 36.96223542987679], [28.33728069299943, 36.96223542987679], [28.33728069299943, 36.962055766819965], [28.337460356056255, 36.962055766819965], [28.337460356056255, 36.9615167776495], [28.33728069299943, 36.9615167776495], [28.33728069299943, 36.96115745153585], [28.337460356056255, 36.96115745153585], [28.337460356056255, 36.96097778847903], [28.33728069299943, 36.96097778847903], [28.33728069299943, 36.960618462365375], [28.337460356056255, 36.960618462365375], [28.337460356056255, 36.960438799308555], [28.337101029942602, 36.960438799308555], [28.337101029942602, 36.960618462365375], [28.336921366885775, 36.960618462365375], [28.336921366885775, 36.960438799308555], [28.33674170382895, 36.960438799308555], [28.33674170382895, 36.96025913625173], [28.336562040772122, 36.96025913625173], [28.336562040772122, 36.9600794731949], [28.33674170382895, 36.9600794731949], [28.33674170382895, 36.95989981013808], [28.336921366885775, 36.95989981013808], [28.336921366885775, 36.9600794731949], [28.337101029942602, 36.9600794731949], [28.337101029942602, 36.96025913625173], [28.337460356056255, 36.96025913625173], [28.337460356056255, 36.9600794731949], [28.33728069299943, 36.9600794731949], [28.33728069299943, 36.95989981013808], [28.337101029942602, 36.95989981013808], [28.337101029942602, 36.959720147081256], [28.336921366885775, 36.959720147081256], [28.336921366885775, 36.959181157910784], [28.33674170382895, 36.959181157910784], [28.33674170382895, 36.95864216874031], [28.336921366885775, 36.95864216874031], [28.336921366885775, 36.95846250568349], [28.337101029942602, 36.95846250568349], [28.337101029942602, 36.95864216874031], [28.33728069299943, 36.95864216874031], [28.33728069299943, 36.95810317956984], [28.337460356056255, 36.95810317956984], [28.337460356056255, 36.95792351651302], [28.33764001911308, 36.95792351651302], [28.33764001911308, 36.95810317956984], [28.337999345226706, 36.95810317956984], [28.337999345226706, 36.958282842626666], [28.338179008283532, 36.958282842626666], [28.338179008283532, 36.95792351651302], [28.33835867134036, 36.95792351651302], [28.33835867134036, 36.95774385345619], [28.338538334397185, 36.95774385345619], [28.338538334397185, 36.95792351651302], [28.339077323567665, 36.95792351651302], [28.339077323567665, 36.95774385345619], [28.339616312738144, 36.95774385345619], [28.339616312738144, 36.957564190399374], [28.33979597579497, 36.957564190399374], [28.33979597579497, 36.95738452734255], [28.33997563885177, 36.95738452734255], [28.33997563885177, 36.957564190399374], [28.340155301908595, 36.957564190399374], [28.340155301908595, 36.95738452734255], [28.34033496496542, 36.95738452734255], [28.34033496496542, 36.95720486428572], [28.33997563885177, 36.95720486428572], [28.33997563885177, 36.9570252012289], [28.33979597579497, 36.9570252012289], [28.33979597579497, 36.95666587511525], [28.33997563885177, 36.95666587511525], [28.33997563885177, 36.95648621205843], [28.33979597579497, 36.95648621205843], [28.33979597579497, 36.9563065490016], [28.339616312738144, 36.9563065490016], [28.339616312738144, 36.95612688594478], [28.33979597579497, 36.95612688594478], [28.33979597579497, 36.95594722288796], [28.33997563885177, 36.95594722288796], [28.33997563885177, 36.95576755983113], [28.340155301908595, 36.95576755983113], [28.340155301908595, 36.95558789677431], [28.34033496496542, 36.95558789677431], [28.34033496496542, 36.95576755983113], [28.340514628022248, 36.95576755983113], [28.340514628022248, 36.95648621205843], [28.340694291079075, 36.95648621205843], [28.340694291079075, 36.9563065490016], [28.3408739541359, 36.9563065490016], [28.3408739541359, 36.95612688594478], [28.341053617192728, 36.95612688594478], [28.341053617192728, 36.9563065490016], [28.341592606363207, 36.9563065490016], [28.341592606363207, 36.95648621205843], [28.341772269420034, 36.95648621205843], [28.341772269420034, 36.95666587511525], [28.34195193247683, 36.95666587511525], [28.34195193247683, 36.95648621205843], [28.342131595533658, 36.95648621205843], [28.342131595533658, 36.9563065490016], [28.342670584704138, 36.9563065490016], [28.342670584704138, 36.95648621205843], [28.343209573874617, 36.95648621205843], [28.343209573874617, 36.9563065490016], [28.34302991081779, 36.9563065490016], [28.34302991081779, 36.95612688594478], [28.343209573874617, 36.95612688594478], [28.343209573874617, 36.95594722288796], [28.343389236931444, 36.95594722288796], [28.343389236931444, 36.95612688594478], [28.34356889998827, 36.95612688594478], [28.34356889998827, 36.95576755983113], [28.343748563045096, 36.95576755983113], [28.343748563045096, 36.95558789677431], [28.343928226101895, 36.95558789677431], [28.343928226101895, 36.955408233717485], [28.343748563045096, 36.955408233717485], [28.343748563045096, 36.95504890760384], [28.343928226101895, 36.95504890760384], [28.343928226101895, 36.95486924454701], [28.34410788915872, 36.95486924454701], [28.34410788915872, 36.954689581490186]], [[28.345006204442853, 36.96385239738821], [28.345006204442853, 36.96403206044503], [28.344826541386027, 36.96403206044503], [28.344826541386027, 36.96385239738821], [28.345006204442853, 36.96385239738821]], [[28.34033496496542, 36.96367273433138], [28.34033496496542, 36.96385239738821], [28.33997563885177, 36.96385239738821], [28.33997563885177, 36.96367273433138], [28.34033496496542, 36.96367273433138]], [[28.346443508897437, 36.96367273433138], [28.346443508897437, 36.96385239738821], [28.34626384584061, 36.96385239738821], [28.34626384584061, 36.96367273433138], [28.346443508897437, 36.96367273433138]], [[28.340514628022248, 36.96349307127456], [28.340514628022248, 36.96367273433138], [28.34033496496542, 36.96367273433138], [28.34033496496542, 36.96349307127456], [28.340514628022248, 36.96349307127456]], [[28.343928226101895, 36.96349307127456], [28.343928226101895, 36.96367273433138], [28.343748563045096, 36.96367273433138], [28.343748563045096, 36.96349307127456], [28.343928226101895, 36.96349307127456]], [[28.344826541386027, 36.963313408217736], [28.344826541386027, 36.96349307127456], [28.3446468783292, 36.96349307127456], [28.3446468783292, 36.963313408217736], [28.344826541386027, 36.963313408217736]], [[28.3408739541359, 36.96313374516091], [28.3408739541359, 36.96367273433138], [28.340694291079075, 36.96367273433138], [28.340694291079075, 36.96349307127456], [28.340514628022248, 36.96349307127456], [28.340514628022248, 36.963313408217736], [28.34033496496542, 36.963313408217736], [28.34033496496542, 36.96313374516091], [28.3408739541359, 36.96313374516091]], [[28.343748563045096, 36.96313374516091], [28.343748563045096, 36.96349307127456], [28.34356889998827, 36.96349307127456], [28.34356889998827, 36.963313408217736], [28.343209573874617, 36.963313408217736], [28.343209573874617, 36.96313374516091], [28.343748563045096, 36.96313374516091]], [[28.345006204442853, 36.96295408210409], [28.345006204442853, 36.96313374516091], [28.344826541386027, 36.96313374516091], [28.344826541386027, 36.96295408210409], [28.345006204442853, 36.96295408210409]], [[28.33997563885177, 36.962774419047264], [28.33997563885177, 36.96295408210409], [28.339616312738144, 36.96295408210409], [28.339616312738144, 36.962774419047264], [28.33997563885177, 36.962774419047264]], [[28.34356889998827, 36.96241509293362], [28.34356889998827, 36.96259475599044], [28.343209573874617, 36.96259475599044], [28.343209573874617, 36.96241509293362], [28.34356889998827, 36.96241509293362]], [[28.34626384584061, 36.96241509293362], [28.34626384584061, 36.96259475599044], [28.346084182783784, 36.96259475599044], [28.346084182783784, 36.962774419047264], [28.345904519726957, 36.962774419047264], [28.345904519726957, 36.963313408217736], [28.346084182783784, 36.963313408217736], [28.346084182783784, 36.96349307127456], [28.34572485667016, 36.96349307127456], [28.34572485667016, 36.96295408210409], [28.345545193613333, 36.96295408210409], [28.345545193613333, 36.962774419047264], [28.345365530556506, 36.962774419047264], [28.345365530556506, 36.96259475599044], [28.345545193613333, 36.96259475599044], [28.345545193613333, 36.96241509293362], [28.34572485667016, 36.96241509293362], [28.34572485667016, 36.96259475599044], [28.345904519726957, 36.96259475599044], [28.345904519726957, 36.96241509293362], [28.34626384584061, 36.96241509293362]], [[28.342850247760964, 36.961876103763146], [28.342850247760964, 36.962055766819965], [28.34302991081779, 36.962055766819965], [28.34302991081779, 36.96223542987679], [28.343209573874617, 36.96223542987679], [28.343209573874617, 36.96241509293362], [28.342850247760964, 36.96241509293362], [28.342850247760964, 36.96223542987679], [28.342670584704138, 36.96223542987679], [28.342670584704138, 36.962055766819965], [28.34249092164731, 36.962055766819965], [28.34249092164731, 36.961876103763146], [28.342850247760964, 36.961876103763146]], [[28.343209573874617, 36.961876103763146], [28.343209573874617, 36.962055766819965], [28.34302991081779, 36.962055766819965], [28.34302991081779, 36.961876103763146], [28.343209573874617, 36.961876103763146]], [[28.34033496496542, 36.96169644070632], [28.34033496496542, 36.961876103763146], [28.340514628022248, 36.961876103763146], [28.340514628022248, 36.962055766819965], [28.340155301908595, 36.962055766819965], [28.340155301908595, 36.96169644070632], [28.34033496496542, 36.96169644070632]], [[28.344826541386027, 36.96169644070632], [28.344826541386027, 36.961876103763146], [28.3446468783292, 36.961876103763146], [28.3446468783292, 36.96169644070632], [28.344826541386027, 36.96169644070632]], [[28.34249092164731, 36.96133711459267], [28.34249092164731, 36.9615167776495], [28.342311258590485, 36.9615167776495], [28.342311258590485, 36.96133711459267], [28.34249092164731, 36.96133711459267]], [[28.345545193613333, 36.96133711459267], [28.345545193613333, 36.9615167776495], [28.34572485667016, 36.9615167776495], [28.34572485667016, 36.96169644070632], [28.345904519726957, 36.96169644070632], [28.345904519726957, 36.962055766819965], [28.34572485667016, 36.962055766819965], [28.34572485667016, 36.96223542987679], [28.345545193613333, 36.96223542987679], [28.345545193613333, 36.962055766819965], [28.34518586749968, 36.962055766819965], [28.34518586749968, 36.961876103763146], [28.345365530556506, 36.961876103763146], [28.345365530556506, 36.9615167776495], [28.34518586749968, 36.9615167776495], [28.34518586749968, 36.96133711459267], [28.345545193613333, 36.96133711459267]], [[28.338179008283532, 36.96115745153585], [28.338179008283532, 36.96133711459267], [28.33835867134036, 36.96133711459267], [28.33835867134036, 36.9615167776495], [28.338538334397185, 36.9615167776495], [28.338538334397185, 36.96169644070632], [28.338179008283532, 36.96169644070632], [28.338179008283532, 36.961876103763146], [28.337999345226706, 36.961876103763146], [28.337999345226706, 36.96115745153585], [28.338179008283532, 36.96115745153585]], [[28.33889766051084, 36.96115745153585], [28.33889766051084, 36.96133711459267], [28.339077323567665, 36.96133711459267], [28.339077323567665, 36.9615167776495], [28.33925698662449, 36.9615167776495], [28.33925698662449, 36.96133711459267], [28.339436649681318, 36.96133711459267], [28.339436649681318, 36.96169644070632], [28.33889766051084, 36.96169644070632], [28.33889766051084, 36.9615167776495], [28.338538334397185, 36.9615167776495], [28.338538334397185, 36.96133711459267], [28.33871799745401, 36.96133711459267], [28.33871799745401, 36.96115745153585], [28.33889766051084, 36.96115745153585]], [[28.34033496496542, 36.96115745153585], [28.34033496496542, 36.9615167776495], [28.340155301908595, 36.9615167776495], [28.340155301908595, 36.96115745153585], [28.34033496496542, 36.96115745153585]], [[28.34302991081779, 36.96115745153585], [28.34302991081779, 36.9615167776495], [28.342850247760964, 36.9615167776495], [28.342850247760964, 36.96115745153585], [28.34302991081779, 36.96115745153585]], [[28.3446468783292, 36.96115745153585], [28.3446468783292, 36.96169644070632], [28.344467215272374, 36.96169644070632], [28.344467215272374, 36.9615167776495], [28.344287552215548, 36.9615167776495], [28.344287552215548, 36.96115745153585], [28.3446468783292, 36.96115745153585]], [[28.337999345226706, 36.96097778847903], [28.337999345226706, 36.96115745153585], [28.337819682169908, 36.96115745153585], [28.337819682169908, 36.96097778847903], [28.337999345226706, 36.96097778847903]], [[28.34410788915872, 36.9607981254222], [28.34410788915872, 36.96097778847903], [28.343928226101895, 36.96097778847903], [28.343928226101895, 36.9607981254222], [28.34410788915872, 36.9607981254222]], [[28.33835867134036, 36.960618462365375], [28.33835867134036, 36.9607981254222], [28.338179008283532, 36.9607981254222], [28.338179008283532, 36.96097778847903], [28.337999345226706, 36.96097778847903], [28.337999345226706, 36.960618462365375], [28.33835867134036, 36.960618462365375]], [[28.34518586749968, 36.960618462365375], [28.34518586749968, 36.96097778847903], [28.344826541386027, 36.96097778847903], [28.344826541386027, 36.9607981254222], [28.345006204442853, 36.9607981254222], [28.345006204442853, 36.960618462365375], [28.34518586749968, 36.960618462365375]], [[28.337999345226706, 36.960438799308555], [28.337999345226706, 36.960618462365375], [28.337819682169908, 36.960618462365375], [28.337819682169908, 36.960438799308555], [28.337999345226706, 36.960438799308555]], [[28.339616312738144, 36.960438799308555], [28.339616312738144, 36.960618462365375], [28.339436649681318, 36.960618462365375], [28.339436649681318, 36.960438799308555], [28.339616312738144, 36.960438799308555]], [[28.33889766051084, 36.96025913625173], [28.33889766051084, 36.960438799308555], [28.33871799745401, 36.960438799308555], [28.33871799745401, 36.96025913625173], [28.33889766051084, 36.96025913625173]], [[28.342850247760964, 36.9600794731949], [28.342850247760964, 36.960438799308555], [28.34302991081779, 36.960438799308555], [28.34302991081779, 36.960618462365375], [28.342131595533658, 36.960618462365375], [28.342131595533658, 36.960438799308555], [28.342311258590485, 36.960438799308555], [28.342311258590485, 36.96025913625173], [28.34249092164731, 36.96025913625173], [28.34249092164731, 36.9600794731949], [28.342850247760964, 36.9600794731949]], [[28.337819682169908, 36.95989981013808], [28.337819682169908, 36.9600794731949], [28.33764001911308, 36.9600794731949], [28.33764001911308, 36.95989981013808], [28.337819682169908, 36.95989981013808]], [[28.341053617192728, 36.95989981013808], [28.341053617192728, 36.9600794731949], [28.340694291079075, 36.9600794731949], [28.340694291079075, 36.96025913625173], [28.340514628022248, 36.96025913625173], [28.340514628022248, 36.960438799308555], [28.34033496496542, 36.960438799308555], [28.34033496496542, 36.960618462365375], [28.340155301908595, 36.960618462365375], [28.340155301908595, 36.9607981254222], [28.33979597579497, 36.9607981254222], [28.33979597579497, 36.960618462365375], [28.33997563885177, 36.960618462365375], [28.33997563885177, 36.960438799308555], [28.340155301908595, 36.960438799308555], [28.340155301908595, 36.96025913625173], [28.34033496496542, 36.96025913625173], [28.34033496496542, 36.9600794731949], [28.340514628022248, 36.9600794731949], [28.340514628022248, 36.95989981013808], [28.341053617192728, 36.95989981013808]], [[28.34410788915872, 36.95989981013808], [28.34410788915872, 36.9600794731949], [28.343928226101895, 36.9600794731949], [28.343928226101895, 36.95989981013808], [28.34410788915872, 36.95989981013808]], [[28.33979597579497, 36.959720147081256], [28.33979597579497, 36.95989981013808], [28.339616312738144, 36.95989981013808], [28.339616312738144, 36.959720147081256], [28.33979597579497, 36.959720147081256]], [[28.33889766051084, 36.95954048402444], [28.33889766051084, 36.959720147081256], [28.33871799745401, 36.959720147081256], [28.33871799745401, 36.95954048402444], [28.33889766051084, 36.95954048402444]], [[28.339616312738144, 36.95954048402444], [28.339616312738144, 36.959720147081256], [28.339436649681318, 36.959720147081256], [28.339436649681318, 36.95954048402444], [28.339616312738144, 36.95954048402444]], [[28.342311258590485, 36.95954048402444], [28.342311258590485, 36.95989981013808], [28.342131595533658, 36.95989981013808], [28.342131595533658, 36.959720147081256], [28.34195193247683, 36.959720147081256], [28.34195193247683, 36.95954048402444], [28.342311258590485, 36.95954048402444]], [[28.34249092164731, 36.95936082096761], [28.34249092164731, 36.95954048402444], [28.342311258590485, 36.95954048402444], [28.342311258590485, 36.95936082096761], [28.34249092164731, 36.95936082096761]], [[28.337819682169908, 36.959181157910784], [28.337819682169908, 36.95936082096761], [28.33764001911308, 36.95936082096761], [28.33764001911308, 36.959181157910784], [28.337819682169908, 36.959181157910784]], [[28.338538334397185, 36.959181157910784], [28.338538334397185, 36.95936082096761], [28.337999345226706, 36.95936082096761], [28.337999345226706, 36.959181157910784], [28.338538334397185, 36.959181157910784]], [[28.33764001911308, 36.959001494853965], [28.33764001911308, 36.959181157910784], [28.33728069299943, 36.959181157910784], [28.33728069299943, 36.959001494853965], [28.33764001911308, 36.959001494853965]], [[28.34356889998827, 36.959001494853965], [28.34356889998827, 36.959181157910784], [28.343389236931444, 36.959181157910784], [28.343389236931444, 36.959001494853965], [28.34356889998827, 36.959001494853965]], [[28.34141294330638, 36.95882183179714], [28.34141294330638, 36.959001494853965], [28.341233280249554, 36.959001494853965], [28.341233280249554, 36.95882183179714], [28.34141294330638, 36.95882183179714]], [[28.341772269420034, 36.95882183179714], [28.341772269420034, 36.959001494853965], [28.342131595533658, 36.959001494853965], [28.342131595533658, 36.959181157910784], [28.341592606363207, 36.959181157910784], [28.341592606363207, 36.95882183179714], [28.341772269420034, 36.95882183179714]], [[28.337999345226706, 36.95864216874031], [28.337999345226706, 36.95882183179714], [28.337819682169908, 36.95882183179714], [28.337819682169908, 36.95864216874031], [28.337999345226706, 36.95864216874031]], [[28.339077323567665, 36.95864216874031], [28.339077323567665, 36.95882183179714], [28.33889766051084, 36.95882183179714], [28.33889766051084, 36.95864216874031], [28.339077323567665, 36.95864216874031]], [[28.3408739541359, 36.95864216874031], [28.3408739541359, 36.95882183179714], [28.340694291079075, 36.95882183179714], [28.340694291079075, 36.95864216874031], [28.3408739541359, 36.95864216874031]], [[28.344826541386027, 36.95864216874031], [28.344826541386027, 36.95882183179714], [28.344467215272374, 36.95882183179714], [28.344467215272374, 36.95864216874031], [28.344826541386027, 36.95864216874031]], [[28.340514628022248, 36.958282842626666], [28.340514628022248, 36.95846250568349], [28.34033496496542, 36.95846250568349], [28.34033496496542, 36.958282842626666], [28.340514628022248, 36.958282842626666]], [[28.342131595533658, 36.95792351651302], [28.342131595533658, 36.95810317956984], [28.341772269420034, 36.95810317956984], [28.341772269420034, 36.95792351651302], [28.342131595533658, 36.95792351651302]], [[28.342670584704138, 36.95792351651302], [28.342670584704138, 36.958282842626666], [28.34249092164731, 36.958282842626666], [28.34249092164731, 36.95792351651302], [28.342670584704138, 36.95792351651302]], [[28.343928226101895, 36.95792351651302], [28.343928226101895, 36.958282842626666], [28.34356889998827, 36.958282842626666], [28.34356889998827, 36.95810317956984], [28.343748563045096, 36.95810317956984], [28.343748563045096, 36.95792351651302], [28.343928226101895, 36.95792351651302]], [[28.34410788915872, 36.95774385345619], [28.34410788915872, 36.95792351651302], [28.343928226101895, 36.95792351651302], [28.343928226101895, 36.95774385345619], [28.34410788915872, 36.95774385345619]], [[28.34302991081779, 36.957564190399374], [28.34302991081779, 36.95774385345619], [28.342850247760964, 36.95774385345619], [28.342850247760964, 36.95792351651302], [28.342670584704138, 36.95792351651302], [28.342670584704138, 36.957564190399374], [28.34302991081779, 36.957564190399374]], [[28.344287552215548, 36.957564190399374], [28.344287552215548, 36.95774385345619], [28.34410788915872, 36.95774385345619], [28.34410788915872, 36.957564190399374], [28.344287552215548, 36.957564190399374]], [[28.34141294330638, 36.95720486428572], [28.34141294330638, 36.95738452734255], [28.341592606363207, 36.95738452734255], [28.341592606363207, 36.957564190399374], [28.34141294330638, 36.957564190399374], [28.34141294330638, 36.95774385345619], [28.341233280249554, 36.95774385345619], [28.341233280249554, 36.95792351651302], [28.3408739541359, 36.95792351651302], [28.3408739541359, 36.95810317956984], [28.340694291079075, 36.95810317956984], [28.340694291079075, 36.958282842626666], [28.340514628022248, 36.958282842626666], [28.340514628022248, 36.95810317956984], [28.34033496496542, 36.95810317956984], [28.34033496496542, 36.95792351651302], [28.340155301908595, 36.95792351651302], [28.340155301908595, 36.95810317956984], [28.33997563885177, 36.95810317956984], [28.33997563885177, 36.958282842626666], [28.33979597579497, 36.958282842626666], [28.33979597579497, 36.95792351651302], [28.33997563885177, 36.95792351651302], [28.33997563885177, 36.95774385345619], [28.340155301908595, 36.95774385345619], [28.340155301908595, 36.957564190399374], [28.34033496496542, 36.957564190399374], [28.34033496496542, 36.95774385345619], [28.340694291079075, 36.95774385345619], [28.340694291079075, 36.957564190399374], [28.3408739541359, 36.957564190399374], [28.3408739541359, 36.95774385345619], [28.341053617192728, 36.95774385345619], [28.341053617192728, 36.957564190399374], [28.341233280249554, 36.957564190399374], [28.341233280249554, 36.95720486428572], [28.34141294330638, 36.95720486428572]], [[28.341772269420034, 36.95720486428572], [28.341772269420034, 36.95738452734255], [28.341592606363207, 36.95738452734255], [28.341592606363207, 36.95720486428572], [28.341772269420034, 36.95720486428572]], [[28.342311258590485, 36.95720486428572], [28.342311258590485, 36.95738452734255], [28.342131595533658, 36.95738452734255], [28.342131595533658, 36.95720486428572], [28.342311258590485, 36.95720486428572]], [[28.34410788915872, 36.95720486428572], [28.34410788915872, 36.95738452734255], [28.343928226101895, 36.95738452734255], [28.343928226101895, 36.95720486428572], [28.34410788915872, 36.95720486428572]], [[28.347701150295222, 36.95864216874031], [28.347701150295222, 36.95882183179714], [28.347521487238396, 36.95882183179714], [28.347521487238396, 36.95864216874031], [28.347701150295222, 36.95864216874031]], [[28.347162161124743, 36.95810317956984], [28.347162161124743, 36.958282842626666], [28.346982498067916, 36.958282842626666], [28.346982498067916, 36.95810317956984], [28.347162161124743, 36.95810317956984]], [[28.34626384584061, 36.95792351651302], [28.34626384584061, 36.95810317956984], [28.346084182783784, 36.95810317956984], [28.346084182783784, 36.95792351651302], [28.34626384584061, 36.95792351651302]], [[28.347521487238396, 36.95774385345619], [28.347521487238396, 36.95792351651302], [28.347701150295222, 36.95792351651302], [28.347701150295222, 36.95810317956984], [28.347162161124743, 36.95810317956984], [28.347162161124743, 36.95774385345619], [28.347521487238396, 36.95774385345619]], [[28.3408739541359, 36.9570252012289], [28.3408739541359, 36.95738452734255], [28.340694291079075, 36.95738452734255], [28.340694291079075, 36.9570252012289], [28.3408739541359, 36.9570252012289]], [[28.34626384584061, 36.9570252012289], [28.34626384584061, 36.95720486428572], [28.346084182783784, 36.95720486428572], [28.346084182783784, 36.9570252012289], [28.34626384584061, 36.9570252012289]], [[28.343389236931444, 36.956845538172075], [28.343389236931444, 36.9570252012289], [28.343209573874617, 36.9570252012289], [28.343209573874617, 36.956845538172075], [28.343389236931444, 36.956845538172075]], [[28.340694291079075, 36.95666587511525], [28.340694291079075, 36.956845538172075], [28.340514628022248, 36.956845538172075], [28.340514628022248, 36.95666587511525], [28.340694291079075, 36.95666587511525]], [[28.345365530556506, 36.95666587511525], [28.345365530556506, 36.956845538172075], [28.345006204442853, 36.956845538172075], [28.345006204442853, 36.95666587511525], [28.345365530556506, 36.95666587511525]], [[28.346084182783784, 36.95666587511525], [28.346084182783784, 36.956845538172075], [28.345904519726957, 36.956845538172075], [28.345904519726957, 36.95666587511525], [28.346084182783784, 36.95666587511525]], [[28.34410788915872, 36.95648621205843], [28.34410788915872, 36.956845538172075], [28.34356889998827, 36.956845538172075], [28.34356889998827, 36.95666587511525], [28.343748563045096, 36.95666587511525], [28.343748563045096, 36.95648621205843], [28.34410788915872, 36.95648621205843]], [[28.345545193613333, 36.95648621205843], [28.345545193613333, 36.95666587511525], [28.345365530556506, 36.95666587511525], [28.345365530556506, 36.95648621205843], [28.345545193613333, 36.95648621205843]], [[28.3446468783292, 36.9563065490016], [28.3446468783292, 36.95648621205843], [28.344467215272374, 36.95648621205843], [28.344467215272374, 36.9563065490016], [28.3446468783292, 36.9563065490016]], [[28.346443508897437, 36.95612688594478], [28.346443508897437, 36.95648621205843], [28.34626384584061, 36.95648621205843], [28.34626384584061, 36.95666587511525], [28.346084182783784, 36.95666587511525], [28.346084182783784, 36.9563065490016], [28.34626384584061, 36.9563065490016], [28.34626384584061, 36.95612688594478], [28.346443508897437, 36.95612688594478]], [[28.34626384584061, 36.95594722288796], [28.34626384584061, 36.95612688594478], [28.346084182783784, 36.95612688594478], [28.346084182783784, 36.95594722288796], [28.34626384584061, 36.95594722288796]]]}, "id": "+1159638+261852", "properties": {"area_ha": 63.74965413096406, "count": 1999, "label": 1, "mean_dnbr": 1.1328909818882664}}, {"type": "Feature", "geometry": {"geodesic": false, "type": "Polygon", "coordinates": [[[28.34518586749968, 37.04308380544755], [28.345904519726957, 37.04308380544755], [28.345904519726957, 37.04326346850437], [28.346084182783784, 37.04326346850437], [28.346084182783784, 37.0434431315612], [28.34626384584061, 37.0434431315612], [28.34626384584061, 37.04380245767484], [28.346443508897437, 37.04380245767484], [28.346443508897437, 37.04398212073167], [28.34680283501109, 37.04398212073167], [28.34680283501109, 37.04380245767484], [28.34734182418157, 37.04380245767484], [28.34734182418157, 37.043622794618024], [28.347521487238396, 37.043622794618024], [28.347521487238396, 37.0434431315612], [28.348599465579326, 37.0434431315612], [28.348599465579326, 37.043622794618024], [28.348779128636153, 37.043622794618024], [28.348779128636153, 37.04380245767484], [28.348599465579326, 37.04380245767484], [28.348599465579326, 37.04398212073167], [28.348779128636153, 37.04398212073167], [28.348779128636153, 37.04416178378849], [28.348599465579326, 37.04416178378849], [28.348599465579326, 37.044341446845316], [28.34680283501109, 37.044341446845316], [28.34680283501109, 37.04416178378849], [28.346443508897437, 37.04416178378849], [28.346443508897437, 37.044341446845316], [28.34518586749968, 37.044341446845316], [28.34518586749968, 37.04470077295896], [28.345006204442853, 37.04470077295896], [28.345006204442853, 37.04488043601579], [28.344826541386027, 37.04488043601579], [28.344826541386027, 37.045060099072614], [28.3446468783292, 37.045060099072614], [28.3446468783292, 37.04488043601579], [28.344467215272374, 37.04488043601579], [28.344467215272374, 37.04398212073167], [28.3446468783292, 37.04398212073167], [28.3446468783292, 37.0434431315612], [28.344826541386027, 37.0434431315612], [28.344826541386027, 37.04326346850437], [28.34518586749968, 37.04326346850437], [28.34518586749968, 37.04308380544755]]]}, "id": "+1159647+261360", "properties": {"area_ha": 3.82267742177837, "count": 120, "label": 1, "mean_dnbr": 0.303508865197133}}, {"type": "Feature", "geometry": {"geodesic": false, "type": "Polygon", "coordinates": [[[28.346982498067916, 37.0351786309473], [28.347521487238396, 37.0351786309473], [28.347521487238396, 37.03535829400412], [28.347701150295222, 37.03535829400412], [28.347701150295222, 37.03571762011777], [28.347521487238396, 37.03571762011777], [28.347521487238396, 37.03589728317459], [28.347701150295222, 37.03589728317459], [28.347701150295222, 37.03607694623142], [28.34788081335202, 37.03607694623142], [28.34788081335202, 37.03751425068601], [28.347701150295222, 37.03751425068601], [28.347701150295222, 37.037693913742835], [28.34680283501109, 37.037693913742835], [28.34680283501109, 37.03751425068601], [28.346443508897437, 37.03751425068601], [28.346443508897437, 37.037693913742835], [28.346084182783784, 37.037693913742835], [28.346084182783784, 37.037873576799655], [28.34572485667016, 37.037873576799655], [28.34572485667016, 37.037693913742835], [28.345545193613333, 37.037693913742835], [28.345545193613333, 37.03751425068601], [28.34518586749968, 37.03751425068601], [28.34518586749968, 37.037693913742835], [28.345006204442853, 37.037693913742835], [28.345006204442853, 37.03751425068601], [28.344826541386027, 37.03751425068601], [28.344826541386027, 37.03733458762918], [28.345006204442853, 37.03733458762918], [28.345006204442853, 37.036975261515536], [28.34518586749968, 37.036975261515536], [28.34518586749968, 37.03679559845871], [28.345545193613333, 37.03679559845871], [28.345545193613333, 37.03661593540189], [28.345904519726957, 37.03661593540189], [28.345904519726957, 37.03679559845871], [28.346084182783784, 37.03679559845871], [28.346084182783784, 37.036975261515536], [28.346623171954263, 37.036975261515536], [28.346623171954263, 37.03679559845871], [28.34680283501109, 37.03679559845871], [28.34680283501109, 37.03661593540189], [28.346982498067916, 37.03661593540189], [28.346982498067916, 37.036436272345064], [28.34734182418157, 37.036436272345064], [28.34734182418157, 37.03625660928824], [28.347162161124743, 37.03625660928824], [28.347162161124743, 37.03607694623142], [28.346982498067916, 37.03607694623142], [28.346982498067916, 37.03589728317459], [28.347162161124743, 37.03589728317459], [28.347162161124743, 37.03571762011777], [28.346982498067916, 37.03571762011777], [28.346982498067916, 37.035537957060946], [28.34680283501109, 37.035537957060946], [28.34680283501109, 37.03535829400412], [28.346982498067916, 37.03535829400412], [28.346982498067916, 37.0351786309473]]]}, "id": "+1159656+261404", "properties": {"area_ha": 3.5681614883332244, "count": 112, "label": 1, "mean_dnbr": 0.30996791509406313}}, {"type": "Feature", "geometry": {"geodesic": false, "type": "Polygon", "coordinates": [[[28.354528346454515, 37.02924975007211], [28.355426661738647, 37.02924975007211], [28.355426661738647, 37.02942941312893], [28.355606324795474, 37.02942941312893], [28.355606324795474, 37.02960907618576], [28.3559656509091, 37.02960907618576], [28.3559656509091, 37.02978873924258], [28.356504640079578, 37.02978873924258], [28.356504640079578, 37.02960907618576], [28.35686396619323, 37.02960907618576], [28.35686396619323, 37.02942941312893], [28.357223292306884, 37.02942941312893], [28.357223292306884, 37.02960907618576], [28.35740295536371, 37.02960907618576], [28.35740295536371, 37.02942941312893], [28.357582618420537, 37.02942941312893], [28.357582618420537, 37.02960907618576], [28.357762281477335, 37.02960907618576], [28.357762281477335, 37.0299684022994], [28.35848093370464, 37.0299684022994], [28.35848093370464, 37.03014806535623], [28.358660596761467, 37.03014806535623], [28.358660596761467, 37.03032772841305], [28.35848093370464, 37.03032772841305], [28.35848093370464, 37.030507391469875], [28.357043629250057, 37.030507391469875], [28.357043629250057, 37.0306870545267], [28.355785987852272, 37.0306870545267], [28.355785987852272, 37.03086671758352], [28.355426661738647, 37.03086671758352], [28.355426661738647, 37.0306870545267], [28.35524699868182, 37.0306870545267], [28.35524699868182, 37.030507391469875], [28.355067335624994, 37.030507391469875], [28.355067335624994, 37.03032772841305], [28.354887672568168, 37.03032772841305], [28.354887672568168, 37.03014806535623], [28.354528346454515, 37.03014806535623], [28.354528346454515, 37.0299684022994], [28.35434868339769, 37.0299684022994], [28.35434868339769, 37.02978873924258], [28.354169020340862, 37.02978873924258], [28.354169020340862, 37.02960907618576], [28.353989357284036, 37.02960907618576], [28.353989357284036, 37.02942941312893], [28.354169020340862, 37.02942941312893], [28.354169020340862, 37.02924975007211], [28.35434868339769, 37.02924975007211], [28.35434868339769, 37.02942941312893], [28.354528346454515, 37.02942941312893], [28.354528346454515, 37.02924975007211]]]}, "id": "+1159700+261437", "properties": {"area_ha": 4.078267374213849, "count": 128, "label": 1, "mean_dnbr": 0.2614972913975409}}, {"type": "Feature", "geometry": {"geodesic": false, "type": "Polygon", "coordinates": [[[28.354887672568168, 37.034280315663175], [28.3559656509091, 37.034280315663175], [28.3559656509091, 37.03445997872], [28.356145313965925, 37.03445997872], [28.356145313965925, 37.03481930483365], [28.35632497702275, 37.03481930483365], [28.35632497702275, 37.03499896789047], [28.356504640079578, 37.03499896789047], [28.356504640079578, 37.0351786309473], [28.35632497702275, 37.0351786309473], [28.35632497702275, 37.03535829400412], [28.355785987852272, 37.03535829400412], [28.355785987852272, 37.035537957060946], [28.3559656509091, 37.035537957060946], [28.3559656509091, 37.03571762011777], [28.35632497702275, 37.03571762011777], [28.35632497702275, 37.03589728317459], [28.356504640079578, 37.03589728317459], [28.356504640079578, 37.03607694623142], [28.356684303136404, 37.03607694623142], [28.356684303136404, 37.03589728317459], [28.35686396619323, 37.03589728317459], [28.35686396619323, 37.03607694623142], [28.357223292306884, 37.03607694623142], [28.357223292306884, 37.03589728317459], [28.35740295536371, 37.03589728317459], [28.35740295536371, 37.03571762011777], [28.357762281477335, 37.03571762011777], [28.357762281477335, 37.03589728317459], [28.35794194453416, 37.03589728317459], [28.35794194453416, 37.03607694623142], [28.358121607590988, 37.03607694623142], [28.358121607590988, 37.036436272345064], [28.358301270647814, 37.036436272345064], [28.358301270647814, 37.03661593540189], [28.35848093370464, 37.03661593540189], [28.35848093370464, 37.037693913742835], [28.358301270647814, 37.037693913742835], [28.358301270647814, 37.037873576799655], [28.358121607590988, 37.037873576799655], [28.358121607590988, 37.037693913742835], [28.35794194453416, 37.037693913742835], [28.35794194453416, 37.03751425068601], [28.357762281477335, 37.03751425068601], [28.357762281477335, 37.03715492457236], [28.35740295536371, 37.03715492457236], [28.35740295536371, 37.036975261515536], [28.357223292306884, 37.036975261515536], [28.357223292306884, 37.03679559845871], [28.357043629250057, 37.03679559845871], [28.357043629250057, 37.03661593540189], [28.35686396619323, 37.03661593540189], [28.35686396619323, 37.036436272345064], [28.356684303136404, 37.036436272345064], [28.356684303136404, 37.03625660928824], [28.356504640079578, 37.03625660928824], [28.356504640079578, 37.036436272345064], [28.35632497702275, 37.036436272345064], [28.35632497702275, 37.03625660928824], [28.3559656509091, 37.03625660928824], [28.3559656509091, 37.036436272345064], [28.355785987852272, 37.036436272345064], [28.355785987852272, 37.03661593540189], [28.355606324795474, 37.03661593540189], [28.355606324795474, 37.03679559845871], [28.355426661738647, 37.03679559845871], [28.355426661738647, 37.03661593540189], [28.35524699868182, 37.03661593540189], [28.35524699868182, 37.036436272345064], [28.355067335624994, 37.036436272345064], [28.355067335624994, 37.03589728317459], [28.35524699868182, 37.03589728317459], [28.35524699868182, 37.03571762011777], [28.355426661738647, 37.03571762011777], [28.355426661738647, 37.035537957060946], [28.355606324795474, 37.035537957060946], [28.355606324795474, 37.03535829400412], [28.355426661738647, 37.03535829400412], [28.355426661738647, 37.0351786309473], [28.354887672568168, 37.0351786309473], [28.354887672568168, 37.03499896789047], [28.35470800951134, 37.03499896789047], [28.35470800951134, 37.03445997872], [28.354887672568168, 37.03445997872], [28.354887672568168, 37.034280315663175]], [[28.3559656509091, 37.03607694623142], [28.3559656509091, 37.03625660928824], [28.355785987852272, 37.03625660928824], [28.355785987852272, 37.03607694623142], [28.3559656509091, 37.03607694623142]]]}, "id": "+1159703+261409", "properties": {"area_ha": 4.6195488871805646, "count": 145, "label": 1, "mean_dnbr": 0.3018284297668825}}, {"type": "Feature", "geometry": {"geodesic": false, "type": "Polygon", "coordinates": [[[28.363511499295726, 37.026195478106104], [28.363691162352524, 37.026195478106104], [28.363691162352524, 37.02637514116292], [28.36387082540935, 37.02637514116292], [28.36387082540935, 37.026734467276576], [28.364050488466177, 37.026734467276576], [28.364050488466177, 37.026914130333395], [28.364230151523003, 37.026914130333395], [28.364230151523003, 37.02853109784481], [28.36440981457983, 37.02853109784481], [28.36440981457983, 37.02889042395846], [28.364230151523003, 37.02889042395846], [28.364230151523003, 37.029070087015285], [28.364050488466177, 37.029070087015285], [28.364050488466177, 37.02942941312893], [28.36387082540935, 37.02942941312893], [28.36387082540935, 37.02960907618576], [28.3633318362389, 37.02960907618576], [28.3633318362389, 37.02942941312893], [28.363152173182073, 37.02942941312893], [28.363152173182073, 37.029070087015285], [28.36279284706842, 37.029070087015285], [28.36279284706842, 37.02889042395846], [28.362613184011593, 37.02889042395846], [28.362613184011593, 37.02853109784481], [28.362433520954767, 37.02853109784481], [28.362433520954767, 37.02781244561752], [28.362613184011593, 37.02781244561752], [28.362613184011593, 37.027632782560694], [28.36279284706842, 37.027632782560694], [28.36279284706842, 37.02781244561752], [28.363152173182073, 37.02781244561752], [28.363152173182073, 37.02799210867434], [28.363511499295726, 37.02799210867434], [28.363511499295726, 37.027632782560694], [28.363691162352524, 37.027632782560694], [28.363691162352524, 37.02745311950387], [28.363511499295726, 37.02745311950387], [28.363511499295726, 37.02655480421975], [28.3633318362389, 37.02655480421975], [28.3633318362389, 37.02637514116292], [28.363511499295726, 37.02637514116292], [28.363511499295726, 37.026195478106104]]]}, "id": "+1159746+261454", "properties": {"area_ha": 3.4411194344524016, "count": 108, "label": 1, "mean_dnbr": 0.2836936158169465}}, {"type": "Feature", "geometry": {"geodesic": false, "type": "Polygon", "coordinates": [[[28.368362401829955, 36.95055733118324], [28.36872172794361, 36.95055733118324], [28.36872172794361, 36.95073699424006], [28.368901391000435, 36.95073699424006], [28.368901391000435, 36.95109632035371], [28.36872172794361, 36.95109632035371], [28.36872172794361, 36.95145564646736], [28.368542064886782, 36.95145564646736], [28.368542064886782, 36.951635309524185], [28.36872172794361, 36.951635309524185], [28.36872172794361, 36.951814972581005], [28.368542064886782, 36.951814972581005], [28.368542064886782, 36.95199463563783], [28.36818273877313, 36.95199463563783], [28.36818273877313, 36.951814972581005], [28.368003075716302, 36.951814972581005], [28.368003075716302, 36.95199463563783], [28.367823412659476, 36.95199463563783], [28.367823412659476, 36.95217429869465], [28.368003075716302, 36.95217429869465], [28.368003075716302, 36.95235396175148], [28.36818273877313, 36.95235396175148], [28.36818273877313, 36.95271328786512], [28.368003075716302, 36.95271328786512], [28.368003075716302, 36.95289295092195], [28.36818273877313, 36.95289295092195], [28.36818273877313, 36.953252277035595], [28.368003075716302, 36.953252277035595], [28.368003075716302, 36.95343194009242], [28.367823412659476, 36.95343194009242], [28.367823412659476, 36.95361160314925], [28.367284423489025, 36.95361160314925], [28.367284423489025, 36.95343194009242], [28.3671047604322, 36.95343194009242], [28.3671047604322, 36.953252277035595], [28.366925097375372, 36.953252277035595], [28.366925097375372, 36.95343194009242], [28.366386108204892, 36.95343194009242], [28.366386108204892, 36.953252277035595], [28.36602678209124, 36.953252277035595], [28.36602678209124, 36.95343194009242], [28.365847119034413, 36.95343194009242], [28.365847119034413, 36.953252277035595], [28.365667455977587, 36.953252277035595], [28.365667455977587, 36.95289295092195], [28.365847119034413, 36.95289295092195], [28.365847119034413, 36.95271328786512], [28.36602678209124, 36.95271328786512], [28.36602678209124, 36.95289295092195], [28.366206445148066, 36.95289295092195], [28.366206445148066, 36.95271328786512], [28.366386108204892, 36.95271328786512], [28.366386108204892, 36.952533624808304], [28.36656577126172, 36.952533624808304], [28.36656577126172, 36.95235396175148], [28.366745434318545, 36.95235396175148], [28.366745434318545, 36.95217429869465], [28.366925097375372, 36.95217429869465], [28.366925097375372, 36.95235396175148], [28.3671047604322, 36.95235396175148], [28.3671047604322, 36.952533624808304], [28.366925097375372, 36.952533624808304], [28.366925097375372, 36.95271328786512], [28.3671047604322, 36.95271328786512], [28.3671047604322, 36.95289295092195], [28.367284423489025, 36.95289295092195], [28.367284423489025, 36.95271328786512], [28.36746408654585, 36.95271328786512], [28.36746408654585, 36.952533624808304], [28.36764374960265, 36.952533624808304], [28.36764374960265, 36.95235396175148], [28.367823412659476, 36.95235396175148], [28.367823412659476, 36.95217429869465], [28.36746408654585, 36.95217429869465], [28.36746408654585, 36.95199463563783], [28.367284423489025, 36.95199463563783], [28.367284423489025, 36.951814972581005], [28.36746408654585, 36.951814972581005], [28.36746408654585, 36.951635309524185], [28.367823412659476, 36.951635309524185], [28.367823412659476, 36.951814972581005], [28.368003075716302, 36.951814972581005], [28.368003075716302, 36.951635309524185], [28.36818273877313, 36.951635309524185], [28.36818273877313, 36.95127598341053], [28.368003075716302, 36.95127598341053], [28.368003075716302, 36.95145564646736], [28.367823412659476, 36.95145564646736], [28.367823412659476, 36.95127598341053], [28.36764374960265, 36.95127598341053], [28.36764374960265, 36.95091665729689], [28.367823412659476, 36.95091665729689], [28.367823412659476, 36.95073699424006], [28.368003075716302, 36.95073699424006], [28.368003075716302, 36.95055733118324], [28.36818273877313, 36.95055733118324], [28.36818273877313, 36.95073699424006], [28.368362401829955, 36.95073699424006], [28.368362401829955, 36.95055733118324]]]}, "id": "+1159774+261875", "properties": {"area_ha": 3.4126601648549464, "count": 107, "label": 1, "mean_dnbr": 0.32805847577686625}}, {"type": "Feature", "geometry": {"geodesic": false, "type": "Polygon", "coordinates": [[[28.36818273877313, 37.03032772841305], [28.369440380170914, 37.03032772841305], [28.369440380170914, 37.030507391469875], [28.369620043227712, 37.030507391469875], [28.369620043227712, 37.0306870545267], [28.36979970628454, 37.0306870545267], [28.36979970628454, 37.03086671758352], [28.370159032398192, 37.03086671758352], [28.370159032398192, 37.0306870545267], [28.37033869545502, 37.0306870545267], [28.37033869545502, 37.03086671758352], [28.370518358511845, 37.03086671758352], [28.370518358511845, 37.03104638064035], [28.37033869545502, 37.03104638064035], [28.37033869545502, 37.031226043697174], [28.370159032398192, 37.031226043697174], [28.370159032398192, 37.03140570675399], [28.36818273877313, 37.03140570675399], [28.36818273877313, 37.03158536981082], [28.3671047604322, 37.03158536981082], [28.3671047604322, 37.031765032867646], [28.36656577126172, 37.031765032867646], [28.36656577126172, 37.03248368509494], [28.367284423489025, 37.03248368509494], [28.367284423489025, 37.032663348151765], [28.36746408654585, 37.032663348151765], [28.36746408654585, 37.033382000379056], [28.367284423489025, 37.033382000379056], [28.367284423489025, 37.03356166343588], [28.366925097375372, 37.03356166343588], [28.366925097375372, 37.033382000379056], [28.366745434318545, 37.033382000379056], [28.366745434318545, 37.03320233732224], [28.36656577126172, 37.03320233732224], [28.36656577126172, 37.032843011208584], [28.36548779292079, 37.032843011208584], [28.36548779292079, 37.032663348151765], [28.365128466807136, 37.032663348151765], [28.365128466807136, 37.03248368509494], [28.36494880375031, 37.03248368509494], [28.36494880375031, 37.03212435898129], [28.364769140693483, 37.03212435898129], [28.364769140693483, 37.031944695924466], [28.36494880375031, 37.031944695924466], [28.36494880375031, 37.03158536981082], [28.364769140693483, 37.03158536981082], [28.364769140693483, 37.031226043697174], [28.364589477636656, 37.031226043697174], [28.364589477636656, 37.03104638064035], [28.36440981457983, 37.03104638064035], [28.36440981457983, 37.03086671758352], [28.364589477636656, 37.03086671758352], [28.364589477636656, 37.0306870545267], [28.364769140693483, 37.0306870545267], [28.364769140693483, 37.03086671758352], [28.36494880375031, 37.03086671758352], [28.36494880375031, 37.03104638064035], [28.365308129863962, 37.03104638064035], [28.365308129863962, 37.031226043697174], [28.365667455977587, 37.031226043697174], [28.365667455977587, 37.03104638064035], [28.366206445148066, 37.03104638064035], [28.366206445148066, 37.03086671758352], [28.366925097375372, 37.03086671758352], [28.366925097375372, 37.0306870545267], [28.3671047604322, 37.0306870545267], [28.3671047604322, 37.030507391469875], [28.36818273877313, 37.030507391469875], [28.36818273877313, 37.03032772841305]]]}, "id": "+1159778+261431", "properties": {"area_ha": 7.423571898977685, "count": 233, "label": 1, "mean_dnbr": 0.3205449523235578}}, {"type": "Feature", "geometry": {"geodesic": false, "type": "Polygon", "coordinates": [[[28.379142185239402, 37.03158536981082], [28.37932184829623, 37.03158536981082], [28.37932184829623, 37.031765032867646], [28.379501511353027, 37.031765032867646], [28.379501511353027, 37.03212435898129], [28.379681174409853, 37.03212435898129], [28.379681174409853, 37.03230402203811], [28.37986083746668, 37.03230402203811], [28.37986083746668, 37.03248368509494], [28.379681174409853, 37.03248368509494], [28.379681174409853, 37.032663348151765], [28.379142185239402, 37.032663348151765], [28.379142185239402, 37.032843011208584], [28.377525217727964, 37.032843011208584], [28.377525217727964, 37.03302267426541], [28.377345554671166, 37.03302267426541], [28.377345554671166, 37.032843011208584], [28.376806565500686, 37.032843011208584], [28.376806565500686, 37.03302267426541], [28.37662690244386, 37.03302267426541], [28.37662690244386, 37.03320233732224], [28.376267576330207, 37.03320233732224], [28.376267576330207, 37.03302267426541], [28.375908250216554, 37.03302267426541], [28.375908250216554, 37.03320233732224], [28.3755489241029, 37.03320233732224], [28.3755489241029, 37.033382000379056], [28.375189597989277, 37.033382000379056], [28.375189597989277, 37.03320233732224], [28.37500993493245, 37.03320233732224], [28.37500993493245, 37.03302267426541], [28.375189597989277, 37.03302267426541], [28.375189597989277, 37.032843011208584], [28.375369261046103, 37.032843011208584], [28.375369261046103, 37.032663348151765], [28.3755489241029, 37.032663348151765], [28.3755489241029, 37.03248368509494], [28.375728587159728, 37.03248368509494], [28.375728587159728, 37.032663348151765], [28.375908250216554, 37.032663348151765], [28.375908250216554, 37.032843011208584], [28.376267576330207, 37.032843011208584], [28.376267576330207, 37.03248368509494], [28.376447239387034, 37.03248368509494], [28.376447239387034, 37.03230402203811], [28.376806565500686, 37.03230402203811], [28.376806565500686, 37.03212435898129], [28.37716589161434, 37.03212435898129], [28.37716589161434, 37.03230402203811], [28.377345554671166, 37.03230402203811], [28.377345554671166, 37.03212435898129], [28.37770488078479, 37.03212435898129], [28.37770488078479, 37.031944695924466], [28.378603196068923, 37.031944695924466], [28.378603196068923, 37.031765032867646], [28.379142185239402, 37.031765032867646], [28.379142185239402, 37.03158536981082]]]}, "id": "+1159833+261424", "properties": {"area_ha": 3.4409262024432334, "count": 108, "label": 1, "mean_dnbr": 0.30361612982940495}}]}