{"type": "FeatureCollection", "columns": {"area_ha": "Number", "count": "Long<0, 4294967295>", "label": "Byte<0, 1>", "mean_dnbr": "Object", "system:index": "String"}, "features": [{"type": "Feature", "geometry": {"geodesic": false, "type": "Polygon", "coordinates": [[[27.952801751396265, 37.018110640549025], [27.953340740566745, 37.018110640549025], [27.953340740566745, 37.01829030360585], [27.95423905585085, 37.01829030360585], [27.95423905585085, 37.01846996666267], [27.954418718907675, 37.01846996666267], [27.954418718907675, 37.018829292776324], [27.9545983819645, 37.018829292776324], [27.9545983819645, 37.01972760806044], [27.954418718907675, 37.01972760806044], [27.954418718907675, 37.01990727111727], [27.95352040362357, 37.01990727111727], [27.95352040362357, 37.01972760806044], [27.95262208833944, 37.01972760806044], [27.95262208833944, 37.019547945003616], [27.952442425282612, 37.019547945003616], [27.952442425282612, 37.0193682819468], [27.95262208833944, 37.0193682819468], [27.95262208833944, 37.01918861888997], [27.952442425282612, 37.01918861888997], [27.952442425282612, 37.018829292776324], [27.95262208833944, 37.018829292776324], [27.95262208833944, 37.01829030360585], [27.952801751396265, 37.01829030360585], [27.952801751396265, 37.018110640549025]]]}, "id": "+1157462+261499", "properties": {"area_ha": 3.027275273241596, "count": 95, "label": 1, "mean_dnbr": 0.3311928120444351}}, {"type": "Feature", "geometry": {"geodesic": false, "type": "Polygon", "coordinates": [[[28.342311258590485, 37.04775504492497], [28.34249092164731, 37.04775504492497], [28.34249092164731, 37.047934707981796], [28.343209573874617, 37.047934707981796], [28.343209573874617, 37.048114371038615], [28.34410788915872, 37.048114371038615], [28.34410788915872, 37.04829403409544], [28.344826541386027, 37.04829403409544], [28.344826541386027, 37.04847369715227], [28.345006204442853, 37.04847369715227], [28.345006204442853, 37.048833023265914], [28.344826541386027, 37.048833023265914], [28.344826541386027, 37.04919234937956], [28.345006204442853, 37.04919234937956], [28.345006204442853, 37.049372012436386], [28.34518586749968, 37.049372012436386], [28.34518586749968, 37.04955167549321], [28.345006204442853, 37.04955167549321], [28.345006204442853, 37.04973133855003], [28.344826541386027, 37.04973133855003], [28.344826541386027, 37.04955167549321], [28.344287552215548, 37.04955167549321], [28.344287552215548, 37.04973133855003], [28.34410788915872, 37.04973133855003], [28.34410788915872, 37.04955167549321], [28.343928226101895, 37.04955167549321], [28.343928226101895, 37.049372012436386], [28.34302991081779, 37.049372012436386], [28.34302991081779, 37.04919234937956], [28.342850247760964, 37.04919234937956], [28.342850247760964, 37.049372012436386], [28.342670584704138, 37.049372012436386], [28.342670584704138, 37.04955167549321], [28.34249092164731, 37.04955167549321], [28.34249092164731, 37.049372012436386], [28.342311258590485, 37.049372012436386], [28.342311258590485, 37.04901268632274], [28.342131595533658, 37.04901268632274], [28.342131595533658, 37.048833023265914], [28.34195193247683, 37.048833023265914], [28.34195193247683, 37.04865336020909], [28.342131595533658, 37.04865336020909], [28.342131595533658, 37.047934707981796], [28.342311258590485, 37.047934707981796], [28.342311258590485, 37.04775504492497]]]}, "id": "+1159628+261334", "properties": {"area_ha": 3.7905759549415277, "count": 119, "label": 1, "mean_dnbr": 0.3311112339302027}}, {"type": "Feature", "geometry": {"geodesic": false, "type": "Polygon", "coordinates": [[[28.342131595533658, 37.036436272345064], [28.343748563045096, 37.036436272345064], [28.343748563045096, 37.03661593540189], [28.343928226101895, 37.03661593540189], [28.343928226101895, 37.03841256597013], [28.343748563045096, 37.03841256597013], [28.343748563045096, 37.03859222902695], [28.342850247760964, 37.03859222902695], [28.342850247760964, 37.03841256597013], [28.342670584704138, 37.03841256597013], [28.342670584704138, 37.0382329029133], [28.342850247760964, 37.0382329029133], [28.342850247760964, 37.037693913742835], [28.342311258590485, 37.037693913742835], [28.342311258590485, 37.03751425068601], [28.34195193247683, 37.03751425068601], [28.34195193247683, 37.037693913742835], [28.341772269420034, 37.037693913742835], [28.341772269420034, 37.03751425068601], [28.341592606363207, 37.03751425068601], [28.341592606363207, 37.03679559845871], [28.341772269420034, 37.03679559845871], [28.341772269420034, 37.03661593540189], [28.342131595533658, 37.03661593540189], [28.342131595533658, 37.036436272345064]]]}, "id": "+1159635+261397", "properties": {"area_ha": 3.59999377382776, "count": 113, "label": 1, "mean_dnbr": 0.32615678491041333}}, {"type": "Feature", "geometry": {"geodesic": false, "type": "Polygon", "coordinates": [[[28.346982498067916, 37.0351786309473], [28.347162161124743, 37.0351786309473], [28.347162161124743, 37.03535829400412], [28.34734182418157, 37.03535829400412], [28.34734182418157, 37.035537957060946], [28.347521487238396, 37.035537957060946], [28.347521487238396, 37.03571762011777], [28.34734182418157, 37.03571762011777], [28.34734182418157, 37.03589728317459], [28.347701150295222, 37.03589728317459], [28.347701150295222, 37.03607694623142], [28.34788081335202, 37.03607694623142], [28.34788081335202, 37.03751425068601], [28.347701150295222, 37.03751425068601], [28.347701150295222, 37.037693913742835], [28.346982498067916, 37.037693913742835], [28.346982498067916, 37.03751425068601], [28.346443508897437, 37.03751425068601], [28.346443508897437, 37.037693913742835], [28.346084182783784, 37.037693913742835], [28.346084182783784, 37.037873576799655], [28.345904519726957, 37.037873576799655], [28.345904519726957, 37.037693913742835], [28.34572485667016, 37.037693913742835], [28.34572485667016, 37.03751425068601], [28.345545193613333, 37.03751425068601], [28.345545193613333, 37.03733458762918], [28.34518586749968, 37.03733458762918], [28.34518586749968, 37.03751425068601], [28.345006204442853, 37.03751425068601], [28.345006204442853, 37.03733458762918], [28.344826541386027, 37.03733458762918], [28.344826541386027, 37.03715492457236], [28.345006204442853, 37.03715492457236], [28.345006204442853, 37.036975261515536], [28.34518586749968, 37.036975261515536], [28.34518586749968, 37.03679559845871], [28.34572485667016, 37.03679559845871], [28.34572485667016, 37.03661593540189], [28.346084182783784, 37.03661593540189], [28.346084182783784, 37.03679559845871], [28.346623171954263, 37.03679559845871], [28.346623171954263, 37.03661593540189], [28.346982498067916, 37.03661593540189], [28.346982498067916, 37.036436272345064], [28.34734182418157, 37.036436272345064], [28.34734182418157, 37.03625660928824], [28.347162161124743, 37.03625660928824], [28.347162161124743, 37.03607694623142], [28.346982498067916, 37.03607694623142], [28.346982498067916, 37.03625660928824], [28.34680283501109, 37.03625660928824], [28.34680283501109, 37.03607694623142], [28.346623171954263, 37.03607694623142], [28.346623171954263, 37.03589728317459], [28.34680283501109, 37.03589728317459], [28.34680283501109, 37.03571762011777], [28.346623171954263, 37.03571762011777], [28.346623171954263, 37.035537957060946], [28.34680283501109, 37.035537957060946], [28.34680283501109, 37.03535829400412], [28.346982498067916, 37.03535829400412], [28.346982498067916, 37.0351786309473]], [[28.347162161124743, 37.03571762011777], [28.347162161124743, 37.03589728317459], [28.346982498067916, 37.03589728317459], [28.346982498067916, 37.03571762011777], [28.347162161124743, 37.03571762011777]]]}, "id": "+1159654+261404", "properties": {"area_ha": 3.5044450380503753, "count": 110, "label": 1, "mean_dnbr": 0.2935316738295826}}, {"type": "Feature", "geometry": {"geodesic": false, "type": "Polygon", "coordinates": [[[28.355426661738647, 37.035537957060946], [28.3559656509091, 37.035537957060946], [28.3559656509091, 37.03571762011777], [28.356504640079578, 37.03571762011777], [28.356504640079578, 37.03589728317459], [28.35686396619323, 37.03589728317459], [28.35686396619323, 37.03607694623142], [28.357223292306884, 37.03607694623142], [28.357223292306884, 37.03589728317459], [28.35740295536371, 37.03589728317459], [28.35740295536371, 37.03571762011777], [28.357582618420537, 37.03571762011777], [28.357582618420537, 37.03589728317459], [28.35794194453416, 37.03589728317459], [28.35794194453416, 37.03607694623142], [28.358121607590988, 37.03607694623142], [28.358121607590988, 37.036436272345064], [28.358301270647814, 37.036436272345064], [28.358301270647814, 37.03661593540189], [28.35848093370464, 37.03661593540189], [28.35848093370464, 37.03751425068601], [28.358301270647814, 37.03751425068601], [28.358301270647814, 37.037693913742835], [28.358121607590988, 37.037693913742835], [28.358121607590988, 37.03751425068601], [28.35794194453416, 37.03751425068601], [28.35794194453416, 37.03733458762918], [28.357762281477335, 37.03733458762918], [28.357762281477335, 37.03715492457236], [28.35740295536371, 37.03715492457236], [28.35740295536371, 37.036975261515536], [28.357223292306884, 37.036975261515536], [28.357223292306884, 37.036436272345064], [28.357043629250057, 37.036436272345064], [28.357043629250057, 37.03625660928824], [28.35686396619323, 37.03625660928824], [28.35686396619323, 37.036436272345064], [28.356504640079578, 37.036436272345064], [28.356504640079578, 37.03661593540189], [28.35524699868182, 37.03661593540189], [28.35524699868182, 37.036436272345064], [28.355067335624994, 37.036436272345064], [28.355067335624994, 37.03589728317459], [28.35524699868182, 37.03589728317459], [28.35524699868182, 37.03571762011777], [28.355426661738647, 37.03571762011777], [28.355426661738647, 37.035537957060946]]]}, "id": "+1159703+261402", "properties": {"area_ha": 3.1540192833575103, "count": 99, "label": 1, "mean_dnbr": 0.2855172042320106}}, {"type": "Feature", "geometry": {"geodesic": false, "type": "Polygon", "coordinates": [[[28.3633318362389, 37.026195478106104], [28.363691162352524, 37.026195478106104], [28.363691162352524, 37.02637514116292], [28.36387082540935, 37.02637514116292], [28.36387082540935, 37.02655480421975], [28.364050488466177, 37.02655480421975], [28.364050488466177, 37.026734467276576], [28.364230151523003, 37.026734467276576], [28.364230151523003, 37.028351434787986], [28.36440981457983, 37.028351434787986], [28.36440981457983, 37.02871076090164], [28.364230151523003, 37.02871076090164], [28.364230151523003, 37.02889042395846], [28.364050488466177, 37.02889042395846], [28.364050488466177, 37.02942941312893], [28.36387082540935, 37.02942941312893], [28.36387082540935, 37.02960907618576], [28.3633318362389, 37.02960907618576], [28.3633318362389, 37.02942941312893], [28.363152173182073, 37.02942941312893], [28.363152173182073, 37.02924975007211], [28.362972510125246, 37.02924975007211], [28.362972510125246, 37.029070087015285], [28.36279284706842, 37.029070087015285], [28.36279284706842, 37.02889042395846], [28.362613184011593, 37.02889042395846], [28.362613184011593, 37.02871076090164], [28.362433520954767, 37.02871076090164], [28.362433520954767, 37.02781244561752], [28.362613184011593, 37.02781244561752], [28.362613184011593, 37.027632782560694], [28.36279284706842, 37.027632782560694], [28.36279284706842, 37.02745311950387], [28.362972510125246, 37.02745311950387], [28.362972510125246, 37.027632782560694], [28.363152173182073, 37.027632782560694], [28.363152173182073, 37.02781244561752], [28.363511499295726, 37.02781244561752], [28.363511499295726, 37.026734467276576], [28.3633318362389, 37.026734467276576], [28.3633318362389, 37.02655480421975], [28.363152173182073, 37.02655480421975], [28.363152173182073, 37.02637514116292], [28.3633318362389, 37.02637514116292], [28.3633318362389, 37.026195478106104]]]}, "id": "+1159746+261454", "properties": {"area_ha": 3.8234704946467484, "count": 120, "label": 1, "mean_dnbr": 0.295287344508373}}, {"type": "Feature", "geometry": {"geodesic": false, "type": "Polygon", "coordinates": [[[28.368362401829955, 37.03032772841305], [28.369260717114088, 37.03032772841305], [28.369260717114088, 37.030507391469875], [28.369620043227712, 37.030507391469875], [28.369620043227712, 37.0306870545267], [28.36979970628454, 37.0306870545267], [28.36979970628454, 37.03086671758352], [28.370159032398192, 37.03086671758352], [28.370159032398192, 37.0306870545267], [28.370518358511845, 37.0306870545267], [28.370518358511845, 37.03086671758352], [28.37069802156867, 37.03086671758352], [28.37069802156867, 37.03104638064035], [28.370518358511845, 37.03104638064035], [28.370518358511845, 37.031226043697174], [28.370159032398192, 37.031226043697174], [28.370159032398192, 37.03140570675399], [28.36979970628454, 37.03140570675399], [28.36979970628454, 37.031226043697174], [28.369620043227712, 37.031226043697174], [28.369620043227712, 37.03104638064035], [28.369440380170914, 37.03104638064035], [28.369440380170914, 37.031226043697174], [28.369260717114088, 37.031226043697174], [28.369260717114088, 37.03140570675399], [28.368003075716302, 37.03140570675399], [28.368003075716302, 37.03158536981082], [28.3671047604322, 37.03158536981082], [28.3671047604322, 37.031765032867646], [28.36656577126172, 37.031765032867646], [28.36656577126172, 37.032663348151765], [28.366386108204892, 37.032663348151765], [28.366386108204892, 37.032843011208584], [28.36548779292079, 37.032843011208584], [28.36548779292079, 37.032663348151765], [28.365128466807136, 37.032663348151765], [28.365128466807136, 37.03248368509494], [28.36494880375031, 37.03248368509494], [28.36494880375031, 37.03158536981082], [28.364769140693483, 37.03158536981082], [28.364769140693483, 37.031226043697174], [28.364589477636656, 37.031226043697174], [28.364589477636656, 37.03104638064035], [28.36440981457983, 37.03104638064035], [28.36440981457983, 37.03086671758352], [28.364230151523003, 37.03086671758352], [28.364230151523003, 37.0306870545267], [28.36440981457983, 37.0306870545267], [28.36440981457983, 37.030507391469875], [28.36494880375031, 37.030507391469875], [28.36494880375031, 37.0306870545267], [28.365128466807136, 37.0306870545267], [28.365128466807136, 37.03086671758352], [28.36494880375031, 37.03086671758352], [28.36494880375031, 37.03104638064035], [28.366206445148066, 37.03104638064035], [28.366206445148066, 37.03086671758352], [28.366925097375372, 37.03086671758352], [28.366925097375372, 37.0306870545267], [28.3671047604322, 37.0306870545267], [28.3671047604322, 37.030507391469875], [28.36764374960265, 37.030507391469875], [28.36764374960265, 37.0306870545267], [28.367823412659476, 37.0306870545267], [28.367823412659476, 37.03086671758352], [28.368003075716302, 37.03086671758352], [28.368003075716302, 37.0306870545267], [28.36818273877313, 37.0306870545267], [28.36818273877313, 37.030507391469875], [28.368362401829955, 37.030507391469875], [28.368362401829955, 37.03032772841305]], [[28.36494880375031, 37.03104638064035], [28.36494880375031, 37.031226043697174], [28.364769140693483, 37.031226043697174], [28.364769140693483, 37.03104638064035], [28.36494880375031, 37.03104638064035]]]}, "id": "+1159777+261431", "properties": {"area_ha": 6.563342042872505, "count": 206, "label": 1, "mean_dnbr": 0.34408725017057173}}, {"type": "Feature", "geometry": {"geodesic": false, "type": "Polygon", "coordinates": [[[28.37069802156867, 36.79622676537151], [28.370877684625498, 36.79622676537151], [28.370877684625498, 36.79640642842833], [28.371057347682324, 36.79640642842833], [28.371057347682324, 36.79658609148515], [28.37123701073915, 36.79658609148515], [28.37123701073915, 36.79676575454198], [28.37195566296643, 36.79676575454198], [28.37195566296643, 36.7969454175988], [28.372135326023255, 36.7969454175988], [28.372135326023255, 36.797125080655626], [28.37231498908008, 36.797125080655626], [28.37231498908008, 36.797304743712445], [28.372494652136908, 36.797304743712445], [28.372494652136908, 36.7976640698261], [28.37231498908008, 36.7976640698261], [28.37231498908008, 36.79784373288292], [28.372494652136908, 36.79784373288292], [28.372494652136908, 36.79820305899657], [28.37231498908008, 36.79820305899657], [28.37231498908008, 36.79838272205339], [28.372494652136908, 36.79838272205339], [28.372494652136908, 36.798562385110216], [28.37231498908008, 36.798562385110216], [28.37231498908008, 36.79874204816704], [28.372674315193734, 36.79874204816704], [28.372674315193734, 36.79892171122386], [28.37285397825056, 36.79892171122386], [28.37285397825056, 36.79910137428069], [28.372674315193734, 36.79910137428069], [28.372674315193734, 36.79928103733751], [28.372494652136908, 36.79928103733751], [28.372494652136908, 36.799460700394334], [28.372674315193734, 36.799460700394334], [28.372674315193734, 36.79964036345116], [28.373033641307387, 36.79964036345116], [28.373033641307387, 36.79982002650798], [28.373213304364214, 36.79982002650798], [28.373213304364214, 36.80017935262163], [28.37339296742104, 36.80017935262163], [28.37339296742104, 36.80035901567845], [28.373213304364214, 36.80035901567845], [28.373213304364214, 36.80053867873528], [28.373033641307387, 36.80053867873528], [28.373033641307387, 36.800718341792106], [28.37285397825056, 36.800718341792106], [28.37285397825056, 36.80107766790575], [28.372674315193734, 36.80107766790575], [28.372674315193734, 36.80125733096257], [28.372494652136908, 36.80125733096257], [28.372494652136908, 36.8014369940194], [28.372135326023255, 36.8014369940194], [28.372135326023255, 36.801616657076224], [28.37195566296643, 36.801616657076224], [28.37195566296643, 36.80179632013304], [28.371596336852775, 36.80179632013304], [28.371596336852775, 36.802155646246696], [28.3717759999096, 36.802155646246696], [28.3717759999096, 36.80251497236034], [28.371596336852775, 36.80251497236034], [28.371596336852775, 36.80269463541717], [28.37123701073915, 36.80269463541717], [28.37123701073915, 36.80287429847399], [28.37069802156867, 36.80287429847399], [28.37069802156867, 36.803233624587634], [28.370518358511845, 36.803233624587634], [28.370518358511845, 36.80341328764446], [28.37033869545502, 36.80341328764446], [28.37033869545502, 36.80359295070129], [28.36979970628454, 36.80359295070129], [28.36979970628454, 36.804491265985405], [28.369620043227712, 36.804491265985405], [28.369620043227712, 36.80467092904223], [28.369440380170914, 36.80467092904223], [28.369440380170914, 36.80503025515588], [28.369620043227712, 36.80503025515588], [28.369620043227712, 36.80538958126952], [28.36979970628454, 36.80538958126952], [28.36979970628454, 36.80556924432635], [28.369620043227712, 36.80556924432635], [28.369620043227712, 36.80574890738317], [28.36872172794361, 36.80574890738317], [28.36872172794361, 36.80556924432635], [28.368003075716302, 36.80556924432635], [28.368003075716302, 36.80538958126952], [28.367823412659476, 36.80538958126952], [28.367823412659476, 36.80574890738317], [28.36764374960265, 36.80574890738317], [28.36764374960265, 36.805928570439995], [28.366925097375372, 36.805928570439995], [28.366925097375372, 36.80610823349682], [28.36656577126172, 36.80610823349682], [28.36656577126172, 36.805928570439995], [28.366206445148066, 36.805928570439995], [28.366206445148066, 36.80574890738317], [28.36602678209124, 36.80574890738317], [28.36602678209124, 36.80556924432635], [28.365667455977587, 36.80556924432635], [28.365667455977587, 36.80538958126952], [28.36548779292079, 36.80538958126952], [28.36548779292079, 36.80503025515588], [28.365667455977587, 36.80503025515588], [28.365667455977587, 36.80485059209905], [28.36602678209124, 36.80485059209905], [28.36602678209124, 36.80467092904223], [28.365308129863962, 36.80467092904223], [28.365308129863962, 36.804491265985405], [28.364769140693483, 36.804491265985405], [28.364769140693483, 36.80431160292858], [28.36440981457983, 36.80431160292858], [28.36440981457983, 36.80413193987176], [28.364230151523003, 36.80413193987176], [28.364230151523003, 36.80395227681493], [28.364050488466177, 36.80395227681493], [28.364050488466177, 36.803772613758106], [28.36387082540935, 36.803772613758106], [28.36387082540935, 36.80413193987176], [28.364050488466177, 36.80413193987176], [28.364050488466177, 36.80431160292858], [28.36387082540935, 36.80431160292858], [28.36387082540935, 36.804491265985405], [28.362972510125246, 36.804491265985405], [28.362972510125246, 36.80431160292858], [28.36279284706842, 36.80431160292858], [28.36279284706842, 36.80413193987176], [28.362613184011593, 36.80413193987176], [28.362613184011593, 36.80431160292858], [28.362433520954767, 36.80431160292858], [28.362433520954767, 36.804491265985405], [28.36225385789794, 36.804491265985405], [28.36225385789794, 36.80467092904223], [28.361355542613836, 36.80467092904223], [28.361355542613836, 36.804491265985405], [28.36063689038653, 36.804491265985405], [28.36063689038653, 36.80431160292858], [28.360277564272877, 36.80431160292858], [28.360277564272877, 36.80413193987176], [28.36009790121605, 36.80413193987176], [28.36009790121605, 36.80395227681493], [28.359918238159224, 36.80395227681493], [28.359918238159224, 36.80359295070129], [28.3595589120456, 36.80359295070129], [28.3595589120456, 36.80341328764446], [28.359379248988773, 36.80341328764446], [28.359379248988773, 36.80359295070129], [28.35901992287512, 36.80359295070129], [28.35901992287512, 36.803772613758106], [28.35794194453416, 36.803772613758106], [28.35794194453416, 36.80395227681493], [28.357762281477335, 36.80395227681493], [28.357762281477335, 36.80413193987176], [28.357582618420537, 36.80413193987176], [28.357582618420537, 36.80431160292858], [28.35632497702275, 36.80431160292858], [28.35632497702275, 36.80413193987176], [28.356145313965925, 36.80413193987176], [28.356145313965925, 36.803772613758106], [28.35632497702275, 36.803772613758106], [28.35632497702275, 36.80359295070129], [28.356504640079578, 36.80359295070129], [28.356504640079578, 36.80341328764446], [28.356684303136404, 36.80341328764446], [28.356684303136404, 36.803233624587634], [28.35686396619323, 36.803233624587634], [28.35686396619323, 36.803053961530814], [28.357043629250057, 36.803053961530814], [28.357043629250057, 36.80251497236034], [28.357223292306884, 36.80251497236034], [28.357223292306884, 36.802155646246696], [28.35740295536371, 36.802155646246696], [28.35740295536371, 36.80197598318987], [28.357582618420537, 36.80197598318987], [28.357582618420537, 36.80179632013304], [28.357762281477335, 36.80179632013304], [28.357762281477335, 36.8014369940194], [28.35794194453416, 36.8014369940194], [28.35794194453416, 36.80125733096257], [28.358301270647814, 36.80125733096257], [28.358301270647814, 36.8014369940194], [28.358660596761467, 36.8014369940194], [28.358660596761467, 36.80125733096257], [28.35848093370464, 36.80125733096257], [28.35848093370464, 36.80107766790575], [28.358660596761467, 36.80107766790575], [28.358660596761467, 36.800898004848925], [28.358840259818294, 36.800898004848925], [28.358840259818294, 36.800718341792106], [28.359199585931947, 36.800718341792106], [28.359199585931947, 36.80053867873528], [28.36009790121605, 36.80053867873528], [28.36009790121605, 36.800718341792106], [28.36063689038653, 36.800718341792106], [28.36063689038653, 36.80053867873528], [28.360457227329704, 36.80053867873528], [28.360457227329704, 36.79982002650798], [28.36063689038653, 36.79982002650798], [28.36063689038653, 36.79964036345116], [28.360816553443357, 36.79964036345116], [28.360816553443357, 36.799460700394334], [28.360996216500183, 36.799460700394334], [28.360996216500183, 36.79964036345116], [28.36117587955701, 36.79964036345116], [28.36117587955701, 36.79982002650798], [28.36171486872746, 36.79982002650798], [28.36171486872746, 36.79964036345116], [28.36225385789794, 36.79964036345116], [28.36225385789794, 36.79982002650798], [28.362433520954767, 36.79982002650798], [28.362433520954767, 36.80035901567845], [28.362972510125246, 36.80035901567845], [28.362972510125246, 36.80053867873528], [28.363152173182073, 36.80053867873528], [28.363152173182073, 36.800898004848925], [28.3633318362389, 36.800898004848925], [28.3633318362389, 36.800718341792106], [28.363511499295726, 36.800718341792106], [28.363511499295726, 36.80053867873528], [28.36387082540935, 36.80053867873528], [28.36387082540935, 36.800718341792106], [28.364050488466177, 36.800718341792106], [28.364050488466177, 36.80107766790575], [28.36387082540935, 36.80107766790575], [28.36387082540935, 36.80125733096257], [28.363691162352524, 36.80125733096257], [28.363691162352524, 36.80107766790575], [28.363511499295726, 36.80107766790575], [28.363511499295726, 36.800898004848925], [28.3633318362389, 36.800898004848925], [28.3633318362389, 36.801616657076224], [28.363152173182073, 36.801616657076224], [28.363152173182073, 36.80179632013304], [28.363511499295726, 36.80179632013304], [28.363511499295726, 36.80197598318987], [28.363691162352524, 36.80197598318987], [28.363691162352524, 36.802155646246696], [28.364050488466177, 36.802155646246696], [28.364050488466177, 36.802335309303515], [28.36440981457983, 36.802335309303515], [28.36440981457983, 36.802155646246696], [28.364230151523003, 36.802155646246696], [28.364230151523003, 36.80197598318987], [28.364050488466177, 36.80197598318987], [28.364050488466177, 36.801616657076224], [28.36387082540935, 36.801616657076224], [28.36387082540935, 36.8014369940194], [28.364050488466177, 36.8014369940194], [28.364050488466177, 36.80125733096257], [28.364230151523003, 36.80125733096257], [28.364230151523003, 36.80107766790575], [28.36494880375031, 36.80107766790575], [28.36494880375031, 36.800718341792106], [28.365128466807136, 36.800718341792106], [28.365128466807136, 36.80035901567845], [28.365308129863962, 36.80035901567845], [28.365308129863962, 36.80017935262163], [28.365128466807136, 36.80017935262163], [28.365128466807136, 36.79999968956481], [28.365308129863962, 36.79999968956481], [28.365308129863962, 36.79964036345116], [28.365128466807136, 36.79964036345116], [28.365128466807136, 36.799460700394334], [28.364589477636656, 36.799460700394334], [28.364589477636656, 36.79964036345116], [28.364769140693483, 36.79964036345116], [28.364769140693483, 36.79999968956481], [28.364589477636656, 36.79999968956481], [28.364589477636656, 36.80017935262163], [28.36440981457983, 36.80017935262163], [28.36440981457983, 36.79999968956481], [28.364230151523003, 36.79999968956481], [28.364230151523003, 36.79964036345116], [28.36440981457983, 36.79964036345116], [28.36440981457983, 36.799460700394334], [28.364230151523003, 36.799460700394334], [28.364230151523003, 36.79892171122386], [28.363511499295726, 36.79892171122386], [28.363511499295726, 36.79874204816704], [28.3633318362389, 36.79874204816704], [28.3633318362389, 36.79838272205339], [28.36279284706842, 36.79838272205339], [28.36279284706842, 36.79820305899657], [28.362613184011593, 36.79820305899657], [28.362613184011593, 36.798023395939744], [28.36279284706842, 36.798023395939744], [28.36279284706842, 36.79784373288292], [28.365128466807136, 36.79784373288292], [28.365128466807136, 36.7976640698261], [28.36494880375031, 36.7976640698261], [28.36494880375031, 36.797304743712445], [28.365128466807136, 36.797304743712445], [28.365128466807136, 36.797125080655626], [28.365308129863962, 36.797125080655626], [28.365308129863962, 36.797304743712445], [28.365667455977587, 36.797304743712445], [28.365667455977587, 36.7969454175988], [28.365847119034413, 36.7969454175988], [28.365847119034413, 36.79676575454198], [28.36602678209124, 36.79676575454198], [28.36602678209124, 36.79658609148515], [28.36656577126172, 36.79658609148515], [28.36656577126172, 36.79640642842833], [28.36746408654585, 36.79640642842833], [28.36746408654585, 36.79658609148515], [28.36764374960265, 36.79658609148515], [28.36764374960265, 36.79676575454198], [28.367823412659476, 36.79676575454198], [28.367823412659476, 36.7969454175988], [28.368003075716302, 36.7969454175988], [28.368003075716302, 36.797125080655626], [28.368362401829955, 36.797125080655626], [28.368362401829955, 36.7969454175988], [28.368542064886782, 36.7969454175988], [28.368542064886782, 36.79676575454198], [28.368901391000435, 36.79676575454198], [28.368901391000435, 36.79658609148515], [28.36908105405726, 36.79658609148515], [28.36908105405726, 36.79676575454198], [28.369260717114088, 36.79676575454198], [28.369260717114088, 36.79658609148515], [28.370159032398192, 36.79658609148515], [28.370159032398192, 36.79640642842833], [28.37069802156867, 36.79640642842833], [28.37069802156867, 36.79622676537151]], [[28.362972510125246, 36.80395227681493], [28.362972510125246, 36.80413193987176], [28.36279284706842, 36.80413193987176], [28.36279284706842, 36.80395227681493], [28.362972510125246, 36.80395227681493]], [[28.3671047604322, 36.80503025515588], [28.3671047604322, 36.8052099182127], [28.366925097375372, 36.8052099182127], [28.366925097375372, 36.80503025515588], [28.3671047604322, 36.80503025515588]], [[28.366925097375372, 36.80485059209905], [28.366925097375372, 36.80503025515588], [28.366386108204892, 36.80503025515588], [28.366386108204892, 36.80485059209905], [28.366925097375372, 36.80485059209905]], [[28.362613184011593, 36.80359295070129], [28.362613184011593, 36.803772613758106], [28.36225385789794, 36.803772613758106], [28.36225385789794, 36.80359295070129], [28.362613184011593, 36.80359295070129]], [[28.36009790121605, 36.80341328764446], [28.36009790121605, 36.80359295070129], [28.359918238159224, 36.80359295070129], [28.359918238159224, 36.80341328764446], [28.36009790121605, 36.80341328764446]], [[28.362074194841114, 36.80341328764446], [28.362074194841114, 36.80359295070129], [28.361894531784287, 36.80359295070129], [28.361894531784287, 36.80341328764446], [28.362074194841114, 36.80341328764446]], [[28.365128466807136, 36.80269463541717], [28.365128466807136, 36.80287429847399], [28.36494880375031, 36.80287429847399], [28.36494880375031, 36.80269463541717], [28.365128466807136, 36.80269463541717]], [[28.362613184011593, 36.80251497236034], [28.362613184011593, 36.80269463541717], [28.36279284706842, 36.80269463541717], [28.36279284706842, 36.80287429847399], [28.362972510125246, 36.80287429847399], [28.362972510125246, 36.803053961530814], [28.363152173182073, 36.803053961530814], [28.363152173182073, 36.80341328764446], [28.362972510125246, 36.80341328764446], [28.362972510125246, 36.803233624587634], [28.362433520954767, 36.803233624587634], [28.362433520954767, 36.80287429847399], [28.36225385789794, 36.80287429847399], [28.36225385789794, 36.80269463541717], [28.362074194841114, 36.80269463541717], [28.362074194841114, 36.80251497236034], [28.362613184011593, 36.80251497236034]], [[28.36818273877313, 36.80251497236034], [28.36818273877313, 36.80269463541717], [28.368003075716302, 36.80269463541717], [28.368003075716302, 36.80251497236034], [28.36818273877313, 36.80251497236034]], [[28.359379248988773, 36.802335309303515], [28.359379248988773, 36.80251497236034], [28.35901992287512, 36.80251497236034], [28.35901992287512, 36.802335309303515], [28.359379248988773, 36.802335309303515]], [[28.364589477636656, 36.802335309303515], [28.364589477636656, 36.80251497236034], [28.36440981457983, 36.80251497236034], [28.36440981457983, 36.802335309303515], [28.364589477636656, 36.802335309303515]], [[28.368542064886782, 36.80179632013304], [28.368542064886782, 36.80197598318987], [28.368362401829955, 36.80197598318987], [28.368362401829955, 36.802335309303515], [28.368003075716302, 36.802335309303515], [28.368003075716302, 36.80179632013304], [28.368542064886782, 36.80179632013304]], [[28.3671047604322, 36.801616657076224], [28.3671047604322, 36.80197598318987], [28.366745434318545, 36.80197598318987], [28.366745434318545, 36.801616657076224], [28.3671047604322, 36.801616657076224]], [[28.3717759999096, 36.80125733096257], [28.3717759999096, 36.8014369940194], [28.371596336852775, 36.8014369940194], [28.371596336852775, 36.80125733096257], [28.3717759999096, 36.80125733096257]], [[28.36656577126172, 36.80107766790575], [28.36656577126172, 36.80125733096257], [28.366386108204892, 36.80125733096257], [28.366386108204892, 36.80107766790575], [28.36656577126172, 36.80107766790575]], [[28.36872172794361, 36.80053867873528], [28.36872172794361, 36.800718341792106], [28.368542064886782, 36.800718341792106], [28.368542064886782, 36.80053867873528], [28.36872172794361, 36.80053867873528]], [[28.36764374960265, 36.80017935262163], [28.36764374960265, 36.80053867873528], [28.36746408654585, 36.80053867873528], [28.36746408654585, 36.80017935262163], [28.36764374960265, 36.80017935262163]], [[28.370877684625498, 36.79982002650798], [28.370877684625498, 36.79999968956481], [28.370518358511845, 36.79999968956481], [28.370518358511845, 36.79982002650798], [28.370877684625498, 36.79982002650798]], [[28.367284423489025, 36.79964036345116], [28.367284423489025, 36.79999968956481], [28.3671047604322, 36.79999968956481], [28.3671047604322, 36.79964036345116], [28.367284423489025, 36.79964036345116]], [[28.36746408654585, 36.799460700394334], [28.36746408654585, 36.79964036345116], [28.367284423489025, 36.79964036345116], [28.367284423489025, 36.799460700394334], [28.36746408654585, 36.799460700394334]], [[28.36818273877313, 36.79910137428069], [28.36818273877313, 36.799460700394334], [28.368003075716302, 36.799460700394334], [28.368003075716302, 36.79910137428069], [28.36818273877313, 36.79910137428069]], [[28.36818273877313, 36.79874204816704], [28.36818273877313, 36.79892171122386], [28.368003075716302, 36.79892171122386], [28.368003075716302, 36.79874204816704], [28.36818273877313, 36.79874204816704]], [[28.372135326023255, 36.7976640698261], [28.372135326023255, 36.79784373288292], [28.37195566296643, 36.79784373288292], [28.37195566296643, 36.7976640698261], [28.372135326023255, 36.7976640698261]], [[28.3671047604322, 36.797304743712445], [28.3671047604322, 36.79748440676927], [28.366925097375372, 36.79748440676927], [28.366925097375372, 36.797304743712445], [28.3671047604322, 36.797304743712445]]]}, "id": "+1159786+262734", "properties": {"area_ha": 87.24311376328238, "count": 2730, "label": 1, "mean_dnbr": 0.4652361622916071}}, {"type": "Feature", "geometry": {"geodesic": false, "type": "Polygon", "coordinates": [[[28.375189597989277, 37.02978873924258], [28.375908250216554, 37.02978873924258], [28.375908250216554, 37.0299684022994], [28.37608791327338, 37.0299684022994], [28.37608791327338, 37.03014806535623], [28.376267576330207, 37.03014806535623], [28.376267576330207, 37.03032772841305], [28.376447239387034, 37.03032772841305], [28.376447239387034, 37.030507391469875], [28.37662690244386, 37.030507391469875], [28.37662690244386, 37.0306870545267], [28.376447239387034, 37.0306870545267], [28.376447239387034, 37.03086671758352], [28.376267576330207, 37.03086671758352], [28.376267576330207, 37.031226043697174], [28.376447239387034, 37.031226043697174], [28.376447239387034, 37.031944695924466], [28.376267576330207, 37.031944695924466], [28.376267576330207, 37.03212435898129], [28.375908250216554, 37.03212435898129], [28.375908250216554, 37.03230402203811], [28.374830271875624, 37.03230402203811], [28.374830271875624, 37.03212435898129], [28.374650608818797, 37.03212435898129], [28.374650608818797, 37.031944695924466], [28.374830271875624, 37.031944695924466], [28.374830271875624, 37.0306870545267], [28.37500993493245, 37.0306870545267], [28.37500993493245, 37.0299684022994], [28.375189597989277, 37.0299684022994], [28.375189597989277, 37.02978873924258]], [[28.37608791327338, 37.03086671758352], [28.37608791327338, 37.031226043697174], [28.375908250216554, 37.031226043697174], [28.375908250216554, 37.03086671758352], [28.37608791327338, 37.03086671758352]]]}, "id": "+1159814+261434", "properties": {"area_ha": 3.4409876410792584, "count": 108, "label": 1, "mean_dnbr": 0.2829822824932314}}]}