{"type": "FeatureCollection", "columns": {"area_ha": "Number", "count": "Long<0, 4294967295>", "label": "Byte<0, 1>", "mean_dnbr": "Object", "system:index": "String"}, "features": [{"type": "Feature", "geometry": {"geodesic": false, "type": "Polygon", "coordinates": [[[27.936991402395762, 37.03248368509494], [27.937889717679894, 37.03248368509494], [27.937889717679894, 37.032663348151765], [27.93806938073672, 37.032663348151765], [27.93806938073672, 37.03302267426541], [27.937889717679894, 37.03302267426541], [27.937889717679894, 37.03320233732224], [27.937710054623068, 37.03320233732224], [27.937710054623068, 37.033382000379056], [27.93753039156624, 37.033382000379056], [27.93753039156624, 37.03374132649271], [27.937350728509415, 37.03374132649271], [27.937350728509415, 37.03392098954953], [27.93753039156624, 37.03392098954953], [27.93753039156624, 37.03445997872], [27.937710054623068, 37.03445997872], [27.937710054623068, 37.03463964177683], [27.937889717679894, 37.03463964177683], [27.937889717679894, 37.03481930483365], [27.93806938073672, 37.03481930483365], [27.93806938073672, 37.03499896789047], [27.93824904379352, 37.03499896789047], [27.93824904379352, 37.035537957060946], [27.938428706850345, 37.035537957060946], [27.938428706850345, 37.03571762011777], [27.938608369907172, 37.03571762011777], [27.938608369907172, 37.03625660928824], [27.938428706850345, 37.03625660928824], [27.938428706850345, 37.036436272345064], [27.93824904379352, 37.036436272345064], [27.93824904379352, 37.03625660928824], [27.937889717679894, 37.03625660928824], [27.937889717679894, 37.03607694623142], [27.937710054623068, 37.03607694623142], [27.937710054623068, 37.03589728317459], [27.93753039156624, 37.03589728317459], [27.93753039156624, 37.03571762011777], [27.93717106545259, 37.03571762011777], [27.93717106545259, 37.035537957060946], [27.936991402395762, 37.035537957060946], [27.936991402395762, 37.03535829400412], [27.936811739338935, 37.03535829400412], [27.936811739338935, 37.03481930483365], [27.93663207628211, 37.03481930483365], [27.93663207628211, 37.034100652606355], [27.936811739338935, 37.034100652606355], [27.936811739338935, 37.03392098954953], [27.936991402395762, 37.03392098954953], [27.936991402395762, 37.03374132649271], [27.936811739338935, 37.03374132649271], [27.936811739338935, 37.033382000379056], [27.93663207628211, 37.033382000379056], [27.93663207628211, 37.032843011208584], [27.936811739338935, 37.032843011208584], [27.936811739338935, 37.032663348151765], [27.936991402395762, 37.032663348151765], [27.936991402395762, 37.03248368509494]]]}, "id": "+1157376+261419", "properties": {"area_ha": 3.918731214215423, "count": 123, "label": 1, "mean_dnbr": 0.2615362327992892}}, {"type": "Feature", "geometry": {"geodesic": false, "type": "Polygon", "coordinates": [[[28.342850247760964, 37.0351786309473], [28.34302991081779, 37.0351786309473], [28.34302991081779, 37.03535829400412], [28.343209573874617, 37.03535829400412], [28.343209573874617, 37.03625660928824], [28.34302991081779, 37.03625660928824], [28.34302991081779, 37.036436272345064], [28.342850247760964, 37.036436272345064], [28.342850247760964, 37.03661593540189], [28.343209573874617, 37.03661593540189], [28.343209573874617, 37.036436272345064], [28.343389236931444, 37.036436272345064], [28.343389236931444, 37.03661593540189], [28.343748563045096, 37.03661593540189], [28.343748563045096, 37.03679559845871], [28.343928226101895, 37.03679559845871], [28.343928226101895, 37.036975261515536], [28.34410788915872, 37.036975261515536], [28.34410788915872, 37.03733458762918], [28.343928226101895, 37.03733458762918], [28.343928226101895, 37.03751425068601], [28.34410788915872, 37.03751425068601], [28.34410788915872, 37.03859222902695], [28.343928226101895, 37.03859222902695], [28.343928226101895, 37.03877189208377], [28.34356889998827, 37.03877189208377], [28.34356889998827, 37.03859222902695], [28.343209573874617, 37.03859222902695], [28.343209573874617, 37.03841256597013], [28.34302991081779, 37.03841256597013], [28.34302991081779, 37.03733458762918], [28.34249092164731, 37.03733458762918], [28.34249092164731, 37.03715492457236], [28.342311258590485, 37.03715492457236], [28.342311258590485, 37.036975261515536], [28.342131595533658, 37.036975261515536], [28.342131595533658, 37.036436272345064], [28.342311258590485, 37.036436272345064], [28.342311258590485, 37.03625660928824], [28.34249092164731, 37.03625660928824], [28.34249092164731, 37.03571762011777], [28.342670584704138, 37.03571762011777], [28.342670584704138, 37.03535829400412], [28.342850247760964, 37.03535829400412], [28.342850247760964, 37.0351786309473]]]}, "id": "+1159631+261404", "properties": {"area_ha": 3.4407149313831993, "count": 108, "label": 1, "mean_dnbr": 0.28159830436207267}}, {"type": "Feature", "geometry": {"geodesic": false, "type": "Polygon", "coordinates": [[[28.390281294762474, 37.041466837936134], [28.3904609578193, 37.041466837936134], [28.3904609578193, 37.04164650099296], [28.390820283932953, 37.04164650099296], [28.390820283932953, 37.04182616404978], [28.39099994698978, 37.04182616404978], [28.39099994698978, 37.04200582710661], [28.391179610046606, 37.04200582710661], [28.391179610046606, 37.042185490163426], [28.39153893616023, 37.042185490163426], [28.39153893616023, 37.04236515322025], [28.391718599217057, 37.04236515322025], [28.391718599217057, 37.042904142390725], [28.39153893616023, 37.042904142390725], [28.39153893616023, 37.04308380544755], [28.391179610046606, 37.04308380544755], [28.391179610046606, 37.04326346850437], [28.39099994698978, 37.04326346850437], [28.39099994698978, 37.0434431315612], [28.390820283932953, 37.0434431315612], [28.390820283932953, 37.043622794618024], [28.390640620876127, 37.043622794618024], [28.390640620876127, 37.04380245767484], [28.390281294762474, 37.04380245767484], [28.390281294762474, 37.04398212073167], [28.390101631705647, 37.04398212073167], [28.390101631705647, 37.04416178378849], [28.38992196864882, 37.04416178378849], [28.38992196864882, 37.04398212073167], [28.389742305591994, 37.04398212073167], [28.389742305591994, 37.04380245767484], [28.389562642535168, 37.04380245767484], [28.389562642535168, 37.043622794618024], [28.38938297947834, 37.043622794618024], [28.38938297947834, 37.0434431315612], [28.389023653364717, 37.0434431315612], [28.389023653364717, 37.04326346850437], [28.38884399030789, 37.04326346850437], [28.38884399030789, 37.04308380544755], [28.389023653364717, 37.04308380544755], [28.389023653364717, 37.0427244793339], [28.389203316421543, 37.0427244793339], [28.389203316421543, 37.04254481627708], [28.38938297947834, 37.04254481627708], [28.38938297947834, 37.04236515322025], [28.389562642535168, 37.04236515322025], [28.389562642535168, 37.042185490163426], [28.38992196864882, 37.042185490163426], [28.38992196864882, 37.04200582710661], [28.390101631705647, 37.04200582710661], [28.390101631705647, 37.04164650099296], [28.390281294762474, 37.04164650099296], [28.390281294762474, 37.041466837936134]]]}, "id": "+1159895+261369", "properties": {"area_ha": 4.01386620476765, "count": 126, "label": 1, "mean_dnbr": 0.4066882966332789}}]}