{"type": "FeatureCollection", "columns": {"area_ha": "Number", "count": "Long<0, 4294967295>", "label": "Byte<0, 1>", "mean_dnbr": "Object", "system:index": "String"}, "features": [{"type": "Feature", "geometry": {"geodesic": false, "type": "Polygon", "coordinates": [[[28.343389236931444, 37.048114371038615], [28.343928226101895, 37.048114371038615], [28.343928226101895, 37.04829403409544], [28.344826541386027, 37.04829403409544], [28.344826541386027, 37.04847369715227], [28.345006204442853, 37.04847369715227], [28.345006204442853, 37.04865336020909], [28.34572485667016, 37.04865336020909], [28.34572485667016, 37.048833023265914], [28.345904519726957, 37.048833023265914], [28.345904519726957, 37.04919234937956], [28.34572485667016, 37.04919234937956], [28.34572485667016, 37.049372012436386], [28.345545193613333, 37.049372012436386], [28.345545193613333, 37.04955167549321], [28.345365530556506, 37.04955167549321], [28.345365530556506, 37.04973133855003], [28.34518586749968, 37.04973133855003], [28.34518586749968, 37.04991100160686], [28.345006204442853, 37.04991100160686], [28.345006204442853, 37.04973133855003], [28.344826541386027, 37.04973133855003], [28.344826541386027, 37.04955167549321], [28.34410788915872, 37.04955167549321], [28.34410788915872, 37.049372012436386], [28.343209573874617, 37.049372012436386], [28.343209573874617, 37.04919234937956], [28.34302991081779, 37.04919234937956], [28.34302991081779, 37.04865336020909], [28.343209573874617, 37.04865336020909], [28.343209573874617, 37.04829403409544], [28.343389236931444, 37.04829403409544], [28.343389236931444, 37.048114371038615]]]}, "id": "+1159636+261332", "properties": {"area_ha": 3.0260834099136846, "count": 95, "label": 1, "mean_dnbr": 0.34696062677860134}}]}