{"type": "FeatureCollection", "columns": {"area_ha": "Number", "count": "Long<0, 4294967295>", "label": "Byte<0, 1>", "mean_dnbr": "Object", "system:index": "String"}, "features": [{"type": "Feature", "geometry": {"geodesic": false, "type": "Polygon", "coordinates": [[[27.956934001703218, 37.02745311950387], [27.958730632271454, 37.02745311950387], [27.958730632271454, 37.027632782560694], [27.95891029532828, 37.027632782560694], [27.95891029532828, 37.02799210867434], [27.958730632271454, 37.02799210867434], [27.958730632271454, 37.028351434787986], [27.958550969214627, 37.028351434787986], [27.958550969214627, 37.02853109784481], [27.95675433864639, 37.02853109784481], [27.95675433864639, 37.028351434787986], [27.956574675589565, 37.028351434787986], [27.956574675589565, 37.02853109784481], [27.956395012532738, 37.02853109784481], [27.956395012532738, 37.02889042395846], [27.956574675589565, 37.02889042395846], [27.956574675589565, 37.02924975007211], [27.956395012532738, 37.02924975007211], [27.956395012532738, 37.02942941312893], [27.95621534947591, 37.02942941312893], [27.95621534947591, 37.02960907618576], [27.955317034191808, 37.02960907618576], [27.955317034191808, 37.02942941312893], [27.95513737113498, 37.02942941312893], [27.95513737113498, 37.02889042395846], [27.955317034191808, 37.02889042395846], [27.955317034191808, 37.02853109784481], [27.955496697248634, 37.02853109784481], [27.955496697248634, 37.028351434787986], [27.95621534947591, 37.028351434787986], [27.95621534947591, 37.02817177173117], [27.956395012532738, 37.02817177173117], [27.956395012532738, 37.028351434787986], [27.956574675589565, 37.028351434787986], [27.956574675589565, 37.02817177173117], [27.95675433864639, 37.02817177173117], [27.95675433864639, 37.027632782560694], [27.956934001703218, 37.027632782560694], [27.956934001703218, 37.02745311950387]]]}, "id": "+1157492+261447", "properties": {"area_ha": 3.6322833878779885, "count": 114, "label": 1, "mean_dnbr": 0.2409935799806131}}, {"type": "Feature", "geometry": {"geodesic": false, "type": "Polygon", "coordinates": [[[28.236849044234873, 36.817067679963074], [28.23756769646215, 36.817067679963074], [28.23756769646215, 36.8172473430199], [28.23810668563263, 36.8172473430199], [28.23810668563263, 36.81742700607673], [28.238825337859936, 36.81742700607673], [28.238825337859936, 36.817606669133546], [28.239005000916734, 36.817606669133546], [28.239005000916734, 36.81778633219037], [28.23918466397356, 36.81778633219037], [28.23918466397356, 36.8179659952472], [28.239364327030387, 36.8179659952472], [28.239364327030387, 36.81814565830402], [28.239543990087213, 36.81814565830402], [28.239543990087213, 36.818325321360845], [28.23972365314404, 36.818325321360845], [28.23972365314404, 36.81850498441767], [28.239903316200866, 36.81850498441767], [28.239903316200866, 36.81868464747449], [28.240082979257693, 36.81868464747449], [28.240082979257693, 36.81904397358814], [28.24026264231452, 36.81904397358814], [28.24026264231452, 36.81940329970179], [28.240442305371346, 36.81940329970179], [28.240442305371346, 36.81958296275861], [28.240801631485, 36.81958296275861], [28.240801631485, 36.819762625815436], [28.24134062065545, 36.819762625815436], [28.24134062065545, 36.81994228887226], [28.241520283712276, 36.81994228887226], [28.241520283712276, 36.82012195192908], [28.241699946769103, 36.82012195192908], [28.241699946769103, 36.82030161498591], [28.241520283712276, 36.82030161498591], [28.241520283712276, 36.82155925638367], [28.24134062065545, 36.82155925638367], [28.24134062065545, 36.8217389194405], [28.241160957598623, 36.8217389194405], [28.241160957598623, 36.821918582497325], [28.24134062065545, 36.821918582497325], [28.24134062065545, 36.82227790861097], [28.241160957598623, 36.82227790861097], [28.241160957598623, 36.82263723472462], [28.240981294541797, 36.82263723472462], [28.240981294541797, 36.82281689778144], [28.240801631485, 36.82281689778144], [28.240801631485, 36.824254202236034], [28.240621968428172, 36.824254202236034], [28.240621968428172, 36.82443386529286], [28.240442305371346, 36.82443386529286], [28.240442305371346, 36.824254202236034], [28.240082979257693, 36.824254202236034], [28.240082979257693, 36.82443386529286], [28.23972365314404, 36.82443386529286], [28.23972365314404, 36.82461352834968], [28.239543990087213, 36.82461352834968], [28.239543990087213, 36.82443386529286], [28.239364327030387, 36.82443386529286], [28.239364327030387, 36.824254202236034], [28.239543990087213, 36.824254202236034], [28.239543990087213, 36.82407453917921], [28.23864567480311, 36.82407453917921], [28.23864567480311, 36.82389487612239], [28.238466011746283, 36.82389487612239], [28.238466011746283, 36.82371521306556], [28.237927022575803, 36.82371521306556], [28.237927022575803, 36.823535550008735], [28.23756769646215, 36.823535550008735], [28.23756769646215, 36.82371521306556], [28.237388033405324, 36.82371521306556], [28.237388033405324, 36.823535550008735], [28.23702870729167, 36.823535550008735], [28.23702870729167, 36.823355886951916], [28.23648971812122, 36.823355886951916], [28.23648971812122, 36.82317622389509], [28.236130392007567, 36.82317622389509], [28.236130392007567, 36.82299656083827], [28.23595072895074, 36.82299656083827], [28.23595072895074, 36.82281689778144], [28.235771065893914, 36.82281689778144], [28.235771065893914, 36.82263723472462], [28.235591402837088, 36.82263723472462], [28.235591402837088, 36.82227790861097], [28.235771065893914, 36.82227790861097], [28.235771065893914, 36.822098245554145], [28.235052413666608, 36.822098245554145], [28.235052413666608, 36.821918582497325], [28.234693087552984, 36.821918582497325], [28.234693087552984, 36.8217389194405], [28.234154098382504, 36.8217389194405], [28.234154098382504, 36.82155925638367], [28.23217780475744, 36.82155925638367], [28.23217780475744, 36.82137959332685], [28.231998141700615, 36.82137959332685], [28.231998141700615, 36.821199930270026], [28.23217780475744, 36.821199930270026], [28.23217780475744, 36.82102026721321], [28.231998141700615, 36.82102026721321], [28.231998141700615, 36.819762625815436], [28.23217780475744, 36.819762625815436], [28.23217780475744, 36.81940329970179], [28.232357467814268, 36.81940329970179], [28.232357467814268, 36.81922363664496], [28.232537130871094, 36.81922363664496], [28.232537130871094, 36.81886431053132], [28.23271679392792, 36.81886431053132], [28.23271679392792, 36.81868464747449], [28.232896456984747, 36.81868464747449], [28.232896456984747, 36.81850498441767], [28.233076120041545, 36.81850498441767], [28.233076120041545, 36.818325321360845], [28.23325578309837, 36.818325321360845], [28.23325578309837, 36.81778633219037], [28.233435446155198, 36.81778633219037], [28.233435446155198, 36.817606669133546], [28.234154098382504, 36.817606669133546], [28.234154098382504, 36.81742700607673], [28.234513424496157, 36.81742700607673], [28.234513424496157, 36.817606669133546], [28.234693087552984, 36.817606669133546], [28.234693087552984, 36.81778633219037], [28.235052413666608, 36.81778633219037], [28.235052413666608, 36.817606669133546], [28.235232076723435, 36.817606669133546], [28.235232076723435, 36.81742700607673], [28.235591402837088, 36.81742700607673], [28.235591402837088, 36.817606669133546], [28.23595072895074, 36.817606669133546], [28.23595072895074, 36.81742700607673], [28.236310055064394, 36.81742700607673], [28.236310055064394, 36.8172473430199], [28.236849044234873, 36.8172473430199], [28.236849044234873, 36.817067679963074]]]}, "id": "+1159044+262618", "properties": {"area_ha": 45.33582321538485, "count": 1419, "label": 1, "mean_dnbr": 0.7074513526936208}}, {"type": "Feature", "geometry": {"geodesic": false, "type": "Polygon", "coordinates": [[[28.341772269420034, 37.017930977492206], [28.34195193247683, 37.017930977492206], [28.34195193247683, 37.018110640549025], [28.342131595533658, 37.018110640549025], [28.342131595533658, 37.01829030360585], [28.342311258590485, 37.01829030360585], [28.342311258590485, 37.01846996666267], [28.34249092164731, 37.01846996666267], [28.34249092164731, 37.019008955833144], [28.342670584704138, 37.019008955833144], [28.342670584704138, 37.0193682819468], [28.34249092164731, 37.0193682819468], [28.34249092164731, 37.019547945003616], [28.342311258590485, 37.019547945003616], [28.342311258590485, 37.01990727111727], [28.342670584704138, 37.01990727111727], [28.342670584704138, 37.01972760806044], [28.343209573874617, 37.01972760806044], [28.343209573874617, 37.019547945003616], [28.34356889998827, 37.019547945003616], [28.34356889998827, 37.01972760806044], [28.343748563045096, 37.01972760806044], [28.343748563045096, 37.01990727111727], [28.34356889998827, 37.01990727111727], [28.34356889998827, 37.02008693417409], [28.343389236931444, 37.02008693417409], [28.343389236931444, 37.020266597230915], [28.342670584704138, 37.020266597230915], [28.342670584704138, 37.020446260287734], [28.342311258590485, 37.020446260287734], [28.342311258590485, 37.02062592334456], [28.341772269420034, 37.02062592334456], [28.341772269420034, 37.02080558640139], [28.34141294330638, 37.02080558640139], [28.34141294330638, 37.02098524945821], [28.341233280249554, 37.02098524945821], [28.341233280249554, 37.02116491251503], [28.340694291079075, 37.02116491251503], [28.340694291079075, 37.02134457557186], [28.340155301908595, 37.02134457557186], [28.340155301908595, 37.02116491251503], [28.33997563885177, 37.02116491251503], [28.33997563885177, 37.02098524945821], [28.340155301908595, 37.02098524945821], [28.340155301908595, 37.02080558640139], [28.34033496496542, 37.02080558640139], [28.34033496496542, 37.02062592334456], [28.340514628022248, 37.02062592334456], [28.340514628022248, 37.020446260287734], [28.340155301908595, 37.020446260287734], [28.340155301908595, 37.020266597230915], [28.33997563885177, 37.020266597230915], [28.33997563885177, 37.019547945003616], [28.340155301908595, 37.019547945003616], [28.340155301908595, 37.0193682819468], [28.340514628022248, 37.0193682819468], [28.340514628022248, 37.01918861888997], [28.340694291079075, 37.01918861888997], [28.340694291079075, 37.018829292776324], [28.3408739541359, 37.018829292776324], [28.3408739541359, 37.0186496297195], [28.341053617192728, 37.0186496297195], [28.341053617192728, 37.01846996666267], [28.34141294330638, 37.01846996666267], [28.34141294330638, 37.01829030360585], [28.341592606363207, 37.01829030360585], [28.341592606363207, 37.018110640549025], [28.341772269420034, 37.018110640549025], [28.341772269420034, 37.017930977492206]], [[28.341053617192728, 37.020266597230915], [28.341053617192728, 37.020446260287734], [28.340514628022248, 37.020446260287734], [28.340514628022248, 37.020266597230915], [28.341053617192728, 37.020266597230915]], [[28.34195193247683, 37.01990727111727], [28.34195193247683, 37.02008693417409], [28.341772269420034, 37.02008693417409], [28.341772269420034, 37.01990727111727], [28.34195193247683, 37.01990727111727]]]}, "id": "+1159625+261500", "properties": {"area_ha": 6.054494653017271, "count": 190, "label": 1, "mean_dnbr": 0.3481529272546879}}]}