{"type": "FeatureCollection", "columns": {"area_ha": "Number", "count": "Long<0, 4294967295>", "label": "Byte<0, 1>", "mean_dnbr": "Object", "system:index": "String"}, "features": [{"type": "Feature", "geometry": {"geodesic": false, "type": "Polygon", "coordinates": [[[27.95100512082803, 37.02565648893563], [27.95136444694168, 37.02565648893563], [27.95136444694168, 37.02583615199246], [27.95154410999851, 37.02583615199246], [27.95154410999851, 37.026195478106104], [27.951723773055335, 37.026195478106104], [27.951723773055335, 37.02637514116292], [27.95190343611216, 37.02637514116292], [27.95190343611216, 37.02655480421975], [27.952262762225786, 37.02655480421975], [27.952262762225786, 37.026734467276576], [27.952442425282612, 37.026734467276576], [27.952442425282612, 37.026914130333395], [27.95262208833944, 37.026914130333395], [27.95262208833944, 37.02727345644705], [27.952442425282612, 37.02727345644705], [27.952442425282612, 37.02745311950387], [27.95262208833944, 37.02745311950387], [27.95262208833944, 37.027632782560694], [27.952801751396265, 37.027632782560694], [27.952801751396265, 37.02781244561752], [27.95262208833944, 37.02781244561752], [27.95262208833944, 37.02853109784481], [27.952442425282612, 37.02853109784481], [27.952442425282612, 37.02871076090164], [27.95190343611216, 37.02871076090164], [27.95190343611216, 37.02853109784481], [27.95154410999851, 37.02853109784481], [27.95154410999851, 37.02871076090164], [27.95136444694168, 37.02871076090164], [27.95136444694168, 37.02942941312893], [27.951184783884855, 37.02942941312893], [27.951184783884855, 37.02960907618576], [27.95100512082803, 37.02960907618576], [27.95100512082803, 37.02942941312893], [27.95046613165755, 37.02942941312893], [27.95046613165755, 37.02924975007211], [27.950286468600723, 37.02924975007211], [27.950286468600723, 37.02889042395846], [27.95046613165755, 37.02889042395846], [27.95046613165755, 37.02853109784481], [27.950645794714376, 37.02853109784481], [27.950645794714376, 37.02817177173117], [27.95046613165755, 37.02817177173117], [27.95046613165755, 37.028351434787986], [27.950286468600723, 37.028351434787986], [27.950286468600723, 37.02871076090164], [27.950106805543896, 37.02871076090164], [27.950106805543896, 37.029070087015285], [27.9499271424871, 37.029070087015285], [27.9499271424871, 37.02924975007211], [27.949747479430272, 37.02924975007211], [27.949747479430272, 37.029070087015285], [27.949567816373445, 37.029070087015285], [27.949567816373445, 37.02889042395846], [27.94938815331662, 37.02889042395846], [27.94938815331662, 37.02817177173117], [27.949208490259792, 37.02817177173117], [27.949208490259792, 37.02709379339022], [27.949028827202966, 37.02709379339022], [27.949028827202966, 37.026734467276576], [27.949208490259792, 37.026734467276576], [27.949208490259792, 37.02655480421975], [27.94938815331662, 37.02655480421975], [27.94938815331662, 37.026734467276576], [27.949567816373445, 37.026734467276576], [27.949567816373445, 37.02727345644705], [27.949747479430272, 37.02727345644705], [27.949747479430272, 37.02745311950387], [27.950106805543896, 37.02745311950387], [27.950106805543896, 37.027632782560694], [27.950645794714376, 37.027632782560694], [27.950645794714376, 37.02655480421975], [27.950825457771202, 37.02655480421975], [27.950825457771202, 37.02583615199246], [27.95100512082803, 37.02583615199246], [27.95100512082803, 37.02565648893563]], [[27.95190343611216, 37.02817177173117], [27.95190343611216, 37.028351434787986], [27.951723773055335, 37.028351434787986], [27.951723773055335, 37.02817177173117], [27.95190343611216, 37.02817177173117]], [[27.950825457771202, 37.027632782560694], [27.950825457771202, 37.02781244561752], [27.950645794714376, 37.02781244561752], [27.950645794714376, 37.027632782560694], [27.950825457771202, 37.027632782560694]]]}, "id": "+1157451+261457", "properties": {"area_ha": 7.45580315692804, "count": 234, "label": 1, "mean_dnbr": 0.22004189168258304}}, {"type": "Feature", "geometry": {"geodesic": false, "type": "Polygon", "coordinates": [[[27.963401871748886, 37.031226043697174], [27.96376119786254, 37.031226043697174], [27.96376119786254, 37.03140570675399], [27.963940860919337, 37.03140570675399], [27.963940860919337, 37.03158536981082], [27.964120523976163, 37.03158536981082], [27.964120523976163, 37.031765032867646], [27.96430018703299, 37.031765032867646], [27.96430018703299, 37.03212435898129], [27.964120523976163, 37.03212435898129], [27.964120523976163, 37.03248368509494], [27.963940860919337, 37.03248368509494], [27.963940860919337, 37.032663348151765], [27.96376119786254, 37.032663348151765], [27.96376119786254, 37.032843011208584], [27.963581534805712, 37.032843011208584], [27.963581534805712, 37.03302267426541], [27.963401871748886, 37.03302267426541], [27.963401871748886, 37.03320233732224], [27.962503556464753, 37.03320233732224], [27.962503556464753, 37.033382000379056], [27.9621442303511, 37.033382000379056], [27.9621442303511, 37.03320233732224], [27.961964567294274, 37.03320233732224], [27.961964567294274, 37.03302267426541], [27.961784904237476, 37.03302267426541], [27.961784904237476, 37.032843011208584], [27.96160524118065, 37.032843011208584], [27.96160524118065, 37.032663348151765], [27.961784904237476, 37.032663348151765], [27.961784904237476, 37.03248368509494], [27.961964567294274, 37.03248368509494], [27.961964567294274, 37.03212435898129], [27.9621442303511, 37.03212435898129], [27.9621442303511, 37.031944695924466], [27.962503556464753, 37.031944695924466], [27.962503556464753, 37.031765032867646], [27.96268321952158, 37.031765032867646], [27.96268321952158, 37.031944695924466], [27.963042545635233, 37.031944695924466], [27.963042545635233, 37.031765032867646], [27.962862882578406, 37.031765032867646], [27.962862882578406, 37.03158536981082], [27.963042545635233, 37.03158536981082], [27.963042545635233, 37.03140570675399], [27.963401871748886, 37.03140570675399], [27.963401871748886, 37.031226043697174]]]}, "id": "+1157520+261426", "properties": {"area_ha": 3.2497681110584393, "count": 102, "label": 1, "mean_dnbr": 0.23837713447678702}}, {"type": "Feature", "geometry": {"geodesic": false, "type": "Polygon", "coordinates": [[[28.237208370348498, 36.816888016906255], [28.237388033405324, 36.816888016906255], [28.237388033405324, 36.817067679963074], [28.23756769646215, 36.817067679963074], [28.23756769646215, 36.8172473430199], [28.23810668563263, 36.8172473430199], [28.23810668563263, 36.81742700607673], [28.238825337859936, 36.81742700607673], [28.238825337859936, 36.817606669133546], [28.239005000916734, 36.817606669133546], [28.239005000916734, 36.81778633219037], [28.23918466397356, 36.81778633219037], [28.23918466397356, 36.8179659952472], [28.239364327030387, 36.8179659952472], [28.239364327030387, 36.81814565830402], [28.239543990087213, 36.81814565830402], [28.239543990087213, 36.81850498441767], [28.23972365314404, 36.81850498441767], [28.23972365314404, 36.81868464747449], [28.239903316200866, 36.81868464747449], [28.239903316200866, 36.81886431053132], [28.240082979257693, 36.81886431053132], [28.240082979257693, 36.81922363664496], [28.24026264231452, 36.81922363664496], [28.24026264231452, 36.81940329970179], [28.240442305371346, 36.81940329970179], [28.240442305371346, 36.81958296275861], [28.240801631485, 36.81958296275861], [28.240801631485, 36.819762625815436], [28.240981294541797, 36.819762625815436], [28.240981294541797, 36.81994228887226], [28.241160957598623, 36.81994228887226], [28.241160957598623, 36.819762625815436], [28.24134062065545, 36.819762625815436], [28.24134062065545, 36.81994228887226], [28.241520283712276, 36.81994228887226], [28.241520283712276, 36.82030161498591], [28.24134062065545, 36.82030161498591], [28.24134062065545, 36.820481278042735], [28.240981294541797, 36.820481278042735], [28.240981294541797, 36.820660941099554], [28.241160957598623, 36.820660941099554], [28.241160957598623, 36.82137959332685], [28.24134062065545, 36.82137959332685], [28.24134062065545, 36.82155925638367], [28.241160957598623, 36.82155925638367], [28.241160957598623, 36.8217389194405], [28.24134062065545, 36.8217389194405], [28.24134062065545, 36.821918582497325], [28.241160957598623, 36.821918582497325], [28.241160957598623, 36.8224575716678], [28.240981294541797, 36.8224575716678], [28.240981294541797, 36.82263723472462], [28.240801631485, 36.82263723472462], [28.240801631485, 36.82281689778144], [28.240621968428172, 36.82281689778144], [28.240621968428172, 36.82299656083827], [28.240082979257693, 36.82299656083827], [28.240082979257693, 36.82317622389509], [28.24026264231452, 36.82317622389509], [28.24026264231452, 36.823355886951916], [28.240442305371346, 36.823355886951916], [28.240442305371346, 36.823535550008735], [28.240621968428172, 36.823535550008735], [28.240621968428172, 36.82389487612239], [28.240801631485, 36.82389487612239], [28.240801631485, 36.82407453917921], [28.240621968428172, 36.82407453917921], [28.240621968428172, 36.824254202236034], [28.240442305371346, 36.824254202236034], [28.240442305371346, 36.82407453917921], [28.240082979257693, 36.82407453917921], [28.240082979257693, 36.82389487612239], [28.239903316200866, 36.82389487612239], [28.239903316200866, 36.82407453917921], [28.239543990087213, 36.82407453917921], [28.239543990087213, 36.82389487612239], [28.23918466397356, 36.82389487612239], [28.23918466397356, 36.82371521306556], [28.23864567480311, 36.82371521306556], [28.23864567480311, 36.823535550008735], [28.237927022575803, 36.823535550008735], [28.237927022575803, 36.823355886951916], [28.237208370348498, 36.823355886951916], [28.237208370348498, 36.82317622389509], [28.23702870729167, 36.82317622389509], [28.23702870729167, 36.82299656083827], [28.236849044234873, 36.82299656083827], [28.236849044234873, 36.82281689778144], [28.23648971812122, 36.82281689778144], [28.23648971812122, 36.82299656083827], [28.236310055064394, 36.82299656083827], [28.236310055064394, 36.82281689778144], [28.23595072895074, 36.82281689778144], [28.23595072895074, 36.82263723472462], [28.235771065893914, 36.82263723472462], [28.235771065893914, 36.82227790861097], [28.23595072895074, 36.82227790861097], [28.23595072895074, 36.822098245554145], [28.235232076723435, 36.822098245554145], [28.235232076723435, 36.821918582497325], [28.23487275060981, 36.821918582497325], [28.23487275060981, 36.8217389194405], [28.23433376143933, 36.8217389194405], [28.23433376143933, 36.82155925638367], [28.234154098382504, 36.82155925638367], [28.234154098382504, 36.82137959332685], [28.233974435325678, 36.82137959332685], [28.233974435325678, 36.82155925638367], [28.233615109212025, 36.82155925638367], [28.233615109212025, 36.82137959332685], [28.233435446155198, 36.82137959332685], [28.233435446155198, 36.82155925638367], [28.233076120041545, 36.82155925638367], [28.233076120041545, 36.82137959332685], [28.23271679392792, 36.82137959332685], [28.23271679392792, 36.821199930270026], [28.232537130871094, 36.821199930270026], [28.232537130871094, 36.82084060415638], [28.23217780475744, 36.82084060415638], [28.23217780475744, 36.820660941099554], [28.231998141700615, 36.820660941099554], [28.231998141700615, 36.819762625815436], [28.23217780475744, 36.819762625815436], [28.23217780475744, 36.81958296275861], [28.232357467814268, 36.81958296275861], [28.232357467814268, 36.81940329970179], [28.232537130871094, 36.81940329970179], [28.232537130871094, 36.81904397358814], [28.23271679392792, 36.81904397358814], [28.23271679392792, 36.81886431053132], [28.233076120041545, 36.81886431053132], [28.233076120041545, 36.81868464747449], [28.232896456984747, 36.81868464747449], [28.232896456984747, 36.81850498441767], [28.233076120041545, 36.81850498441767], [28.233076120041545, 36.818325321360845], [28.23325578309837, 36.818325321360845], [28.23325578309837, 36.81778633219037], [28.233435446155198, 36.81778633219037], [28.233435446155198, 36.817606669133546], [28.234693087552984, 36.817606669133546], [28.234693087552984, 36.81778633219037], [28.235052413666608, 36.81778633219037], [28.235052413666608, 36.817606669133546], [28.235232076723435, 36.817606669133546], [28.235232076723435, 36.81742700607673], [28.235591402837088, 36.81742700607673], [28.235591402837088, 36.817606669133546], [28.235771065893914, 36.817606669133546], [28.235771065893914, 36.81742700607673], [28.236310055064394, 36.81742700607673], [28.236310055064394, 36.8172473430199], [28.236849044234873, 36.8172473430199], [28.236849044234873, 36.817067679963074], [28.237208370348498, 36.817067679963074], [28.237208370348498, 36.816888016906255]], [[28.240801631485, 36.8217389194405], [28.240801631485, 36.821918582497325], [28.240621968428172, 36.821918582497325], [28.240621968428172, 36.8217389194405], [28.240801631485, 36.8217389194405]]]}, "id": "+1159043+262619", "properties": {"area_ha": 41.82149647591999, "count": 1309, "label": 1, "mean_dnbr": 0.3626597886102398}}, {"type": "Feature", "geometry": {"geodesic": false, "type": "Polygon", "coordinates": [[[28.341592606363207, 37.01775131443538], [28.34195193247683, 37.01775131443538], [28.34195193247683, 37.017930977492206], [28.342131595533658, 37.017930977492206], [28.342131595533658, 37.018110640549025], [28.342311258590485, 37.018110640549025], [28.342311258590485, 37.01829030360585], [28.34249092164731, 37.01829030360585], [28.34249092164731, 37.0186496297195], [28.342670584704138, 37.0186496297195], [28.342670584704138, 37.019008955833144], [28.342850247760964, 37.019008955833144], [28.342850247760964, 37.01972760806044], [28.342670584704138, 37.01972760806044], [28.342670584704138, 37.01990727111727], [28.342311258590485, 37.01990727111727], [28.342311258590485, 37.02008693417409], [28.341772269420034, 37.02008693417409], [28.341772269420034, 37.020266597230915], [28.34141294330638, 37.020266597230915], [28.34141294330638, 37.020446260287734], [28.340694291079075, 37.020446260287734], [28.340694291079075, 37.02062592334456], [28.340155301908595, 37.02062592334456], [28.340155301908595, 37.020446260287734], [28.33997563885177, 37.020446260287734], [28.33997563885177, 37.019547945003616], [28.340155301908595, 37.019547945003616], [28.340155301908595, 37.0193682819468], [28.34033496496542, 37.0193682819468], [28.34033496496542, 37.01918861888997], [28.340514628022248, 37.01918861888997], [28.340514628022248, 37.018829292776324], [28.340694291079075, 37.018829292776324], [28.340694291079075, 37.0186496297195], [28.3408739541359, 37.0186496297195], [28.3408739541359, 37.01846996666267], [28.341053617192728, 37.01846996666267], [28.341053617192728, 37.01829030360585], [28.341233280249554, 37.01829030360585], [28.341233280249554, 37.018110640549025], [28.34141294330638, 37.018110640549025], [28.34141294330638, 37.017930977492206], [28.341592606363207, 37.017930977492206], [28.341592606363207, 37.01775131443538]]]}, "id": "+1159625+261501", "properties": {"area_ha": 5.066684717443939, "count": 159, "label": 1, "mean_dnbr": 0.38750651086647114}}]}