{"type": "FeatureCollection", "columns": {"area_ha": "Number", "count": "Long<0, 4294967295>", "label": "Byte<0, 1>", "mean_dnbr": "Object", "system:index": "String"}, "features": [{"type": "Feature", "geometry": {"geodesic": false, "type": "Polygon", "coordinates": [[[28.261283219962905, 36.98235769224107], [28.261822209133385, 36.98235769224107], [28.261822209133385, 36.98253735529789], [28.26200187219021, 36.98253735529789], [28.26200187219021, 36.98271701835472], [28.262181535247038, 36.98271701835472], [28.262181535247038, 36.98289668141154], [28.262361198303864, 36.98289668141154], [28.262361198303864, 36.983076344468365], [28.26254086136069, 36.983076344468365], [28.26254086136069, 36.98325600752519], [28.26272052441749, 36.98325600752519], [28.26272052441749, 36.983974659752484], [28.26254086136069, 36.983974659752484], [28.26254086136069, 36.98415432280931], [28.261822209133385, 36.98415432280931], [28.261822209133385, 36.98433398586613], [28.261462883019732, 36.98433398586613], [28.261462883019732, 36.984513648922956], [28.260923893849252, 36.984513648922956], [28.260923893849252, 36.98433398586613], [28.260744230792426, 36.98433398586613], [28.260744230792426, 36.98415432280931], [28.260564567735628, 36.98415432280931], [28.260564567735628, 36.983974659752484], [28.2603849046788, 36.983974659752484], [28.2603849046788, 36.98379499669566], [28.260205241621975, 36.98379499669566], [28.260205241621975, 36.98343567058201], [28.2603849046788, 36.98343567058201], [28.2603849046788, 36.98325600752519], [28.260564567735628, 36.98325600752519], [28.260564567735628, 36.983076344468365], [28.260744230792426, 36.983076344468365], [28.260744230792426, 36.98289668141154], [28.260923893849252, 36.98289668141154], [28.260923893849252, 36.98271701835472], [28.26110355690608, 36.98271701835472], [28.26110355690608, 36.98253735529789], [28.261283219962905, 36.98253735529789], [28.261283219962905, 36.98235769224107]]]}, "id": "+1159179+261698", "properties": {"area_ha": 3.4750248142112796, "count": 109, "label": 1, "mean_dnbr": 0.6098967078620263}}, {"type": "Feature", "geometry": {"geodesic": false, "type": "Polygon", "coordinates": [[[28.342131595533658, 37.03571762011777], [28.342311258590485, 37.03571762011777], [28.342311258590485, 37.03589728317459], [28.34249092164731, 37.03589728317459], [28.34249092164731, 37.03607694623142], [28.342311258590485, 37.03607694623142], [28.342311258590485, 37.03625660928824], [28.34195193247683, 37.03625660928824], [28.34195193247683, 37.036436272345064], [28.342131595533658, 37.036436272345064], [28.342131595533658, 37.03679559845871], [28.34195193247683, 37.03679559845871], [28.34195193247683, 37.036975261515536], [28.342131595533658, 37.036975261515536], [28.342131595533658, 37.03715492457236], [28.342311258590485, 37.03715492457236], [28.342311258590485, 37.03733458762918], [28.342850247760964, 37.03733458762918], [28.342850247760964, 37.03751425068601], [28.34302991081779, 37.03751425068601], [28.34302991081779, 37.037693913742835], [28.343209573874617, 37.037693913742835], [28.343209573874617, 37.037873576799655], [28.343389236931444, 37.037873576799655], [28.343389236931444, 37.03805323985648], [28.343748563045096, 37.03805323985648], [28.343748563045096, 37.0382329029133], [28.343928226101895, 37.0382329029133], [28.343928226101895, 37.03805323985648], [28.34410788915872, 37.03805323985648], [28.34410788915872, 37.0382329029133], [28.344287552215548, 37.0382329029133], [28.344287552215548, 37.03859222902695], [28.34410788915872, 37.03859222902695], [28.34410788915872, 37.03877189208377], [28.343928226101895, 37.03877189208377], [28.343928226101895, 37.0389515551406], [28.343748563045096, 37.0389515551406], [28.343748563045096, 37.039131218197426], [28.34356889998827, 37.039131218197426], [28.34356889998827, 37.039310881254245], [28.343209573874617, 37.039310881254245], [28.343209573874617, 37.039131218197426], [28.34302991081779, 37.039131218197426], [28.34302991081779, 37.03877189208377], [28.342670584704138, 37.03877189208377], [28.342670584704138, 37.0389515551406], [28.342131595533658, 37.0389515551406], [28.342131595533658, 37.03877189208377], [28.34195193247683, 37.03877189208377], [28.34195193247683, 37.03859222902695], [28.341772269420034, 37.03859222902695], [28.341772269420034, 37.03841256597013], [28.341592606363207, 37.03841256597013], [28.341592606363207, 37.0382329029133], [28.341772269420034, 37.0382329029133], [28.341772269420034, 37.03805323985648], [28.34195193247683, 37.03805323985648], [28.34195193247683, 37.0382329029133], [28.342311258590485, 37.0382329029133], [28.342311258590485, 37.037693913742835], [28.342131595533658, 37.037693913742835], [28.342131595533658, 37.03751425068601], [28.34195193247683, 37.03751425068601], [28.34195193247683, 37.037693913742835], [28.341772269420034, 37.037693913742835], [28.341772269420034, 37.03751425068601], [28.341592606363207, 37.03751425068601], [28.341592606363207, 37.03733458762918], [28.341772269420034, 37.03733458762918], [28.341772269420034, 37.03715492457236], [28.34195193247683, 37.03715492457236], [28.34195193247683, 37.036975261515536], [28.341772269420034, 37.036975261515536], [28.341772269420034, 37.03679559845871], [28.341592606363207, 37.03679559845871], [28.341592606363207, 37.036436272345064], [28.341772269420034, 37.036436272345064], [28.341772269420034, 37.03625660928824], [28.341592606363207, 37.03625660928824], [28.341592606363207, 37.03607694623142], [28.341772269420034, 37.03607694623142], [28.341772269420034, 37.03589728317459], [28.342131595533658, 37.03589728317459], [28.342131595533658, 37.03571762011777]]]}, "id": "+1159627+261401", "properties": {"area_ha": 3.5043932301807863, "count": 110, "label": 1, "mean_dnbr": 0.29983606058096507}}, {"type": "Feature", "geometry": {"geodesic": false, "type": "Polygon", "coordinates": [[[28.365667455977587, 37.03086671758352], [28.366206445148066, 37.03086671758352], [28.366206445148066, 37.03104638064035], [28.366386108204892, 37.03104638064035], [28.366386108204892, 37.031226043697174], [28.36656577126172, 37.031226043697174], [28.36656577126172, 37.031765032867646], [28.366745434318545, 37.031765032867646], [28.366745434318545, 37.03212435898129], [28.36656577126172, 37.03212435898129], [28.36656577126172, 37.032663348151765], [28.366386108204892, 37.032663348151765], [28.366386108204892, 37.032843011208584], [28.365667455977587, 37.032843011208584], [28.365667455977587, 37.032663348151765], [28.365128466807136, 37.032663348151765], [28.365128466807136, 37.03248368509494], [28.36494880375031, 37.03248368509494], [28.36494880375031, 37.03230402203811], [28.364769140693483, 37.03230402203811], [28.364769140693483, 37.03212435898129], [28.364589477636656, 37.03212435898129], [28.364589477636656, 37.031944695924466], [28.36440981457983, 37.031944695924466], [28.36440981457983, 37.03158536981082], [28.364230151523003, 37.03158536981082], [28.364230151523003, 37.03104638064035], [28.36440981457983, 37.03104638064035], [28.36440981457983, 37.03086671758352], [28.365128466807136, 37.03086671758352], [28.365128466807136, 37.03104638064035], [28.365667455977587, 37.03104638064035], [28.365667455977587, 37.03086671758352]]]}, "id": "+1159760+261428", "properties": {"area_ha": 3.60026057387685, "count": 113, "label": 1, "mean_dnbr": 0.51181878658273}}, {"type": "Feature", "geometry": {"geodesic": false, "type": "Polygon", "coordinates": [[[28.374111619648318, 37.03499896789047], [28.374291282705144, 37.03499896789047], [28.374291282705144, 37.0351786309473], [28.37447094576197, 37.0351786309473], [28.37447094576197, 37.03535829400412], [28.374291282705144, 37.03535829400412], [28.374291282705144, 37.035537957060946], [28.374650608818797, 37.035537957060946], [28.374650608818797, 37.03535829400412], [28.3755489241029, 37.03535829400412], [28.3755489241029, 37.035537957060946], [28.375728587159728, 37.035537957060946], [28.375728587159728, 37.03589728317459], [28.3755489241029, 37.03589728317459], [28.3755489241029, 37.03607694623142], [28.375369261046103, 37.03607694623142], [28.375369261046103, 37.03625660928824], [28.375189597989277, 37.03625660928824], [28.375189597989277, 37.036436272345064], [28.37447094576197, 37.036436272345064], [28.37447094576197, 37.03661593540189], [28.374111619648318, 37.03661593540189], [28.374111619648318, 37.036975261515536], [28.374291282705144, 37.036975261515536], [28.374291282705144, 37.03733458762918], [28.374111619648318, 37.03733458762918], [28.374111619648318, 37.03751425068601], [28.37393195659149, 37.03751425068601], [28.37393195659149, 37.03733458762918], [28.373752293534665, 37.03733458762918], [28.373752293534665, 37.036975261515536], [28.373572630477838, 37.036975261515536], [28.373572630477838, 37.036436272345064], [28.373033641307387, 37.036436272345064], [28.373033641307387, 37.03661593540189], [28.373213304364214, 37.03661593540189], [28.373213304364214, 37.03679559845871], [28.373033641307387, 37.03679559845871], [28.373033641307387, 37.036975261515536], [28.37285397825056, 37.036975261515536], [28.37285397825056, 37.03715492457236], [28.372494652136908, 37.03715492457236], [28.372494652136908, 37.036975261515536], [28.37231498908008, 37.036975261515536], [28.37231498908008, 37.03679559845871], [28.372494652136908, 37.03679559845871], [28.372494652136908, 37.03661593540189], [28.372674315193734, 37.03661593540189], [28.372674315193734, 37.036436272345064], [28.373033641307387, 37.036436272345064], [28.373033641307387, 37.03625660928824], [28.37285397825056, 37.03625660928824], [28.37285397825056, 37.03589728317459], [28.373033641307387, 37.03589728317459], [28.373033641307387, 37.035537957060946], [28.373213304364214, 37.035537957060946], [28.373213304364214, 37.03535829400412], [28.37339296742104, 37.03535829400412], [28.37339296742104, 37.0351786309473], [28.373572630477838, 37.0351786309473], [28.373572630477838, 37.03535829400412], [28.373752293534665, 37.03535829400412], [28.373752293534665, 37.035537957060946], [28.37393195659149, 37.035537957060946], [28.37393195659149, 37.0351786309473], [28.374111619648318, 37.0351786309473], [28.374111619648318, 37.03499896789047]]]}, "id": "+1159805+261405", "properties": {"area_ha": 3.69563134792685, "count": 116, "label": 1, "mean_dnbr": 0.32781054688944955}}, {"type": "Feature", "geometry": {"geodesic": false, "type": "Polygon", "coordinates": [[[28.38740668585328, 37.031226043697174], [28.388125338080584, 37.031226043697174], [28.388125338080584, 37.03140570675399], [28.38830500113741, 37.03140570675399], [28.38830500113741, 37.031944695924466], [28.388125338080584, 37.031944695924466], [28.388125338080584, 37.03212435898129], [28.387945675023758, 37.03212435898129], [28.387945675023758, 37.03230402203811], [28.38776601196693, 37.03230402203811], [28.38776601196693, 37.03248368509494], [28.387586348910105, 37.03248368509494], [28.387586348910105, 37.032663348151765], [28.38740668585328, 37.032663348151765], [28.38740668585328, 37.032843011208584], [28.38722702279648, 37.032843011208584], [28.38722702279648, 37.03302267426541], [28.387047359739654, 37.03302267426541], [28.387047359739654, 37.033382000379056], [28.386867696682827, 37.033382000379056], [28.386867696682827, 37.03356166343588], [28.386508370569175, 37.03356166343588], [28.386508370569175, 37.03374132649271], [28.386328707512348, 37.03374132649271], [28.386328707512348, 37.03392098954953], [28.38614904445552, 37.03392098954953], [28.38614904445552, 37.034100652606355], [28.38578971834187, 37.034100652606355], [28.38578971834187, 37.03392098954953], [28.385610055285042, 37.03392098954953], [28.385610055285042, 37.03374132649271], [28.385430392228216, 37.03374132649271], [28.385430392228216, 37.033382000379056], [28.385610055285042, 37.033382000379056], [28.385610055285042, 37.03302267426541], [28.38578971834187, 37.03302267426541], [28.38578971834187, 37.032843011208584], [28.38614904445552, 37.032843011208584], [28.38614904445552, 37.032663348151765], [28.386328707512348, 37.032663348151765], [28.386328707512348, 37.03230402203811], [28.386508370569175, 37.03230402203811], [28.386508370569175, 37.03212435898129], [28.386688033626, 37.03212435898129], [28.386688033626, 37.031944695924466], [28.387047359739654, 37.031944695924466], [28.387047359739654, 37.03158536981082], [28.38722702279648, 37.03158536981082], [28.38722702279648, 37.03140570675399], [28.38740668585328, 37.03140570675399], [28.38740668585328, 37.031226043697174]]]}, "id": "+1159882+261426", "properties": {"area_ha": 3.377198171771403, "count": 106, "label": 1, "mean_dnbr": 0.40423606126731737}}]}