{"type": "FeatureCollection", "columns": {"area_ha": "Number", "count": "Long<0, 4294967295>", "label": "Byte<0, 1>", "mean_dnbr": "Object", "system:index": "String"}, "features": [{"type": "Feature", "geometry": {"geodesic": false, "type": "Polygon", "coordinates": [[[27.952801751396265, 37.018110640549025], [27.953340740566745, 37.018110640549025], [27.953340740566745, 37.01829030360585], [27.95423905585085, 37.01829030360585], [27.95423905585085, 37.01846996666267], [27.954418718907675, 37.01846996666267], [27.954418718907675, 37.0186496297195], [27.9545983819645, 37.0186496297195], [27.9545983819645, 37.01972760806044], [27.954418718907675, 37.01972760806044], [27.954418718907675, 37.01990727111727], [27.95352040362357, 37.01990727111727], [27.95352040362357, 37.01972760806044], [27.95262208833944, 37.01972760806044], [27.95262208833944, 37.019547945003616], [27.952442425282612, 37.019547945003616], [27.952442425282612, 37.01918861888997], [27.95262208833944, 37.01918861888997], [27.95262208833944, 37.019008955833144], [27.952442425282612, 37.019008955833144], [27.952442425282612, 37.0186496297195], [27.95262208833944, 37.0186496297195], [27.95262208833944, 37.01829030360585], [27.952801751396265, 37.01829030360585], [27.952801751396265, 37.018110640549025]]]}, "id": "+1157462+261499", "properties": {"area_ha": 3.0910075625610776, "count": 97, "label": 1, "mean_dnbr": 0.3267502598185294}}, {"type": "Feature", "geometry": {"geodesic": false, "type": "Polygon", "coordinates": [[[28.145759874425153, 36.83629162704324], [28.146119200538777, 36.83629162704324], [28.146119200538777, 36.83647129010006], [28.146298863595604, 36.83647129010006], [28.146298863595604, 36.83683061621371], [28.14647852665243, 36.83683061621371], [28.14647852665243, 36.83701027927053], [28.146658189709257, 36.83701027927053], [28.146658189709257, 36.837189942327356], [28.146837852766083, 36.837189942327356], [28.146837852766083, 36.83701027927053], [28.147197178879736, 36.83701027927053], [28.147197178879736, 36.837189942327356], [28.147736168050216, 36.837189942327356], [28.147736168050216, 36.837369605384175], [28.147915831107014, 36.837369605384175], [28.147915831107014, 36.83844758372512], [28.14809549416384, 36.83844758372512], [28.14809549416384, 36.83862724678195], [28.147915831107014, 36.83862724678195], [28.147915831107014, 36.83880690983877], [28.14809549416384, 36.83880690983877], [28.14809549416384, 36.83916623595242], [28.148275157220667, 36.83916623595242], [28.148275157220667, 36.83880690983877], [28.148454820277493, 36.83880690983877], [28.148454820277493, 36.83862724678195], [28.148814146391146, 36.83862724678195], [28.148814146391146, 36.83880690983877], [28.148993809447973, 36.83880690983877], [28.148993809447973, 36.83916623595242], [28.148814146391146, 36.83916623595242], [28.148814146391146, 36.83970522512289], [28.148993809447973, 36.83970522512289], [28.148993809447973, 36.839525562066065], [28.1491734725048, 36.839525562066065], [28.1491734725048, 36.83970522512289], [28.149353135561626, 36.83970522512289], [28.149353135561626, 36.840244214293364], [28.1491734725048, 36.840244214293364], [28.1491734725048, 36.84042387735018], [28.149532798618452, 36.84042387735018], [28.149532798618452, 36.84060354040701], [28.150071787788903, 36.84060354040701], [28.150071787788903, 36.840783203463836], [28.15025145084573, 36.840783203463836], [28.15025145084573, 36.840962866520655], [28.150071787788903, 36.840962866520655], [28.150071787788903, 36.84114252957748], [28.148814146391146, 36.84114252957748], [28.148814146391146, 36.840962866520655], [28.14863448333432, 36.840962866520655], [28.14863448333432, 36.840783203463836], [28.147376841936563, 36.840783203463836], [28.147376841936563, 36.84060354040701], [28.147197178879736, 36.84060354040701], [28.147197178879736, 36.84042387735018], [28.146837852766083, 36.84042387735018], [28.146837852766083, 36.840244214293364], [28.146658189709257, 36.840244214293364], [28.146658189709257, 36.84006455123654], [28.146837852766083, 36.84006455123654], [28.146837852766083, 36.83988488817971], [28.14701751582291, 36.83988488817971], [28.14701751582291, 36.83970522512289], [28.147197178879736, 36.83970522512289], [28.147197178879736, 36.839525562066065], [28.146837852766083, 36.839525562066065], [28.146837852766083, 36.83970522512289], [28.146658189709257, 36.83970522512289], [28.146658189709257, 36.83988488817971], [28.14647852665243, 36.83988488817971], [28.14647852665243, 36.83970522512289], [28.146298863595604, 36.83970522512289], [28.146298863595604, 36.839525562066065], [28.146119200538777, 36.839525562066065], [28.146119200538777, 36.83898657289559], [28.146298863595604, 36.83898657289559], [28.146298863595604, 36.83880690983877], [28.146658189709257, 36.83880690983877], [28.146658189709257, 36.83862724678195], [28.146837852766083, 36.83862724678195], [28.146837852766083, 36.8382679206683], [28.14593953748195, 36.8382679206683], [28.14593953748195, 36.838088257611474], [28.145759874425153, 36.838088257611474], [28.145759874425153, 36.83790859455465], [28.145580211368326, 36.83790859455465], [28.145580211368326, 36.83772893149783], [28.1454005483115, 36.83772893149783], [28.1454005483115, 36.837549268441], [28.145580211368326, 36.837549268441], [28.145580211368326, 36.837369605384175], [28.145759874425153, 36.837369605384175], [28.145759874425153, 36.83701027927053], [28.145580211368326, 36.83701027927053], [28.145580211368326, 36.83683061621371], [28.1454005483115, 36.83683061621371], [28.1454005483115, 36.836650953156884], [28.145220885254673, 36.836650953156884], [28.145220885254673, 36.83683061621371], [28.144681896084194, 36.83683061621371], [28.144681896084194, 36.836650953156884], [28.144502233027367, 36.836650953156884], [28.144502233027367, 36.83647129010006], [28.144681896084194, 36.83647129010006], [28.144681896084194, 36.83629162704324], [28.145220885254673, 36.83629162704324], [28.145220885254673, 36.83647129010006], [28.1454005483115, 36.83647129010006], [28.1454005483115, 36.836650953156884], [28.145580211368326, 36.836650953156884], [28.145580211368326, 36.83647129010006], [28.145759874425153, 36.83647129010006], [28.145759874425153, 36.83629162704324]], [[28.148814146391146, 36.83970522512289], [28.148814146391146, 36.84006455123654], [28.148454820277493, 36.84006455123654], [28.148454820277493, 36.83988488817971], [28.14863448333432, 36.83988488817971], [28.14863448333432, 36.83970522512289], [28.148814146391146, 36.83970522512289]]]}, "id": "+1158535+262511", "properties": {"area_ha": 9.550495774069907, "count": 299, "label": 1, "mean_dnbr": 0.19045404040104671}}, {"type": "Feature", "geometry": {"geodesic": false, "type": "Polygon", "coordinates": [[[28.211157227109055, 36.85138332381644], [28.211336890165853, 36.85138332381644], [28.211336890165853, 36.85156298687327], [28.21151655322268, 36.85156298687327], [28.21151655322268, 36.851922312986915], [28.211696216279506, 36.851922312986915], [28.211696216279506, 36.85210197604374], [28.21205554239316, 36.85210197604374], [28.21205554239316, 36.85228163910056], [28.212235205449986, 36.85228163910056], [28.212235205449986, 36.851922312986915], [28.212414868506812, 36.851922312986915], [28.212414868506812, 36.85174264993009], [28.212774194620465, 36.85174264993009], [28.212774194620465, 36.851922312986915], [28.213852172961396, 36.851922312986915], [28.213852172961396, 36.85174264993009], [28.214031836018222, 36.85174264993009], [28.214031836018222, 36.851922312986915], [28.21421149907505, 36.851922312986915], [28.21421149907505, 36.85264096521421], [28.214031836018222, 36.85264096521421], [28.214031836018222, 36.85282062827103], [28.21367250990457, 36.85282062827103], [28.21367250990457, 36.85264096521421], [28.21295385767729, 36.85264096521421], [28.21295385767729, 36.85282062827103], [28.212774194620465, 36.85282062827103], [28.212774194620465, 36.85300029132786], [28.212414868506812, 36.85300029132786], [28.212414868506812, 36.85317995438468], [28.21259453156364, 36.85317995438468], [28.21259453156364, 36.85353928049833], [28.212414868506812, 36.85353928049833], [28.212414868506812, 36.85389860661198], [28.212235205449986, 36.85389860661198], [28.212235205449986, 36.854078269668804], [28.21205554239316, 36.854078269668804], [28.21205554239316, 36.85389860661198], [28.211875879336333, 36.85389860661198], [28.211875879336333, 36.85371894355515], [28.211696216279506, 36.85371894355515], [28.211696216279506, 36.85317995438468], [28.211875879336333, 36.85317995438468], [28.211875879336333, 36.85282062827103], [28.21151655322268, 36.85282062827103], [28.21151655322268, 36.85264096521421], [28.211336890165853, 36.85264096521421], [28.211336890165853, 36.85246130215739], [28.211157227109055, 36.85246130215739], [28.211157227109055, 36.85210197604374], [28.21097756405223, 36.85210197604374], [28.21097756405223, 36.851922312986915], [28.210797900995402, 36.851922312986915], [28.210797900995402, 36.85174264993009], [28.21097756405223, 36.85174264993009], [28.21097756405223, 36.85156298687327], [28.211157227109055, 36.85156298687327], [28.211157227109055, 36.85138332381644]]]}, "id": "+1158898+262427", "properties": {"area_ha": 3.544868397763792, "count": 111, "label": 1, "mean_dnbr": 0.17803740366772655}}]}