{"type": "FeatureCollection", "crs": {"type": "name", "properties": {"name": "urn:ogc:def:crs:OGC:1.3:CRS84"}}, "features": [{"type": "Feature", "geometry": {"geodesic": false, "type": "Polygon", "coordinates": [[[26.597782976830388, 38.476435672788654], [26.598321966000867, 38.476435672788654], [26.598321966000867, 38.476974661959126], [26.598860955171347, 38.476974661959126], [26.598860955171347, 38.4775136511296], [26.600477922682757, 38.4775136511296], [26.600477922682757, 38.47859162947054], [26.601555901023715, 38.47859162947054], [26.601555901023715, 38.47966960781148], [26.599938933512277, 38.47966960781148], [26.599938933512277, 38.47913061864101], [26.599399944341826, 38.47913061864101], [26.599399944341826, 38.47859162947054], [26.597782976830388, 38.47859162947054], [26.597782976830388, 38.476435672788654]]]}, "properties": {"area_ha": 5.623885813454366, "mean_dnbr": 0.4474475620119885, "compactness": 0.373, "rectangularity": 0.526, "cropland_frac": 0, "persistent": true, "brightness_delta": -0.014}}, {"type": "Feature", "geometry": {"geodesic": false, "type": "Polygon", "coordinates": [[[26.787507164836455, 38.29803025736252], [26.788046154006906, 38.29803025736252], [26.788046154006906, 38.298569246532985], [26.785351208154566, 38.298569246532985], [26.785351208154566, 38.29964722487393], [26.784812218984086, 38.29964722487393], [26.784812218984086, 38.3001862140444], [26.784273229813607, 38.3001862140444], [26.784273229813607, 38.29964722487393], [26.784812218984086, 38.29964722487393], [26.784812218984086, 38.29910823570346], [26.784273229813607, 38.29910823570346], [26.784273229813607, 38.298569246532985], [26.783734240643156, 38.298569246532985], [26.783734240643156, 38.29803025736252], [26.784273229813607, 38.29803025736252], [26.784273229813607, 38.296952279021575], [26.784812218984086, 38.296952279021575], [26.784812218984086, 38.29587430068063], [26.788046154006906, 38.29587430068063], [26.788046154006906, 38.29749126819205], [26.787507164836455, 38.29749126819205], [26.787507164836455, 38.29803025736252]]]}, "properties": {"area_ha": 10.430213920274795, "mean_dnbr": 0.40512358217107597, "compactness": 0.363, "rectangularity": 0.578, "cropland_frac": 0, "persistent": true, "brightness_delta": -0.031}}, {"type": "Feature", "geometry": {"geodesic": false, "type": "Polygon", "coordinates": [[[26.788046154006906, 38.30126419238535], [26.788585143177386, 38.30126419238535], [26.788585143177386, 38.30180318155582], [26.788046154006906, 38.30180318155582], [26.788046154006906, 38.30234217072629], [26.787507164836455, 38.30234217072629], [26.787507164836455, 38.302881159896764], [26.786429186495496, 38.302881159896764], [26.786429186495496, 38.303420149067236], [26.786968175665976, 38.303420149067236], [26.786968175665976, 38.30395913823771], [26.786429186495496, 38.30395913823771], [26.786429186495496, 38.30449812740817], [26.785890197325017, 38.30449812740817], [26.785890197325017, 38.305037116578646], [26.784812218984086, 38.305037116578646], [26.784812218984086, 38.30557610574912], [26.783734240643156, 38.30557610574912], [26.783734240643156, 38.30611509491959], [26.784273229813607, 38.30611509491959], [26.784273229813607, 38.307193073260535], [26.781578283961267, 38.307193073260535], [26.781578283961267, 38.305037116578646], [26.782656262302197, 38.305037116578646], [26.782656262302197, 38.30449812740817], [26.782117273131718, 38.30449812740817], [26.782117273131718, 38.30395913823771], [26.783195251472677, 38.30395913823771], [26.783195251472677, 38.302881159896764], [26.782117273131718, 38.302881159896764], [26.782117273131718, 38.30234217072629], [26.783734240643156, 38.30234217072629], [26.783734240643156, 38.30180318155582], [26.784273229813607, 38.30180318155582], [26.784273229813607, 38.30234217072629], [26.783734240643156, 38.30234217072629], [26.783734240643156, 38.302881159896764], [26.784273229813607, 38.302881159896764], [26.784273229813607, 38.303420149067236], [26.784812218984086, 38.303420149067236], [26.784812218984086, 38.30395913823771], [26.785351208154566, 38.30395913823771], [26.785351208154566, 38.302881159896764], [26.785890197325017, 38.302881159896764], [26.785890197325017, 38.30234217072629], [26.786429186495496, 38.30234217072629], [26.786429186495496, 38.30180318155582], [26.786968175665976, 38.30180318155582], [26.786968175665976, 38.30126419238535], [26.787507164836455, 38.30126419238535], [26.787507164836455, 38.30180318155582], [26.788046154006906, 38.30180318155582], [26.788046154006906, 38.30126419238535]]]}, "properties": {"area_ha": 15.784795950050366, "mean_dnbr": 0.32492103412149764, "compactness": 0.144, "rectangularity": 0.394, "cropland_frac": 0, "persistent": true, "brightness_delta": -0.004}}, {"type": "Feature", "geometry": {"geodesic": false, "type": "Polygon", "coordinates": [[[26.91255265238587, 38.5632129292346], [26.91309164155635, 38.5632129292346], [26.91309164155635, 38.56482989674601], [26.91363063072683, 38.56482989674601], [26.91363063072683, 38.56590787508696], [26.914169619897308, 38.56590787508696], [26.914169619897308, 38.5669858534279], [26.91363063072683, 38.5669858534279], [26.91363063072683, 38.567524842598374], [26.91309164155635, 38.567524842598374], [26.91309164155635, 38.568063831768846], [26.91147467404494, 38.568063831768846], [26.91147467404494, 38.567524842598374], [26.90985770653353, 38.567524842598374], [26.90985770653353, 38.5669858534279], [26.90931871736305, 38.5669858534279], [26.90931871736305, 38.56644686425743], [26.90824073902212, 38.56644686425743], [26.90824073902212, 38.56590787508696], [26.90770174985164, 38.56590787508696], [26.90770174985164, 38.565368885916484], [26.90824073902212, 38.565368885916484], [26.90824073902212, 38.56482989674601], [26.90770174985164, 38.56482989674601], [26.90770174985164, 38.56429090757554], [26.90877972819257, 38.56429090757554], [26.90877972819257, 38.56482989674601], [26.90931871736305, 38.56482989674601], [26.90931871736305, 38.56429090757554], [26.90985770653353, 38.56429090757554], [26.90985770653353, 38.56375191840507], [26.91039669570401, 38.56375191840507], [26.91039669570401, 38.5632129292346], [26.91147467404494, 38.5632129292346], [26.91147467404494, 38.56375191840507], [26.91255265238587, 38.56375191840507], [26.91255265238587, 38.5632129292346]]]}, "properties": {"area_ha": 19.378856303515853, "mean_dnbr": 0.31213595570337527, "compactness": 0.378, "rectangularity": 0.639, "cropland_frac": 0.037, "persistent": true, "brightness_delta": -0.207}}, {"type": "Feature", "geometry": {"geodesic": false, "type": "Polygon", "coordinates": [[[27.09958189453957, 38.600403181997144], [27.1006598728805, 38.600403181997144], [27.1006598728805, 38.60148116033809], [27.100120883710048, 38.60148116033809], [27.100120883710048, 38.60202014950856], [27.09958189453957, 38.60202014950856], [27.09958189453957, 38.602559138679034], [27.09904290536909, 38.602559138679034], [27.09904290536909, 38.603098127849506], [27.09796492702816, 38.603098127849506], [27.09796492702816, 38.60202014950856], [27.09850391619861, 38.60202014950856], [27.09850391619861, 38.60094217116762], [27.09958189453957, 38.60094217116762], [27.09958189453957, 38.600403181997144]]]}, "properties": {"area_ha": 3.929967565719329, "mean_dnbr": 0.37805287749522243, "compactness": 0.433, "rectangularity": 0.56, "cropland_frac": 0.022, "persistent": true, "brightness_delta": -0.364}}]}