{"type": "FeatureCollection", "crs": {"type": "name", "properties": {"name": "urn:ogc:def:crs:OGC:1.3:CRS84"}}, "features": [{"type": "Feature", "geometry": {"geodesic": false, "type": "Polygon", "coordinates": [[[26.597782976830388, 38.476435672788654], [26.598321966000867, 38.476435672788654], [26.598321966000867, 38.476974661959126], [26.598860955171347, 38.476974661959126], [26.598860955171347, 38.4775136511296], [26.600477922682757, 38.4775136511296], [26.600477922682757, 38.47859162947054], [26.601555901023715, 38.47859162947054], [26.601555901023715, 38.47966960781148], [26.599938933512277, 38.47966960781148], [26.599938933512277, 38.47859162947054], [26.597782976830388, 38.47859162947054], [26.597782976830388, 38.476435672788654]]]}, "properties": {"area_ha": 5.342697797611839, "mean_dnbr": 0.4736134250851832, "compactness": 0.355, "rectangularity": 0.5, "cropland_frac": 0, "persistent": true, "brightness_delta": -0.015}}, {"type": "Feature", "geometry": {"geodesic": false, "type": "Polygon", "coordinates": [[[26.787507164836455, 38.298569246532985], [26.785351208154566, 38.298569246532985], [26.785351208154566, 38.29964722487393], [26.784812218984086, 38.29964722487393], [26.784812218984086, 38.3001862140444], [26.784273229813607, 38.3001862140444], [26.784273229813607, 38.29964722487393], [26.784812218984086, 38.29964722487393], [26.784812218984086, 38.29910823570346], [26.784273229813607, 38.29910823570346], [26.784273229813607, 38.298569246532985], [26.783734240643156, 38.298569246532985], [26.783734240643156, 38.29803025736252], [26.784812218984086, 38.29803025736252], [26.784812218984086, 38.29749126819205], [26.784273229813607, 38.29749126819205], [26.784273229813607, 38.296952279021575], [26.784812218984086, 38.296952279021575], [26.784812218984086, 38.29587430068063], [26.788046154006906, 38.29587430068063], [26.788046154006906, 38.29749126819205], [26.787507164836455, 38.29749126819205], [26.787507164836455, 38.298569246532985]]]}, "properties": {"area_ha": 9.866415087971685, "mean_dnbr": 0.4268678342330667, "compactness": 0.344, "rectangularity": 0.547, "cropland_frac": 0, "persistent": true, "brightness_delta": -0.028}}, {"type": "Feature", "geometry": {"geodesic": false, "type": "Polygon", "coordinates": [[[26.788046154006906, 38.30126419238535], [26.788585143177386, 38.30126419238535], [26.788585143177386, 38.30180318155582], [26.788046154006906, 38.30180318155582], [26.788046154006906, 38.30234217072629], [26.787507164836455, 38.30234217072629], [26.787507164836455, 38.302881159896764], [26.786429186495496, 38.302881159896764], [26.786429186495496, 38.303420149067236], [26.786968175665976, 38.303420149067236], [26.786968175665976, 38.30395913823771], [26.786429186495496, 38.30395913823771], [26.786429186495496, 38.30449812740817], [26.785890197325017, 38.30449812740817], [26.785890197325017, 38.305037116578646], [26.784812218984086, 38.305037116578646], [26.784812218984086, 38.30557610574912], [26.784273229813607, 38.30557610574912], [26.784273229813607, 38.307193073260535], [26.781578283961267, 38.307193073260535], [26.781578283961267, 38.305037116578646], [26.783195251472677, 38.305037116578646], [26.783195251472677, 38.30449812740817], [26.782117273131718, 38.30449812740817], [26.782117273131718, 38.30395913823771], [26.783195251472677, 38.30395913823771], [26.783195251472677, 38.302881159896764], [26.782117273131718, 38.302881159896764], [26.782117273131718, 38.30234217072629], [26.783734240643156, 38.30234217072629], [26.783734240643156, 38.30180318155582], [26.784273229813607, 38.30180318155582], [26.784273229813607, 38.30234217072629], [26.783734240643156, 38.30234217072629], [26.783734240643156, 38.302881159896764], [26.784273229813607, 38.302881159896764], [26.784273229813607, 38.303420149067236], [26.784812218984086, 38.303420149067236], [26.784812218984086, 38.30395913823771], [26.785351208154566, 38.30395913823771], [26.785351208154566, 38.302881159896764], [26.785890197325017, 38.302881159896764], [26.785890197325017, 38.30234217072629], [26.786429186495496, 38.30234217072629], [26.786429186495496, 38.30180318155582], [26.786968175665976, 38.30180318155582], [26.786968175665976, 38.30126419238535], [26.787507164836455, 38.30126419238535], [26.787507164836455, 38.30180318155582], [26.788046154006906, 38.30180318155582], [26.788046154006906, 38.30126419238535]], [[26.784273229813607, 38.305037116578646], [26.784273229813607, 38.30557610574912], [26.783734240643156, 38.30557610574912], [26.783734240643156, 38.305037116578646], [26.784273229813607, 38.305037116578646]]]}, "properties": {"area_ha": 15.50292223048789, "mean_dnbr": 0.3421923834542177, "compactness": 0.127, "rectangularity": 0.387, "cropland_frac": 0, "persistent": true, "brightness_delta": 0.0}}, {"type": "Feature", "geometry": {"geodesic": false, "type": "Polygon", "coordinates": [[[26.91255265238587, 38.5632129292346], [26.91309164155635, 38.5632129292346], [26.91309164155635, 38.56482989674601], [26.91363063072683, 38.56482989674601], [26.91363063072683, 38.56590787508696], [26.914169619897308, 38.56590787508696], [26.914169619897308, 38.567524842598374], [26.91309164155635, 38.567524842598374], [26.91309164155635, 38.568063831768846], [26.91093568487446, 38.568063831768846], [26.91093568487446, 38.567524842598374], [26.90985770653353, 38.567524842598374], [26.90985770653353, 38.5669858534279], [26.90931871736305, 38.5669858534279], [26.90931871736305, 38.56644686425743], [26.90770174985164, 38.56644686425743], [26.90770174985164, 38.565368885916484], [26.90824073902212, 38.565368885916484], [26.90824073902212, 38.56482989674601], [26.90770174985164, 38.56482989674601], [26.90770174985164, 38.56429090757554], [26.90877972819257, 38.56429090757554], [26.90877972819257, 38.56482989674601], [26.90931871736305, 38.56482989674601], [26.90931871736305, 38.56429090757554], [26.90985770653353, 38.56429090757554], [26.90985770653353, 38.56375191840507], [26.91039669570401, 38.56375191840507], [26.91039669570401, 38.5632129292346], [26.91147467404494, 38.5632129292346], [26.91147467404494, 38.56375191840507], [26.91255265238587, 38.56375191840507], [26.91255265238587, 38.5632129292346]]]}, "properties": {"area_ha": 20.221403126775005, "mean_dnbr": 0.3233267079323549, "compactness": 0.395, "rectangularity": 0.667, "cropland_frac": 0.054, "persistent": true, "brightness_delta": -0.201}}, {"type": "Feature", "geometry": {"geodesic": false, "type": "Polygon", "coordinates": [[[27.04945590168569, 38.76802881401385], [27.0510728691971, 38.76802881401385], [27.0510728691971, 38.76910679235479], [27.04999489085617, 38.76910679235479], [27.04999489085617, 38.770184770695735], [27.04891691251524, 38.770184770695735], [27.04891691251524, 38.76856780318432], [27.04945590168569, 38.76856780318432], [27.04945590168569, 38.76802881401385]]]}, "properties": {"area_ha": 3.0806208918898674, "mean_dnbr": 0.3473059530126522, "compactness": 0.532, "rectangularity": 0.688, "cropland_frac": 0, "persistent": true, "brightness_delta": 0.046}}]}