{"type": "FeatureCollection", "crs": {"type": "name", "properties": {"name": "urn:ogc:def:crs:OGC:1.3:CRS84"}}, "features": [{"type": "Feature", "geometry": {"geodesic": false, "type": "Polygon", "coordinates": [[[26.22210752501161, 39.217006793016786], [26.222646514182088, 39.217006793016786], [26.222646514182088, 39.2186237605282], [26.22210752501161, 39.2186237605282], [26.22210752501161, 39.219162749698675], [26.21995156832972, 39.219162749698675], [26.21995156832972, 39.21970173886915], [26.21941257915927, 39.21970173886915], [26.21941257915927, 39.219162749698675], [26.21995156832972, 39.219162749698675], [26.21995156832972, 39.21754578218726], [26.221029546670678, 39.21754578218726], [26.221029546670678, 39.217006793016786], [26.221568535841158, 39.217006793016786], [26.221568535841158, 39.21754578218726], [26.22210752501161, 39.21754578218726], [26.22210752501161, 39.217006793016786]]]}, "properties": {"area_ha": 4.73083861915163, "mean_dnbr": 0.42769541272286343, "compactness": 0.365, "rectangularity": 0.567, "cropland_frac": 0.103, "persistent": true, "brightness_delta": 0.001}}, {"type": "Feature", "geometry": {"geodesic": false, "type": "Polygon", "coordinates": [[[26.224802470863978, 39.21377285799396], [26.225880449204908, 39.21377285799396], [26.225880449204908, 39.21538982550537], [26.227497416716346, 39.21538982550537], [26.227497416716346, 39.216467803846314], [26.226419438375387, 39.216467803846314], [26.226419438375387, 39.21808477135773], [26.225341460034457, 39.21808477135773], [26.225341460034457, 39.217006793016786], [26.224802470863978, 39.217006793016786], [26.224802470863978, 39.21538982550537], [26.225341460034457, 39.21538982550537], [26.225341460034457, 39.2148508363349], [26.224263481693498, 39.2148508363349], [26.224263481693498, 39.21431184716443], [26.224802470863978, 39.21431184716443], [26.224802470863978, 39.21377285799396]]]}, "properties": {"area_ha": 6.400748655428609, "mean_dnbr": 0.3590823171223547, "compactness": 0.311, "rectangularity": 0.491, "cropland_frac": 0.181, "persistent": true, "brightness_delta": 0.024}}]}