{"type": "FeatureCollection", "crs": {"type": "name", "properties": {"name": "urn:ogc:def:crs:OGC:1.3:CRS84"}}, "features": [{"type": "Feature", "geometry": {"geodesic": false, "type": "Polygon", "coordinates": [[[26.91147467404494, 39.072018706159895], [26.91309164155635, 39.072018706159895], [26.91309164155635, 39.07309668450084], [26.916325576579197, 39.07309668450084], [26.916325576579197, 39.07255769533037], [26.91686456574965, 39.07255769533037], [26.91686456574965, 39.07309668450084], [26.917403554920128, 39.07309668450084], [26.917403554920128, 39.07255769533037], [26.917942544090607, 39.07255769533037], [26.917942544090607, 39.07309668450084], [26.919020522431538, 39.07309668450084], [26.919020522431538, 39.07363567367131], [26.919559511602017, 39.07363567367131], [26.919559511602017, 39.07309668450084], [26.921176479113427, 39.07309668450084], [26.921176479113427, 39.07471365201226], [26.922254457454386, 39.07471365201226], [26.922254457454386, 39.0757916303532], [26.922793446624837, 39.0757916303532], [26.922793446624837, 39.07740859786461], [26.922254457454386, 39.07740859786461], [26.922254457454386, 39.077947587035084], [26.921176479113427, 39.077947587035084], [26.921176479113427, 39.07740859786461], [26.920098500772497, 39.07740859786461], [26.920098500772497, 39.078486576205556], [26.91848153326106, 39.078486576205556], [26.91848153326106, 39.08010354371697], [26.917403554920128, 39.08010354371697], [26.917403554920128, 39.080642532887445], [26.91524759823824, 39.080642532887445], [26.91524759823824, 39.08118152205792], [26.91470860906776, 39.08118152205792], [26.91470860906776, 39.08010354371697], [26.91524759823824, 39.08010354371697], [26.91524759823824, 39.07902556537603], [26.917403554920128, 39.07902556537603], [26.917403554920128, 39.07740859786461], [26.91470860906776, 39.07740859786461], [26.91470860906776, 39.07633061952367], [26.91147467404494, 39.07633061952367], [26.91147467404494, 39.07686960869414], [26.91093568487446, 39.07686960869414], [26.91093568487446, 39.07740859786461], [26.90985770653353, 39.07740859786461], [26.90985770653353, 39.07686960869414], [26.90824073902212, 39.07686960869414], [26.90824073902212, 39.0757916303532], [26.90770174985164, 39.0757916303532], [26.90770174985164, 39.07525264118273], [26.90716276068116, 39.07525264118273], [26.90716276068116, 39.07309668450084], [26.90931871736305, 39.07309668450084], [26.90931871736305, 39.07255769533037], [26.91039669570401, 39.07255769533037], [26.91039669570401, 39.07309668450084], [26.91093568487446, 39.07309668450084], [26.91093568487446, 39.07255769533037], [26.91147467404494, 39.07255769533037], [26.91147467404494, 39.072018706159895]]]}, "properties": {"area_ha": 66.92378679338384, "mean_dnbr": 0.3622614437609318, "compactness": 0.23, "rectangularity": 0.494, "cropland_frac": 0.0, "persistent": true, "brightness_delta": -0.335}}]}