{"type": "FeatureCollection", "crs": {"type": "name", "properties": {"name": "urn:ogc:def:crs:OGC:1.3:CRS84"}}, "features": [{"type": "Feature", "geometry": {"geodesic": false, "type": "Polygon", "coordinates": [[[25.908954816967565, 38.5308735790063], [25.909493806138016, 38.5308735790063], [25.909493806138016, 38.53141256817677], [25.910032795308496, 38.53141256817677], [25.910032795308496, 38.53195155734724], [25.910571784478975, 38.53195155734724], [25.910571784478975, 38.533029535688186], [25.911649762819906, 38.533029535688186], [25.911649762819906, 38.53195155734724], [25.912727741160865, 38.53195155734724], [25.912727741160865, 38.532490546517714], [25.913266730331316, 38.532490546517714], [25.913266730331316, 38.53195155734724], [25.914883697842754, 38.53195155734724], [25.914883697842754, 38.534107514029124], [25.916500665354164, 38.534107514029124], [25.916500665354164, 38.534646503199596], [25.917039654524615, 38.534646503199596], [25.917039654524615, 38.534107514029124], [25.917578643695094, 38.534107514029124], [25.917578643695094, 38.53518549237007], [25.918656622036053, 38.53518549237007], [25.918656622036053, 38.534646503199596], [25.919195611206504, 38.534646503199596], [25.919195611206504, 38.534107514029124], [25.920812578717943, 38.534107514029124], [25.920812578717943, 38.53734144905196], [25.921351567888394, 38.53734144905196], [25.921351567888394, 38.53788043822243], [25.920812578717943, 38.53788043822243], [25.920812578717943, 38.5384194273929], [25.920273589547463, 38.5384194273929], [25.920273589547463, 38.53949740573384], [25.918117632865574, 38.53949740573384], [25.918117632865574, 38.540575384074785], [25.917578643695094, 38.540575384074785], [25.917578643695094, 38.54111437324526], [25.918117632865574, 38.54111437324526], [25.918117632865574, 38.54165336241573], [25.917578643695094, 38.54165336241573], [25.917578643695094, 38.54111437324526], [25.917039654524615, 38.54111437324526], [25.917039654524615, 38.54165336241573], [25.916500665354164, 38.54165336241573], [25.916500665354164, 38.5421923515862], [25.914883697842754, 38.5421923515862], [25.914883697842754, 38.542731340756674], [25.913805719501795, 38.542731340756674], [25.913805719501795, 38.540575384074785], [25.912727741160865, 38.540575384074785], [25.912727741160865, 38.54111437324526], [25.911649762819906, 38.54111437324526], [25.911649762819906, 38.540575384074785], [25.911110773649426, 38.540575384074785], [25.911110773649426, 38.53788043822243], [25.910571784478975, 38.53788043822243], [25.910571784478975, 38.53518549237007], [25.910032795308496, 38.53518549237007], [25.910032795308496, 38.534646503199596], [25.909493806138016, 38.534646503199596], [25.909493806138016, 38.534107514029124], [25.910032795308496, 38.534107514029124], [25.910032795308496, 38.532490546517714], [25.909493806138016, 38.532490546517714], [25.909493806138016, 38.53195155734724], [25.908954816967565, 38.53195155734724], [25.908954816967565, 38.5308735790063]], [[25.917578643695094, 38.54003639490431], [25.917578643695094, 38.540575384074785], [25.917039654524615, 38.540575384074785], [25.917039654524615, 38.54003639490431], [25.917578643695094, 38.54003639490431]], [[25.913266730331316, 38.538958416563375], [25.913266730331316, 38.54003639490431], [25.912727741160865, 38.54003639490431], [25.912727741160865, 38.53949740573384], [25.911649762819906, 38.53949740573384], [25.911649762819906, 38.538958416563375], [25.913266730331316, 38.538958416563375]], [[25.915961676183684, 38.53788043822243], [25.915961676183684, 38.5384194273929], [25.915422687013205, 38.5384194273929], [25.915422687013205, 38.53788043822243], [25.915961676183684, 38.53788043822243]], [[25.913805719501795, 38.53734144905196], [25.913805719501795, 38.53788043822243], [25.913266730331316, 38.53788043822243], [25.913266730331316, 38.53734144905196], [25.913805719501795, 38.53734144905196]], [[25.917578643695094, 38.536802459881486], [25.917578643695094, 38.53788043822243], [25.917039654524615, 38.53788043822243], [25.917039654524615, 38.536802459881486], [25.917578643695094, 38.536802459881486]], [[25.913266730331316, 38.53626347071101], [25.913266730331316, 38.53734144905196], [25.912727741160865, 38.53734144905196], [25.912727741160865, 38.53626347071101], [25.913266730331316, 38.53626347071101]], [[25.914344708672274, 38.53518549237007], [25.914344708672274, 38.53572448154054], [25.912727741160865, 38.53572448154054], [25.912727741160865, 38.53518549237007], [25.914344708672274, 38.53518549237007]], [[25.919734600376984, 38.53518549237007], [25.919734600376984, 38.53572448154054], [25.918656622036053, 38.53572448154054], [25.918656622036053, 38.53518549237007], [25.919734600376984, 38.53518549237007]], [[25.911649762819906, 38.534107514029124], [25.911649762819906, 38.53518549237007], [25.911110773649426, 38.53518549237007], [25.911110773649426, 38.534107514029124], [25.911649762819906, 38.534107514029124]], [[25.913266730331316, 38.533029535688186], [25.913266730331316, 38.53356852485865], [25.912727741160865, 38.53356852485865], [25.912727741160865, 38.534107514029124], [25.911649762819906, 38.534107514029124], [25.911649762819906, 38.533029535688186], [25.913266730331316, 38.533029535688186]]]}, "properties": {"area_ha": 68.55539411354164, "mean_dnbr": 0.2877389696853339, "compactness": 0.099, "rectangularity": 0.505, "cropland_frac": 0, "persistent": null, "brightness_delta": -0.184}}, {"type": "Feature", "geometry": {"geodesic": false, "type": "Polygon", "coordinates": [[[25.961236766503305, 38.56482989674601], [25.961775755673784, 38.56482989674601], [25.961775755673784, 38.56590787508696], [25.961236766503305, 38.56590787508696], [25.961236766503305, 38.5669858534279], [25.962853734014715, 38.5669858534279], [25.962853734014715, 38.56914181010979], [25.962314744844264, 38.56914181010979], [25.962314744844264, 38.57021978845073], [25.961775755673784, 38.57021978845073], [25.961775755673784, 38.5707587776212], [25.961236766503305, 38.5707587776212], [25.961236766503305, 38.57129776679167], [25.960697777332825, 38.57129776679167], [25.960697777332825, 38.5707587776212], [25.961236766503305, 38.5707587776212], [25.961236766503305, 38.57021978845073], [25.960158788162374, 38.57021978845073], [25.960158788162374, 38.569680799280256], [25.958541820650936, 38.569680799280256], [25.958541820650936, 38.56914181010979], [25.958002831480485, 38.56914181010979], [25.958002831480485, 38.56860282093932], [25.957463842310005, 38.56860282093932], [25.957463842310005, 38.568063831768846], [25.956385863969075, 38.568063831768846], [25.956385863969075, 38.567524842598374], [25.956924853139526, 38.567524842598374], [25.956924853139526, 38.56644686425743], [25.958002831480485, 38.56644686425743], [25.958002831480485, 38.56590787508696], [25.957463842310005, 38.56590787508696], [25.957463842310005, 38.565368885916484], [25.958002831480485, 38.565368885916484], [25.958002831480485, 38.56482989674601], [25.959080809821415, 38.56482989674601], [25.959080809821415, 38.565368885916484], [25.959619798991895, 38.565368885916484], [25.959619798991895, 38.56590787508696], [25.960158788162374, 38.56590787508696], [25.960158788162374, 38.56644686425743], [25.960697777332825, 38.56644686425743], [25.960697777332825, 38.56590787508696], [25.961236766503305, 38.56590787508696], [25.961236766503305, 38.56482989674601]]]}, "properties": {"area_ha": 21.344194085953244, "mean_dnbr": 0.5138530592714259, "compactness": 0.261, "rectangularity": 0.528, "cropland_frac": 0, "persistent": null, "brightness_delta": -0.119}}, {"type": "Feature", "geometry": {"geodesic": false, "type": "Polygon", "coordinates": [[[26.516395612089184, 38.3535461419211], [26.518551568771073, 38.3535461419211], [26.518551568771073, 38.35408513109157], [26.519090557941524, 38.35408513109157], [26.519090557941524, 38.354624120262045], [26.520168536282483, 38.354624120262045], [26.520168536282483, 38.35516310943252], [26.521246514623414, 38.35516310943252], [26.521246514623414, 38.35570209860299], [26.520707525452934, 38.35570209860299], [26.520707525452934, 38.356780076943934], [26.521246514623414, 38.356780076943934], [26.521246514623414, 38.35731906611441], [26.521785503793893, 38.35731906611441], [26.521785503793893, 38.35785805528488], [26.521246514623414, 38.35785805528488], [26.521246514623414, 38.358397044455344], [26.521785503793893, 38.358397044455344], [26.521785503793893, 38.360553001137234], [26.523402471305303, 38.360553001137234], [26.523402471305303, 38.35947502279629], [26.523941460475783, 38.35947502279629], [26.523941460475783, 38.36001401196676], [26.524480449646262, 38.36001401196676], [26.524480449646262, 38.360553001137234], [26.525019438816713, 38.360553001137234], [26.525019438816713, 38.36163097947818], [26.525558427987193, 38.36163097947818], [26.525558427987193, 38.361091990307706], [26.526636406328123, 38.361091990307706], [26.526636406328123, 38.360553001137234], [26.527175395498602, 38.360553001137234], [26.527175395498602, 38.35947502279629], [26.526097417157672, 38.35947502279629], [26.526097417157672, 38.35893603362582], [26.525019438816713, 38.35893603362582], [26.525019438816713, 38.35731906611441], [26.524480449646262, 38.35731906611441], [26.524480449646262, 38.35516310943252], [26.525019438816713, 38.35516310943252], [26.525019438816713, 38.354624120262045], [26.525558427987193, 38.354624120262045], [26.525558427987193, 38.35516310943252], [26.526636406328123, 38.35516310943252], [26.526636406328123, 38.35570209860299], [26.527714384669082, 38.35570209860299], [26.527714384669082, 38.35624108777346], [26.52825337383956, 38.35624108777346], [26.52825337383956, 38.356780076943934], [26.528792363010012, 38.356780076943934], [26.528792363010012, 38.35731906611441], [26.529331352180492, 38.35731906611441], [26.529331352180492, 38.35785805528488], [26.52987034135097, 38.35785805528488], [26.52987034135097, 38.358397044455344], [26.53040933052145, 38.358397044455344], [26.53040933052145, 38.35893603362582], [26.530948319691902, 38.35893603362582], [26.530948319691902, 38.36163097947818], [26.53148730886238, 38.36163097947818], [26.53148730886238, 38.36216996864865], [26.53202629803286, 38.36216996864865], [26.53202629803286, 38.36270895781912], [26.53310427637379, 38.36270895781912], [26.53310427637379, 38.363247946989596], [26.53364326554427, 38.363247946989596], [26.53364326554427, 38.36809884952384], [26.53418225471475, 38.36809884952384], [26.53418225471475, 38.36863783869431], [26.5347212438852, 38.36863783869431], [26.5347212438852, 38.369176827864784], [26.53579922222616, 38.369176827864784], [26.53579922222616, 38.37025480620573], [26.53633821139664, 38.37025480620573], [26.53633821139664, 38.37133278454667], [26.53687720056709, 38.37133278454667], [26.53687720056709, 38.370793795376194], [26.53795517890805, 38.370793795376194], [26.53795517890805, 38.37133278454667], [26.5384941680785, 38.37133278454667], [26.5384941680785, 38.37241076288761], [26.53903315724898, 38.37241076288761], [26.53903315724898, 38.373488741228556], [26.5384941680785, 38.373488741228556], [26.5384941680785, 38.37402773039903], [26.53903315724898, 38.37402773039903], [26.53903315724898, 38.3745667195695], [26.54011113558994, 38.3745667195695], [26.54011113558994, 38.375644697910445], [26.53741618973757, 38.375644697910445], [26.53741618973757, 38.37510570873997], [26.53633821139664, 38.37510570873997], [26.53633821139664, 38.3745667195695], [26.5347212438852, 38.3745667195695], [26.5347212438852, 38.37510570873997], [26.53418225471475, 38.37510570873997], [26.53418225471475, 38.3745667195695], [26.53310427637379, 38.3745667195695], [26.53310427637379, 38.373488741228556], [26.530948319691902, 38.373488741228556], [26.530948319691902, 38.372949752058084], [26.53040933052145, 38.372949752058084], [26.53040933052145, 38.37241076288761], [26.529331352180492, 38.37241076288761], [26.529331352180492, 38.37133278454667], [26.52987034135097, 38.37133278454667], [26.52987034135097, 38.37025480620573], [26.529331352180492, 38.37025480620573], [26.529331352180492, 38.36971581703526], [26.52987034135097, 38.36971581703526], [26.52987034135097, 38.36863783869431], [26.529331352180492, 38.36863783869431], [26.529331352180492, 38.36755986035337], [26.528792363010012, 38.36755986035337], [26.528792363010012, 38.367020871182895], [26.52825337383956, 38.367020871182895], [26.52825337383956, 38.36648188201242], [26.527714384669082, 38.36648188201242], [26.527714384669082, 38.36594289284195], [26.526636406328123, 38.36594289284195], [26.526636406328123, 38.36648188201242], [26.525019438816713, 38.36648188201242], [26.525019438816713, 38.36594289284195], [26.524480449646262, 38.36594289284195], [26.524480449646262, 38.364864914501005], [26.523941460475783, 38.364864914501005], [26.523941460475783, 38.36432592533054], [26.523402471305303, 38.36432592533054], [26.523402471305303, 38.36378693616007], [26.522324492964373, 38.36378693616007], [26.522324492964373, 38.36270895781912], [26.521785503793893, 38.36270895781912], [26.521785503793893, 38.36216996864865], [26.520707525452934, 38.36216996864865], [26.520707525452934, 38.361091990307706], [26.520168536282483, 38.361091990307706], [26.520168536282483, 38.360553001137234], [26.519629547112004, 38.360553001137234], [26.519629547112004, 38.36163097947818], [26.519090557941524, 38.36163097947818], [26.519090557941524, 38.361091990307706], [26.518551568771073, 38.361091990307706], [26.518551568771073, 38.36001401196676], [26.518012579600594, 38.36001401196676], [26.518012579600594, 38.35893603362582], [26.518551568771073, 38.35893603362582], [26.518551568771073, 38.35947502279629], [26.519090557941524, 38.35947502279629], [26.519090557941524, 38.358397044455344], [26.519629547112004, 38.358397044455344], [26.519629547112004, 38.356780076943934], [26.520168536282483, 38.356780076943934], [26.520168536282483, 38.35624108777346], [26.518551568771073, 38.35624108777346], [26.518551568771073, 38.356780076943934], [26.519090557941524, 38.356780076943934], [26.519090557941524, 38.35785805528488], [26.518551568771073, 38.35785805528488], [26.518551568771073, 38.35731906611441], [26.518012579600594, 38.35731906611441], [26.518012579600594, 38.356780076943934], [26.517473590430114, 38.356780076943934], [26.517473590430114, 38.35516310943252], [26.516934601259635, 38.35516310943252], [26.516934601259635, 38.35408513109157], [26.516395612089184, 38.35408513109157], [26.516395612089184, 38.3535461419211]], [[26.5384941680785, 38.37241076288761], [26.5384941680785, 38.373488741228556], [26.53795517890805, 38.373488741228556], [26.53795517890805, 38.372949752058084], [26.53741618973757, 38.372949752058084], [26.53741618973757, 38.37241076288761], [26.5384941680785, 38.37241076288761]], [[26.529331352180492, 38.363247946989596], [26.529331352180492, 38.36378693616007], [26.528792363010012, 38.36378693616007], [26.528792363010012, 38.363247946989596], [26.529331352180492, 38.363247946989596]], [[26.53040933052145, 38.36270895781912], [26.53040933052145, 38.363247946989596], [26.52987034135097, 38.363247946989596], [26.52987034135097, 38.36270895781912], [26.53040933052145, 38.36270895781912]], [[26.529331352180492, 38.36163097947818], [26.529331352180492, 38.36216996864865], [26.52987034135097, 38.36216996864865], [26.52987034135097, 38.36270895781912], [26.528792363010012, 38.36270895781912], [26.528792363010012, 38.36163097947818], [26.529331352180492, 38.36163097947818]], [[26.524480449646262, 38.360553001137234], [26.524480449646262, 38.361091990307706], [26.523941460475783, 38.361091990307706], [26.523941460475783, 38.360553001137234], [26.524480449646262, 38.360553001137234]], [[26.528792363010012, 38.35947502279629], [26.528792363010012, 38.36001401196676], [26.52825337383956, 38.36001401196676], [26.52825337383956, 38.35947502279629], [26.528792363010012, 38.35947502279629]], [[26.520707525452934, 38.35893603362582], [26.520707525452934, 38.35947502279629], [26.520168536282483, 38.35947502279629], [26.520168536282483, 38.35893603362582], [26.520707525452934, 38.35893603362582]], [[26.520707525452934, 38.35785805528488], [26.520707525452934, 38.358397044455344], [26.520168536282483, 38.358397044455344], [26.520168536282483, 38.35785805528488], [26.520707525452934, 38.35785805528488]]]}, "properties": {"area_ha": 149.26759356324257, "mean_dnbr": 0.29986973138164674, "compactness": 0.078, "rectangularity": 0.461, "cropland_frac": 0, "persistent": null, "brightness_delta": -0.091}}, {"type": "Feature", "geometry": {"geodesic": false, "type": "Polygon", "coordinates": [[[26.878596334646176, 38.21718188179176], [26.879135323816627, 38.21718188179176], [26.879135323816627, 38.21879884930318], [26.878596334646176, 38.21879884930318], [26.878596334646176, 38.219876827644114], [26.879135323816627, 38.219876827644114], [26.879135323816627, 38.22041581681459], [26.877518356305217, 38.22041581681459], [26.877518356305217, 38.22095480598506], [26.878057345475696, 38.22095480598506], [26.878057345475696, 38.22149379515553], [26.879135323816627, 38.22149379515553], [26.879135323816627, 38.224727730178365], [26.879674312987106, 38.224727730178365], [26.879674312987106, 38.22526671934884], [26.879135323816627, 38.22526671934884], [26.879135323816627, 38.2258057085193], [26.878596334646176, 38.2258057085193], [26.878596334646176, 38.226344697689775], [26.879135323816627, 38.226344697689775], [26.879135323816627, 38.22688368686025], [26.877518356305217, 38.22688368686025], [26.877518356305217, 38.22742267603072], [26.876979367134737, 38.22742267603072], [26.876979367134737, 38.2258057085193], [26.875901388793807, 38.2258057085193], [26.875901388793807, 38.22364975183742], [26.874823410452876, 38.22364975183742], [26.874823410452876, 38.222571773496476], [26.875901388793807, 38.222571773496476], [26.875901388793807, 38.21933783847365], [26.876979367134737, 38.21933783847365], [26.876979367134737, 38.218259860132704], [26.876440377964286, 38.218259860132704], [26.876440377964286, 38.21718188179176], [26.876979367134737, 38.21718188179176], [26.876979367134737, 38.218259860132704], [26.877518356305217, 38.218259860132704], [26.877518356305217, 38.21772087096223], [26.878596334646176, 38.21772087096223], [26.878596334646176, 38.21718188179176]]]}, "properties": {"area_ha": 25.961405235345538, "mean_dnbr": 0.43995050941714353, "compactness": 0.211, "rectangularity": 0.546, "cropland_frac": 0, "persistent": null, "brightness_delta": -0.088}}, {"type": "Feature", "geometry": {"geodesic": false, "type": "Polygon", "coordinates": [[[27.109283699608056, 38.58477249605347], [27.110361677948987, 38.58477249605347], [27.110361677948987, 38.58746744190583], [27.109822688778536, 38.58746744190583], [27.109822688778536, 38.58854542024677], [27.109283699608056, 38.58854542024677], [27.109283699608056, 38.58962339858771], [27.108744710437577, 38.58962339858771], [27.108744710437577, 38.58908440941724], [27.108205721267126, 38.58908440941724], [27.108205721267126, 38.58962339858771], [27.107666732096646, 38.58962339858771], [27.107666732096646, 38.590162387758184], [27.106588753755688, 38.590162387758184], [27.106588753755688, 38.58962339858771], [27.105510775414757, 38.58962339858771], [27.105510775414757, 38.58908440941724], [27.104971786244278, 38.58908440941724], [27.104971786244278, 38.58854542024677], [27.104432797073798, 38.58854542024677], [27.104432797073798, 38.58908440941724], [27.103354818732868, 38.58908440941724], [27.103354818732868, 38.58854542024677], [27.103893807903347, 38.58854542024677], [27.103893807903347, 38.588006431076295], [27.104432797073798, 38.588006431076295], [27.104432797073798, 38.58746744190583], [27.103893807903347, 38.58746744190583], [27.103893807903347, 38.58531148522394], [27.105510775414757, 38.58531148522394], [27.105510775414757, 38.58585047439441], [27.106588753755688, 38.58585047439441], [27.106588753755688, 38.58531148522394], [27.107666732096646, 38.58531148522394], [27.107666732096646, 38.586389463564885], [27.108205721267126, 38.586389463564885], [27.108205721267126, 38.58531148522394], [27.109283699608056, 38.58531148522394], [27.109283699608056, 38.58477249605347]], [[27.107666732096646, 38.58746744190583], [27.107666732096646, 38.58854542024677], [27.106588753755688, 38.58854542024677], [27.106588753755688, 38.58746744190583], [27.107666732096646, 38.58746744190583]], [[27.105510775414757, 38.58692845273536], [27.105510775414757, 38.58746744190583], [27.106049764585237, 38.58746744190583], [27.106049764585237, 38.588006431076295], [27.104971786244278, 38.588006431076295], [27.104971786244278, 38.58746744190583], [27.104432797073798, 38.58746744190583], [27.104432797073798, 38.58692845273536], [27.105510775414757, 38.58692845273536]], [[27.109283699608056, 38.586389463564885], [27.109283699608056, 38.58692845273536], [27.108744710437577, 38.58692845273536], [27.108744710437577, 38.586389463564885], [27.109283699608056, 38.586389463564885]]]}, "properties": {"area_ha": 21.338381598192, "mean_dnbr": 0.1882660664003426, "compactness": 0.147, "rectangularity": 0.585, "cropland_frac": 0, "persistent": null, "brightness_delta": -0.243}}]}