{"type": "FeatureCollection", "crs": {"type": "name", "properties": {"name": "urn:ogc:def:crs:OGC:1.3:CRS84"}}, "features": [{"type": "Feature", "geometry": {"geodesic": false, "type": "Polygon", "coordinates": [[[26.243667091830474, 39.70802592731652], [26.246901026853322, 39.70802592731652], [26.246901026853322, 39.70910390565746], [26.248517994364732, 39.70910390565746], [26.248517994364732, 39.70964289482793], [26.249595972705663, 39.70964289482793], [26.249595972705663, 39.7101818839984], [26.250134961876142, 39.7101818839984], [26.250134961876142, 39.71125986233935], [26.251751929387552, 39.71125986233935], [26.251751929387552, 39.713415819021236], [26.2512129402171, 39.713415819021236], [26.2512129402171, 39.71449379736218], [26.247979005194253, 39.71449379736218], [26.247979005194253, 39.71233784068029], [26.247440016023802, 39.71233784068029], [26.247440016023802, 39.71179885150982], [26.245823048512364, 39.71179885150982], [26.245823048512364, 39.71233784068029], [26.245284059341913, 39.71233784068029], [26.245284059341913, 39.71179885150982], [26.244206081000954, 39.71179885150982], [26.244206081000954, 39.71125986233935], [26.243667091830474, 39.71125986233935], [26.243667091830474, 39.710720873168874], [26.244206081000954, 39.710720873168874], [26.244206081000954, 39.7101818839984], [26.242589113489544, 39.7101818839984], [26.242589113489544, 39.70964289482793], [26.242050124319064, 39.70964289482793], [26.242050124319064, 39.70910390565746], [26.241511135148613, 39.70910390565746], [26.241511135148613, 39.70802592731652], [26.243128102660023, 39.70802592731652], [26.243128102660023, 39.70856491648699], [26.242589113489544, 39.70856491648699], [26.242589113489544, 39.70910390565746], [26.243667091830474, 39.70910390565746], [26.243667091830474, 39.70802592731652]], [[26.249056983535212, 39.71233784068029], [26.249056983535212, 39.712876829850764], [26.248517994364732, 39.712876829850764], [26.248517994364732, 39.71233784068029], [26.249056983535212, 39.71233784068029]], [[26.245284059341913, 39.7101818839984], [26.245284059341913, 39.710720873168874], [26.244745070171433, 39.710720873168874], [26.244745070171433, 39.7101818839984], [26.245284059341913, 39.7101818839984]], [[26.247979005194253, 39.7101818839984], [26.247979005194253, 39.710720873168874], [26.245823048512364, 39.710720873168874], [26.245823048512364, 39.7101818839984], [26.247979005194253, 39.7101818839984]]]}, "properties": {"area_ha": 29.842657793692755, "mean_dnbr": 0.4201213566857101, "compactness": 0.174, "rectangularity": 0.556, "cropland_frac": 0.005, "persistent": true, "brightness_delta": -0.201}}]}