{"type": "FeatureCollection", "crs": {"type": "name", "properties": {"name": "urn:ogc:def:crs:OGC:1.3:CRS84"}}, "features": [{"type": "Feature", "geometry": {"geodesic": false, "type": "Polygon", "coordinates": [[[26.973997417819646, 39.069862749478006], [26.974536406990126, 39.069862749478006], [26.974536406990126, 39.07040173864848], [26.976153374501536, 39.07040173864848], [26.976153374501536, 39.07094072781895], [26.976692363672015, 39.07094072781895], [26.976692363672015, 39.07147971698942], [26.977770342012946, 39.07147971698942], [26.977770342012946, 39.072018706159895], [26.976692363672015, 39.072018706159895], [26.976692363672015, 39.07255769533037], [26.976153374501536, 39.07255769533037], [26.976153374501536, 39.07309668450084], [26.975075396160605, 39.07309668450084], [26.975075396160605, 39.07363567367131], [26.973458428649195, 39.07363567367131], [26.973458428649195, 39.074174662841784], [26.972919439478716, 39.074174662841784], [26.972919439478716, 39.07363567367131], [26.971841461137757, 39.07363567367131], [26.971841461137757, 39.07309668450084], [26.971302471967306, 39.07309668450084], [26.971302471967306, 39.07255769533037], [26.969685504455896, 39.07255769533037], [26.969685504455896, 39.07309668450084], [26.969146515285416, 39.07309668450084], [26.969146515285416, 39.07363567367131], [26.968607526114937, 39.07363567367131], [26.968607526114937, 39.07309668450084], [26.968068536944457, 39.07309668450084], [26.968068536944457, 39.07255769533037], [26.967529547774006, 39.07255769533037], [26.967529547774006, 39.07147971698942], [26.968068536944457, 39.07147971698942], [26.968068536944457, 39.07094072781895], [26.969685504455896, 39.07094072781895], [26.969685504455896, 39.07147971698942], [26.970224493626347, 39.07147971698942], [26.970224493626347, 39.072018706159895], [26.970763482796826, 39.072018706159895], [26.970763482796826, 39.07094072781895], [26.972380450308236, 39.07094072781895], [26.972380450308236, 39.07040173864848], [26.973997417819646, 39.07040173864848], [26.973997417819646, 39.069862749478006]]]}, "properties": {"area_ha": 21.47245850241725, "mean_dnbr": 0.5053027401449806, "compactness": 0.262, "rectangularity": 0.53, "cropland_frac": 0.037, "persistent": true, "brightness_delta": -0.44}}, {"type": "Feature", "geometry": {"geodesic": false, "type": "Polygon", "coordinates": [[[27.04676095583335, 38.85588404880074], [27.04945590168569, 38.85588404880074], [27.04945590168569, 38.85642303797121], [27.04999489085617, 38.85642303797121], [27.04999489085617, 38.856962027141684], [27.0510728691971, 38.856962027141684], [27.0510728691971, 38.857501016312156], [27.05215084753806, 38.857501016312156], [27.05215084753806, 38.85804000548263], [27.052689836708538, 38.85804000548263], [27.052689836708538, 38.8585789946531], [27.05322882587899, 38.8585789946531], [27.05322882587899, 38.859117983823566], [27.05376781504947, 38.859117983823566], [27.05376781504947, 38.86019596216451], [27.054845793390427, 38.86019596216451], [27.054845793390427, 38.86073495133498], [27.05538478256088, 38.86073495133498], [27.05538478256088, 38.86181292967593], [27.054845793390427, 38.86181292967593], [27.054845793390427, 38.86289090801687], [27.05538478256088, 38.86289090801687], [27.05538478256088, 38.863429897187345], [27.056462760901837, 38.863429897187345], [27.056462760901837, 38.86396888635782], [27.05700175007229, 38.86396888635782], [27.05700175007229, 38.86450787552829], [27.056462760901837, 38.86450787552829], [27.056462760901837, 38.86558585386923], [27.05700175007229, 38.86558585386923], [27.05700175007229, 38.8661248430397], [27.056462760901837, 38.8661248430397], [27.056462760901837, 38.86881978889206], [27.055923771731358, 38.86881978889206], [27.055923771731358, 38.869358778062534], [27.05322882587899, 38.869358778062534], [27.05322882587899, 38.86881978889206], [27.052689836708538, 38.86881978889206], [27.052689836708538, 38.86828079972159], [27.05215084753806, 38.86828079972159], [27.05215084753806, 38.86774181055112], [27.0510728691971, 38.86774181055112], [27.0510728691971, 38.867202821380644], [27.05053388002665, 38.867202821380644], [27.05053388002665, 38.86558585386923], [27.04945590168569, 38.86558585386923], [27.04945590168569, 38.8661248430397], [27.04891691251524, 38.8661248430397], [27.04891691251524, 38.86666383221017], [27.0472999450038, 38.86666383221017], [27.0472999450038, 38.867202821380644], [27.04568297749239, 38.867202821380644], [27.04568297749239, 38.86666383221017], [27.04406600998098, 38.86666383221017], [27.04406600998098, 38.86558585386923], [27.0435270208105, 38.86558585386923], [27.0435270208105, 38.865046864698755], [27.04298803164005, 38.865046864698755], [27.04298803164005, 38.86450787552829], [27.04191005329909, 38.86450787552829], [27.04191005329909, 38.863429897187345], [27.04244904246957, 38.863429897187345], [27.04244904246957, 38.86289090801687], [27.04298803164005, 38.86289090801687], [27.04298803164005, 38.8623519188464], [27.04406600998098, 38.8623519188464], [27.04406600998098, 38.861273940505455], [27.04298803164005, 38.861273940505455], [27.04298803164005, 38.86073495133498], [27.04244904246957, 38.86073495133498], [27.04244904246957, 38.86019596216451], [27.04083207495816, 38.86019596216451], [27.04083207495816, 38.85965697299404], [27.04029308578768, 38.85965697299404], [27.04029308578768, 38.859117983823566], [27.0397540966172, 38.859117983823566], [27.0397540966172, 38.85804000548263], [27.039215107446722, 38.85804000548263], [27.039215107446722, 38.856962027141684], [27.03813712910579, 38.856962027141684], [27.03813712910579, 38.85642303797121], [27.0397540966172, 38.85642303797121], [27.0397540966172, 38.85588404880074], [27.04029308578768, 38.85588404880074], [27.04029308578768, 38.85642303797121], [27.04298803164005, 38.85642303797121], [27.04298803164005, 38.856962027141684], [27.04244904246957, 38.856962027141684], [27.04244904246957, 38.857501016312156], [27.04298803164005, 38.857501016312156], [27.04298803164005, 38.8585789946531], [27.0435270208105, 38.8585789946531], [27.0435270208105, 38.857501016312156], [27.04460499915146, 38.857501016312156], [27.04460499915146, 38.85804000548263], [27.04514398832191, 38.85804000548263], [27.04514398832191, 38.8585789946531], [27.04568297749239, 38.8585789946531], [27.04568297749239, 38.859117983823566], [27.04622196666287, 38.859117983823566], [27.04622196666287, 38.86019596216451], [27.04676095583335, 38.86019596216451], [27.04676095583335, 38.86181292967593], [27.04783893417428, 38.86181292967593], [27.04783893417428, 38.8623519188464], [27.04999489085617, 38.8623519188464], [27.04999489085617, 38.86019596216451], [27.05053388002665, 38.86019596216451], [27.05053388002665, 38.859117983823566], [27.04999489085617, 38.859117983823566], [27.04999489085617, 38.8585789946531], [27.04837792334476, 38.8585789946531], [27.04837792334476, 38.85804000548263], [27.04783893417428, 38.85804000548263], [27.04783893417428, 38.857501016312156], [27.0472999450038, 38.857501016312156], [27.0472999450038, 38.856962027141684], [27.04676095583335, 38.856962027141684], [27.04676095583335, 38.85588404880074]], [[27.04676095583335, 38.86450787552829], [27.04676095583335, 38.865046864698755], [27.0472999450038, 38.865046864698755], [27.0472999450038, 38.86558585386923], [27.04622196666287, 38.86558585386923], [27.04622196666287, 38.865046864698755], [27.04568297749239, 38.865046864698755], [27.04568297749239, 38.86450787552829], [27.04676095583335, 38.86450787552829]], [[27.04837792334476, 38.86450787552829], [27.04837792334476, 38.865046864698755], [27.0472999450038, 38.865046864698755], [27.0472999450038, 38.86450787552829], [27.04837792334476, 38.86450787552829]], [[27.05215084753806, 38.863429897187345], [27.05215084753806, 38.86450787552829], [27.05053388002665, 38.86450787552829], [27.05053388002665, 38.863429897187345], [27.05215084753806, 38.863429897187345]], [[27.054306804219948, 38.86289090801687], [27.054306804219948, 38.863429897187345], [27.05376781504947, 38.863429897187345], [27.05376781504947, 38.86289090801687], [27.054306804219948, 38.86289090801687]], [[27.04676095583335, 38.8623519188464], [27.04676095583335, 38.863429897187345], [27.04622196666287, 38.863429897187345], [27.04622196666287, 38.86289090801687], [27.04568297749239, 38.86289090801687], [27.04568297749239, 38.8623519188464], [27.04676095583335, 38.8623519188464]], [[27.04568297749239, 38.859117983823566], [27.04568297749239, 38.86019596216451], [27.04460499915146, 38.86019596216451], [27.04460499915146, 38.859117983823566], [27.04568297749239, 38.859117983823566]]]}, "properties": {"area_ha": 111.59589140871158, "mean_dnbr": 0.4408835948800482, "compactness": 0.097, "rectangularity": 0.473, "cropland_frac": 0.002, "persistent": true, "brightness_delta": -0.407}}]}