{"type": "FeatureCollection", "crs": {"type": "name", "properties": {"name": "urn:ogc:def:crs:OGC:1.3:CRS84"}}, "features": [{"type": "Feature", "geometry": {"geodesic": false, "type": "Polygon", "coordinates": [[[26.174137488839648, 39.63148946510953], [26.178449402203398, 39.63148946510953], [26.178449402203398, 39.632567443450476], [26.178988391373878, 39.632567443450476], [26.178988391373878, 39.63310643262095], [26.179527380544357, 39.63310643262095], [26.179527380544357, 39.63364542179142], [26.175754456351058, 39.63364542179142], [26.175754456351058, 39.63310643262095], [26.1746764780101, 39.63310643262095], [26.1746764780101, 39.632567443450476], [26.174137488839648, 39.632567443450476], [26.174137488839648, 39.63148946510953]]]}, "properties": {"area_ha": 8.575664019440017, "mean_dnbr": 0.3725000761740354, "compactness": 0.548, "rectangularity": 0.775, "cropland_frac": 0.002, "persistent": null, "brightness_delta": -0.297}}]}