{"type": "FeatureCollection", "crs": {"type": "name", "properties": {"name": "urn:ogc:def:crs:OGC:1.3:CRS84"}}, "features": [{"type": "Feature", "geometry": {"geodesic": false, "type": "Polygon", "coordinates": [[[27.27529236411334, 37.04380245767484], [27.27583135328382, 37.04380245767484], [27.27583135328382, 37.04434144684531], [27.2763703424543, 37.04434144684531], [27.2763703424543, 37.04541942518625], [27.27583135328382, 37.04541942518625], [27.27583135328382, 37.045958414356726], [27.27475337494286, 37.045958414356726], [27.27475337494286, 37.0464974035272], [27.27205842909052, 37.0464974035272], [27.27205842909052, 37.045958414356726], [27.272597418261, 37.045958414356726], [27.272597418261, 37.04541942518625], [27.27367539660193, 37.04541942518625], [27.27367539660193, 37.04488043601578], [27.27421438577241, 37.04488043601578], [27.27421438577241, 37.04434144684531], [27.27529236411334, 37.04434144684531], [27.27529236411334, 37.04380245767484]]]}, "properties": {"area_ha": 6.020606369511733, "mean_dnbr": 0.20704383695317888, "compactness": 0.406, "rectangularity": 0.583, "cropland_frac": 0, "persistent": null, "brightness_delta": -0.263}}]}