{"type": "FeatureCollection", "crs": {"type": "name", "properties": {"name": "urn:ogc:def:crs:OGC:1.3:CRS84"}}, "features": [{"type": "Feature", "geometry": {"geodesic": false, "type": "Polygon", "coordinates": [[[27.37823929567344, 37.11710498485899], [27.37985626318485, 37.11710498485899], [27.37985626318485, 37.118182963199935], [27.380934241525807, 37.118182963199935], [27.380934241525807, 37.11872195237041], [27.380395252355328, 37.11872195237041], [27.380395252355328, 37.11979993071135], [27.37985626318485, 37.11979993071135], [27.37985626318485, 37.12141689822277], [27.379317274014397, 37.12141689822277], [27.379317274014397, 37.12195588739324], [27.37554434982107, 37.12195588739324], [27.37554434982107, 37.12249487656371], [27.37446637148014, 37.12249487656371], [27.37446637148014, 37.12195588739324], [27.37392738230966, 37.12195588739324], [27.37392738230966, 37.12141689822277], [27.37446637148014, 37.12141689822277], [27.37446637148014, 37.1208779090523], [27.37392738230966, 37.1208779090523], [27.37392738230966, 37.120338919881824], [27.37446637148014, 37.120338919881824], [27.37446637148014, 37.11979993071135], [27.37608333899155, 37.11979993071135], [27.37608333899155, 37.118182963199935], [27.377161317332508, 37.118182963199935], [27.377161317332508, 37.11764397402946], [27.37823929567344, 37.11764397402946], [27.37823929567344, 37.11710498485899]], [[27.37500536065062, 37.12141689822277], [27.37500536065062, 37.12195588739324], [27.37446637148014, 37.12195588739324], [27.37446637148014, 37.12141689822277], [27.37500536065062, 37.12141689822277]]]}, "properties": {"area_ha": 21.481024776710797, "mean_dnbr": 0.3185216348584822, "compactness": 0.356, "rectangularity": 0.577, "cropland_frac": 0, "persistent": true, "brightness_delta": -0.071}}, {"type": "Feature", "geometry": {"geodesic": false, "type": "Polygon", "coordinates": [[[27.51244759912089, 37.614591989204385], [27.51352557746185, 37.614591989204385], [27.51352557746185, 37.61566996754533], [27.51460355580278, 37.61566996754533], [27.51460355580278, 37.6162089567158], [27.51514254497326, 37.6162089567158], [27.51514254497326, 37.61566996754533], [27.515681534143738, 37.61566996754533], [27.515681534143738, 37.6162089567158], [27.51622052331419, 37.6162089567158], [27.51622052331419, 37.61728693505674], [27.51675951248467, 37.61728693505674], [27.51675951248467, 37.61782592422721], [27.51622052331419, 37.61782592422721], [27.51622052331419, 37.618364913397684], [27.51837647999608, 37.618364913397684], [27.51837647999608, 37.61782592422721], [27.519454458337037, 37.61782592422721], [27.519454458337037, 37.6199818809091], [27.517837490825627, 37.6199818809091], [27.517837490825627, 37.620520870079574], [27.51837647999608, 37.620520870079574], [27.51837647999608, 37.621059859250046], [27.517837490825627, 37.621059859250046], [27.517837490825627, 37.62213783759099], [27.51675951248467, 37.62213783759099], [27.51675951248467, 37.62321581593193], [27.51622052331419, 37.62321581593193], [27.51622052331419, 37.62429379427287], [27.51675951248467, 37.62429379427287], [27.51675951248467, 37.62591076178429], [27.51622052331419, 37.62591076178429], [27.51622052331419, 37.62644975095476], [27.5140645666323, 37.62644975095476], [27.5140645666323, 37.62591076178429], [27.51352557746185, 37.62591076178429], [27.51352557746185, 37.62537177261382], [27.51298658829137, 37.62537177261382], [27.51298658829137, 37.62321581593193], [27.51352557746185, 37.62321581593193], [27.51352557746185, 37.62213783759099], [27.5140645666323, 37.62213783759099], [27.5140645666323, 37.62159884842052], [27.51460355580278, 37.62159884842052], [27.51460355580278, 37.621059859250046], [27.51622052331419, 37.621059859250046], [27.51622052331419, 37.620520870079574], [27.515681534143738, 37.620520870079574], [27.515681534143738, 37.6199818809091], [27.5140645666323, 37.6199818809091], [27.5140645666323, 37.61890390256816], [27.51352557746185, 37.61890390256816], [27.51352557746185, 37.61782592422721], [27.51298658829137, 37.61782592422721], [27.51298658829137, 37.61728693505674], [27.51244759912089, 37.61728693505674], [27.51244759912089, 37.616747945886274], [27.51190860995044, 37.616747945886274], [27.51190860995044, 37.61513097837486], [27.51244759912089, 37.61513097837486], [27.51244759912089, 37.614591989204385]], [[27.51460355580278, 37.6237548051024], [27.51460355580278, 37.62429379427287], [27.5140645666323, 37.62429379427287], [27.5140645666323, 37.6237548051024], [27.51460355580278, 37.6237548051024]]]}, "properties": {"area_ha": 39.54668134125717, "mean_dnbr": 0.318861025836286, "compactness": 0.179, "rectangularity": 0.453, "cropland_frac": 0.001, "persistent": true, "brightness_delta": -0.032}}, {"type": "Feature", "geometry": {"geodesic": false, "type": "Polygon", "coordinates": [[[27.910221606929014, 37.73532556339005], [27.911299585269973, 37.73532556339005], [27.911299585269973, 37.73586455256052], [27.912916552781383, 37.73586455256052], [27.912916552781383, 37.73640354173099], [27.916150487804202, 37.73640354173099], [27.916150487804202, 37.736942530901466], [27.91561149863375, 37.736942530901466], [27.91561149863375, 37.73748152007193], [27.916150487804202, 37.73748152007193], [27.916150487804202, 37.7380205092424], [27.916689476974682, 37.7380205092424], [27.916689476974682, 37.73909848758335], [27.91722846614516, 37.73909848758335], [27.91722846614516, 37.73963747675382], [27.916689476974682, 37.73963747675382], [27.916689476974682, 37.740715455094765], [27.916150487804202, 37.740715455094765], [27.916150487804202, 37.74017646592429], [27.914533520292792, 37.74017646592429], [27.914533520292792, 37.740715455094765], [27.913455541951862, 37.740715455094765], [27.913455541951862, 37.74017646592429], [27.912377563610903, 37.74017646592429], [27.912377563610903, 37.73909848758335], [27.911299585269973, 37.73909848758335], [27.911299585269973, 37.73963747675382], [27.910221606929014, 37.73963747675382], [27.910221606929014, 37.74017646592429], [27.911838574440452, 37.74017646592429], [27.911838574440452, 37.74125444426524], [27.910760596099493, 37.74125444426524], [27.910760596099493, 37.74179343343571], [27.908065650247124, 37.74179343343571], [27.908065650247124, 37.74233242260618], [27.907526661076673, 37.74233242260618], [27.907526661076673, 37.74179343343571], [27.906987671906194, 37.74179343343571], [27.906987671906194, 37.74125444426524], [27.905370704394784, 37.74125444426524], [27.905370704394784, 37.74179343343571], [27.905909693565235, 37.74179343343571], [27.905909693565235, 37.74233242260618], [27.906987671906194, 37.74233242260618], [27.906987671906194, 37.74394939011759], [27.906448682735714, 37.74394939011759], [27.906448682735714, 37.74610534679948], [27.905909693565235, 37.74610534679948], [27.905909693565235, 37.746644335969954], [27.905370704394784, 37.746644335969954], [27.905370704394784, 37.747183325140426], [27.904831715224304, 37.747183325140426], [27.904831715224304, 37.74826130348137], [27.902136769371936, 37.74826130348137], [27.902136769371936, 37.747183325140426], [27.901058791031005, 37.747183325140426], [27.901058791031005, 37.746644335969954], [27.900519801860526, 37.746644335969954], [27.900519801860526, 37.747183325140426], [27.899980812690046, 37.747183325140426], [27.899980812690046, 37.7477223143109], [27.898902834349116, 37.7477223143109], [27.898902834349116, 37.74826130348137], [27.897285866837706, 37.74826130348137], [27.897285866837706, 37.746644335969954], [27.897824856008185, 37.746644335969954], [27.897824856008185, 37.74610534679948], [27.897285866837706, 37.74610534679948], [27.897285866837706, 37.74556635762901], [27.896746877667226, 37.74556635762901], [27.896746877667226, 37.74502736845854], [27.895668899326296, 37.74502736845854], [27.895668899326296, 37.74610534679948], [27.896207888496747, 37.74610534679948], [27.896207888496747, 37.746644335969954], [27.896746877667226, 37.746644335969954], [27.896746877667226, 37.747183325140426], [27.896207888496747, 37.747183325140426], [27.896207888496747, 37.7477223143109], [27.896746877667226, 37.7477223143109], [27.896746877667226, 37.74826130348137], [27.896207888496747, 37.74826130348137], [27.896207888496747, 37.7477223143109], [27.894051931814857, 37.7477223143109], [27.894051931814857, 37.747183325140426], [27.891895975132996, 37.747183325140426], [27.891895975132996, 37.746644335969954], [27.891356985962517, 37.746644335969954], [27.891356985962517, 37.747183325140426], [27.888662040110148, 37.747183325140426], [27.888662040110148, 37.7477223143109], [27.88812305093967, 37.7477223143109], [27.88812305093967, 37.74880029265184], [27.887584061769218, 37.74880029265184], [27.887584061769218, 37.749339281822316], [27.887045072598738, 37.749339281822316], [27.887045072598738, 37.74880029265184], [27.88650608342826, 37.74880029265184], [27.88650608342826, 37.749339281822316], [27.88542810508733, 37.749339281822316], [27.88542810508733, 37.74826130348137], [27.88327214840544, 37.74826130348137], [27.88327214840544, 37.749339281822316], [27.88273315923496, 37.749339281822316], [27.88273315923496, 37.74987827099278], [27.88219417006448, 37.74987827099278], [27.88219417006448, 37.750956249333726], [27.88273315923496, 37.750956249333726], [27.88273315923496, 37.7514952385042], [27.88219417006448, 37.7514952385042], [27.88219417006448, 37.75203422767467], [27.88057720255307, 37.75203422767467], [27.88057720255307, 37.750956249333726], [27.88003821338262, 37.750956249333726], [27.88003821338262, 37.75041726016325], [27.87949922421214, 37.75041726016325], [27.87949922421214, 37.74880029265184], [27.87842124587118, 37.74880029265184], [27.87842124587118, 37.74826130348137], [27.87788225670073, 37.74826130348137], [27.87788225670073, 37.7477223143109], [27.87734326753025, 37.7477223143109], [27.87734326753025, 37.747183325140426], [27.87680427835977, 37.747183325140426], [27.87680427835977, 37.74610534679948], [27.87626528918929, 37.74610534679948], [27.87626528918929, 37.74556635762901], [27.87464832167788, 37.74556635762901], [27.87464832167788, 37.74502736845854], [27.87357034333695, 37.74502736845854], [27.87357034333695, 37.744488379288065], [27.872492364995992, 37.744488379288065], [27.872492364995992, 37.742871411776655], [27.870875397484582, 37.742871411776655], [27.870875397484582, 37.74341040094713], [27.870336408314103, 37.74341040094713], [27.870336408314103, 37.742871411776655], [27.870875397484582, 37.742871411776655], [27.870875397484582, 37.74233242260618], [27.87195337582554, 37.74233242260618], [27.87195337582554, 37.74179343343571], [27.872492364995992, 37.74179343343571], [27.872492364995992, 37.74125444426524], [27.87357034333695, 37.74125444426524], [27.87357034333695, 37.74179343343571], [27.87303135416647, 37.74179343343571], [27.87303135416647, 37.74233242260618], [27.87410933250743, 37.74233242260618], [27.87410933250743, 37.742871411776655], [27.87464832167788, 37.742871411776655], [27.87464832167788, 37.74233242260618], [27.87518731084836, 37.74233242260618], [27.87518731084836, 37.74125444426524], [27.87464832167788, 37.74125444426524], [27.87464832167788, 37.740715455094765], [27.87572630001884, 37.740715455094765], [27.87572630001884, 37.74125444426524], [27.87680427835977, 37.74125444426524], [27.87680427835977, 37.74179343343571], [27.87842124587118, 37.74179343343571], [27.87842124587118, 37.74017646592429], [27.87896023504166, 37.74017646592429], [27.87896023504166, 37.73963747675382], [27.88003821338262, 37.73963747675382], [27.88003821338262, 37.73909848758335], [27.88057720255307, 37.73909848758335], [27.88057720255307, 37.738559498412876], [27.88111619172355, 37.738559498412876], [27.88111619172355, 37.7380205092424], [27.88219417006448, 37.7380205092424], [27.88219417006448, 37.73748152007193], [27.887045072598738, 37.73748152007193], [27.887045072598738, 37.73640354173099], [27.88812305093967, 37.73640354173099], [27.88812305093967, 37.736942530901466], [27.888662040110148, 37.736942530901466], [27.888662040110148, 37.73640354173099], [27.889201029280628, 37.73640354173099], [27.889201029280628, 37.736942530901466], [27.890279007621558, 37.736942530901466], [27.890279007621558, 37.73748152007193], [27.890817996792038, 37.73748152007193], [27.890817996792038, 37.7380205092424], [27.891356985962517, 37.7380205092424], [27.891356985962517, 37.738559498412876], [27.892434964303447, 37.738559498412876], [27.892434964303447, 37.73963747675382], [27.892973953473927, 37.73963747675382], [27.892973953473927, 37.738559498412876], [27.893512942644406, 37.738559498412876], [27.893512942644406, 37.7380205092424], [27.892973953473927, 37.7380205092424], [27.892973953473927, 37.73748152007193], [27.894590920985337, 37.73748152007193], [27.894590920985337, 37.7380205092424], [27.895129910155816, 37.7380205092424], [27.895129910155816, 37.738559498412876], [27.895668899326296, 37.738559498412876], [27.895668899326296, 37.73909848758335], [27.896207888496747, 37.73909848758335], [27.896207888496747, 37.73963747675382], [27.899980812690046, 37.73963747675382], [27.899980812690046, 37.73909848758335], [27.899441823519595, 37.73909848758335], [27.899441823519595, 37.738559498412876], [27.898902834349116, 37.738559498412876], [27.898902834349116, 37.7380205092424], [27.897824856008185, 37.7380205092424], [27.897824856008185, 37.73748152007193], [27.897285866837706, 37.73748152007193], [27.897285866837706, 37.736942530901466], [27.896746877667226, 37.736942530901466], [27.896746877667226, 37.73640354173099], [27.899441823519595, 37.73640354173099], [27.899441823519595, 37.73586455256052], [27.899980812690046, 37.73586455256052], [27.899980812690046, 37.73640354173099], [27.900519801860526, 37.73640354173099], [27.900519801860526, 37.736942530901466], [27.901058791031005, 37.736942530901466], [27.901058791031005, 37.738559498412876], [27.901597780201485, 37.738559498412876], [27.901597780201485, 37.73909848758335], [27.903214747712894, 37.73909848758335], [27.903214747712894, 37.738559498412876], [27.903753736883374, 37.738559498412876], [27.903753736883374, 37.7380205092424], [27.902136769371936, 37.7380205092424], [27.902136769371936, 37.73748152007193], [27.902675758542415, 37.73748152007193], [27.902675758542415, 37.736942530901466], [27.903214747712894, 37.736942530901466], [27.903214747712894, 37.73640354173099], [27.904292726053825, 37.73640354173099], [27.904292726053825, 37.736942530901466], [27.905370704394784, 37.736942530901466], [27.905370704394784, 37.73748152007193], [27.905909693565235, 37.73748152007193], [27.905909693565235, 37.736942530901466], [27.906987671906194, 37.736942530901466], [27.906987671906194, 37.73586455256052], [27.909143628588083, 37.73586455256052], [27.909143628588083, 37.73640354173099], [27.910221606929014, 37.73640354173099], [27.910221606929014, 37.73532556339005]], [[27.88219417006448, 37.750956249333726], [27.88219417006448, 37.7514952385042], [27.88165518089403, 37.7514952385042], [27.88165518089403, 37.750956249333726], [27.88219417006448, 37.750956249333726]], [[27.88273315923496, 37.747183325140426], [27.88273315923496, 37.7477223143109], [27.88327214840544, 37.7477223143109], [27.88327214840544, 37.74826130348137], [27.88219417006448, 37.74826130348137], [27.88219417006448, 37.747183325140426], [27.88273315923496, 37.747183325140426]], [[27.891356985962517, 37.74610534679948], [27.891356985962517, 37.746644335969954], [27.890817996792038, 37.746644335969954], [27.890817996792038, 37.74610534679948], [27.891356985962517, 37.74610534679948]], [[27.88273315923496, 37.74556635762901], [27.88273315923496, 37.74610534679948], [27.88219417006448, 37.74610534679948], [27.88219417006448, 37.74556635762901], [27.88273315923496, 37.74556635762901]], [[27.888662040110148, 37.742871411776655], [27.888662040110148, 37.74341040094713], [27.88812305093967, 37.74341040094713], [27.88812305093967, 37.74394939011759], [27.887584061769218, 37.74394939011759], [27.887584061769218, 37.742871411776655], [27.888662040110148, 37.742871411776655]], [[27.905370704394784, 37.740715455094765], [27.905370704394784, 37.74125444426524], [27.904831715224304, 37.74125444426524], [27.904831715224304, 37.740715455094765], [27.905370704394784, 37.740715455094765]]]}, "properties": {"area_ha": 351.9267869435686, "mean_dnbr": 0.37084597438150335, "compactness": 0.095, "rectangularity": 0.528, "cropland_frac": 0, "persistent": true, "brightness_delta": -0.154}}]}