{"type": "FeatureCollection", "crs": {"type": "name", "properties": {"name": "urn:ogc:def:crs:OGC:1.3:CRS84"}}, "features": [{"type": "Feature", "geometry": {"geodesic": false, "type": "Polygon", "coordinates": [[[28.076230271434298, 39.09142231629688], [28.076769260604777, 39.09142231629688], [28.076769260604777, 39.09196130546735], [28.077847238945736, 39.09196130546735], [28.077847238945736, 39.09250029463782], [28.078925217286667, 39.09250029463782], [28.078925217286667, 39.09196130546735], [28.080003195627626, 39.09196130546735], [28.080003195627626, 39.093039283808295], [28.079464206457146, 39.093039283808295], [28.079464206457146, 39.09357827297877], [28.080003195627626, 39.09357827297877], [28.080003195627626, 39.09411726214923], [28.080542184798077, 39.09411726214923], [28.080542184798077, 39.094656251319705], [28.080003195627626, 39.094656251319705], [28.080003195627626, 39.09519524049018], [28.079464206457146, 39.09519524049018], [28.079464206457146, 39.09573422966065], [28.078925217286667, 39.09573422966065], [28.078925217286667, 39.096812208001595], [28.078386228116187, 39.096812208001595], [28.078386228116187, 39.09735119717207], [28.079464206457146, 39.09735119717207], [28.079464206457146, 39.09789018634254], [28.080542184798077, 39.09789018634254], [28.080542184798077, 39.09842917551301], [28.081081173968556, 39.09842917551301], [28.081081173968556, 39.098968164683484], [28.079464206457146, 39.098968164683484], [28.079464206457146, 39.099507153853956], [28.081081173968556, 39.099507153853956], [28.081081173968556, 39.100585132194894], [28.081620163139036, 39.100585132194894], [28.081620163139036, 39.101124121365366], [28.082698141479966, 39.101124121365366], [28.082698141479966, 39.10220209970631], [28.080542184798077, 39.10220209970631], [28.080542184798077, 39.10274108887678], [28.077847238945736, 39.10274108887678], [28.077847238945736, 39.103280078047256], [28.080003195627626, 39.103280078047256], [28.080003195627626, 39.10381906721773], [28.080542184798077, 39.10381906721773], [28.080542184798077, 39.10489704555867], [28.082159152309487, 39.10489704555867], [28.082159152309487, 39.10597502389961], [28.080542184798077, 39.10597502389961], [28.080542184798077, 39.10651401307008], [28.081081173968556, 39.10651401307008], [28.081081173968556, 39.10759199141103], [28.080542184798077, 39.10759199141103], [28.080542184798077, 39.107053002240555], [28.080003195627626, 39.107053002240555], [28.080003195627626, 39.10759199141103], [28.079464206457146, 39.10759199141103], [28.079464206457146, 39.107053002240555], [28.078386228116187, 39.107053002240555], [28.078386228116187, 39.10759199141103], [28.077308249775257, 39.10759199141103], [28.077308249775257, 39.10651401307008], [28.076230271434298, 39.10651401307008], [28.076230271434298, 39.10597502389961], [28.075691282263847, 39.10597502389961], [28.075691282263847, 39.105436034729145], [28.074613303922888, 39.105436034729145], [28.074613303922888, 39.10489704555867], [28.072457347241, 39.10489704555867], [28.072457347241, 39.1043580563882], [28.07084037972959, 39.1043580563882], [28.07084037972959, 39.10381906721773], [28.07030139055911, 39.10381906721773], [28.07030139055911, 39.10274108887678], [28.069762401388658, 39.10274108887678], [28.069762401388658, 39.101124121365366], [28.06922341221818, 39.101124121365366], [28.06922341221818, 39.10004614302442], [28.0686844230477, 39.10004614302442], [28.0686844230477, 39.099507153853956], [28.06814543387725, 39.099507153853956], [28.06814543387725, 39.098968164683484], [28.06922341221818, 39.098968164683484], [28.06922341221818, 39.099507153853956], [28.07030139055911, 39.099507153853956], [28.07030139055911, 39.10004614302442], [28.07084037972959, 39.10004614302442], [28.07084037972959, 39.099507153853956], [28.071379368900068, 39.099507153853956], [28.071379368900068, 39.098968164683484], [28.071918358070548, 39.098968164683484], [28.071918358070548, 39.09789018634254], [28.071379368900068, 39.09789018634254], [28.071379368900068, 39.09735119717207], [28.07084037972959, 39.09735119717207], [28.07084037972959, 39.096812208001595], [28.07030139055911, 39.096812208001595], [28.07030139055911, 39.09573422966065], [28.069762401388658, 39.09573422966065], [28.069762401388658, 39.094656251319705], [28.072457347241, 39.094656251319705], [28.072457347241, 39.09519524049018], [28.073535325581958, 39.09519524049018], [28.073535325581958, 39.09573422966065], [28.074074314752437, 39.09573422966065], [28.074074314752437, 39.09519524049018], [28.074613303922888, 39.09519524049018], [28.074613303922888, 39.09411726214923], [28.076230271434298, 39.09411726214923], [28.076230271434298, 39.09357827297877], [28.076769260604777, 39.09357827297877], [28.076769260604777, 39.093039283808295], [28.076230271434298, 39.093039283808295], [28.076230271434298, 39.09250029463782], [28.075691282263847, 39.09250029463782], [28.075691282263847, 39.093039283808295], [28.075152293093367, 39.093039283808295], [28.075152293093367, 39.09357827297877], [28.074613303922888, 39.09357827297877], [28.074613303922888, 39.093039283808295], [28.073535325581958, 39.093039283808295], [28.073535325581958, 39.09250029463782], [28.075691282263847, 39.09250029463782], [28.075691282263847, 39.09196130546735], [28.076230271434298, 39.09196130546735], [28.076230271434298, 39.09142231629688]], [[28.076769260604777, 39.10274108887678], [28.076769260604777, 39.103280078047256], [28.075691282263847, 39.103280078047256], [28.075691282263847, 39.10274108887678], [28.076769260604777, 39.10274108887678]], [[28.075152293093367, 39.10166311053584], [28.075152293093367, 39.10220209970631], [28.074613303922888, 39.10220209970631], [28.074613303922888, 39.10166311053584], [28.075152293093367, 39.10166311053584]], [[28.074613303922888, 39.10004614302442], [28.074613303922888, 39.10166311053584], [28.073535325581958, 39.10166311053584], [28.073535325581958, 39.10274108887678], [28.072457347241, 39.10274108887678], [28.072457347241, 39.10220209970631], [28.071918358070548, 39.10220209970631], [28.071918358070548, 39.10166311053584], [28.071379368900068, 39.10166311053584], [28.071379368900068, 39.101124121365366], [28.07084037972959, 39.101124121365366], [28.07084037972959, 39.100585132194894], [28.071379368900068, 39.100585132194894], [28.071379368900068, 39.10004614302442], [28.074613303922888, 39.10004614302442]], [[28.076769260604777, 39.09842917551301], [28.076769260604777, 39.099507153853956], [28.077847238945736, 39.099507153853956], [28.077847238945736, 39.100585132194894], [28.078386228116187, 39.100585132194894], [28.078386228116187, 39.101124121365366], [28.077847238945736, 39.101124121365366], [28.077847238945736, 39.10220209970631], [28.076230271434298, 39.10220209970631], [28.076230271434298, 39.09842917551301], [28.076769260604777, 39.09842917551301]], [[28.078925217286667, 39.09842917551301], [28.078925217286667, 39.098968164683484], [28.078386228116187, 39.098968164683484], [28.078386228116187, 39.099507153853956], [28.077847238945736, 39.099507153853956], [28.077847238945736, 39.098968164683484], [28.077308249775257, 39.098968164683484], [28.077308249775257, 39.09842917551301], [28.078925217286667, 39.09842917551301]], [[28.076769260604777, 39.09627321883112], [28.076769260604777, 39.096812208001595], [28.076230271434298, 39.096812208001595], [28.076230271434298, 39.09627321883112], [28.076769260604777, 39.09627321883112]], [[28.075691282263847, 39.09519524049018], [28.075691282263847, 39.09573422966065], [28.076230271434298, 39.09573422966065], [28.076230271434298, 39.09627321883112], [28.075152293093367, 39.09627321883112], [28.075152293093367, 39.096812208001595], [28.074613303922888, 39.096812208001595], [28.074613303922888, 39.09627321883112], [28.074074314752437, 39.09627321883112], [28.074074314752437, 39.09573422966065], [28.075152293093367, 39.09573422966065], [28.075152293093367, 39.09519524049018], [28.075691282263847, 39.09519524049018]], [[28.079464206457146, 39.09357827297877], [28.079464206457146, 39.09411726214923], [28.078925217286667, 39.09411726214923], [28.078925217286667, 39.09357827297877], [28.079464206457146, 39.09357827297877]]]}, "properties": {"area_ha": 103.97481674469842, "mean_dnbr": 0.3442490064353666, "compactness": 0.063, "rectangularity": 0.476, "cropland_frac": 0.008, "persistent": true, "brightness_delta": -0.2}}, {"type": "Feature", "geometry": {"geodesic": false, "type": "Polygon", "coordinates": [[[28.077847238945736, 39.082259500398855], [28.078925217286667, 39.082259500398855], [28.078925217286667, 39.084415457080745], [28.079464206457146, 39.084415457080745], [28.079464206457146, 39.086571413762634], [28.080542184798077, 39.086571413762634], [28.080542184798077, 39.08764939210358], [28.081620163139036, 39.08764939210358], [28.081620163139036, 39.088188381274044], [28.080542184798077, 39.088188381274044], [28.080542184798077, 39.09034433795593], [28.080003195627626, 39.09034433795593], [28.080003195627626, 39.090883327126406], [28.077308249775257, 39.090883327126406], [28.077308249775257, 39.08980534878546], [28.076769260604777, 39.08980534878546], [28.076769260604777, 39.08926635961499], [28.076230271434298, 39.08926635961499], [28.076230271434298, 39.088188381274044], [28.075691282263847, 39.088188381274044], [28.075691282263847, 39.08764939210358], [28.077308249775257, 39.08764939210358], [28.077308249775257, 39.08711040293311], [28.076769260604777, 39.08711040293311], [28.076769260604777, 39.086571413762634], [28.076230271434298, 39.086571413762634], [28.076230271434298, 39.08603242459216], [28.076769260604777, 39.08603242459216], [28.076769260604777, 39.08549343542169], [28.077308249775257, 39.08549343542169], [28.077308249775257, 39.08495444625122], [28.076769260604777, 39.08495444625122], [28.076769260604777, 39.084415457080745], [28.076230271434298, 39.084415457080745], [28.076230271434298, 39.082259500398855], [28.076769260604777, 39.082259500398855], [28.076769260604777, 39.08279848956933], [28.077847238945736, 39.08279848956933], [28.077847238945736, 39.082259500398855]], [[28.080003195627626, 39.08980534878546], [28.080003195627626, 39.09034433795593], [28.078925217286667, 39.09034433795593], [28.078925217286667, 39.08980534878546], [28.080003195627626, 39.08980534878546]], [[28.079464206457146, 39.086571413762634], [28.079464206457146, 39.08711040293311], [28.078925217286667, 39.08711040293311], [28.078925217286667, 39.086571413762634], [28.079464206457146, 39.086571413762634]]]}, "properties": {"area_ha": 25.92879018258194, "mean_dnbr": 0.3463595151925053, "compactness": 0.209, "rectangularity": 0.528, "cropland_frac": 0.003, "persistent": true, "brightness_delta": -0.208}}, {"type": "Feature", "geometry": {"geodesic": false, "type": "Polygon", "coordinates": [[[28.11018658917402, 39.67083567455397], [28.1107255783445, 39.67083567455397], [28.1107255783445, 39.67137466372444], [28.11126456751498, 39.67137466372444], [28.11126456751498, 39.671913652894915], [28.11234254585591, 39.671913652894915], [28.11234254585591, 39.67245264206539], [28.1107255783445, 39.67245264206539], [28.1107255783445, 39.671913652894915], [28.11018658917402, 39.671913652894915], [28.11018658917402, 39.67245264206539], [28.10964760000357, 39.67245264206539], [28.10964760000357, 39.671913652894915], [28.10749164332168, 39.671913652894915], [28.10749164332168, 39.67083567455397], [28.10910861083309, 39.67083567455397], [28.10910861083309, 39.67137466372444], [28.10964760000357, 39.67137466372444], [28.10964760000357, 39.671913652894915], [28.11018658917402, 39.671913652894915], [28.11018658917402, 39.67083567455397]]]}, "properties": {"area_ha": 3.8707040435129247, "mean_dnbr": 0.3358803828693664, "compactness": 0.203, "rectangularity": 0.519, "cropland_frac": 0.02, "persistent": true, "brightness_delta": 0.009}}]}