{"type": "FeatureCollection", "crs": {"type": "name", "properties": {"name": "urn:ogc:def:crs:OGC:1.3:CRS84"}}, "features": [{"type": "Feature", "geometry": {"geodesic": false, "type": "Polygon", "coordinates": [[[28.1452208852547, 39.706947948975575], [28.146298863595632, 39.706947948975575], [28.146298863595632, 39.70748693814605], [28.147376841936563, 39.70748693814605], [28.147376841936563, 39.70802592731652], [28.147915831107042, 39.70802592731652], [28.147915831107042, 39.70910390565746], [28.1452208852547, 39.70910390565746], [28.1452208852547, 39.70802592731652], [28.145759874425153, 39.70802592731652], [28.145759874425153, 39.70748693814605], [28.1452208852547, 39.70748693814605], [28.1452208852547, 39.706947948975575]]]}, "properties": {"area_ha": 4.144991418264469, "mean_dnbr": 0.20024129252659106, "compactness": 0.488, "rectangularity": 0.75, "cropland_frac": 0.239, "persistent": true, "brightness_delta": -0.021}}]}