{"type": "FeatureCollection", "crs": {"type": "name", "properties": {"name": "urn:ogc:def:crs:OGC:1.3:CRS84"}}, "features": [{"type": "Feature", "geometry": {"geodesic": false, "type": "Polygon", "coordinates": [[[28.07030139055911, 39.47302664899085], [28.071379368900068, 39.47302664899085], [28.071379368900068, 39.47464361650226], [28.071918358070548, 39.47464361650226], [28.071918358070548, 39.475182605672735], [28.072996336411478, 39.475182605672735], [28.072996336411478, 39.47572159484321], [28.073535325581958, 39.47572159484321], [28.073535325581958, 39.47626058401368], [28.074074314752437, 39.47626058401368], [28.074074314752437, 39.47572159484321], [28.075152293093367, 39.47572159484321], [28.075152293093367, 39.47626058401368], [28.075691282263847, 39.47626058401368], [28.075691282263847, 39.47572159484321], [28.076230271434298, 39.47572159484321], [28.076230271434298, 39.475182605672735], [28.076769260604777, 39.475182605672735], [28.076769260604777, 39.47464361650226], [28.077308249775257, 39.47464361650226], [28.077308249775257, 39.475182605672735], [28.077847238945736, 39.475182605672735], [28.077847238945736, 39.47464361650226], [28.078386228116187, 39.47464361650226], [28.078386228116187, 39.47410462733179], [28.078925217286667, 39.47410462733179], [28.078925217286667, 39.47464361650226], [28.080003195627626, 39.47464361650226], [28.080003195627626, 39.475182605672735], [28.081620163139036, 39.475182605672735], [28.081620163139036, 39.47572159484321], [28.081081173968556, 39.47572159484321], [28.081081173968556, 39.47626058401368], [28.080542184798077, 39.47626058401368], [28.080542184798077, 39.47679957318415], [28.080003195627626, 39.47679957318415], [28.080003195627626, 39.4778775515251], [28.080542184798077, 39.4778775515251], [28.080542184798077, 39.47841654069557], [28.081081173968556, 39.47841654069557], [28.081081173968556, 39.47895552986604], [28.079464206457146, 39.47895552986604], [28.079464206457146, 39.48003350820698], [28.078925217286667, 39.48003350820698], [28.078925217286667, 39.481111486547924], [28.078386228116187, 39.481111486547924], [28.078386228116187, 39.48434542157076], [28.078925217286667, 39.48434542157076], [28.078925217286667, 39.48488441074123], [28.079464206457146, 39.48488441074123], [28.079464206457146, 39.48596238908217], [28.080003195627626, 39.48596238908217], [28.080003195627626, 39.48704036742311], [28.080542184798077, 39.48704036742311], [28.080542184798077, 39.48865733493453], [28.078925217286667, 39.48865733493453], [28.078925217286667, 39.49081329161642], [28.078386228116187, 39.49081329161642], [28.078386228116187, 39.49135228078689], [28.077847238945736, 39.49135228078689], [28.077847238945736, 39.493508237468774], [28.078386228116187, 39.493508237468774], [28.078386228116187, 39.494047226639246], [28.077847238945736, 39.494047226639246], [28.077847238945736, 39.49458621580972], [28.076769260604777, 39.49458621580972], [28.076769260604777, 39.496203183321136], [28.075691282263847, 39.496203183321136], [28.075691282263847, 39.49674217249161], [28.075152293093367, 39.49674217249161], [28.075152293093367, 39.49782015083255], [28.075691282263847, 39.49782015083255], [28.075691282263847, 39.49835914000302], [28.075152293093367, 39.49835914000302], [28.075152293093367, 39.49943711834396], [28.074074314752437, 39.49943711834396], [28.074074314752437, 39.499976107514435], [28.073535325581958, 39.499976107514435], [28.073535325581958, 39.50051509668491], [28.072996336411478, 39.50051509668491], [28.072996336411478, 39.50105408585538], [28.072457347241, 39.50105408585538], [28.072457347241, 39.5026710533668], [28.071918358070548, 39.5026710533668], [28.071918358070548, 39.50482701004868], [28.072457347241, 39.50482701004868], [28.072457347241, 39.505904988389624], [28.071918358070548, 39.505904988389624], [28.071918358070548, 39.506443977560096], [28.072457347241, 39.506443977560096], [28.072457347241, 39.50752195590104], [28.072996336411478, 39.50752195590104], [28.072996336411478, 39.50913892341246], [28.071918358070548, 39.50913892341246], [28.071918358070548, 39.508599934241985], [28.071379368900068, 39.508599934241985], [28.071379368900068, 39.50913892341246], [28.069762401388658, 39.50913892341246], [28.069762401388658, 39.508599934241985], [28.06922341221818, 39.508599934241985], [28.06922341221818, 39.50806094507151], [28.06437250968392, 39.50806094507151], [28.06437250968392, 39.505904988389624], [28.06383352051347, 39.505904988389624], [28.06383352051347, 39.50482701004868], [28.06329453134299, 39.50482701004868], [28.06329453134299, 39.50321004253727], [28.06383352051347, 39.50321004253727], [28.06383352051347, 39.5026710533668], [28.0649114988544, 39.5026710533668], [28.0649114988544, 39.50105408585538], [28.06545048802488, 39.50105408585538], [28.06545048802488, 39.499976107514435], [28.06598947719536, 39.499976107514435], [28.06598947719536, 39.49782015083255], [28.06652846636581, 39.49782015083255], [28.06652846636581, 39.49728116166208], [28.06706745553629, 39.49728116166208], [28.06706745553629, 39.496203183321136], [28.06652846636581, 39.496203183321136], [28.06652846636581, 39.49458621580972], [28.06598947719536, 39.49458621580972], [28.06598947719536, 39.4929692482983], [28.06652846636581, 39.4929692482983], [28.06652846636581, 39.489735313275474], [28.06598947719536, 39.489735313275474], [28.06598947719536, 39.48865733493453], [28.06652846636581, 39.48865733493453], [28.06652846636581, 39.483806432400286], [28.06760644470677, 39.483806432400286], [28.06760644470677, 39.48272845405934], [28.06814543387725, 39.48272845405934], [28.06814543387725, 39.48057249737745], [28.06760644470677, 39.48057249737745], [28.06760644470677, 39.48003350820698], [28.06814543387725, 39.48003350820698], [28.06814543387725, 39.479494519036514], [28.06922341221818, 39.479494519036514], [28.06922341221818, 39.477338562354625], [28.06814543387725, 39.477338562354625], [28.06814543387725, 39.47572159484321], [28.0686844230477, 39.47572159484321], [28.0686844230477, 39.475182605672735], [28.07030139055911, 39.475182605672735], [28.07030139055911, 39.47410462733179], [28.069762401388658, 39.47410462733179], [28.069762401388658, 39.473565638161325], [28.07030139055911, 39.473565638161325], [28.07030139055911, 39.47302664899085]], [[28.06760644470677, 39.505904988389624], [28.06760644470677, 39.506443977560096], [28.06706745553629, 39.506443977560096], [28.06706745553629, 39.505904988389624], [28.06760644470677, 39.505904988389624]], [[28.071918358070548, 39.50159307502585], [28.071918358070548, 39.5026710533668], [28.071379368900068, 39.5026710533668], [28.071379368900068, 39.50159307502585], [28.071918358070548, 39.50159307502585]], [[28.07030139055911, 39.49728116166208], [28.07030139055911, 39.49835914000302], [28.069762401388658, 39.49835914000302], [28.069762401388658, 39.49728116166208], [28.07030139055911, 39.49728116166208]], [[28.071379368900068, 39.49674217249161], [28.071379368900068, 39.49728116166208], [28.07084037972959, 39.49728116166208], [28.07084037972959, 39.49674217249161], [28.071379368900068, 39.49674217249161]], [[28.071918358070548, 39.48811834576406], [28.071918358070548, 39.48865733493453], [28.072457347241, 39.48865733493453], [28.072457347241, 39.489196324105], [28.07084037972959, 39.489196324105], [28.07084037972959, 39.48865733493453], [28.071379368900068, 39.48865733493453], [28.071379368900068, 39.48811834576406], [28.071918358070548, 39.48811834576406]], [[28.079464206457146, 39.477338562354625], [28.079464206457146, 39.4778775515251], [28.078925217286667, 39.4778775515251], [28.078925217286667, 39.477338562354625], [28.079464206457146, 39.477338562354625]]]}, "properties": {"area_ha": 334.58347664498376, "mean_dnbr": 0.5772787402192268, "compactness": 0.175, "rectangularity": 0.663, "cropland_frac": 0.253, "persistent": true, "brightness_delta": -0.225}}, {"type": "Feature", "geometry": {"geodesic": false, "type": "Polygon", "coordinates": [[[28.076230271434298, 39.09142231629688], [28.076769260604777, 39.09142231629688], [28.076769260604777, 39.09196130546735], [28.077847238945736, 39.09196130546735], [28.077847238945736, 39.09250029463782], [28.078925217286667, 39.09250029463782], [28.078925217286667, 39.09196130546735], [28.080003195627626, 39.09196130546735], [28.080003195627626, 39.09411726214923], [28.080542184798077, 39.09411726214923], [28.080542184798077, 39.094656251319705], [28.080003195627626, 39.094656251319705], [28.080003195627626, 39.09519524049018], [28.079464206457146, 39.09519524049018], [28.079464206457146, 39.09573422966065], [28.078925217286667, 39.09573422966065], [28.078925217286667, 39.096812208001595], [28.078386228116187, 39.096812208001595], [28.078386228116187, 39.09735119717207], [28.079464206457146, 39.09735119717207], [28.079464206457146, 39.09789018634254], [28.080542184798077, 39.09789018634254], [28.080542184798077, 39.09842917551301], [28.081081173968556, 39.09842917551301], [28.081081173968556, 39.098968164683484], [28.078925217286667, 39.098968164683484], [28.078925217286667, 39.099507153853956], [28.081081173968556, 39.099507153853956], [28.081081173968556, 39.101124121365366], [28.082698141479966, 39.101124121365366], [28.082698141479966, 39.10220209970631], [28.081081173968556, 39.10220209970631], [28.081081173968556, 39.10274108887678], [28.078386228116187, 39.10274108887678], [28.078386228116187, 39.103280078047256], [28.080003195627626, 39.103280078047256], [28.080003195627626, 39.10381906721773], [28.080542184798077, 39.10381906721773], [28.080542184798077, 39.10489704555867], [28.082159152309487, 39.10489704555867], [28.082159152309487, 39.10597502389961], [28.080542184798077, 39.10597502389961], [28.080542184798077, 39.10651401307008], [28.081081173968556, 39.10651401307008], [28.081081173968556, 39.10759199141103], [28.079464206457146, 39.10759199141103], [28.079464206457146, 39.107053002240555], [28.078386228116187, 39.107053002240555], [28.078386228116187, 39.10759199141103], [28.077308249775257, 39.10759199141103], [28.077308249775257, 39.10651401307008], [28.076230271434298, 39.10651401307008], [28.076230271434298, 39.10597502389961], [28.075691282263847, 39.10597502389961], [28.075691282263847, 39.105436034729145], [28.074613303922888, 39.105436034729145], [28.074613303922888, 39.10489704555867], [28.072457347241, 39.10489704555867], [28.072457347241, 39.1043580563882], [28.07084037972959, 39.1043580563882], [28.07084037972959, 39.10381906721773], [28.07030139055911, 39.10381906721773], [28.07030139055911, 39.10274108887678], [28.069762401388658, 39.10274108887678], [28.069762401388658, 39.101124121365366], [28.06922341221818, 39.101124121365366], [28.06922341221818, 39.10004614302442], [28.0686844230477, 39.10004614302442], [28.0686844230477, 39.099507153853956], [28.06814543387725, 39.099507153853956], [28.06814543387725, 39.098968164683484], [28.06922341221818, 39.098968164683484], [28.06922341221818, 39.099507153853956], [28.07030139055911, 39.099507153853956], [28.07030139055911, 39.10004614302442], [28.07084037972959, 39.10004614302442], [28.07084037972959, 39.099507153853956], [28.071379368900068, 39.099507153853956], [28.071379368900068, 39.098968164683484], [28.071918358070548, 39.098968164683484], [28.071918358070548, 39.09789018634254], [28.071379368900068, 39.09789018634254], [28.071379368900068, 39.09735119717207], [28.07084037972959, 39.09735119717207], [28.07084037972959, 39.096812208001595], [28.07030139055911, 39.096812208001595], [28.07030139055911, 39.09573422966065], [28.069762401388658, 39.09573422966065], [28.069762401388658, 39.094656251319705], [28.072457347241, 39.094656251319705], [28.072457347241, 39.09573422966065], [28.074074314752437, 39.09573422966065], [28.074074314752437, 39.09627321883112], [28.074613303922888, 39.09627321883112], [28.074613303922888, 39.096812208001595], [28.075152293093367, 39.096812208001595], [28.075152293093367, 39.09627321883112], [28.076230271434298, 39.09627321883112], [28.076230271434298, 39.09519524049018], [28.075152293093367, 39.09519524049018], [28.075152293093367, 39.09573422966065], [28.074613303922888, 39.09573422966065], [28.074613303922888, 39.09519524049018], [28.075152293093367, 39.09519524049018], [28.075152293093367, 39.094656251319705], [28.074613303922888, 39.094656251319705], [28.074613303922888, 39.09411726214923], [28.075152293093367, 39.09411726214923], [28.075152293093367, 39.094656251319705], [28.076230271434298, 39.094656251319705], [28.076230271434298, 39.09411726214923], [28.076769260604777, 39.09411726214923], [28.076769260604777, 39.093039283808295], [28.076230271434298, 39.093039283808295], [28.076230271434298, 39.09250029463782], [28.075691282263847, 39.09250029463782], [28.075691282263847, 39.093039283808295], [28.074074314752437, 39.093039283808295], [28.074074314752437, 39.09250029463782], [28.075691282263847, 39.09250029463782], [28.075691282263847, 39.09196130546735], [28.076230271434298, 39.09196130546735], [28.076230271434298, 39.09142231629688]], [[28.076769260604777, 39.10274108887678], [28.076769260604777, 39.103280078047256], [28.076230271434298, 39.103280078047256], [28.076230271434298, 39.10274108887678], [28.076769260604777, 39.10274108887678]], [[28.075152293093367, 39.10166311053584], [28.075152293093367, 39.10220209970631], [28.074613303922888, 39.10220209970631], [28.074613303922888, 39.10166311053584], [28.075152293093367, 39.10166311053584]], [[28.074613303922888, 39.10004614302442], [28.074613303922888, 39.10166311053584], [28.073535325581958, 39.10166311053584], [28.073535325581958, 39.10274108887678], [28.072457347241, 39.10274108887678], [28.072457347241, 39.10220209970631], [28.071918358070548, 39.10220209970631], [28.071918358070548, 39.10166311053584], [28.071379368900068, 39.10166311053584], [28.071379368900068, 39.101124121365366], [28.07084037972959, 39.101124121365366], [28.07084037972959, 39.100585132194894], [28.071379368900068, 39.100585132194894], [28.071379368900068, 39.10004614302442], [28.074613303922888, 39.10004614302442]], [[28.076769260604777, 39.098968164683484], [28.076769260604777, 39.099507153853956], [28.077847238945736, 39.099507153853956], [28.077847238945736, 39.100585132194894], [28.078925217286667, 39.100585132194894], [28.078925217286667, 39.101124121365366], [28.077847238945736, 39.101124121365366], [28.077847238945736, 39.10166311053584], [28.077308249775257, 39.10166311053584], [28.077308249775257, 39.10220209970631], [28.076230271434298, 39.10220209970631], [28.076230271434298, 39.098968164683484], [28.076769260604777, 39.098968164683484]], [[28.078925217286667, 39.09842917551301], [28.078925217286667, 39.098968164683484], [28.078386228116187, 39.098968164683484], [28.078386228116187, 39.099507153853956], [28.077847238945736, 39.099507153853956], [28.077847238945736, 39.098968164683484], [28.077308249775257, 39.098968164683484], [28.077308249775257, 39.09842917551301], [28.078925217286667, 39.09842917551301]], [[28.076769260604777, 39.09627321883112], [28.076769260604777, 39.096812208001595], [28.076230271434298, 39.096812208001595], [28.076230271434298, 39.09627321883112], [28.076769260604777, 39.09627321883112]], [[28.079464206457146, 39.093039283808295], [28.079464206457146, 39.09411726214923], [28.078925217286667, 39.09411726214923], [28.078925217286667, 39.093039283808295], [28.079464206457146, 39.093039283808295]]]}, "properties": {"area_ha": 102.02328111048998, "mean_dnbr": 0.3660747449240535, "compactness": 0.065, "rectangularity": 0.467, "cropland_frac": 0.009, "persistent": true, "brightness_delta": -0.072}}, {"type": "Feature", "geometry": {"geodesic": false, "type": "Polygon", "coordinates": [[[28.078386228116187, 39.082259500398855], [28.078925217286667, 39.082259500398855], [28.078925217286667, 39.08279848956933], [28.078386228116187, 39.08279848956933], [28.078386228116187, 39.0833374787398], [28.078925217286667, 39.0833374787398], [28.078925217286667, 39.084415457080745], [28.079464206457146, 39.084415457080745], [28.079464206457146, 39.086571413762634], [28.080542184798077, 39.086571413762634], [28.080542184798077, 39.08764939210358], [28.081081173968556, 39.08764939210358], [28.081081173968556, 39.088188381274044], [28.080542184798077, 39.088188381274044], [28.080542184798077, 39.09034433795593], [28.080003195627626, 39.09034433795593], [28.080003195627626, 39.090883327126406], [28.077308249775257, 39.090883327126406], [28.077308249775257, 39.08980534878546], [28.076769260604777, 39.08980534878546], [28.076769260604777, 39.08926635961499], [28.076230271434298, 39.08926635961499], [28.076230271434298, 39.088188381274044], [28.075691282263847, 39.088188381274044], [28.075691282263847, 39.08764939210358], [28.077308249775257, 39.08764939210358], [28.077308249775257, 39.08711040293311], [28.076769260604777, 39.08711040293311], [28.076769260604777, 39.086571413762634], [28.076230271434298, 39.086571413762634], [28.076230271434298, 39.08603242459216], [28.076769260604777, 39.08603242459216], [28.076769260604777, 39.08549343542169], [28.077308249775257, 39.08549343542169], [28.077308249775257, 39.08495444625122], [28.076769260604777, 39.08495444625122], [28.076769260604777, 39.084415457080745], [28.076230271434298, 39.084415457080745], [28.076230271434298, 39.082259500398855], [28.076769260604777, 39.082259500398855], [28.076769260604777, 39.08279848956933], [28.077308249775257, 39.08279848956933], [28.077308249775257, 39.0833374787398], [28.077847238945736, 39.0833374787398], [28.077847238945736, 39.08279848956933], [28.078386228116187, 39.08279848956933], [28.078386228116187, 39.082259500398855]], [[28.080003195627626, 39.08980534878546], [28.080003195627626, 39.09034433795593], [28.078925217286667, 39.09034433795593], [28.078925217286667, 39.08980534878546], [28.080003195627626, 39.08980534878546]], [[28.079464206457146, 39.086571413762634], [28.079464206457146, 39.08711040293311], [28.078925217286667, 39.08711040293311], [28.078925217286667, 39.086571413762634], [28.079464206457146, 39.086571413762634]]]}, "properties": {"area_ha": 24.813530968905376, "mean_dnbr": 0.3746871631918755, "compactness": 0.188, "rectangularity": 0.556, "cropland_frac": 0.003, "persistent": true, "brightness_delta": -0.068}}]}