{"type": "FeatureCollection", "crs": {"type": "name", "properties": {"name": "urn:ogc:def:crs:OGC:1.3:CRS84"}}, "features": [{"type": "Feature", "geometry": {"geodesic": false, "type": "Polygon", "coordinates": [[[27.41327359175409, 38.78689343498036], [27.41381258092457, 38.78689343498036], [27.41381258092457, 38.78743242415083], [27.41542954843598, 38.78743242415083], [27.41542954843598, 38.7879714133213], [27.41596853760646, 38.7879714133213], [27.41596853760646, 38.789049391662246], [27.41650752677694, 38.789049391662246], [27.41650752677694, 38.79012737000319], [27.41704651594742, 38.79012737000319], [27.41704651594742, 38.79066635917366], [27.41758550511787, 38.79066635917366], [27.41758550511787, 38.79174433751461], [27.41812449428835, 38.79174433751461], [27.41812449428835, 38.79228332668508], [27.41866348345883, 38.79228332668508], [27.41866348345883, 38.79443928336696], [27.41920247262928, 38.79443928336696], [27.41920247262928, 38.794978272537435], [27.41974146179976, 38.794978272537435], [27.41974146179976, 38.7976732183898], [27.41704651594742, 38.7976732183898], [27.41704651594742, 38.79551726170791], [27.41650752677694, 38.79551726170791], [27.41650752677694, 38.79659524004885], [27.41435157009505, 38.79659524004885], [27.41435157009505, 38.79605625087838], [27.41489055926553, 38.79605625087838], [27.41489055926553, 38.79551726170791], [27.41381258092457, 38.79551726170791], [27.41381258092457, 38.79443928336696], [27.41273460258364, 38.79443928336696], [27.41273460258364, 38.792822315855545], [27.41219561341316, 38.792822315855545], [27.41219561341316, 38.789049391662246], [27.41273460258364, 38.789049391662246], [27.41273460258364, 38.7879714133213], [27.41327359175409, 38.7879714133213], [27.41327359175409, 38.78689343498036]], [[27.41650752677694, 38.79066635917366], [27.41650752677694, 38.79174433751461], [27.41596853760646, 38.79174433751461], [27.41596853760646, 38.79066635917366], [27.41650752677694, 38.79066635917366]], [[27.41435157009505, 38.7879714133213], [27.41435157009505, 38.788510402491774], [27.41381258092457, 38.788510402491774], [27.41381258092457, 38.7879714133213], [27.41435157009505, 38.7879714133213]]]}, "properties": {"area_ha": 45.63404895934144, "mean_dnbr": 0.4454978361703364, "compactness": 0.273, "rectangularity": 0.619, "cropland_frac": 0, "persistent": null, "brightness_delta": -0.309}}]}