{"type": "FeatureCollection", "crs": {"type": "name", "properties": {"name": "urn:ogc:def:crs:OGC:1.3:CRS84"}}, "features": [{"type": "Feature", "geometry": {"geodesic": false, "type": "Polygon", "coordinates": [[[27.287689115034198, 37.029788739242576], [27.289306082545608, 37.029788739242576], [27.289306082545608, 37.03086671758352], [27.290384060886566, 37.03086671758352], [27.290384060886566, 37.03140570675399], [27.290923050057017, 37.03140570675399], [27.290923050057017, 37.03086671758352], [27.291462039227497, 37.03086671758352], [27.291462039227497, 37.031944695924466], [27.290923050057017, 37.031944695924466], [27.290923050057017, 37.0330226742654], [27.289845071716087, 37.0330226742654], [27.289845071716087, 37.033561663435876], [27.288767093375128, 37.033561663435876], [27.288767093375128, 37.03410065260635], [27.287689115034198, 37.03410065260635], [27.287689115034198, 37.03463964177682], [27.28661113669324, 37.03463964177682], [27.28661113669324, 37.03410065260635], [27.2839161908409, 37.03410065260635], [27.2839161908409, 37.0330226742654], [27.286072147522788, 37.0330226742654], [27.286072147522788, 37.03248368509493], [27.285533158352308, 37.03248368509493], [27.285533158352308, 37.031944695924466], [27.284455180011378, 37.031944695924466], [27.284455180011378, 37.03032772841305], [27.28499416918183, 37.03032772841305], [27.28499416918183, 37.029788739242576], [27.286072147522788, 37.029788739242576], [27.286072147522788, 37.03032772841305], [27.287689115034198, 37.03032772841305], [27.287689115034198, 37.029788739242576]], [[27.289845071716087, 37.031944695924466], [27.289845071716087, 37.03248368509493], [27.289306082545608, 37.03248368509493], [27.289306082545608, 37.031944695924466], [27.289845071716087, 37.031944695924466]]]}, "properties": {"area_ha": 22.652876907776207, "mean_dnbr": 0.4751184606230747, "compactness": 0.285, "rectangularity": 0.627, "cropland_frac": 0.116, "persistent": true, "brightness_delta": -0.089}}, {"type": "Feature", "geometry": {"geodesic": false, "type": "Polygon", "coordinates": [[[27.525922328382705, 37.4523562488924], [27.529695252576005, 37.4523562488924], [27.529695252576005, 37.45289523806287], [27.530234241746456, 37.45289523806287], [27.530234241746456, 37.45397321640382], [27.529695252576005, 37.45397321640382], [27.529695252576005, 37.455051194744755], [27.529156263405525, 37.455051194744755], [27.529156263405525, 37.45451220557428], [27.527539295894115, 37.45451220557428], [27.527539295894115, 37.45559018391523], [27.528078285064566, 37.45559018391523], [27.528078285064566, 37.455051194744755], [27.528617274235046, 37.455051194744755], [27.528617274235046, 37.45559018391523], [27.529695252576005, 37.45559018391523], [27.529695252576005, 37.457207151426644], [27.529156263405525, 37.457207151426644], [27.529156263405525, 37.45828512976759], [27.528617274235046, 37.45828512976759], [27.528617274235046, 37.459902097279006], [27.529156263405525, 37.459902097279006], [27.529156263405525, 37.46098007561994], [27.528078285064566, 37.46098007561994], [27.528078285064566, 37.461519064790416], [27.528617274235046, 37.461519064790416], [27.528617274235046, 37.46259704313136], [27.529695252576005, 37.46259704313136], [27.529695252576005, 37.46475299981325], [27.530773230916935, 37.46475299981325], [27.530773230916935, 37.46529198898372], [27.530234241746456, 37.46529198898372], [27.530234241746456, 37.46636996732466], [27.529695252576005, 37.46636996732466], [27.529695252576005, 37.467447945665604], [27.528078285064566, 37.467447945665604], [27.528078285064566, 37.46798693483608], [27.528617274235046, 37.46798693483608], [27.528617274235046, 37.46852592400655], [27.529156263405525, 37.46852592400655], [27.529156263405525, 37.46906491317702], [27.528617274235046, 37.46906491317702], [27.528617274235046, 37.469603902347494], [27.524305360871267, 37.469603902347494], [27.524305360871267, 37.46852592400655], [27.523766371700816, 37.46852592400655], [27.523766371700816, 37.470142891517966], [27.524305360871267, 37.470142891517966], [27.524305360871267, 37.47068188068844], [27.524844350041747, 37.47068188068844], [27.524844350041747, 37.47122086985891], [27.525383339212226, 37.47122086985891], [27.525383339212226, 37.47229884819985], [27.523766371700816, 37.47229884819985], [27.523766371700816, 37.47175985902938], [27.523227382530337, 37.47175985902938], [27.523227382530337, 37.47229884819985], [27.522688393359857, 37.47229884819985], [27.522688393359857, 37.47175985902938], [27.522149404189378, 37.47175985902938], [27.522149404189378, 37.47122086985891], [27.521610415018927, 37.47122086985891], [27.521610415018927, 37.47068188068844], [27.522149404189378, 37.47068188068844], [27.522149404189378, 37.470142891517966], [27.521610415018927, 37.470142891517966], [27.521610415018927, 37.469603902347494], [27.521071425848447, 37.469603902347494], [27.521071425848447, 37.46906491317702], [27.519993447507517, 37.46906491317702], [27.519993447507517, 37.46852592400655], [27.519454458337037, 37.46852592400655], [27.519454458337037, 37.46798693483608], [27.519993447507517, 37.46798693483608], [27.519993447507517, 37.46690895649513], [27.519454458337037, 37.46690895649513], [27.519454458337037, 37.46529198898372], [27.519993447507517, 37.46529198898372], [27.519993447507517, 37.463675021472305], [27.519454458337037, 37.463675021472305], [27.519454458337037, 37.46259704313136], [27.519993447507517, 37.46259704313136], [27.519993447507517, 37.46098007561994], [27.520532436677968, 37.46098007561994], [27.520532436677968, 37.45882411893806], [27.519993447507517, 37.45882411893806], [27.519993447507517, 37.45828512976759], [27.520532436677968, 37.45828512976759], [27.520532436677968, 37.457207151426644], [27.519993447507517, 37.457207151426644], [27.519993447507517, 37.45666816225617], [27.520532436677968, 37.45666816225617], [27.520532436677968, 37.4561291730857], [27.522149404189378, 37.4561291730857], [27.522149404189378, 37.45451220557428], [27.523227382530337, 37.45451220557428], [27.523227382530337, 37.453434227233345], [27.523766371700816, 37.453434227233345], [27.523766371700816, 37.45289523806287], [27.525922328382705, 37.45289523806287], [27.525922328382705, 37.4523562488924]], [[27.520532436677968, 37.46636996732466], [27.520532436677968, 37.46690895649513], [27.519993447507517, 37.46690895649513], [27.519993447507517, 37.46636996732466], [27.520532436677968, 37.46636996732466]], [[27.527000306723636, 37.455051194744755], [27.527000306723636, 37.45559018391523], [27.527539295894115, 37.45559018391523], [27.527539295894115, 37.45666816225617], [27.525383339212226, 37.45666816225617], [27.525383339212226, 37.457207151426644], [27.524844350041747, 37.457207151426644], [27.524844350041747, 37.457746140597116], [27.524305360871267, 37.457746140597116], [27.524305360871267, 37.45828512976759], [27.523766371700816, 37.45828512976759], [27.523766371700816, 37.457207151426644], [27.524305360871267, 37.457207151426644], [27.524305360871267, 37.45666816225617], [27.524844350041747, 37.45666816225617], [27.524844350041747, 37.4561291730857], [27.524305360871267, 37.4561291730857], [27.524305360871267, 37.45559018391523], [27.526461317553157, 37.45559018391523], [27.526461317553157, 37.455051194744755], [27.527000306723636, 37.455051194744755]]]}, "properties": {"area_ha": 145.40779487150368, "mean_dnbr": 0.3459816206261764, "compactness": 0.165, "rectangularity": 0.656, "cropland_frac": 0.069, "persistent": true, "brightness_delta": -0.186}}, {"type": "Feature", "geometry": {"geodesic": false, "type": "Polygon", "coordinates": [[[27.910221606929014, 37.73532556339005], [27.911838574440452, 37.73532556339005], [27.911838574440452, 37.73586455256052], [27.912916552781383, 37.73586455256052], [27.912916552781383, 37.73640354173099], [27.916150487804202, 37.73640354173099], [27.916150487804202, 37.736942530901466], [27.91561149863375, 37.736942530901466], [27.91561149863375, 37.7380205092424], [27.916689476974682, 37.7380205092424], [27.916689476974682, 37.73909848758335], [27.91722846614516, 37.73909848758335], [27.91722846614516, 37.73963747675382], [27.916689476974682, 37.73963747675382], [27.916689476974682, 37.740715455094765], [27.916150487804202, 37.740715455094765], [27.916150487804202, 37.74017646592429], [27.914533520292792, 37.74017646592429], [27.914533520292792, 37.740715455094765], [27.913455541951862, 37.740715455094765], [27.913455541951862, 37.74017646592429], [27.912377563610903, 37.74017646592429], [27.912377563610903, 37.73909848758335], [27.911299585269973, 37.73909848758335], [27.911299585269973, 37.73963747675382], [27.910221606929014, 37.73963747675382], [27.910221606929014, 37.74017646592429], [27.911838574440452, 37.74017646592429], [27.911838574440452, 37.74125444426524], [27.910760596099493, 37.74125444426524], [27.910760596099493, 37.74179343343571], [27.908604639417604, 37.74179343343571], [27.908604639417604, 37.74233242260618], [27.907526661076673, 37.74233242260618], [27.907526661076673, 37.74179343343571], [27.906448682735714, 37.74179343343571], [27.906448682735714, 37.74125444426524], [27.905370704394784, 37.74125444426524], [27.905370704394784, 37.74179343343571], [27.905909693565235, 37.74179343343571], [27.905909693565235, 37.74233242260618], [27.906987671906194, 37.74233242260618], [27.906987671906194, 37.74394939011759], [27.906448682735714, 37.74394939011759], [27.906448682735714, 37.74556635762901], [27.905909693565235, 37.74556635762901], [27.905909693565235, 37.746644335969954], [27.905370704394784, 37.746644335969954], [27.905370704394784, 37.747183325140426], [27.904831715224304, 37.747183325140426], [27.904831715224304, 37.74826130348137], [27.902136769371936, 37.74826130348137], [27.902136769371936, 37.747183325140426], [27.901058791031005, 37.747183325140426], [27.901058791031005, 37.746644335969954], [27.900519801860526, 37.746644335969954], [27.900519801860526, 37.747183325140426], [27.899980812690046, 37.747183325140426], [27.899980812690046, 37.7477223143109], [27.899441823519595, 37.7477223143109], [27.899441823519595, 37.74826130348137], [27.897285866837706, 37.74826130348137], [27.897285866837706, 37.7477223143109], [27.896746877667226, 37.7477223143109], [27.896746877667226, 37.74826130348137], [27.896207888496747, 37.74826130348137], [27.896207888496747, 37.7477223143109], [27.894051931814857, 37.7477223143109], [27.894051931814857, 37.747183325140426], [27.888662040110148, 37.747183325140426], [27.888662040110148, 37.7477223143109], [27.88812305093967, 37.7477223143109], [27.88812305093967, 37.74880029265184], [27.887584061769218, 37.74880029265184], [27.887584061769218, 37.749339281822316], [27.88542810508733, 37.749339281822316], [27.88542810508733, 37.74880029265184], [27.88488911591685, 37.74880029265184], [27.88488911591685, 37.74826130348137], [27.88381113757592, 37.74826130348137], [27.88381113757592, 37.74880029265184], [27.88327214840544, 37.74880029265184], [27.88327214840544, 37.749339281822316], [27.88273315923496, 37.749339281822316], [27.88273315923496, 37.75041726016325], [27.88219417006448, 37.75041726016325], [27.88219417006448, 37.750956249333726], [27.88273315923496, 37.750956249333726], [27.88273315923496, 37.7514952385042], [27.88219417006448, 37.7514952385042], [27.88219417006448, 37.75203422767467], [27.88057720255307, 37.75203422767467], [27.88057720255307, 37.7514952385042], [27.88003821338262, 37.7514952385042], [27.88003821338262, 37.750956249333726], [27.87949922421214, 37.750956249333726], [27.87949922421214, 37.749339281822316], [27.87896023504166, 37.749339281822316], [27.87896023504166, 37.74880029265184], [27.87788225670073, 37.74880029265184], [27.87788225670073, 37.74826130348137], [27.87734326753025, 37.74826130348137], [27.87734326753025, 37.747183325140426], [27.87680427835977, 37.747183325140426], [27.87680427835977, 37.74610534679948], [27.87626528918929, 37.74610534679948], [27.87626528918929, 37.74556635762901], [27.87464832167788, 37.74556635762901], [27.87464832167788, 37.74502736845854], [27.87357034333695, 37.74502736845854], [27.87357034333695, 37.744488379288065], [27.87195337582554, 37.744488379288065], [27.87195337582554, 37.74394939011759], [27.872492364995992, 37.74394939011759], [27.872492364995992, 37.742871411776655], [27.870875397484582, 37.742871411776655], [27.870875397484582, 37.74341040094713], [27.870336408314103, 37.74341040094713], [27.870336408314103, 37.742871411776655], [27.870875397484582, 37.742871411776655], [27.870875397484582, 37.74233242260618], [27.87195337582554, 37.74233242260618], [27.87195337582554, 37.74179343343571], [27.872492364995992, 37.74179343343571], [27.872492364995992, 37.74125444426524], [27.87357034333695, 37.74125444426524], [27.87357034333695, 37.74179343343571], [27.87303135416647, 37.74179343343571], [27.87303135416647, 37.74233242260618], [27.87410933250743, 37.74233242260618], [27.87410933250743, 37.742871411776655], [27.87464832167788, 37.742871411776655], [27.87464832167788, 37.74233242260618], [27.87518731084836, 37.74233242260618], [27.87518731084836, 37.74125444426524], [27.87464832167788, 37.74125444426524], [27.87464832167788, 37.740715455094765], [27.87572630001884, 37.740715455094765], [27.87572630001884, 37.74125444426524], [27.87680427835977, 37.74125444426524], [27.87680427835977, 37.74179343343571], [27.87788225670073, 37.74179343343571], [27.87788225670073, 37.740715455094765], [27.87842124587118, 37.740715455094765], [27.87842124587118, 37.74017646592429], [27.87896023504166, 37.74017646592429], [27.87896023504166, 37.73963747675382], [27.88003821338262, 37.73963747675382], [27.88003821338262, 37.738559498412876], [27.88111619172355, 37.738559498412876], [27.88111619172355, 37.7380205092424], [27.88165518089403, 37.7380205092424], [27.88165518089403, 37.73748152007193], [27.88650608342826, 37.73748152007193], [27.88650608342826, 37.736942530901466], [27.887045072598738, 37.736942530901466], [27.887045072598738, 37.73640354173099], [27.88812305093967, 37.73640354173099], [27.88812305093967, 37.736942530901466], [27.888662040110148, 37.736942530901466], [27.888662040110148, 37.73640354173099], [27.889201029280628, 37.73640354173099], [27.889201029280628, 37.736942530901466], [27.890279007621558, 37.736942530901466], [27.890279007621558, 37.73748152007193], [27.891356985962517, 37.73748152007193], [27.891356985962517, 37.7380205092424], [27.891895975132996, 37.7380205092424], [27.891895975132996, 37.738559498412876], [27.892434964303447, 37.738559498412876], [27.892434964303447, 37.73909848758335], [27.892973953473927, 37.73909848758335], [27.892973953473927, 37.73748152007193], [27.894590920985337, 37.73748152007193], [27.894590920985337, 37.7380205092424], [27.895129910155816, 37.7380205092424], [27.895129910155816, 37.738559498412876], [27.895668899326296, 37.738559498412876], [27.895668899326296, 37.73909848758335], [27.896207888496747, 37.73909848758335], [27.896207888496747, 37.73963747675382], [27.899980812690046, 37.73963747675382], [27.899980812690046, 37.73909848758335], [27.899441823519595, 37.73909848758335], [27.899441823519595, 37.738559498412876], [27.898902834349116, 37.738559498412876], [27.898902834349116, 37.7380205092424], [27.897824856008185, 37.7380205092424], [27.897824856008185, 37.73748152007193], [27.897285866837706, 37.73748152007193], [27.897285866837706, 37.736942530901466], [27.896746877667226, 37.736942530901466], [27.896746877667226, 37.73640354173099], [27.899441823519595, 37.73640354173099], [27.899441823519595, 37.73586455256052], [27.899980812690046, 37.73586455256052], [27.899980812690046, 37.73640354173099], [27.900519801860526, 37.73640354173099], [27.900519801860526, 37.736942530901466], [27.901058791031005, 37.736942530901466], [27.901058791031005, 37.738559498412876], [27.901597780201485, 37.738559498412876], [27.901597780201485, 37.73909848758335], [27.902136769371936, 37.73909848758335], [27.902136769371936, 37.738559498412876], [27.902675758542415, 37.738559498412876], [27.902675758542415, 37.73909848758335], [27.903214747712894, 37.73909848758335], [27.903214747712894, 37.7380205092424], [27.902136769371936, 37.7380205092424], [27.902136769371936, 37.73748152007193], [27.902675758542415, 37.73748152007193], [27.902675758542415, 37.736942530901466], [27.903214747712894, 37.736942530901466], [27.903214747712894, 37.73640354173099], [27.904292726053825, 37.73640354173099], [27.904292726053825, 37.736942530901466], [27.906448682735714, 37.736942530901466], [27.906448682735714, 37.73640354173099], [27.906987671906194, 37.73640354173099], [27.906987671906194, 37.73586455256052], [27.909143628588083, 37.73586455256052], [27.909143628588083, 37.73640354173099], [27.910221606929014, 37.73640354173099], [27.910221606929014, 37.73532556339005]], [[27.88219417006448, 37.750956249333726], [27.88219417006448, 37.7514952385042], [27.88165518089403, 37.7514952385042], [27.88165518089403, 37.750956249333726], [27.88219417006448, 37.750956249333726]], [[27.88327214840544, 37.7477223143109], [27.88327214840544, 37.74826130348137], [27.88219417006448, 37.74826130348137], [27.88219417006448, 37.7477223143109], [27.88327214840544, 37.7477223143109]], [[27.896746877667226, 37.747183325140426], [27.896746877667226, 37.7477223143109], [27.896207888496747, 37.7477223143109], [27.896207888496747, 37.747183325140426], [27.896746877667226, 37.747183325140426]], [[27.88273315923496, 37.74556635762901], [27.88273315923496, 37.74610534679948], [27.88219417006448, 37.74610534679948], [27.88219417006448, 37.74556635762901], [27.88273315923496, 37.74556635762901]], [[27.896207888496747, 37.74502736845854], [27.896207888496747, 37.74556635762901], [27.897285866837706, 37.74556635762901], [27.897285866837706, 37.74610534679948], [27.897824856008185, 37.74610534679948], [27.897824856008185, 37.746644335969954], [27.897285866837706, 37.746644335969954], [27.897285866837706, 37.747183325140426], [27.896746877667226, 37.747183325140426], [27.896746877667226, 37.74610534679948], [27.895668899326296, 37.74610534679948], [27.895668899326296, 37.74502736845854], [27.896207888496747, 37.74502736845854]], [[27.888662040110148, 37.742871411776655], [27.888662040110148, 37.74341040094713], [27.88812305093967, 37.74341040094713], [27.88812305093967, 37.74394939011759], [27.887584061769218, 37.74394939011759], [27.887584061769218, 37.742871411776655], [27.888662040110148, 37.742871411776655]]]}, "properties": {"area_ha": 361.01605255393605, "mean_dnbr": 0.3763311218390652, "compactness": 0.106, "rectangularity": 0.542, "cropland_frac": 0, "persistent": true, "brightness_delta": -0.058}}, {"type": "Feature", "geometry": {"geodesic": false, "type": "Polygon", "coordinates": [[[28.130668177651955, 37.92397177305515], [28.132824134333845, 37.92397177305515], [28.132824134333845, 37.92612772973703], [28.131746155992886, 37.92612772973703], [28.131746155992886, 37.926666718907505], [28.131207166822435, 37.926666718907505], [28.131207166822435, 37.92720570807798], [28.131746155992886, 37.92720570807798], [28.131746155992886, 37.92936166475987], [28.131207166822435, 37.92936166475987], [28.131207166822435, 37.930439643100804], [28.130129188481476, 37.930439643100804], [28.130129188481476, 37.93151762144175], [28.129590199310996, 37.93151762144175], [28.129590199310996, 37.932595599782694], [28.129051210140545, 37.932595599782694], [28.129051210140545, 37.93421256729411], [28.128512220970066, 37.93421256729411], [28.128512220970066, 37.93475155646458], [28.127973231799587, 37.93475155646458], [28.127973231799587, 37.93582953480553], [28.125278285947246, 37.93582953480553], [28.125278285947246, 37.935290545635056], [28.124739296776767, 37.935290545635056], [28.124739296776767, 37.93475155646458], [28.124200307606287, 37.93475155646458], [28.124200307606287, 37.93421256729411], [28.124739296776767, 37.93421256729411], [28.124739296776767, 37.93205661061222], [28.125278285947246, 37.93205661061222], [28.125278285947246, 37.93151762144175], [28.124739296776767, 37.93151762144175], [28.124739296776767, 37.930439643100804], [28.124200307606287, 37.930439643100804], [28.124200307606287, 37.92990065393034], [28.125817275117697, 37.92990065393034], [28.125817275117697, 37.92936166475987], [28.126356264288177, 37.92936166475987], [28.126356264288177, 37.928822675589394], [28.126895253458656, 37.928822675589394], [28.126895253458656, 37.92828368641892], [28.128512220970066, 37.92828368641892], [28.128512220970066, 37.92774469724845], [28.129051210140545, 37.92774469724845], [28.129051210140545, 37.92720570807798], [28.130129188481476, 37.92720570807798], [28.130129188481476, 37.92612772973703], [28.129590199310996, 37.92612772973703], [28.129590199310996, 37.92504975139609], [28.130129188481476, 37.92504975139609], [28.130129188481476, 37.924510762225616], [28.130668177651955, 37.924510762225616], [28.130668177651955, 37.92397177305515]]]}, "properties": {"area_ha": 45.04763174492095, "mean_dnbr": 0.5927168611965992, "compactness": 0.276, "rectangularity": 0.523, "cropland_frac": 0, "persistent": true, "brightness_delta": -0.096}}, {"type": "Feature", "geometry": {"geodesic": false, "type": "Polygon", "coordinates": [[[28.134980091015734, 37.533743613633625], [28.136058069356665, 37.533743613633625], [28.136058069356665, 37.5342826028041], [28.135519080186185, 37.5342826028041], [28.135519080186185, 37.53482159197457], [28.136597058527144, 37.53482159197457], [28.136597058527144, 37.53536058114504], [28.137136047697624, 37.53536058114504], [28.137136047697624, 37.53482159197457], [28.137675036868075, 37.53482159197457], [28.137675036868075, 37.53643855948599], [28.138214026038554, 37.53643855948599], [28.138214026038554, 37.53697754865646], [28.139292004379513, 37.53697754865646], [28.139292004379513, 37.53859451616787], [28.138753015209033, 37.53859451616787], [28.138753015209033, 37.53913350533834], [28.136597058527144, 37.53913350533834], [28.136597058527144, 37.539672494508814], [28.134441101845255, 37.539672494508814], [28.134441101845255, 37.53913350533834], [28.133902112674775, 37.53913350533834], [28.133902112674775, 37.53859451616787], [28.133363123504324, 37.53859451616787], [28.133363123504324, 37.538055526997404], [28.133902112674775, 37.538055526997404], [28.133902112674775, 37.53751653782693], [28.133363123504324, 37.53751653782693], [28.133363123504324, 37.53643855948599], [28.134441101845255, 37.53643855948599], [28.134441101845255, 37.53536058114504], [28.133902112674775, 37.53536058114504], [28.133902112674775, 37.5342826028041], [28.134980091015734, 37.5342826028041], [28.134980091015734, 37.533743613633625]], [[28.137675036868075, 37.53643855948599], [28.137675036868075, 37.53697754865646], [28.137136047697624, 37.53697754865646], [28.137136047697624, 37.53643855948599], [28.137675036868075, 37.53643855948599]]]}, "properties": {"area_ha": 21.646876491542542, "mean_dnbr": 0.4276747947709534, "compactness": 0.306, "rectangularity": 0.628, "cropland_frac": 0, "persistent": true, "brightness_delta": -0.074}}]}