{"type": "FeatureCollection", "crs": {"type": "name", "properties": {"name": "urn:ogc:def:crs:OGC:1.3:CRS84"}}, "features": [{"type": "Feature", "geometry": {"geodesic": false, "type": "Polygon", "coordinates": [[[28.80709958659395, 36.774846861609454], [28.80817756493491, 36.774846861609454], [28.80817756493491, 36.7759248399504], [28.80763857576443, 36.7759248399504], [28.80763857576443, 36.77646382912087], [28.80709958659395, 36.77646382912087], [28.80709958659395, 36.77700281829134], [28.80494362991206, 36.77700281829134], [28.80494362991206, 36.77646382912087], [28.80440464074158, 36.77646382912087], [28.80440464074158, 36.7759248399504], [28.80494362991206, 36.7759248399504], [28.80494362991206, 36.77538585077993], [28.80602160825302, 36.77538585077993], [28.80602160825302, 36.7759248399504], [28.80656059742347, 36.7759248399504], [28.80656059742347, 36.77538585077993], [28.80709958659395, 36.77538585077993], [28.80709958659395, 36.774846861609454]]]}, "properties": {"area_ha": 4.891060758011604, "mean_dnbr": 0.3613969860473489, "compactness": 0.38, "rectangularity": 0.607, "cropland_frac": 0.002, "persistent": true, "brightness_delta": -0.006}}]}