{"type": "FeatureCollection", "crs": {"type": "name", "properties": {"name": "urn:ogc:def:crs:OGC:1.3:CRS84"}}, "features": [{"type": "Feature", "geometry": {"geodesic": false, "type": "Polygon", "coordinates": [[[28.79793677069594, 36.731727727971716], [28.798475759866392, 36.731727727971716], [28.798475759866392, 36.73226671714219], [28.79901474903687, 36.73226671714219], [28.79901474903687, 36.73280570631266], [28.79955373820735, 36.73280570631266], [28.79955373820735, 36.73226671714219], [28.80009272737783, 36.73226671714219], [28.80009272737783, 36.73280570631266], [28.79955373820735, 36.73280570631266], [28.79955373820735, 36.73334469548313], [28.80009272737783, 36.73334469548313], [28.80009272737783, 36.733883684653605], [28.80063171654828, 36.733883684653605], [28.80063171654828, 36.73496166299455], [28.798475759866392, 36.73496166299455], [28.798475759866392, 36.73442267382408], [28.79901474903687, 36.73442267382408], [28.79901474903687, 36.733883684653605], [28.798475759866392, 36.733883684653605], [28.798475759866392, 36.73280570631266], [28.79793677069594, 36.73280570631266], [28.79793677069594, 36.731727727971716]]]}, "properties": {"area_ha": 4.605899157410897, "mean_dnbr": 0.15874674254220286, "compactness": 0.253, "rectangularity": 0.544, "cropland_frac": 0.356, "persistent": true, "brightness_delta": 0.039}}, {"type": "Feature", "geometry": {"geodesic": false, "type": "Polygon", "coordinates": [[[28.80709958659395, 36.774846861609454], [28.80817756493491, 36.774846861609454], [28.80817756493491, 36.7759248399504], [28.80763857576443, 36.7759248399504], [28.80763857576443, 36.77646382912087], [28.80709958659395, 36.77646382912087], [28.80709958659395, 36.77700281829134], [28.80494362991206, 36.77700281829134], [28.80494362991206, 36.77646382912087], [28.80440464074158, 36.77646382912087], [28.80440464074158, 36.77538585077993], [28.80602160825302, 36.77538585077993], [28.80602160825302, 36.7759248399504], [28.80656059742347, 36.7759248399504], [28.80656059742347, 36.77538585077993], [28.80709958659395, 36.77538585077993], [28.80709958659395, 36.774846861609454]]]}, "properties": {"area_ha": 5.178769390143094, "mean_dnbr": 0.306073814662117, "compactness": 0.403, "rectangularity": 0.643, "cropland_frac": 0.002, "persistent": true, "brightness_delta": -0.004}}]}