{"type": "FeatureCollection", "crs": {"type": "name", "properties": {"name": "urn:ogc:def:crs:OGC:1.3:CRS84"}}, "features": [{"type": "Feature", "geometry": {"geodesic": false, "type": "Polygon", "coordinates": [[[28.629772149508767, 36.92684180768248], [28.630311138679218, 36.92684180768248], [28.630311138679218, 36.92738079685295], [28.630850127849698, 36.92738079685295], [28.630850127849698, 36.928458775193896], [28.630311138679218, 36.928458775193896], [28.630311138679218, 36.92899776436437], [28.629772149508767, 36.92899776436437], [28.629772149508767, 36.92953675353484], [28.630311138679218, 36.92953675353484], [28.630311138679218, 36.930075742705306], [28.629772149508767, 36.930075742705306], [28.629772149508767, 36.92953675353484], [28.628155181997357, 36.92953675353484], [28.628155181997357, 36.92899776436437], [28.62869417116781, 36.92899776436437], [28.62869417116781, 36.92791978602342], [28.629233160338288, 36.92791978602342], [28.629233160338288, 36.92738079685295], [28.629772149508767, 36.92738079685295], [28.629772149508767, 36.92684180768248]]]}, "properties": {"area_ha": 4.307044353137454, "mean_dnbr": 0.28075932009625365, "compactness": 0.323, "rectangularity": 0.554, "cropland_frac": 0, "persistent": true, "brightness_delta": -0.085}}, {"type": "Feature", "geometry": {"geodesic": false, "type": "Polygon", "coordinates": [[[28.640551932918186, 36.96780498463833], [28.641090922088665, 36.96780498463833], [28.641090922088665, 36.96888296297927], [28.641629911259145, 36.96888296297927], [28.641629911259145, 36.9683439738088], [28.642168900429596, 36.9683439738088], [28.642168900429596, 36.96888296297927], [28.641629911259145, 36.96888296297927], [28.641629911259145, 36.969421952149744], [28.641090922088665, 36.969421952149744], [28.641090922088665, 36.97049993049069], [28.640012943747735, 36.97049993049069], [28.640012943747735, 36.9683439738088], [28.640551932918186, 36.9683439738088], [28.640551932918186, 36.96780498463833]]]}, "properties": {"area_ha": 3.1568083149739063, "mean_dnbr": 0.1860153274371044, "compactness": 0.327, "rectangularity": 0.55, "cropland_frac": 0.073, "persistent": true, "brightness_delta": -0.015}}, {"type": "Feature", "geometry": {"geodesic": false, "type": "Polygon", "coordinates": [[[28.783923052263674, 36.8007183417921], [28.786079008945563, 36.8007183417921], [28.786079008945563, 36.80125733096257], [28.785540019775084, 36.80125733096257], [28.785540019775084, 36.80179632013304], [28.786079008945563, 36.80179632013304], [28.786079008945563, 36.802335309303515], [28.785540019775084, 36.802335309303515], [28.785540019775084, 36.80287429847399], [28.785001030604604, 36.80287429847399], [28.785001030604604, 36.803952276814925], [28.785540019775084, 36.803952276814925], [28.785540019775084, 36.8044912659854], [28.785001030604604, 36.8044912659854], [28.785001030604604, 36.803952276814925], [28.784462041434153, 36.803952276814925], [28.784462041434153, 36.80287429847399], [28.785001030604604, 36.80287429847399], [28.785001030604604, 36.802335309303515], [28.784462041434153, 36.802335309303515], [28.784462041434153, 36.80179632013304], [28.783923052263674, 36.80179632013304], [28.783923052263674, 36.8007183417921]]]}, "properties": {"area_ha": 4.026555467032445, "mean_dnbr": 0.19021012359117623, "compactness": 0.222, "rectangularity": 0.5, "cropland_frac": 0.028, "persistent": true, "brightness_delta": -0.042}}, {"type": "Feature", "geometry": {"geodesic": false, "type": "Polygon", "coordinates": [[[28.791468900650273, 36.75436527313153], [28.795241824843572, 36.75436527313153], [28.795241824843572, 36.754904262302], [28.79578081401405, 36.754904262302], [28.79578081401405, 36.75598224064294], [28.794702835673093, 36.75598224064294], [28.794702835673093, 36.75706021898389], [28.793624857332162, 36.75706021898389], [28.793624857332162, 36.756521229813416], [28.79416384650264, 36.756521229813416], [28.79416384650264, 36.75598224064294], [28.793085868161683, 36.75598224064294], [28.793085868161683, 36.75706021898389], [28.792546878991203, 36.75706021898389], [28.792546878991203, 36.75598224064294], [28.793085868161683, 36.75598224064294], [28.793085868161683, 36.75544325147247], [28.790929911479793, 36.75544325147247], [28.790929911479793, 36.754904262302], [28.791468900650273, 36.754904262302], [28.791468900650273, 36.75436527313153]]]}, "properties": {"area_ha": 7.4824231027514525, "mean_dnbr": 0.1544215791175428, "compactness": 0.262, "rectangularity": 0.578, "cropland_frac": 0.112, "persistent": true, "brightness_delta": -0.37}}]}