{"type": "FeatureCollection", "crs": {"type": "name", "properties": {"name": "urn:ogc:def:crs:OGC:1.3:CRS84"}}, "features": [{"type": "Feature", "geometry": {"geodesic": false, "type": "Polygon", "coordinates": [[[28.690138936601585, 36.70370029110719], [28.690677925772064, 36.70370029110719], [28.690677925772064, 36.704778269448134], [28.692294893283474, 36.704778269448134], [28.692294893283474, 36.70639523695955], [28.691755904112995, 36.70639523695955], [28.691755904112995, 36.706934226130016], [28.691216914942544, 36.706934226130016], [28.691216914942544, 36.70585624778908], [28.690677925772064, 36.70585624778908], [28.690677925772064, 36.70531725861861], [28.690138936601585, 36.70531725861861], [28.690138936601585, 36.704778269448134], [28.689599947431134, 36.704778269448134], [28.689599947431134, 36.70423928027766], [28.690138936601585, 36.70423928027766], [28.690138936601585, 36.70370029110719]]]}, "properties": {"area_ha": 3.7436650583194635, "mean_dnbr": 0.20637036253436294, "compactness": 0.327, "rectangularity": 0.475, "cropland_frac": 0, "persistent": true, "brightness_delta": -0.098}}, {"type": "Feature", "geometry": {"geodesic": false, "type": "Polygon", "coordinates": [[[28.76721438797904, 36.74196852221068], [28.768292366319997, 36.74196852221068], [28.768292366319997, 36.74304650055162], [28.769370344660928, 36.74304650055162], [28.769370344660928, 36.74358548972209], [28.767753377149518, 36.74358548972209], [28.767753377149518, 36.74466346806304], [28.76883135549045, 36.74466346806304], [28.76883135549045, 36.746280435574455], [28.769370344660928, 36.746280435574455], [28.769370344660928, 36.74681942474493], [28.769909333831407, 36.74681942474493], [28.769909333831407, 36.74520245723351], [28.770448323001887, 36.74520245723351], [28.770448323001887, 36.746280435574455], [28.770987312172338, 36.746280435574455], [28.770987312172338, 36.74574144640398], [28.771526301342817, 36.74574144640398], [28.771526301342817, 36.74520245723351], [28.772065290513297, 36.74520245723351], [28.772065290513297, 36.74574144640398], [28.771526301342817, 36.74574144640398], [28.771526301342817, 36.7473584139154], [28.769370344660928, 36.7473584139154], [28.769370344660928, 36.74681942474493], [28.76883135549045, 36.74681942474493], [28.76883135549045, 36.746280435574455], [28.768292366319997, 36.746280435574455], [28.768292366319997, 36.74897538142681], [28.767753377149518, 36.74897538142681], [28.767753377149518, 36.748436392256345], [28.766136409638108, 36.748436392256345], [28.766136409638108, 36.74789740308587], [28.76721438797904, 36.74789740308587], [28.76721438797904, 36.7473584139154], [28.766136409638108, 36.7473584139154], [28.766136409638108, 36.746280435574455], [28.764519442126698, 36.746280435574455], [28.764519442126698, 36.74520245723351], [28.76505843129715, 36.74520245723351], [28.76505843129715, 36.744124478892566], [28.76559742046763, 36.744124478892566], [28.76559742046763, 36.74520245723351], [28.76721438797904, 36.74520245723351], [28.76721438797904, 36.74466346806304], [28.766136409638108, 36.74466346806304], [28.766136409638108, 36.744124478892566], [28.76721438797904, 36.744124478892566], [28.76721438797904, 36.74358548972209], [28.766675398808587, 36.74358548972209], [28.766675398808587, 36.742507511381156], [28.76721438797904, 36.742507511381156], [28.76721438797904, 36.74196852221068]]]}, "properties": {"area_ha": 17.845042363152558, "mean_dnbr": 0.30303879799545425, "compactness": 0.099, "rectangularity": 0.404, "cropland_frac": 0.376, "persistent": true, "brightness_delta": -0.137}}]}