{"type": "FeatureCollection", "crs": {"type": "name", "properties": {"name": "urn:ogc:def:crs:OGC:1.3:CRS84"}}, "features": [{"type": "Feature", "geometry": {"geodesic": false, "type": "Polygon", "coordinates": [[[28.317697419805626, 39.030516540033574], [28.318236408976105, 39.030516540033574], [28.318236408976105, 39.03159451837452], [28.318775398146585, 39.03159451837452], [28.318775398146585, 39.03267249671546], [28.317158430635175, 39.03267249671546], [28.317158430635175, 39.03428946422687], [28.316080452294216, 39.03428946422687], [28.316080452294216, 39.034828453397346], [28.315541463123765, 39.034828453397346], [28.315541463123765, 39.0337504750564], [28.315002473953285, 39.0337504750564], [28.315002473953285, 39.034828453397346], [28.314463484782806, 39.034828453397346], [28.314463484782806, 39.0337504750564], [28.312846517271396, 39.0337504750564], [28.312846517271396, 39.03267249671546], [28.312307528100916, 39.03267249671546], [28.312307528100916, 39.03213350754499], [28.311768538930437, 39.03213350754499], [28.311768538930437, 39.03159451837452], [28.312307528100916, 39.03159451837452], [28.312307528100916, 39.031055529204046], [28.313385506441875, 39.031055529204046], [28.313385506441875, 39.03159451837452], [28.315541463123765, 39.03159451837452], [28.315541463123765, 39.031055529204046], [28.316080452294216, 39.031055529204046], [28.316080452294216, 39.030516540033574], [28.317158430635175, 39.030516540033574], [28.317158430635175, 39.031055529204046], [28.317697419805626, 39.031055529204046], [28.317697419805626, 39.030516540033574]]]}, "properties": {"area_ha": 15.904093823136758, "mean_dnbr": 0.46408092465184636, "compactness": 0.285, "rectangularity": 0.556, "cropland_frac": 0.014, "persistent": true, "brightness_delta": -0.139}}, {"type": "Feature", "geometry": {"geodesic": false, "type": "Polygon", "coordinates": [[[28.53329308799431, 38.94697321861046], [28.538682979699047, 38.94697321861046], [28.538682979699047, 38.94912917529235], [28.537605001358088, 38.94912917529235], [28.537605001358088, 38.949668164462814], [28.536527023017157, 38.949668164462814], [28.536527023017157, 38.94751220778093], [28.5354490446762, 38.94751220778093], [28.5354490446762, 38.948051196951404], [28.53383207716479, 38.948051196951404], [28.53383207716479, 38.948590186121876], [28.53329308799431, 38.948590186121876], [28.53329308799431, 38.94697321861046]]]}, "properties": {"area_ha": 8.101125306735346, "mean_dnbr": 0.28807517248837655, "compactness": 0.324, "rectangularity": 0.58, "cropland_frac": 0, "persistent": true, "brightness_delta": -0.242}}, {"type": "Feature", "geometry": {"geodesic": false, "type": "Polygon", "coordinates": [[[29.03455301653301, 39.72042267823737], [29.03563099487397, 39.72042267823737], [29.03563099487397, 39.72257863491925], [29.03616998404442, 39.72257863491925], [29.03616998404442, 39.723117624089724], [29.0367089732149, 39.723117624089724], [29.0367089732149, 39.7236566132602], [29.03616998404442, 39.7236566132602], [29.03616998404442, 39.723117624089724], [29.03563099487397, 39.723117624089724], [29.03563099487397, 39.72257863491925], [29.03401402736253, 39.72257863491925], [29.03401402736253, 39.720961667407835], [29.03455301653301, 39.720961667407835], [29.03455301653301, 39.72042267823737]]]}, "properties": {"area_ha": 3.5916102777944316, "mean_dnbr": 0.2182961084143765, "compactness": 0.324, "rectangularity": 0.445, "cropland_frac": 0, "persistent": true, "brightness_delta": 0.002}}, {"type": "Feature", "geometry": {"geodesic": false, "type": "Polygon", "coordinates": [[[29.057190561692835, 39.68323242547482], [29.057729550863286, 39.68323242547482], [29.057729550863286, 39.68377141464529], [29.058268540033765, 39.68377141464529], [29.058268540033765, 39.684310403815765], [29.058807529204245, 39.684310403815765], [29.058807529204245, 39.68484939298623], [29.059346518374724, 39.68484939298623], [29.059346518374724, 39.6853883821567], [29.058268540033765, 39.6853883821567], [29.058268540033765, 39.685927371327175], [29.060424496715655, 39.685927371327175], [29.060424496715655, 39.68484939298623], [29.062041464227065, 39.68484939298623], [29.062041464227065, 39.6853883821567], [29.062580453397544, 39.6853883821567], [29.062580453397544, 39.685927371327175], [29.064197420908954, 39.685927371327175], [29.064197420908954, 39.68754433883859], [29.063658431738475, 39.68754433883859], [29.063658431738475, 39.688083328009064], [29.065275399249913, 39.688083328009064], [29.065275399249913, 39.68862231717954], [29.065814388420364, 39.68862231717954], [29.065814388420364, 39.68916130635001], [29.065275399249913, 39.68916130635001], [29.065275399249913, 39.68970029552048], [29.064736410079433, 39.68970029552048], [29.064736410079433, 39.69077827386142], [29.065275399249913, 39.69077827386142], [29.065275399249913, 39.69131726303189], [29.066353377590843, 39.69131726303189], [29.066353377590843, 39.692395241372836], [29.065275399249913, 39.692395241372836], [29.065275399249913, 39.69293423054331], [29.065814388420364, 39.69293423054331], [29.065814388420364, 39.69401220888425], [29.064736410079433, 39.69401220888425], [29.064736410079433, 39.694551198054725], [29.063658431738475, 39.694551198054725], [29.063658431738475, 39.69401220888425], [29.062041464227065, 39.69401220888425], [29.062041464227065, 39.6950901872252], [29.062580453397544, 39.6950901872252], [29.062580453397544, 39.69562917639567], [29.067970345102253, 39.69562917639567], [29.067970345102253, 39.696707154736615], [29.069587312613663, 39.696707154736615], [29.069587312613663, 39.69778513307755], [29.070126301784143, 39.69778513307755], [29.070126301784143, 39.69724614390708], [29.070665290954622, 39.69724614390708], [29.070665290954622, 39.69616816556614], [29.0712042801251, 39.69616816556614], [29.0712042801251, 39.696707154736615], [29.072282258466032, 39.696707154736615], [29.072282258466032, 39.69724614390708], [29.07282124763651, 39.69724614390708], [29.07282124763651, 39.69562917639567], [29.071743269295553, 39.69562917639567], [29.071743269295553, 39.6950901872252], [29.072282258466032, 39.6950901872252], [29.072282258466032, 39.69401220888425], [29.073899225977442, 39.69401220888425], [29.073899225977442, 39.692395241372836], [29.0749772043184, 39.692395241372836], [29.0749772043184, 39.69185625220236], [29.07659417182981, 39.69185625220236], [29.07659417182981, 39.692395241372836], [29.07713316100029, 39.692395241372836], [29.07713316100029, 39.69293423054331], [29.07821113934122, 39.69293423054331], [29.07821113934122, 39.69401220888425], [29.0787501285117, 39.69401220888425], [29.0787501285117, 39.694551198054725], [29.07821113934122, 39.694551198054725], [29.07821113934122, 39.6950901872252], [29.0787501285117, 39.6950901872252], [29.0787501285117, 39.69562917639567], [29.07928911768218, 39.69562917639567], [29.07928911768218, 39.696707154736615], [29.07982810685263, 39.696707154736615], [29.07982810685263, 39.698324122248025], [29.08036709602311, 39.698324122248025], [29.08036709602311, 39.69940210058897], [29.08090608519359, 39.69940210058897], [29.08090608519359, 39.701019068100386], [29.08144507436407, 39.701019068100386], [29.08144507436407, 39.7026360356118], [29.08198406353452, 39.7026360356118], [29.08198406353452, 39.70371401395274], [29.082523052705, 39.70371401395274], [29.082523052705, 39.704791992293686], [29.08306204187548, 39.704791992293686], [29.08306204187548, 39.7064089598051], [29.08360103104593, 39.7064089598051], [29.08360103104593, 39.70856491648699], [29.08414002021641, 39.70856491648699], [29.08414002021641, 39.710720873168874], [29.08467900938689, 39.710720873168874], [29.08467900938689, 39.71179885150982], [29.08521799855737, 39.71179885150982], [29.08521799855737, 39.713415819021236], [29.08575698772782, 39.713415819021236], [29.08575698772782, 39.71557177570312], [29.0862959768983, 39.71557177570312], [29.0862959768983, 39.71611076487359], [29.08683496606878, 39.71611076487359], [29.08683496606878, 39.71772773238501], [29.087373955239258, 39.71772773238501], [29.087373955239258, 39.7198836890669], [29.08791294440971, 39.7198836890669], [29.08791294440971, 39.720961667407835], [29.08845193358019, 39.720961667407835], [29.08845193358019, 39.72257863491925], [29.088990922750668, 39.72257863491925], [29.088990922750668, 39.72419560243067], [29.08952991192112, 39.72419560243067], [29.08952991192112, 39.725812569942086], [29.0900689010916, 39.725812569942086], [29.0900689010916, 39.727429537453496], [29.090607890262078, 39.727429537453496], [29.090607890262078, 39.72904650496491], [29.091146879432557, 39.72904650496491], [29.091146879432557, 39.7312024616468], [29.088990922750668, 39.7312024616468], [29.088990922750668, 39.731741450817275], [29.073899225977442, 39.731741450817275], [29.073899225977442, 39.7312024616468], [29.07336023680699, 39.7312024616468], [29.07336023680699, 39.731741450817275], [29.062580453397544, 39.731741450817275], [29.062580453397544, 39.73012448330586], [29.062041464227065, 39.73012448330586], [29.062041464227065, 39.729585494135385], [29.061502475056614, 39.729585494135385], [29.061502475056614, 39.727429537453496], [29.060963485886134, 39.727429537453496], [29.060963485886134, 39.72850751579444], [29.060424496715655, 39.72850751579444], [29.060424496715655, 39.72904650496491], [29.060963485886134, 39.72904650496491], [29.060963485886134, 39.73012448330586], [29.061502475056614, 39.73012448330586], [29.061502475056614, 39.7312024616468], [29.062041464227065, 39.7312024616468], [29.062041464227065, 39.731741450817275], [29.058807529204245, 39.731741450817275], [29.058807529204245, 39.73228043998775], [29.03940391906727, 39.73228043998775], [29.03940391906727, 39.731741450817275], [29.03886492989679, 39.731741450817275], [29.03886492989679, 39.73066347247633], [29.03832594072631, 39.73066347247633], [29.03832594072631, 39.72796852662397], [29.03886492989679, 39.72796852662397], [29.03886492989679, 39.727429537453496], [29.03994290823772, 39.727429537453496], [29.03994290823772, 39.72635155911256], [29.04102088657868, 39.72635155911256], [29.04102088657868, 39.725812569942086], [29.03994290823772, 39.725812569942086], [29.03994290823772, 39.72527358077161], [29.03940391906727, 39.72527358077161], [29.03940391906727, 39.725812569942086], [29.03886492989679, 39.725812569942086], [29.03886492989679, 39.7236566132602], [29.03832594072631, 39.7236566132602], [29.03832594072631, 39.72257863491925], [29.0367089732149, 39.72257863491925], [29.0367089732149, 39.72203964574878], [29.03724796238538, 39.72203964574878], [29.03724796238538, 39.72150065657831], [29.0367089732149, 39.72150065657831], [29.0367089732149, 39.72042267823737], [29.03724796238538, 39.72042267823737], [29.03724796238538, 39.7198836890669], [29.03778695155586, 39.7198836890669], [29.03778695155586, 39.719344699896425], [29.03832594072631, 39.719344699896425], [29.03832594072631, 39.717188743214535], [29.03778695155586, 39.717188743214535], [29.03778695155586, 39.71772773238501], [29.03724796238538, 39.71772773238501], [29.03724796238538, 39.71664975404406], [29.03778695155586, 39.71664975404406], [29.03778695155586, 39.71449379736218], [29.03724796238538, 39.71449379736218], [29.03724796238538, 39.712876829850764], [29.03778695155586, 39.712876829850764], [29.03778695155586, 39.71233784068029], [29.03832594072631, 39.71233784068029], [29.03832594072631, 39.71179885150982], [29.03886492989679, 39.71179885150982], [29.03886492989679, 39.71125986233935], [29.03940391906727, 39.71125986233935], [29.03940391906727, 39.70964289482793], [29.03994290823772, 39.70964289482793], [29.03994290823772, 39.70910390565746], [29.03886492989679, 39.70910390565746], [29.03886492989679, 39.70802592731652], [29.0404818974082, 39.70802592731652], [29.0404818974082, 39.70748693814605], [29.03994290823772, 39.70748693814605], [29.03994290823772, 39.706947948975575], [29.0404818974082, 39.706947948975575], [29.0404818974082, 39.7064089598051], [29.04102088657868, 39.7064089598051], [29.04102088657868, 39.70533098146416], [29.041559875749158, 39.70533098146416], [29.041559875749158, 39.70209704644133], [29.04209886491961, 39.70209704644133], [29.04209886491961, 39.701019068100386], [29.041559875749158, 39.701019068100386], [29.041559875749158, 39.700480078929914], [29.04102088657868, 39.700480078929914], [29.04102088657868, 39.69994108975944], [29.041559875749158, 39.69994108975944], [29.041559875749158, 39.698324122248025], [29.04263785409009, 39.698324122248025], [29.04263785409009, 39.69724614390708], [29.03940391906727, 39.69724614390708], [29.03940391906727, 39.696707154736615], [29.03886492989679, 39.696707154736615], [29.03886492989679, 39.69616816556614], [29.03940391906727, 39.69616816556614], [29.03940391906727, 39.696707154736615], [29.03994290823772, 39.696707154736615], [29.03994290823772, 39.69616816556614], [29.0404818974082, 39.69616816556614], [29.0404818974082, 39.6950901872252], [29.03994290823772, 39.6950901872252], [29.03994290823772, 39.694551198054725], [29.0404818974082, 39.694551198054725], [29.0404818974082, 39.69401220888425], [29.041559875749158, 39.69401220888425], [29.041559875749158, 39.69347321971378], [29.04263785409009, 39.69347321971378], [29.04263785409009, 39.69293423054331], [29.043176843260568, 39.69293423054331], [29.043176843260568, 39.692395241372836], [29.04263785409009, 39.692395241372836], [29.04263785409009, 39.69185625220236], [29.04209886491961, 39.69185625220236], [29.04209886491961, 39.69131726303189], [29.04263785409009, 39.69131726303189], [29.04263785409009, 39.69077827386142], [29.043176843260568, 39.69077827386142], [29.043176843260568, 39.69023928469095], [29.043715832431047, 39.69023928469095], [29.043715832431047, 39.688083328009064], [29.044793810771978, 39.688083328009064], [29.044793810771978, 39.685927371327175], [29.045332799942457, 39.685927371327175], [29.045332799942457, 39.6853883821567], [29.04587178911291, 39.6853883821567], [29.04587178911291, 39.68484939298623], [29.046410778283388, 39.68484939298623], [29.046410778283388, 39.684310403815765], [29.046949767453867, 39.684310403815765], [29.046949767453867, 39.68484939298623], [29.051261680817646, 39.68484939298623], [29.051261680817646, 39.684310403815765], [29.053417637499535, 39.684310403815765], [29.053417637499535, 39.68484939298623], [29.054495615840466, 39.68484939298623], [29.054495615840466, 39.685927371327175], [29.053956626669986, 39.685927371327175], [29.053956626669986, 39.68646636049765], [29.055034605010945, 39.68646636049765], [29.055034605010945, 39.685927371327175], [29.055573594181425, 39.685927371327175], [29.055573594181425, 39.6853883821567], [29.057190561692835, 39.6853883821567], [29.057190561692835, 39.68484939298623], [29.056651572522355, 39.68484939298623], [29.056651572522355, 39.68377141464529], [29.057190561692835, 39.68377141464529], [29.057190561692835, 39.68323242547482]], [[29.0404818974082, 39.7312024616468], [29.0404818974082, 39.731741450817275], [29.03994290823772, 39.731741450817275], [29.03994290823772, 39.7312024616468], [29.0404818974082, 39.7312024616468]], [[29.0404818974082, 39.727429537453496], [29.0404818974082, 39.72796852662397], [29.03994290823772, 39.72796852662397], [29.03994290823772, 39.727429537453496], [29.0404818974082, 39.727429537453496]], [[29.062580453397544, 39.725812569942086], [29.062580453397544, 39.72689054828303], [29.062041464227065, 39.72689054828303], [29.062041464227065, 39.727429537453496], [29.061502475056614, 39.727429537453496], [29.061502475056614, 39.72635155911256], [29.062041464227065, 39.72635155911256], [29.062041464227065, 39.725812569942086], [29.062580453397544, 39.725812569942086]], [[29.07282124763651, 39.72419560243067], [29.07282124763651, 39.72473459160114], [29.071743269295553, 39.72473459160114], [29.071743269295553, 39.72419560243067], [29.07282124763651, 39.72419560243067]], [[29.046949767453867, 39.7236566132602], [29.046949767453867, 39.72419560243067], [29.04587178911291, 39.72419560243067], [29.04587178911291, 39.7236566132602], [29.046949767453867, 39.7236566132602]], [[29.049644713306236, 39.7236566132602], [29.049644713306236, 39.72473459160114], [29.050722691647167, 39.72473459160114], [29.050722691647167, 39.72527358077161], [29.049105724135757, 39.72527358077161], [29.049105724135757, 39.7236566132602], [29.049644713306236, 39.7236566132602]], [[29.0442548216015, 39.72203964574878], [29.0442548216015, 39.72257863491925], [29.043715832431047, 39.72257863491925], [29.043715832431047, 39.72203964574878], [29.0442548216015, 39.72203964574878]], [[29.046410778283388, 39.72150065657831], [29.046410778283388, 39.723117624089724], [29.044793810771978, 39.723117624089724], [29.044793810771978, 39.72203964574878], [29.045332799942457, 39.72203964574878], [29.045332799942457, 39.72257863491925], [29.04587178911291, 39.72257863491925], [29.04587178911291, 39.72150065657831], [29.046410778283388, 39.72150065657831]], [[29.0442548216015, 39.7198836890669], [29.0442548216015, 39.720961667407835], [29.04209886491961, 39.720961667407835], [29.04209886491961, 39.72042267823737], [29.041559875749158, 39.72042267823737], [29.041559875749158, 39.7198836890669], [29.0442548216015, 39.7198836890669]], [[29.066892366761323, 39.7198836890669], [29.066892366761323, 39.720961667407835], [29.065814388420364, 39.720961667407835], [29.065814388420364, 39.7198836890669], [29.066892366761323, 39.7198836890669]], [[29.03940391906727, 39.719344699896425], [29.03940391906727, 39.7198836890669], [29.03886492989679, 39.7198836890669], [29.03886492989679, 39.719344699896425], [29.03940391906727, 39.719344699896425]], [[29.068509334272733, 39.719344699896425], [29.068509334272733, 39.7198836890669], [29.067970345102253, 39.7198836890669], [29.067970345102253, 39.72042267823737], [29.067431355931802, 39.72042267823737], [29.067431355931802, 39.7198836890669], [29.066892366761323, 39.7198836890669], [29.066892366761323, 39.719344699896425], [29.068509334272733, 39.719344699896425]], [[29.0712042801251, 39.719344699896425], [29.0712042801251, 39.72042267823737], [29.070665290954622, 39.72042267823737], [29.070665290954622, 39.7198836890669], [29.069587312613663, 39.7198836890669], [29.069587312613663, 39.719344699896425], [29.0712042801251, 39.719344699896425]], [[29.072282258466032, 39.71880571072595], [29.072282258466032, 39.719344699896425], [29.0712042801251, 39.719344699896425], [29.0712042801251, 39.71880571072595], [29.072282258466032, 39.71880571072595]], [[29.045332799942457, 39.71826672155548], [29.045332799942457, 39.71880571072595], [29.044793810771978, 39.71880571072595], [29.044793810771978, 39.71826672155548], [29.045332799942457, 39.71826672155548]], [[29.064736410079433, 39.71826672155548], [29.064736410079433, 39.71880571072595], [29.065275399249913, 39.71880571072595], [29.065275399249913, 39.7198836890669], [29.064736410079433, 39.7198836890669], [29.064736410079433, 39.72042267823737], [29.065275399249913, 39.72042267823737], [29.065275399249913, 39.720961667407835], [29.065814388420364, 39.720961667407835], [29.065814388420364, 39.723117624089724], [29.065275399249913, 39.723117624089724], [29.065275399249913, 39.7236566132602], [29.063658431738475, 39.7236566132602], [29.063658431738475, 39.72419560243067], [29.063119442568023, 39.72419560243067], [29.063119442568023, 39.725812569942086], [29.062580453397544, 39.725812569942086], [29.062580453397544, 39.72527358077161], [29.062041464227065, 39.72527358077161], [29.062041464227065, 39.72419560243067], [29.062580453397544, 39.72419560243067], [29.062580453397544, 39.723117624089724], [29.061502475056614, 39.723117624089724], [29.061502475056614, 39.72257863491925], [29.059885507545175, 39.72257863491925], [29.059885507545175, 39.72203964574878], [29.060963485886134, 39.72203964574878], [29.060963485886134, 39.72150065657831], [29.061502475056614, 39.72150065657831], [29.061502475056614, 39.720961667407835], [29.062580453397544, 39.720961667407835], [29.062580453397544, 39.72257863491925], [29.064197420908954, 39.72257863491925], [29.064197420908954, 39.72203964574878], [29.064736410079433, 39.72203964574878], [29.064736410079433, 39.72150065657831], [29.064197420908954, 39.72150065657831], [29.064197420908954, 39.72042267823737], [29.063658431738475, 39.72042267823737], [29.063658431738475, 39.71880571072595], [29.064197420908954, 39.71880571072595], [29.064197420908954, 39.71826672155548], [29.064736410079433, 39.71826672155548]], [[29.04102088657868, 39.71772773238501], [29.04102088657868, 39.71826672155548], [29.0404818974082, 39.71826672155548], [29.0404818974082, 39.71772773238501], [29.04102088657868, 39.71772773238501]], [[29.067431355931802, 39.71772773238501], [29.067431355931802, 39.71826672155548], [29.065814388420364, 39.71826672155548], [29.065814388420364, 39.71880571072595], [29.065275399249913, 39.71880571072595], [29.065275399249913, 39.71772773238501], [29.067431355931802, 39.71772773238501]], [[29.068509334272733, 39.71772773238501], [29.068509334272733, 39.71826672155548], [29.067970345102253, 39.71826672155548], [29.067970345102253, 39.71772773238501], [29.068509334272733, 39.71772773238501]], [[29.069587312613663, 39.717188743214535], [29.069587312613663, 39.71772773238501], [29.068509334272733, 39.71772773238501], [29.068509334272733, 39.717188743214535], [29.069587312613663, 39.717188743214535]], [[29.071743269295553, 39.71611076487359], [29.071743269295553, 39.71664975404406], [29.0712042801251, 39.71664975404406], [29.0712042801251, 39.717188743214535], [29.070126301784143, 39.717188743214535], [29.070126301784143, 39.71664975404406], [29.070665290954622, 39.71664975404406], [29.070665290954622, 39.71611076487359], [29.071743269295553, 39.71611076487359]], [[29.070126301784143, 39.71449379736218], [29.070126301784143, 39.715032786532646], [29.069048323443212, 39.715032786532646], [29.069048323443212, 39.71449379736218], [29.070126301784143, 39.71449379736218]], [[29.082523052705, 39.71449379736218], [29.082523052705, 39.715032786532646], [29.08090608519359, 39.715032786532646], [29.08090608519359, 39.71449379736218], [29.082523052705, 39.71449379736218]], [[29.0749772043184, 39.71395480819171], [29.0749772043184, 39.71449379736218], [29.07443821514792, 39.71449379736218], [29.07443821514792, 39.715032786532646], [29.07336023680699, 39.715032786532646], [29.07336023680699, 39.71557177570312], [29.072282258466032, 39.71557177570312], [29.072282258466032, 39.71611076487359], [29.071743269295553, 39.71611076487359], [29.071743269295553, 39.715032786532646], [29.072282258466032, 39.715032786532646], [29.072282258466032, 39.71449379736218], [29.07336023680699, 39.71449379736218], [29.07336023680699, 39.71395480819171], [29.0749772043184, 39.71395480819171]], [[29.0787501285117, 39.713415819021236], [29.0787501285117, 39.71395480819171], [29.07982810685263, 39.71395480819171], [29.07982810685263, 39.71449379736218], [29.07821113934122, 39.71449379736218], [29.07821113934122, 39.71395480819171], [29.0749772043184, 39.71395480819171], [29.0749772043184, 39.713415819021236], [29.0787501285117, 39.713415819021236]], [[29.08521799855737, 39.713415819021236], [29.08521799855737, 39.71395480819171], [29.08414002021641, 39.71395480819171], [29.08414002021641, 39.71449379736218], [29.082523052705, 39.71449379736218], [29.082523052705, 39.71395480819171], [29.08306204187548, 39.71395480819171], [29.08306204187548, 39.713415819021236], [29.08521799855737, 39.713415819021236]], [[29.043715832431047, 39.712876829850764], [29.043715832431047, 39.713415819021236], [29.043176843260568, 39.713415819021236], [29.043176843260568, 39.712876829850764], [29.043715832431047, 39.712876829850764]], [[29.067970345102253, 39.712876829850764], [29.067970345102253, 39.71395480819171], [29.066892366761323, 39.71395480819171], [29.066892366761323, 39.713415819021236], [29.067431355931802, 39.713415819021236], [29.067431355931802, 39.712876829850764], [29.067970345102253, 39.712876829850764]], [[29.067431355931802, 39.71179885150982], [29.067431355931802, 39.71233784068029], [29.066892366761323, 39.71233784068029], [29.066892366761323, 39.71179885150982], [29.067431355931802, 39.71179885150982]], [[29.070665290954622, 39.71179885150982], [29.070665290954622, 39.71233784068029], [29.070126301784143, 39.71233784068029], [29.070126301784143, 39.71179885150982], [29.070665290954622, 39.71179885150982]], [[29.043176843260568, 39.71125986233935], [29.043176843260568, 39.71179885150982], [29.04263785409009, 39.71179885150982], [29.04263785409009, 39.71125986233935], [29.043176843260568, 39.71125986233935]], [[29.053417637499535, 39.71125986233935], [29.053417637499535, 39.71179885150982], [29.052878648329056, 39.71179885150982], [29.052878648329056, 39.71125986233935], [29.053417637499535, 39.71125986233935]], [[29.058807529204245, 39.71125986233935], [29.058807529204245, 39.71179885150982], [29.058268540033765, 39.71179885150982], [29.058268540033765, 39.71125986233935], [29.058807529204245, 39.71125986233935]], [[29.070126301784143, 39.710720873168874], [29.070126301784143, 39.71125986233935], [29.069587312613663, 39.71125986233935], [29.069587312613663, 39.710720873168874], [29.070126301784143, 39.710720873168874]], [[29.056651572522355, 39.70964289482793], [29.056651572522355, 39.710720873168874], [29.056112583351876, 39.710720873168874], [29.056112583351876, 39.70964289482793], [29.056651572522355, 39.70964289482793]], [[29.047488756624347, 39.70910390565746], [29.047488756624347, 39.70964289482793], [29.046949767453867, 39.70964289482793], [29.046949767453867, 39.70910390565746], [29.047488756624347, 39.70910390565746]], [[29.058268540033765, 39.70910390565746], [29.058268540033765, 39.70964289482793], [29.057729550863286, 39.70964289482793], [29.057729550863286, 39.70910390565746], [29.058268540033765, 39.70910390565746]], [[29.046410778283388, 39.70856491648699], [29.046410778283388, 39.70964289482793], [29.04587178911291, 39.70964289482793], [29.04587178911291, 39.70856491648699], [29.046410778283388, 39.70856491648699]], [[29.048027745794798, 39.70856491648699], [29.048027745794798, 39.70910390565746], [29.047488756624347, 39.70910390565746], [29.047488756624347, 39.70856491648699], [29.048027745794798, 39.70856491648699]], [[29.047488756624347, 39.70802592731652], [29.047488756624347, 39.70856491648699], [29.046949767453867, 39.70856491648699], [29.046949767453867, 39.70802592731652], [29.047488756624347, 39.70802592731652]], [[29.062041464227065, 39.70802592731652], [29.062041464227065, 39.70856491648699], [29.061502475056614, 39.70856491648699], [29.061502475056614, 39.70910390565746], [29.060424496715655, 39.70910390565746], [29.060424496715655, 39.70856491648699], [29.060963485886134, 39.70856491648699], [29.060963485886134, 39.70802592731652], [29.062041464227065, 39.70802592731652]], [[29.063119442568023, 39.70802592731652], [29.063119442568023, 39.70856491648699], [29.062580453397544, 39.70856491648699], [29.062580453397544, 39.70802592731652], [29.063119442568023, 39.70802592731652]], [[29.066892366761323, 39.70802592731652], [29.066892366761323, 39.70856491648699], [29.066353377590843, 39.70856491648699], [29.066353377590843, 39.70802592731652], [29.066892366761323, 39.70802592731652]], [[29.049105724135757, 39.70748693814605], [29.049105724135757, 39.70802592731652], [29.048566734965277, 39.70802592731652], [29.048566734965277, 39.70856491648699], [29.048027745794798, 39.70856491648699], [29.048027745794798, 39.70748693814605], [29.049105724135757, 39.70748693814605]], [[29.056112583351876, 39.70748693814605], [29.056112583351876, 39.70802592731652], [29.055573594181425, 39.70802592731652], [29.055573594181425, 39.70748693814605], [29.056112583351876, 39.70748693814605]], [[29.048027745794798, 39.706947948975575], [29.048027745794798, 39.70748693814605], [29.047488756624347, 39.70748693814605], [29.047488756624347, 39.706947948975575], [29.048027745794798, 39.706947948975575]], [[29.054495615840466, 39.7064089598051], [29.054495615840466, 39.706947948975575], [29.053956626669986, 39.706947948975575], [29.053956626669986, 39.7064089598051], [29.054495615840466, 39.7064089598051]], [[29.070665290954622, 39.7064089598051], [29.070665290954622, 39.706947948975575], [29.069587312613663, 39.706947948975575], [29.069587312613663, 39.70748693814605], [29.067970345102253, 39.70748693814605], [29.067970345102253, 39.706947948975575], [29.069048323443212, 39.706947948975575], [29.069048323443212, 39.7064089598051], [29.070665290954622, 39.7064089598051]], [[29.055034605010945, 39.70586997063463], [29.055034605010945, 39.7064089598051], [29.054495615840466, 39.7064089598051], [29.054495615840466, 39.70586997063463], [29.055034605010945, 39.70586997063463]], [[29.052339659158577, 39.70425300312321], [29.052339659158577, 39.704791992293686], [29.051800669988097, 39.704791992293686], [29.051800669988097, 39.70425300312321], [29.052339659158577, 39.70425300312321]], [[29.049644713306236, 39.7026360356118], [29.049644713306236, 39.70317502478227], [29.050183702476687, 39.70317502478227], [29.050183702476687, 39.70425300312321], [29.050722691647167, 39.70425300312321], [29.050722691647167, 39.704791992293686], [29.051800669988097, 39.704791992293686], [29.051800669988097, 39.70586997063463], [29.052339659158577, 39.70586997063463], [29.052339659158577, 39.706947948975575], [29.052878648329056, 39.706947948975575], [29.052878648329056, 39.70748693814605], [29.053956626669986, 39.70748693814605], [29.053956626669986, 39.70802592731652], [29.055034605010945, 39.70802592731652], [29.055034605010945, 39.70964289482793], [29.053417637499535, 39.70964289482793], [29.053417637499535, 39.7101818839984], [29.052878648329056, 39.7101818839984], [29.052878648329056, 39.710720873168874], [29.051261680817646, 39.710720873168874], [29.051261680817646, 39.7101818839984], [29.051800669988097, 39.7101818839984], [29.051800669988097, 39.70964289482793], [29.051261680817646, 39.70964289482793], [29.051261680817646, 39.70910390565746], [29.050722691647167, 39.70910390565746], [29.050722691647167, 39.70856491648699], [29.050183702476687, 39.70856491648699], [29.050183702476687, 39.706947948975575], [29.049644713306236, 39.706947948975575], [29.049644713306236, 39.70371401395274], [29.049105724135757, 39.70371401395274], [29.049105724135757, 39.7026360356118], [29.049644713306236, 39.7026360356118]], [[29.061502475056614, 39.70155805727086], [29.061502475056614, 39.70209704644133], [29.060963485886134, 39.70209704644133], [29.060963485886134, 39.70155805727086], [29.061502475056614, 39.70155805727086]], [[29.061502475056614, 39.700480078929914], [29.061502475056614, 39.701019068100386], [29.059346518374724, 39.701019068100386], [29.059346518374724, 39.700480078929914], [29.061502475056614, 39.700480078929914]], [[29.055573594181425, 39.698324122248025], [29.055573594181425, 39.6988631114185], [29.055034605010945, 39.6988631114185], [29.055034605010945, 39.698324122248025], [29.055573594181425, 39.698324122248025]], [[29.067970345102253, 39.698324122248025], [29.067970345102253, 39.6988631114185], [29.067431355931802, 39.6988631114185], [29.067431355931802, 39.698324122248025], [29.067970345102253, 39.698324122248025]], [[29.062580453397544, 39.696707154736615], [29.062580453397544, 39.69724614390708], [29.061502475056614, 39.69724614390708], [29.061502475056614, 39.696707154736615], [29.062580453397544, 39.696707154736615]], [[29.067970345102253, 39.696707154736615], [29.067970345102253, 39.69724614390708], [29.067431355931802, 39.69724614390708], [29.067431355931802, 39.696707154736615], [29.067970345102253, 39.696707154736615]], [[29.043715832431047, 39.69616816556614], [29.043715832431047, 39.696707154736615], [29.043176843260568, 39.696707154736615], [29.043176843260568, 39.69616816556614], [29.043715832431047, 39.69616816556614]], [[29.066353377590843, 39.69616816556614], [29.066353377590843, 39.696707154736615], [29.066892366761323, 39.696707154736615], [29.066892366761323, 39.69778513307755], [29.066353377590843, 39.69778513307755], [29.066353377590843, 39.698324122248025], [29.066892366761323, 39.698324122248025], [29.066892366761323, 39.6988631114185], [29.064736410079433, 39.6988631114185], [29.064736410079433, 39.69940210058897], [29.063658431738475, 39.69940210058897], [29.063658431738475, 39.70155805727086], [29.062041464227065, 39.70155805727086], [29.062041464227065, 39.701019068100386], [29.062580453397544, 39.701019068100386], [29.062580453397544, 39.69940210058897], [29.060963485886134, 39.69940210058897], [29.060963485886134, 39.6988631114185], [29.060424496715655, 39.6988631114185], [29.060424496715655, 39.69724614390708], [29.060963485886134, 39.69724614390708], [29.060963485886134, 39.698324122248025], [29.062041464227065, 39.698324122248025], [29.062041464227065, 39.69778513307755], [29.062580453397544, 39.69778513307755], [29.062580453397544, 39.69724614390708], [29.063119442568023, 39.69724614390708], [29.063119442568023, 39.69778513307755], [29.063658431738475, 39.69778513307755], [29.063658431738475, 39.69724614390708], [29.064197420908954, 39.69724614390708], [29.064197420908954, 39.696707154736615], [29.064736410079433, 39.696707154736615], [29.064736410079433, 39.69616816556614], [29.066353377590843, 39.69616816556614]], [[29.041559875749158, 39.6950901872252], [29.041559875749158, 39.69562917639567], [29.04102088657868, 39.69562917639567], [29.04102088657868, 39.6950901872252], [29.041559875749158, 39.6950901872252]], [[29.060424496715655, 39.6950901872252], [29.060424496715655, 39.69562917639567], [29.059885507545175, 39.69562917639567], [29.059885507545175, 39.6950901872252], [29.060424496715655, 39.6950901872252]], [[29.043715832431047, 39.694551198054725], [29.043715832431047, 39.6950901872252], [29.0442548216015, 39.6950901872252], [29.0442548216015, 39.69562917639567], [29.04263785409009, 39.69562917639567], [29.04263785409009, 39.694551198054725], [29.043715832431047, 39.694551198054725]], [[29.04209886491961, 39.69401220888425], [29.04209886491961, 39.6950901872252], [29.041559875749158, 39.6950901872252], [29.041559875749158, 39.69401220888425], [29.04209886491961, 39.69401220888425]], [[29.07821113934122, 39.69401220888425], [29.07821113934122, 39.694551198054725], [29.07767215017074, 39.694551198054725], [29.07767215017074, 39.69401220888425], [29.07821113934122, 39.69401220888425]], [[29.043176843260568, 39.69347321971378], [29.043176843260568, 39.69401220888425], [29.04263785409009, 39.69401220888425], [29.04263785409009, 39.69347321971378], [29.043176843260568, 39.69347321971378]], [[29.056651572522355, 39.69293423054331], [29.056651572522355, 39.69347321971378], [29.056112583351876, 39.69347321971378], [29.056112583351876, 39.69293423054331], [29.056651572522355, 39.69293423054331]], [[29.062580453397544, 39.69293423054331], [29.062580453397544, 39.69347321971378], [29.062041464227065, 39.69347321971378], [29.062041464227065, 39.69293423054331], [29.062580453397544, 39.69293423054331]], [[29.060424496715655, 39.692395241372836], [29.060424496715655, 39.69293423054331], [29.059885507545175, 39.69293423054331], [29.059885507545175, 39.692395241372836], [29.060424496715655, 39.692395241372836]], [[29.055034605010945, 39.69131726303189], [29.055034605010945, 39.69185625220236], [29.054495615840466, 39.69185625220236], [29.054495615840466, 39.69131726303189], [29.055034605010945, 39.69131726303189]], [[29.056112583351876, 39.69131726303189], [29.056112583351876, 39.69185625220236], [29.055573594181425, 39.69185625220236], [29.055573594181425, 39.69131726303189], [29.056112583351876, 39.69131726303189]], [[29.064197420908954, 39.69131726303189], [29.064197420908954, 39.69185625220236], [29.065275399249913, 39.69185625220236], [29.065275399249913, 39.692395241372836], [29.063119442568023, 39.692395241372836], [29.063119442568023, 39.69185625220236], [29.063658431738475, 39.69185625220236], [29.063658431738475, 39.69131726303189], [29.064197420908954, 39.69131726303189]], [[29.055573594181425, 39.68916130635001], [29.055573594181425, 39.68970029552048], [29.055034605010945, 39.68970029552048], [29.055034605010945, 39.68916130635001], [29.055573594181425, 39.68916130635001]], [[29.054495615840466, 39.68754433883859], [29.054495615840466, 39.688083328009064], [29.053417637499535, 39.688083328009064], [29.053417637499535, 39.68754433883859], [29.054495615840466, 39.68754433883859]], [[29.056651572522355, 39.68646636049765], [29.056651572522355, 39.688083328009064], [29.057190561692835, 39.688083328009064], [29.057190561692835, 39.68862231717954], [29.055034605010945, 39.68862231717954], [29.055034605010945, 39.68646636049765], [29.055573594181425, 39.68646636049765], [29.055573594181425, 39.68700534966812], [29.056112583351876, 39.68700534966812], [29.056112583351876, 39.68646636049765], [29.056651572522355, 39.68646636049765]], [[29.052339659158577, 39.6853883821567], [29.052339659158577, 39.685927371327175], [29.051800669988097, 39.685927371327175], [29.051800669988097, 39.6853883821567], [29.052339659158577, 39.6853883821567]], [[29.057729550863286, 39.6853883821567], [29.057729550863286, 39.68646636049765], [29.057190561692835, 39.68646636049765], [29.057190561692835, 39.6853883821567], [29.057729550863286, 39.6853883821567]], [[29.058268540033765, 39.684310403815765], [29.058268540033765, 39.68484939298623], [29.057729550863286, 39.68484939298623], [29.057729550863286, 39.684310403815765], [29.058268540033765, 39.684310403815765]]]}, "properties": {"area_ha": 1725.056357998233, "mean_dnbr": 0.5156419667121676, "compactness": 0.055, "rectangularity": 0.682, "cropland_frac": 0.0, "persistent": true, "brightness_delta": -0.166}}]}