{"type": "FeatureCollection", "crs": {"type": "name", "properties": {"name": "urn:ogc:def:crs:OGC:1.3:CRS84"}}, "features": [{"type": "Feature", "geometry": {"geodesic": false, "type": "Polygon", "coordinates": [[[28.492868900208947, 38.741618344660736], [28.493407889379426, 38.741618344660736], [28.493407889379426, 38.74215733383121], [28.495024856890836, 38.74215733383121], [28.495024856890836, 38.74323531217215], [28.495563846061316, 38.74323531217215], [28.495563846061316, 38.74269632300168], [28.496641824402246, 38.74269632300168], [28.496641824402246, 38.743774301342626], [28.497180813572726, 38.743774301342626], [28.497180813572726, 38.74431329051309], [28.497719802743177, 38.74431329051309], [28.497719802743177, 38.74485227968356], [28.498258791913656, 38.74485227968356], [28.498258791913656, 38.74646924719498], [28.497719802743177, 38.74646924719498], [28.497719802743177, 38.74700823636545], [28.496641824402246, 38.74700823636545], [28.496641824402246, 38.7480862147064], [28.493946878549878, 38.7480862147064], [28.493946878549878, 38.747547225535925], [28.493407889379426, 38.747547225535925], [28.493407889379426, 38.74646924719498], [28.492868900208947, 38.74646924719498], [28.492868900208947, 38.74593025802451], [28.493946878549878, 38.74593025802451], [28.493946878549878, 38.745391268854036], [28.493407889379426, 38.745391268854036], [28.493407889379426, 38.74485227968356], [28.492868900208947, 38.74485227968356], [28.492868900208947, 38.741618344660736]]]}, "properties": {"area_ha": 22.69216629341648, "mean_dnbr": 0.473974936037765, "compactness": 0.397, "rectangularity": 0.675, "cropland_frac": 0.002, "persistent": true, "brightness_delta": -0.035}}, {"type": "Feature", "geometry": {"geodesic": false, "type": "Polygon", "coordinates": [[[29.35525157296368, 37.87600173688317], [29.35794651881605, 37.87600173688317], [29.35794651881605, 37.877079715224106], [29.35902449715698, 37.877079715224106], [29.35902449715698, 37.87815769356505], [29.36064146466839, 37.87815769356505], [29.36064146466839, 37.879235671905995], [29.36118045383887, 37.879235671905995], [29.36118045383887, 37.88031365024694], [29.36171944300935, 37.88031365024694], [29.36171944300935, 37.88193061775836], [29.36225843217983, 37.88193061775836], [29.36225843217983, 37.88246960692882], [29.36279742135028, 37.88246960692882], [29.36279742135028, 37.88354758526977], [29.36387539969124, 37.88354758526977], [29.36387539969124, 37.88408657444024], [29.364414388861718, 37.88408657444024], [29.364414388861718, 37.885703541951656], [29.36387539969124, 37.885703541951656], [29.36387539969124, 37.88624253112213], [29.366031356373128, 37.88624253112213], [29.366031356373128, 37.887859498633546], [29.36333641052076, 37.887859498633546], [29.36333641052076, 37.89001545531543], [29.36387539969124, 37.89001545531543], [29.36387539969124, 37.8905544444859], [29.364414388861718, 37.8905544444859], [29.364414388861718, 37.89109343365637], [29.36549236720265, 37.89109343365637], [29.36549236720265, 37.893788379508734], [29.364414388861718, 37.893788379508734], [29.364414388861718, 37.89324939033826], [29.36279742135028, 37.89324939033826], [29.36279742135028, 37.89271040116779], [29.36118045383887, 37.89271040116779], [29.36118045383887, 37.89217141199732], [29.35956348632746, 37.89217141199732], [29.35956348632746, 37.891632422826845], [29.35902449715698, 37.891632422826845], [29.35902449715698, 37.89109343365637], [29.35848550798653, 37.89109343365637], [29.35848550798653, 37.8905544444859], [29.35794651881605, 37.8905544444859], [29.35794651881605, 37.887859498633546], [29.35740752964557, 37.887859498633546], [29.35740752964557, 37.88732050946307], [29.35794651881605, 37.88732050946307], [29.35794651881605, 37.8867815202926], [29.35848550798653, 37.8867815202926], [29.35848550798653, 37.885703541951656], [29.35794651881605, 37.885703541951656], [29.35794651881605, 37.88354758526977], [29.35686854047509, 37.88354758526977], [29.35686854047509, 37.88193061775836], [29.35740752964557, 37.88193061775836], [29.35740752964557, 37.881391628587885], [29.35579056213416, 37.881391628587885], [29.35579056213416, 37.88085263941741], [29.35632955130464, 37.88085263941741], [29.35632955130464, 37.88031365024694], [29.35579056213416, 37.88031365024694], [29.35579056213416, 37.87869668273552], [29.35525157296368, 37.87869668273552], [29.35525157296368, 37.87600173688317]], [[29.36333641052076, 37.8867815202926], [29.36333641052076, 37.88732050946307], [29.36225843217983, 37.88732050946307], [29.36225843217983, 37.8867815202926], [29.36333641052076, 37.8867815202926]], [[29.36118045383887, 37.885164552781184], [29.36118045383887, 37.885703541951656], [29.36225843217983, 37.885703541951656], [29.36225843217983, 37.8867815202926], [29.36171944300935, 37.8867815202926], [29.36171944300935, 37.88624253112213], [29.36010247549794, 37.88624253112213], [29.36010247549794, 37.885164552781184], [29.36118045383887, 37.885164552781184]], [[29.36333641052076, 37.885164552781184], [29.36333641052076, 37.885703541951656], [29.36225843217983, 37.885703541951656], [29.36225843217983, 37.885164552781184], [29.36333641052076, 37.885164552781184]], [[29.36010247549794, 37.88462556361071], [29.36010247549794, 37.885164552781184], [29.35956348632746, 37.885164552781184], [29.35956348632746, 37.88462556361071], [29.36010247549794, 37.88462556361071]], [[29.35956348632746, 37.88354758526977], [29.35956348632746, 37.88462556361071], [29.35902449715698, 37.88462556361071], [29.35902449715698, 37.88354758526977], [29.35956348632746, 37.88354758526977]], [[29.35956348632746, 37.88031365024694], [29.35956348632746, 37.88085263941741], [29.36010247549794, 37.88085263941741], [29.36010247549794, 37.881391628587885], [29.36064146466839, 37.881391628587885], [29.36064146466839, 37.88246960692882], [29.35956348632746, 37.88246960692882], [29.35956348632746, 37.881391628587885], [29.35902449715698, 37.881391628587885], [29.35902449715698, 37.88085263941741], [29.35848550798653, 37.88085263941741], [29.35848550798653, 37.88031365024694], [29.35956348632746, 37.88031365024694]]]}, "properties": {"area_ha": 86.18173988329296, "mean_dnbr": 0.34600796660606287, "compactness": 0.121, "rectangularity": 0.521, "cropland_frac": 0.198, "persistent": true, "brightness_delta": -0.043}}]}