{"type": "FeatureCollection", "crs": {"type": "name", "properties": {"name": "urn:ogc:def:crs:OGC:1.3:CRS84"}}, "features": [{"type": "Feature", "geometry": {"geodesic": false, "type": "Polygon", "coordinates": [[[28.354348683397717, 37.81455697144939], [28.355965650909127, 37.81455697144939], [28.355965650909127, 37.815634949790336], [28.355426661738647, 37.815634949790336], [28.355426661738647, 37.81779090647222], [28.356504640079606, 37.81779090647222], [28.356504640079606, 37.81886888481316], [28.357043629250086, 37.81886888481316], [28.357043629250086, 37.82102484149505], [28.356504640079606, 37.82102484149505], [28.356504640079606, 37.821563830665525], [28.355965650909127, 37.821563830665525], [28.355965650909127, 37.82210281983599], [28.356504640079606, 37.82210281983599], [28.356504640079606, 37.82264180900646], [28.355965650909127, 37.82264180900646], [28.355965650909127, 37.823180798176935], [28.355426661738647, 37.823180798176935], [28.355426661738647, 37.82371978734741], [28.354348683397717, 37.82371978734741], [28.354348683397717, 37.823180798176935], [28.353809694227238, 37.823180798176935], [28.353809694227238, 37.82425877651788], [28.353270705056758, 37.82425877651788], [28.353270705056758, 37.82479776568835], [28.350575759204418, 37.82479776568835], [28.350575759204418, 37.8258757440293], [28.350036770033938, 37.8258757440293], [28.350036770033938, 37.825336754858824], [28.348958791693008, 37.825336754858824], [28.348958791693008, 37.82641473319977], [28.34841980252253, 37.82641473319977], [28.34841980252253, 37.8258757440293], [28.34788081335205, 37.8258757440293], [28.34788081335205, 37.825336754858824], [28.34841980252253, 37.825336754858824], [28.34841980252253, 37.823180798176935], [28.348958791693008, 37.823180798176935], [28.348958791693008, 37.82210281983599], [28.350036770033938, 37.82210281983599], [28.350036770033938, 37.82048585232458], [28.350575759204418, 37.82048585232458], [28.350575759204418, 37.81994686315411], [28.351114748374897, 37.81994686315411], [28.351114748374897, 37.81832989564269], [28.351653737545348, 37.81832989564269], [28.351653737545348, 37.81779090647222], [28.351114748374897, 37.81779090647222], [28.351114748374897, 37.816712928131274], [28.351653737545348, 37.816712928131274], [28.351653737545348, 37.8161739389608], [28.352192726715828, 37.8161739389608], [28.352192726715828, 37.815634949790336], [28.353270705056758, 37.815634949790336], [28.353270705056758, 37.815095960619864], [28.354348683397717, 37.815095960619864], [28.354348683397717, 37.81455697144939]], [[28.350575759204418, 37.82371978734741], [28.350575759204418, 37.82425877651788], [28.350036770033938, 37.82425877651788], [28.350036770033938, 37.82371978734741], [28.350575759204418, 37.82371978734741]], [[28.350036770033938, 37.823180798176935], [28.350036770033938, 37.82371978734741], [28.34949778086346, 37.82371978734741], [28.34949778086346, 37.823180798176935], [28.350036770033938, 37.823180798176935]], [[28.354887672568196, 37.81886888481316], [28.354887672568196, 37.819407873983636], [28.354348683397717, 37.819407873983636], [28.354348683397717, 37.81886888481316], [28.354887672568196, 37.81886888481316]], [[28.355426661738647, 37.81832989564269], [28.355426661738647, 37.81886888481316], [28.354887672568196, 37.81886888481316], [28.354887672568196, 37.81832989564269], [28.355426661738647, 37.81832989564269]]]}, "properties": {"area_ha": 53.343361337636466, "mean_dnbr": 0.37227443766553325, "compactness": 0.212, "rectangularity": 0.557, "cropland_frac": 0.007, "persistent": true, "brightness_delta": -0.303}}]}