{"type": "FeatureCollection", "crs": {"type": "name", "properties": {"name": "urn:ogc:def:crs:OGC:1.3:CRS84"}}, "features": [{"type": "Feature", "geometry": {"geodesic": false, "type": "Polygon", "coordinates": [[[28.28697503708875, 39.55064108953878], [28.28751402625923, 39.55064108953878], [28.28751402625923, 39.55333603539113], [28.284819080406862, 39.55333603539113], [28.284819080406862, 39.55225805705019], [28.28535806957734, 39.55225805705019], [28.28535806957734, 39.55118007870925], [28.28697503708875, 39.55118007870925], [28.28697503708875, 39.55064108953878]]]}, "properties": {"area_ha": 5.262168638699446, "mean_dnbr": 0.2207860364111133, "compactness": 0.587, "rectangularity": 0.76, "cropland_frac": 0.076, "persistent": true, "brightness_delta": -0.185}}, {"type": "Feature", "geometry": {"geodesic": false, "type": "Polygon", "coordinates": [[[28.34356889998827, 38.809530980140174], [28.34410788915875, 38.809530980140174], [28.34410788915875, 38.811147947651584], [28.34356889998827, 38.811147947651584], [28.34356889998827, 38.81222592599253], [28.34249092164734, 38.81222592599253], [28.34249092164734, 38.811686936822056], [28.34195193247686, 38.811686936822056], [28.34195193247686, 38.811147947651584], [28.34141294330638, 38.811147947651584], [28.34141294330638, 38.81060895848111], [28.34302991081782, 38.81060895848111], [28.34302991081782, 38.810069969310646], [28.34356889998827, 38.810069969310646], [28.34356889998827, 38.809530980140174]]]}, "properties": {"area_ha": 3.6385880561884356, "mean_dnbr": 0.26587001886877976, "compactness": 0.402, "rectangularity": 0.52, "cropland_frac": 0.019, "persistent": true, "brightness_delta": -0.212}}]}