{"type": "FeatureCollection", "crs": {"type": "name", "properties": {"name": "urn:ogc:def:crs:OGC:1.3:CRS84"}}, "features": [{"type": "Feature", "geometry": {"geodesic": false, "type": "Polygon", "coordinates": [[[28.629772149508767, 36.92684180768248], [28.630311138679218, 36.92684180768248], [28.630311138679218, 36.92738079685295], [28.630850127849698, 36.92738079685295], [28.630850127849698, 36.928458775193896], [28.630311138679218, 36.928458775193896], [28.630311138679218, 36.92899776436437], [28.629772149508767, 36.92899776436437], [28.629772149508767, 36.92953675353484], [28.630311138679218, 36.92953675353484], [28.630311138679218, 36.930075742705306], [28.629772149508767, 36.930075742705306], [28.629772149508767, 36.92953675353484], [28.628155181997357, 36.92953675353484], [28.628155181997357, 36.92899776436437], [28.62869417116781, 36.92899776436437], [28.62869417116781, 36.92791978602342], [28.629233160338288, 36.92791978602342], [28.629233160338288, 36.92738079685295], [28.629772149508767, 36.92738079685295], [28.629772149508767, 36.92684180768248]]]}, "properties": {"area_ha": 4.307044353139729, "mean_dnbr": 0.28259272703643556, "compactness": 0.323, "rectangularity": 0.554, "cropland_frac": 0, "persistent": true, "brightness_delta": -0.082}}, {"type": "Feature", "geometry": {"geodesic": false, "type": "Polygon", "coordinates": [[[28.640012943747735, 36.96780498463833], [28.641090922088665, 36.96780498463833], [28.641090922088665, 36.9683439738088], [28.642168900429596, 36.9683439738088], [28.642168900429596, 36.96888296297927], [28.641629911259145, 36.96888296297927], [28.641629911259145, 36.969421952149744], [28.641090922088665, 36.969421952149744], [28.641090922088665, 36.97049993049069], [28.640012943747735, 36.97049993049069], [28.640012943747735, 36.969421952149744], [28.639473954577255, 36.969421952149744], [28.639473954577255, 36.9683439738088], [28.640012943747735, 36.9683439738088], [28.640012943747735, 36.96780498463833]]]}, "properties": {"area_ha": 4.304745945602364, "mean_dnbr": 0.23342706114430517, "compactness": 0.465, "rectangularity": 0.6, "cropland_frac": 0.054, "persistent": true, "brightness_delta": -0.019}}, {"type": "Feature", "geometry": {"geodesic": false, "type": "Polygon", "coordinates": [[[28.791468900650273, 36.75436527313153], [28.79578081401405, 36.75436527313153], [28.79578081401405, 36.75598224064294], [28.795241824843572, 36.75598224064294], [28.795241824843572, 36.75706021898389], [28.792546878991203, 36.75706021898389], [28.792546878991203, 36.75544325147247], [28.790929911479793, 36.75544325147247], [28.790929911479793, 36.754904262302], [28.791468900650273, 36.754904262302], [28.791468900650273, 36.75436527313153]], [[28.793624857332162, 36.75598224064294], [28.793624857332162, 36.756521229813416], [28.793085868161683, 36.756521229813416], [28.793085868161683, 36.75598224064294], [28.793624857332162, 36.75598224064294]]]}, "properties": {"area_ha": 9.209116446314152, "mean_dnbr": 0.16227040475520643, "compactness": 0.41, "rectangularity": 0.711, "cropland_frac": 0.122, "persistent": true, "brightness_delta": -0.367}}]}