{"type": "FeatureCollection", "crs": {"type": "name", "properties": {"name": "urn:ogc:def:crs:OGC:1.3:CRS84"}}, "features": [{"type": "Feature", "geometry": {"geodesic": false, "type": "Polygon", "coordinates": [[[28.79416384650264, 36.791555525894076], [28.796858792354982, 36.791555525894076], [28.796858792354982, 36.79263350423502], [28.79739778152546, 36.79263350423502], [28.79739778152546, 36.79317249340549], [28.79793677069594, 36.79317249340549], [28.79793677069594, 36.793711482575965], [28.796858792354982, 36.793711482575965], [28.796858792354982, 36.79425047174644], [28.79631980318453, 36.79425047174644], [28.79631980318453, 36.793711482575965], [28.796858792354982, 36.793711482575965], [28.796858792354982, 36.79263350423502], [28.79578081401405, 36.79263350423502], [28.79578081401405, 36.79425047174644], [28.795241824843572, 36.79425047174644], [28.795241824843572, 36.793711482575965], [28.793624857332162, 36.793711482575965], [28.793624857332162, 36.79317249340549], [28.79416384650264, 36.79317249340549], [28.79416384650264, 36.79263350423502], [28.793624857332162, 36.79263350423502], [28.793624857332162, 36.79209451506455], [28.79416384650264, 36.79209451506455], [28.79416384650264, 36.791555525894076]]]}, "properties": {"area_ha": 6.615857180747993, "mean_dnbr": 0.1750526280298743, "compactness": 0.226, "rectangularity": 0.575, "cropland_frac": 0.123, "persistent": true, "brightness_delta": 0.001}}]}