{"type": "FeatureCollection", "crs": {"type": "name", "properties": {"name": "urn:ogc:def:crs:OGC:1.3:CRS84"}}, "features": [{"type": "Feature", "geometry": {"geodesic": false, "type": "Polygon", "coordinates": [[[28.687982979919695, 36.88156671736285], [28.689060958260654, 36.88156671736285], [28.689060958260654, 36.882644695703796], [28.689599947431134, 36.882644695703796], [28.689599947431134, 36.88318368487427], [28.690138936601585, 36.88318368487427], [28.690138936601585, 36.88426166321521], [28.690677925772064, 36.88426166321521], [28.690677925772064, 36.884800652385685], [28.687982979919695, 36.884800652385685], [28.687982979919695, 36.88372267404474], [28.687443990749244, 36.88372267404474], [28.687443990749244, 36.882644695703796], [28.687982979919695, 36.882644695703796], [28.687982979919695, 36.88156671736285]]]}, "properties": {"area_ha": 6.320732876316738, "mean_dnbr": 0.20089874711891462, "compactness": 0.474, "rectangularity": 0.611, "cropland_frac": 0.005, "persistent": true, "brightness_delta": -0.063}}, {"type": "Feature", "geometry": {"geodesic": false, "type": "Polygon", "coordinates": [[[28.769909333831407, 36.74304650055162], [28.770448323001887, 36.74304650055162], [28.770448323001887, 36.74358548972209], [28.770987312172338, 36.74358548972209], [28.770987312172338, 36.74466346806304], [28.772065290513297, 36.74466346806304], [28.772065290513297, 36.74681942474493], [28.771526301342817, 36.74681942474493], [28.771526301342817, 36.748436392256345], [28.770987312172338, 36.748436392256345], [28.770987312172338, 36.75059234893823], [28.769909333831407, 36.75059234893823], [28.769909333831407, 36.74951437059728], [28.769370344660928, 36.74951437059728], [28.769370344660928, 36.750053359767755], [28.768292366319997, 36.750053359767755], [28.768292366319997, 36.75059234893823], [28.76721438797904, 36.75059234893823], [28.76721438797904, 36.75167032727917], [28.766675398808587, 36.75167032727917], [28.766675398808587, 36.7511313381087], [28.766136409638108, 36.7511313381087], [28.766136409638108, 36.752209316449644], [28.766675398808587, 36.752209316449644], [28.766675398808587, 36.752748305620116], [28.76559742046763, 36.752748305620116], [28.76559742046763, 36.75382628396106], [28.76344146378574, 36.75382628396106], [28.76344146378574, 36.75167032727917], [28.76398045295622, 36.75167032727917], [28.76398045295622, 36.7511313381087], [28.76559742046763, 36.7511313381087], [28.76559742046763, 36.750053359767755], [28.766136409638108, 36.750053359767755], [28.766136409638108, 36.748436392256345], [28.76559742046763, 36.748436392256345], [28.76559742046763, 36.746280435574455], [28.764519442126698, 36.746280435574455], [28.764519442126698, 36.74520245723351], [28.76505843129715, 36.74520245723351], [28.76505843129715, 36.74466346806304], [28.769370344660928, 36.74466346806304], [28.769370344660928, 36.744124478892566], [28.769909333831407, 36.744124478892566], [28.769909333831407, 36.74304650055162]]]}, "properties": {"area_ha": 43.74770960113438, "mean_dnbr": 0.369294285560142, "compactness": 0.251, "rectangularity": 0.499, "cropland_frac": 0.47, "persistent": true, "brightness_delta": 0.041}}, {"type": "Feature", "geometry": {"geodesic": false, "type": "Polygon", "coordinates": [[[28.775299225536116, 36.80880317934918], [28.776916193047526, 36.80880317934918], [28.776916193047526, 36.80934216851964], [28.777455182218006, 36.80934216851964], [28.777455182218006, 36.809881157690114], [28.776916193047526, 36.809881157690114], [28.776916193047526, 36.81042014686059], [28.775838214706596, 36.81042014686059], [28.775838214706596, 36.81095913603106], [28.775299225536116, 36.81095913603106], [28.775299225536116, 36.81042014686059], [28.774760236365637, 36.81042014686059], [28.774760236365637, 36.809881157690114], [28.775838214706596, 36.809881157690114], [28.775838214706596, 36.80934216851964], [28.775299225536116, 36.80934216851964], [28.775299225536116, 36.80880317934918]]]}, "properties": {"area_ha": 3.163405237726153, "mean_dnbr": 0.18273399252398986, "compactness": 0.357, "rectangularity": 0.55, "cropland_frac": 0.048, "persistent": true, "brightness_delta": -0.019}}, {"type": "Feature", "geometry": {"geodesic": false, "type": "Polygon", "coordinates": [[[28.782306084752264, 36.81311509271295], [28.784462041434153, 36.81311509271295], [28.784462041434153, 36.81419307105389], [28.783923052263674, 36.81419307105389], [28.783923052263674, 36.814732060224365], [28.783384063093195, 36.814732060224365], [28.783384063093195, 36.81527104939483], [28.781767095581785, 36.81527104939483], [28.781767095581785, 36.81365408188342], [28.782306084752264, 36.81365408188342], [28.782306084752264, 36.81311509271295]]]}, "properties": {"area_ha": 4.601054121154659, "mean_dnbr": 0.41639668368190924, "compactness": 0.628, "rectangularity": 0.8, "cropland_frac": 0, "persistent": true, "brightness_delta": 0.034}}, {"type": "Feature", "geometry": {"geodesic": false, "type": "Polygon", "coordinates": [[[28.818418359173847, 36.79478946091691], [28.818957348344327, 36.79478946091691], [28.818957348344327, 36.79532845008738], [28.820035326685286, 36.79532845008738], [28.820035326685286, 36.79694541759879], [28.818418359173847, 36.79694541759879], [28.818418359173847, 36.795867439257854], [28.817879370003396, 36.795867439257854], [28.817879370003396, 36.79532845008738], [28.818418359173847, 36.79532845008738], [28.818418359173847, 36.79478946091691]]]}, "properties": {"area_ha": 3.1639785521609327, "mean_dnbr": 0.25685071043207913, "compactness": 0.533, "rectangularity": 0.688, "cropland_frac": 0, "persistent": true, "brightness_delta": -0.108}}]}