{"type": "FeatureCollection", "crs": {"type": "name", "properties": {"name": "urn:ogc:def:crs:OGC:1.3:CRS84"}}, "features": [{"type": "Feature", "geometry": {"geodesic": false, "type": "Polygon", "coordinates": [[[28.271883340315554, 38.49206635873233], [28.273500307826964, 38.49206635873233], [28.273500307826964, 38.49368332624375], [28.274039296997415, 38.49368332624375], [28.274039296997415, 38.49476130458469], [28.275117275338374, 38.49476130458469], [28.275117275338374, 38.495300293755164], [28.273500307826964, 38.495300293755164], [28.273500307826964, 38.49583928292564], [28.270805361974595, 38.49583928292564], [28.270805361974595, 38.49637827209611], [28.269727383633665, 38.49637827209611], [28.269727383633665, 38.49691726126658], [28.265415470269886, 38.49691726126658], [28.265415470269886, 38.49745625043705], [28.262181535247038, 38.49745625043705], [28.262181535247038, 38.49799523960752], [28.261642546076587, 38.49799523960752], [28.261642546076587, 38.49853422877799], [28.260564567735628, 38.49853422877799], [28.260564567735628, 38.499612207118936], [28.25840861105374, 38.499612207118936], [28.25840861105374, 38.499073217948464], [28.257869621883287, 38.499073217948464], [28.257869621883287, 38.49853422877799], [28.25840861105374, 38.49853422877799], [28.25840861105374, 38.49799523960752], [28.258947600224218, 38.49799523960752], [28.258947600224218, 38.49691726126658], [28.259486589394697, 38.49691726126658], [28.259486589394697, 38.49637827209611], [28.260025578565177, 38.49637827209611], [28.260025578565177, 38.49583928292564], [28.260564567735628, 38.49583928292564], [28.260564567735628, 38.495300293755164], [28.261103556906107, 38.495300293755164], [28.261103556906107, 38.49476130458469], [28.261642546076587, 38.49476130458469], [28.261642546076587, 38.49422231541422], [28.262181535247038, 38.49422231541422], [28.262181535247038, 38.493144337073275], [28.263259513587997, 38.493144337073275], [28.263259513587997, 38.4926053479028], [28.264337491928927, 38.4926053479028], [28.264337491928927, 38.493144337073275], [28.265415470269886, 38.493144337073275], [28.265415470269886, 38.49368332624375], [28.267032437781296, 38.49368332624375], [28.267032437781296, 38.493144337073275], [28.268110416122227, 38.493144337073275], [28.268110416122227, 38.4926053479028], [28.271883340315554, 38.4926053479028], [28.271883340315554, 38.49206635873233]]]}, "properties": {"area_ha": 56.22556620299272, "mean_dnbr": 0.46530847771946793, "compactness": 0.292, "rectangularity": 0.551, "cropland_frac": 0.391, "persistent": true, "brightness_delta": -0.383}}, {"type": "Feature", "geometry": {"geodesic": false, "type": "Polygon", "coordinates": [[[28.592042907575745, 38.656458055726205], [28.593120885916676, 38.656458055726205], [28.593120885916676, 38.65753603406715], [28.595815831769045, 38.65753603406715], [28.595815831769045, 38.65807502323762], [28.596354820939524, 38.65807502323762], [28.596354820939524, 38.658614012408094], [28.597432799280455, 38.658614012408094], [28.597432799280455, 38.65807502323762], [28.597971788450934, 38.65807502323762], [28.597971788450934, 38.658614012408094], [28.598510777621414, 38.658614012408094], [28.598510777621414, 38.660769969089976], [28.599588755962344, 38.660769969089976], [28.599588755962344, 38.66130895826045], [28.599049766791865, 38.66130895826045], [28.599049766791865, 38.66184794743092], [28.599588755962344, 38.66184794743092], [28.599588755962344, 38.662925925771866], [28.599049766791865, 38.662925925771866], [28.599049766791865, 38.66346491494234], [28.600127745132824, 38.66346491494234], [28.600127745132824, 38.662925925771866], [28.600666734303275, 38.662925925771866], [28.600666734303275, 38.66562087162423], [28.601205723473754, 38.66562087162423], [28.601205723473754, 38.66615986079469], [28.600666734303275, 38.66615986079469], [28.600666734303275, 38.666698849965165], [28.601205723473754, 38.666698849965165], [28.601205723473754, 38.66723783913564], [28.600666734303275, 38.66723783913564], [28.600666734303275, 38.666698849965165], [28.599049766791865, 38.666698849965165], [28.599049766791865, 38.66723783913564], [28.600127745132824, 38.66723783913564], [28.600127745132824, 38.66777682830611], [28.600666734303275, 38.66777682830611], [28.600666734303275, 38.66831581747658], [28.601205723473754, 38.66831581747658], [28.601205723473754, 38.668854806647055], [28.600666734303275, 38.668854806647055], [28.600666734303275, 38.66939379581753], [28.601205723473754, 38.66939379581753], [28.601205723473754, 38.669932784988], [28.599588755962344, 38.669932784988], [28.599588755962344, 38.67047177415847], [28.599049766791865, 38.67047177415847], [28.599049766791865, 38.671010763328944], [28.598510777621414, 38.671010763328944], [28.598510777621414, 38.67424469835177], [28.600127745132824, 38.67424469835177], [28.600127745132824, 38.673166720010826], [28.601744712644233, 38.673166720010826], [28.601744712644233, 38.67208874166988], [28.602283701814713, 38.67208874166988], [28.602283701814713, 38.672627730840354], [28.603900669326123, 38.672627730840354], [28.603900669326123, 38.67208874166988], [28.604439658496602, 38.67208874166988], [28.604439658496602, 38.671549752499416], [28.605517636837533, 38.671549752499416], [28.605517636837533, 38.671010763328944], [28.606056626008012, 38.671010763328944], [28.606056626008012, 38.671549752499416], [28.606595615178463, 38.671549752499416], [28.606595615178463, 38.67208874166988], [28.607134604348943, 38.67208874166988], [28.607134604348943, 38.672627730840354], [28.6082125826899, 38.672627730840354], [28.6082125826899, 38.673166720010826], [28.608751571860353, 38.673166720010826], [28.608751571860353, 38.6737057091813], [28.6082125826899, 38.6737057091813], [28.6082125826899, 38.67424469835177], [28.609290561030832, 38.67424469835177], [28.609290561030832, 38.67586166586319], [28.61036853937179, 38.67586166586319], [28.61036853937179, 38.67640065503366], [28.61144651771272, 38.67640065503366], [28.61144651771272, 38.67586166586319], [28.610907528542242, 38.67586166586319], [28.610907528542242, 38.67424469835177], [28.61144651771272, 38.67424469835177], [28.61144651771272, 38.67478368752224], [28.6119855068832, 38.67478368752224], [28.6119855068832, 38.675322676692716], [28.61306348522413, 38.675322676692716], [28.61306348522413, 38.67640065503366], [28.61360247439461, 38.67640065503366], [28.61360247439461, 38.67586166586319], [28.61468045273554, 38.67586166586319], [28.61468045273554, 38.67640065503366], [28.6157584310765, 38.67640065503366], [28.6157584310765, 38.67693964420413], [28.61845337692884, 38.67693964420413], [28.61845337692884, 38.67640065503366], [28.62060933361073, 38.67640065503366], [28.62060933361073, 38.677478633374605], [28.62114832278121, 38.677478633374605], [28.62114832278121, 38.67801762254507], [28.62222630112217, 38.67801762254507], [28.62222630112217, 38.67855661171554], [28.62384326863358, 38.67855661171554], [28.62384326863358, 38.67801762254507], [28.62438225780403, 38.67801762254507], [28.62438225780403, 38.67855661171554], [28.62492124697451, 38.67855661171554], [28.62492124697451, 38.68017357922696], [28.62438225780403, 38.68017357922696], [28.62438225780403, 38.68071256839743], [28.62546023614499, 38.68071256839743], [28.62546023614499, 38.67963459005649], [28.625999225315468, 38.67963459005649], [28.625999225315468, 38.67855661171554], [28.627616192826878, 38.67855661171554], [28.627616192826878, 38.679095600886015], [28.628155181997357, 38.679095600886015], [28.628155181997357, 38.68071256839743], [28.627616192826878, 38.68071256839743], [28.627616192826878, 38.68286852507932], [28.628155181997357, 38.68286852507932], [28.628155181997357, 38.68448549259073], [28.62869417116781, 38.68448549259073], [28.62869417116781, 38.68610246010215], [28.628155181997357, 38.68610246010215], [28.628155181997357, 38.68664144927262], [28.627616192826878, 38.68664144927262], [28.627616192826878, 38.68718043844309], [28.628155181997357, 38.68718043844309], [28.628155181997357, 38.68825841678404], [28.6270772036564, 38.68825841678404], [28.6270772036564, 38.68879740595451], [28.62653821448592, 38.68879740595451], [28.62653821448592, 38.68825841678404], [28.6233042794631, 38.68825841678404], [28.6233042794631, 38.68879740595451], [28.62276529029262, 38.68879740595451], [28.62276529029262, 38.68933639512498], [28.62060933361073, 38.68933639512498], [28.62060933361073, 38.68879740595451], [28.61845337692884, 38.68879740595451], [28.61845337692884, 38.68825841678404], [28.61737539858791, 38.68825841678404], [28.61737539858791, 38.68879740595451], [28.61683640941743, 38.68879740595451], [28.61683640941743, 38.68825841678404], [28.6157584310765, 38.68825841678404], [28.6157584310765, 38.68879740595451], [28.61521944190602, 38.68879740595451], [28.61521944190602, 38.68825841678404], [28.61468045273554, 38.68825841678404], [28.61468045273554, 38.687719427613565], [28.61360247439461, 38.687719427613565], [28.61360247439461, 38.68664144927262], [28.612524496053652, 38.68664144927262], [28.612524496053652, 38.68610246010215], [28.6119855068832, 38.68610246010215], [28.6119855068832, 38.685563470931676], [28.61144651771272, 38.685563470931676], [28.61144651771272, 38.68448549259073], [28.610907528542242, 38.68448549259073], [28.610907528542242, 38.683407514249794], [28.60982955020131, 38.683407514249794], [28.60982955020131, 38.68286852507932], [28.609290561030832, 38.68286852507932], [28.609290561030832, 38.683407514249794], [28.608751571860353, 38.683407514249794], [28.608751571860353, 38.68394650342026], [28.61036853937179, 38.68394650342026], [28.61036853937179, 38.68664144927262], [28.60982955020131, 38.68664144927262], [28.60982955020131, 38.68610246010215], [28.609290561030832, 38.68610246010215], [28.609290561030832, 38.685563470931676], [28.608751571860353, 38.685563470931676], [28.608751571860353, 38.68610246010215], [28.6082125826899, 38.68610246010215], [28.6082125826899, 38.685024481761204], [28.608751571860353, 38.685024481761204], [28.608751571860353, 38.68394650342026], [28.6082125826899, 38.68394650342026], [28.6082125826899, 38.68448549259073], [28.607134604348943, 38.68448549259073], [28.607134604348943, 38.68394650342026], [28.605517636837533, 38.68394650342026], [28.605517636837533, 38.68232953590885], [28.604978647667053, 38.68232953590885], [28.604978647667053, 38.68286852507932], [28.604439658496602, 38.68286852507932], [28.604439658496602, 38.68179054673838], [28.603900669326123, 38.68179054673838], [28.603900669326123, 38.68232953590885], [28.603361680155643, 38.68232953590885], [28.603361680155643, 38.68179054673838], [28.600127745132824, 38.68179054673838], [28.600127745132824, 38.68071256839743], [28.600666734303275, 38.68071256839743], [28.600666734303275, 38.68017357922696], [28.600127745132824, 38.68017357922696], [28.600127745132824, 38.679095600886015], [28.599588755962344, 38.679095600886015], [28.599588755962344, 38.67855661171554], [28.599049766791865, 38.67855661171554], [28.599049766791865, 38.677478633374605], [28.598510777621414, 38.677478633374605], [28.598510777621414, 38.67693964420413], [28.597971788450934, 38.67693964420413], [28.597971788450934, 38.67640065503366], [28.598510777621414, 38.67640065503366], [28.598510777621414, 38.675322676692716], [28.597971788450934, 38.675322676692716], [28.597971788450934, 38.67424469835177], [28.596354820939524, 38.67424469835177], [28.596354820939524, 38.67478368752224], [28.595815831769045, 38.67478368752224], [28.595815831769045, 38.67424469835177], [28.594737853428086, 38.67424469835177], [28.594737853428086, 38.6737057091813], [28.595276842598565, 38.6737057091813], [28.595276842598565, 38.673166720010826], [28.593659875087155, 38.673166720010826], [28.593659875087155, 38.671549752499416], [28.594198864257635, 38.671549752499416], [28.594198864257635, 38.671010763328944], [28.593659875087155, 38.671010763328944], [28.593659875087155, 38.669932784988], [28.594198864257635, 38.669932784988], [28.594198864257635, 38.66831581747658], [28.594737853428086, 38.66831581747658], [28.594737853428086, 38.66723783913564], [28.594198864257635, 38.66723783913564], [28.594198864257635, 38.666698849965165], [28.591503918405266, 38.666698849965165], [28.591503918405266, 38.66562087162423], [28.590425940064335, 38.66562087162423], [28.590425940064335, 38.665081882453755], [28.589886950893856, 38.665081882453755], [28.589886950893856, 38.66454289328328], [28.589347961723377, 38.66454289328328], [28.589347961723377, 38.665081882453755], [28.588808972552897, 38.665081882453755], [28.588808972552897, 38.66454289328328], [28.588269983382446, 38.66454289328328], [28.588269983382446, 38.662925925771866], [28.586114026700557, 38.662925925771866], [28.586114026700557, 38.66238693660139], [28.586653015871036, 38.66238693660139], [28.586653015871036, 38.66184794743092], [28.587192005041487, 38.66184794743092], [28.587192005041487, 38.660769969089976], [28.585036048359598, 38.660769969089976], [28.585036048359598, 38.660230979919504], [28.584497059189147, 38.660230979919504], [28.584497059189147, 38.65969199074904], [28.585036048359598, 38.65969199074904], [28.585036048359598, 38.65915300157857], [28.584497059189147, 38.65915300157857], [28.584497059189147, 38.658614012408094], [28.583958070018667, 38.658614012408094], [28.583958070018667, 38.65699704489668], [28.587192005041487, 38.65699704489668], [28.587192005041487, 38.65753603406715], [28.587730994211967, 38.65753603406715], [28.587730994211967, 38.65807502323762], [28.588808972552897, 38.65807502323762], [28.588808972552897, 38.658614012408094], [28.589886950893856, 38.658614012408094], [28.589886950893856, 38.65807502323762], [28.590425940064335, 38.65807502323762], [28.590425940064335, 38.65753603406715], [28.589886950893856, 38.65753603406715], [28.589886950893856, 38.65699704489668], [28.590425940064335, 38.65699704489668], [28.590425940064335, 38.656458055726205], [28.590964929234786, 38.656458055726205], [28.590964929234786, 38.65699704489668], [28.592042907575745, 38.65699704489668], [28.592042907575745, 38.656458055726205]], [[28.607673593519422, 38.683407514249794], [28.607673593519422, 38.68394650342026], [28.607134604348943, 38.68394650342026], [28.607134604348943, 38.683407514249794], [28.607673593519422, 38.683407514249794]], [[28.62168731195169, 38.68718043844309], [28.62168731195169, 38.68825841678404], [28.6195313552698, 38.68825841678404], [28.6195313552698, 38.68718043844309], [28.62168731195169, 38.68718043844309]], [[28.61629742024698, 38.685563470931676], [28.61629742024698, 38.68664144927262], [28.61521944190602, 38.68664144927262], [28.61521944190602, 38.68610246010215], [28.6157584310765, 38.68610246010215], [28.6157584310765, 38.685563470931676], [28.61629742024698, 38.685563470931676]], [[28.61521944190602, 38.683407514249794], [28.61521944190602, 38.68394650342026], [28.61468045273554, 38.68394650342026], [28.61468045273554, 38.68448549259073], [28.61360247439461, 38.68448549259073], [28.61360247439461, 38.68394650342026], [28.61414146356509, 38.68394650342026], [28.61414146356509, 38.683407514249794], [28.61521944190602, 38.683407514249794]], [[28.610907528542242, 38.68232953590885], [28.610907528542242, 38.68286852507932], [28.61036853937179, 38.68286852507932], [28.61036853937179, 38.68232953590885], [28.610907528542242, 38.68232953590885]], [[28.62276529029262, 38.68232953590885], [28.62276529029262, 38.68286852507932], [28.62222630112217, 38.68286852507932], [28.62222630112217, 38.68232953590885], [28.62276529029262, 38.68232953590885]], [[28.62384326863358, 38.68232953590885], [28.62384326863358, 38.68286852507932], [28.6233042794631, 38.68286852507932], [28.6233042794631, 38.68232953590885], [28.62384326863358, 38.68232953590885]], [[28.6157584310765, 38.68179054673838], [28.6157584310765, 38.68232953590885], [28.61521944190602, 38.68232953590885], [28.61521944190602, 38.68179054673838], [28.6157584310765, 38.68179054673838]], [[28.61360247439461, 38.681251557567904], [28.61360247439461, 38.68232953590885], [28.61414146356509, 38.68232953590885], [28.61414146356509, 38.68179054673838], [28.61468045273554, 38.68179054673838], [28.61468045273554, 38.68286852507932], [28.61414146356509, 38.68286852507932], [28.61414146356509, 38.683407514249794], [28.61360247439461, 38.683407514249794], [28.61360247439461, 38.68286852507932], [28.612524496053652, 38.68286852507932], [28.612524496053652, 38.681251557567904], [28.61360247439461, 38.681251557567904]], [[28.61791438775839, 38.681251557567904], [28.61791438775839, 38.68179054673838], [28.61737539858791, 38.68179054673838], [28.61737539858791, 38.681251557567904], [28.61791438775839, 38.681251557567904]], [[28.6157584310765, 38.68071256839743], [28.6157584310765, 38.681251557567904], [28.61521944190602, 38.681251557567904], [28.61521944190602, 38.68071256839743], [28.6157584310765, 38.68071256839743]], [[28.61737539858791, 38.68071256839743], [28.61737539858791, 38.681251557567904], [28.61683640941743, 38.681251557567904], [28.61683640941743, 38.68071256839743], [28.61737539858791, 38.68071256839743]], [[28.61683640941743, 38.67963459005649], [28.61683640941743, 38.68017357922696], [28.6157584310765, 38.68017357922696], [28.6157584310765, 38.67963459005649], [28.61683640941743, 38.67963459005649]], [[28.62276529029262, 38.679095600886015], [28.62276529029262, 38.67963459005649], [28.62222630112217, 38.67963459005649], [28.62222630112217, 38.679095600886015], [28.62276529029262, 38.679095600886015]], [[28.62007034444028, 38.67855661171554], [28.62007034444028, 38.679095600886015], [28.62060933361073, 38.679095600886015], [28.62060933361073, 38.68071256839743], [28.62168731195169, 38.68071256839743], [28.62168731195169, 38.67963459005649], [28.62222630112217, 38.67963459005649], [28.62222630112217, 38.68179054673838], [28.6195313552698, 38.68179054673838], [28.6195313552698, 38.68232953590885], [28.61791438775839, 38.68232953590885], [28.61791438775839, 38.68179054673838], [28.61899236609932, 38.68179054673838], [28.61899236609932, 38.68017357922696], [28.61737539858791, 38.68017357922696], [28.61737539858791, 38.67963459005649], [28.61845337692884, 38.67963459005649], [28.61845337692884, 38.679095600886015], [28.6195313552698, 38.679095600886015], [28.6195313552698, 38.67855661171554], [28.62007034444028, 38.67855661171554]], [[28.607673593519422, 38.67801762254507], [28.607673593519422, 38.67855661171554], [28.607134604348943, 38.67855661171554], [28.607134604348943, 38.679095600886015], [28.606595615178463, 38.679095600886015], [28.606595615178463, 38.68017357922696], [28.606056626008012, 38.68017357922696], [28.606056626008012, 38.67801762254507], [28.607673593519422, 38.67801762254507]], [[28.61036853937179, 38.67693964420413], [28.61036853937179, 38.677478633374605], [28.60982955020131, 38.677478633374605], [28.60982955020131, 38.67693964420413], [28.61036853937179, 38.67693964420413]], [[28.61521944190602, 38.67693964420413], [28.61521944190602, 38.67801762254507], [28.61468045273554, 38.67801762254507], [28.61468045273554, 38.67693964420413], [28.61521944190602, 38.67693964420413]], [[28.602283701814713, 38.67640065503366], [28.602283701814713, 38.67693964420413], [28.601744712644233, 38.67693964420413], [28.601744712644233, 38.67640065503366], [28.602283701814713, 38.67640065503366]], [[28.605517636837533, 38.67640065503366], [28.605517636837533, 38.67801762254507], [28.604439658496602, 38.67801762254507], [28.604439658496602, 38.677478633374605], [28.603361680155643, 38.677478633374605], [28.603361680155643, 38.67640065503366], [28.605517636837533, 38.67640065503366]], [[28.606056626008012, 38.67586166586319], [28.606056626008012, 38.67640065503366], [28.605517636837533, 38.67640065503366], [28.605517636837533, 38.67586166586319], [28.606056626008012, 38.67586166586319]], [[28.598510777621414, 38.66831581747658], [28.598510777621414, 38.669932784988], [28.597971788450934, 38.669932784988], [28.597971788450934, 38.671010763328944], [28.596893810109975, 38.671010763328944], [28.596893810109975, 38.668854806647055], [28.597971788450934, 38.668854806647055], [28.597971788450934, 38.66831581747658], [28.598510777621414, 38.66831581747658]], [[28.596354820939524, 38.66346491494234], [28.596354820939524, 38.66454289328328], [28.595815831769045, 38.66454289328328], [28.595815831769045, 38.66400390411281], [28.595276842598565, 38.66400390411281], [28.595276842598565, 38.66346491494234], [28.596354820939524, 38.66346491494234]], [[28.592042907575745, 38.66238693660139], [28.592042907575745, 38.662925925771866], [28.590964929234786, 38.662925925771866], [28.590964929234786, 38.66238693660139], [28.592042907575745, 38.66238693660139]], [[28.594198864257635, 38.660230979919504], [28.594198864257635, 38.66130895826045], [28.593659875087155, 38.66130895826045], [28.593659875087155, 38.660230979919504], [28.594198864257635, 38.660230979919504]], [[28.597971788450934, 38.660230979919504], [28.597971788450934, 38.660769969089976], [28.597432799280455, 38.660769969089976], [28.597432799280455, 38.660230979919504], [28.597971788450934, 38.660230979919504]], [[28.593659875087155, 38.65969199074904], [28.593659875087155, 38.660230979919504], [28.593120885916676, 38.660230979919504], [28.593120885916676, 38.65969199074904], [28.593659875087155, 38.65969199074904]], [[28.593120885916676, 38.65915300157857], [28.593120885916676, 38.65969199074904], [28.592581896746225, 38.65969199074904], [28.592581896746225, 38.65915300157857], [28.593120885916676, 38.65915300157857]], [[28.596893810109975, 38.65915300157857], [28.596893810109975, 38.65969199074904], [28.596354820939524, 38.65969199074904], [28.596354820939524, 38.65915300157857], [28.596893810109975, 38.65915300157857]], [[28.588808972552897, 38.658614012408094], [28.588808972552897, 38.65915300157857], [28.588269983382446, 38.65915300157857], [28.588269983382446, 38.658614012408094], [28.588808972552897, 38.658614012408094]], [[28.590964929234786, 38.65699704489668], [28.590964929234786, 38.65753603406715], [28.590425940064335, 38.65753603406715], [28.590425940064335, 38.65699704489668], [28.590964929234786, 38.65699704489668]]]}, "properties": {"area_ha": 410.82284791142894, "mean_dnbr": 0.38098218853037946, "compactness": 0.041, "rectangularity": 0.429, "cropland_frac": 0.173, "persistent": true, "brightness_delta": -0.203}}, {"type": "Feature", "geometry": {"geodesic": false, "type": "Polygon", "coordinates": [[[28.71062052507952, 38.61064397623611], [28.71385446010234, 38.61064397623611], [28.71385446010234, 38.611182965406584], [28.7149324384433, 38.611182965406584], [28.7149324384433, 38.612799932917994], [28.71385446010234, 38.612799932917994], [28.71385446010234, 38.61387791125894], [28.71439344927282, 38.61387791125894], [28.71439344927282, 38.61441690042941], [28.71385446010234, 38.61441690042941], [28.71385446010234, 38.614955889599884], [28.71439344927282, 38.614955889599884], [28.71439344927282, 38.61603386794083], [28.71385446010234, 38.61603386794083], [28.71385446010234, 38.6165728571113], [28.71331547093189, 38.6165728571113], [28.71331547093189, 38.61603386794083], [28.71277648176141, 38.61603386794083], [28.71277648176141, 38.6165728571113], [28.71223749259093, 38.6165728571113], [28.71223749259093, 38.61711184628177], [28.71115951425, 38.61711184628177], [28.71115951425, 38.61765083545224], [28.70954254673856, 38.61765083545224], [28.70954254673856, 38.61818982462271], [28.70900355756811, 38.61818982462271], [28.70900355756811, 38.61711184628177], [28.70846456839763, 38.61711184628177], [28.70846456839763, 38.61765083545224], [28.70792557922715, 38.61765083545224], [28.70792557922715, 38.61818982462271], [28.70684760088622, 38.61818982462271], [28.70684760088622, 38.61765083545224], [28.70576962254526, 38.61765083545224], [28.70576962254526, 38.6165728571113], [28.70630861171574, 38.6165728571113], [28.70630861171574, 38.61603386794083], [28.70576962254526, 38.61603386794083], [28.70576962254526, 38.615494878770356], [28.70630861171574, 38.615494878770356], [28.70630861171574, 38.614955889599884], [28.70684760088622, 38.614955889599884], [28.70684760088622, 38.61387791125894], [28.7073865900567, 38.61387791125894], [28.7073865900567, 38.61333892208847], [28.70792557922715, 38.61333892208847], [28.70792557922715, 38.612799932917994], [28.70846456839763, 38.612799932917994], [28.70846456839763, 38.61226094374752], [28.70900355756811, 38.61226094374752], [28.70900355756811, 38.61172195457705], [28.71062052507952, 38.61172195457705], [28.71062052507952, 38.61064397623611]]]}, "properties": {"area_ha": 43.502616141072636, "mean_dnbr": 0.4953026454410557, "compactness": 0.357, "rectangularity": 0.651, "cropland_frac": 0.065, "persistent": true, "brightness_delta": -0.097}}, {"type": "Feature", "geometry": {"geodesic": false, "type": "Polygon", "coordinates": [[[28.870700308709615, 38.33468152095459], [28.872856265391505, 38.33468152095459], [28.872856265391505, 38.335759499295534], [28.873395254561984, 38.335759499295534], [28.873395254561984, 38.33629848846601], [28.873934243732435, 38.33629848846601], [28.873934243732435, 38.33737646680695], [28.873395254561984, 38.33737646680695], [28.873395254561984, 38.33899343431837], [28.873934243732435, 38.33899343431837], [28.873934243732435, 38.34007141265931], [28.874473232902915, 38.34007141265931], [28.874473232902915, 38.34168838017072], [28.875012222073394, 38.34168838017072], [28.875012222073394, 38.344383326023085], [28.873934243732435, 38.344383326023085], [28.873934243732435, 38.3460002935345], [28.875012222073394, 38.3460002935345], [28.875012222073394, 38.34653928270497], [28.875551211243874, 38.34653928270497], [28.875551211243874, 38.34761726104591], [28.875012222073394, 38.34761726104591], [28.875012222073394, 38.348695239386856], [28.876090200414325, 38.348695239386856], [28.876090200414325, 38.348156250216384], [28.876629189584804, 38.348156250216384], [28.876629189584804, 38.348695239386856], [28.877707167925735, 38.348695239386856], [28.877707167925735, 38.348156250216384], [28.878246157096214, 38.348156250216384], [28.878246157096214, 38.34707827187544], [28.878785146266694, 38.34707827187544], [28.878785146266694, 38.34761726104591], [28.879324135437173, 38.34761726104591], [28.879324135437173, 38.348156250216384], [28.880402113778104, 38.348156250216384], [28.880402113778104, 38.348695239386856], [28.879863124607624, 38.348695239386856], [28.879863124607624, 38.34923422855733], [28.881480092119062, 38.34923422855733], [28.881480092119062, 38.348695239386856], [28.882019081289513, 38.348695239386856], [28.882019081289513, 38.34923422855733], [28.882558070459993, 38.34923422855733], [28.882558070459993, 38.350851196068746], [28.882019081289513, 38.350851196068746], [28.882019081289513, 38.35031220689827], [28.881480092119062, 38.35031220689827], [28.881480092119062, 38.35139018523922], [28.880402113778104, 38.35139018523922], [28.880402113778104, 38.35192917440969], [28.879863124607624, 38.35192917440969], [28.879863124607624, 38.352468163580156], [28.881480092119062, 38.352468163580156], [28.881480092119062, 38.35300715275063], [28.882019081289513, 38.35300715275063], [28.882019081289513, 38.352468163580156], [28.882558070459993, 38.352468163580156], [28.882558070459993, 38.35300715275063], [28.883097059630472, 38.35300715275063], [28.883097059630472, 38.3535461419211], [28.883636048800923, 38.3535461419211], [28.883636048800923, 38.35300715275063], [28.884175037971403, 38.35300715275063], [28.884175037971403, 38.352468163580156], [28.884714027141882, 38.352468163580156], [28.884714027141882, 38.3535461419211], [28.88525301631236, 38.3535461419211], [28.88525301631236, 38.35408513109157], [28.884714027141882, 38.35408513109157], [28.884714027141882, 38.354624120262045], [28.884175037971403, 38.354624120262045], [28.884175037971403, 38.35516310943252], [28.884714027141882, 38.35516310943252], [28.884714027141882, 38.356780076943934], [28.88525301631236, 38.356780076943934], [28.88525301631236, 38.35731906611441], [28.883636048800923, 38.35731906611441], [28.883636048800923, 38.35785805528488], [28.884714027141882, 38.35785805528488], [28.884714027141882, 38.358397044455344], [28.88525301631236, 38.358397044455344], [28.88525301631236, 38.35893603362582], [28.885792005482813, 38.35893603362582], [28.885792005482813, 38.36001401196676], [28.88525301631236, 38.36001401196676], [28.88525301631236, 38.361091990307706], [28.883097059630472, 38.361091990307706], [28.883097059630472, 38.36163097947818], [28.882019081289513, 38.36163097947818], [28.882019081289513, 38.361091990307706], [28.880402113778104, 38.361091990307706], [28.880402113778104, 38.360553001137234], [28.879324135437173, 38.360553001137234], [28.879324135437173, 38.361091990307706], [28.878246157096214, 38.361091990307706], [28.878246157096214, 38.36163097947818], [28.875012222073394, 38.36163097947818], [28.875012222073394, 38.35947502279629], [28.874473232902915, 38.35947502279629], [28.874473232902915, 38.358397044455344], [28.873395254561984, 38.358397044455344], [28.873395254561984, 38.35785805528488], [28.871778287050546, 38.35785805528488], [28.871778287050546, 38.356780076943934], [28.871239297880095, 38.356780076943934], [28.871239297880095, 38.35624108777346], [28.875551211243874, 38.35624108777346], [28.875551211243874, 38.35570209860299], [28.875012222073394, 38.35570209860299], [28.875012222073394, 38.35516310943252], [28.874473232902915, 38.35516310943252], [28.874473232902915, 38.35570209860299], [28.873934243732435, 38.35570209860299], [28.873934243732435, 38.35516310943252], [28.873395254561984, 38.35516310943252], [28.873395254561984, 38.354624120262045], [28.872856265391505, 38.354624120262045], [28.872856265391505, 38.3535461419211], [28.873395254561984, 38.3535461419211], [28.873395254561984, 38.35300715275063], [28.872856265391505, 38.35300715275063], [28.872856265391505, 38.352468163580156], [28.872317276221025, 38.352468163580156], [28.872317276221025, 38.35192917440969], [28.871778287050546, 38.35192917440969], [28.871778287050546, 38.35139018523922], [28.871239297880095, 38.35139018523922], [28.871239297880095, 38.350851196068746], [28.870700308709615, 38.350851196068746], [28.870700308709615, 38.35031220689827], [28.871239297880095, 38.35031220689827], [28.871239297880095, 38.3497732177278], [28.871778287050546, 38.3497732177278], [28.871778287050546, 38.34923422855733], [28.871239297880095, 38.34923422855733], [28.871239297880095, 38.348695239386856], [28.870161319539136, 38.348695239386856], [28.870161319539136, 38.34761726104591], [28.867466373686796, 38.34761726104591], [28.867466373686796, 38.348156250216384], [28.866927384516316, 38.348156250216384], [28.866927384516316, 38.34761726104591], [28.865849406175357, 38.34761726104591], [28.865849406175357, 38.34653928270497], [28.865310417004906, 38.34653928270497], [28.865310417004906, 38.3460002935345], [28.864771427834427, 38.3460002935345], [28.864771427834427, 38.34653928270497], [28.864232438663947, 38.34653928270497], [28.864232438663947, 38.34546130436403], [28.864771427834427, 38.34546130436403], [28.864771427834427, 38.344383326023085], [28.863693449493496, 38.344383326023085], [28.863693449493496, 38.34384433685261], [28.863154460323017, 38.34384433685261], [28.863154460323017, 38.342227369341195], [28.862615471152537, 38.342227369341195], [28.862615471152537, 38.34114939100025], [28.860459514470648, 38.34114939100025], [28.860459514470648, 38.34061040182978], [28.85992052530017, 38.34061040182978], [28.85992052530017, 38.34114939100025], [28.859381536129717, 38.34114939100025], [28.859381536129717, 38.34061040182978], [28.85992052530017, 38.34061040182978], [28.85992052530017, 38.34007141265931], [28.859381536129717, 38.34007141265931], [28.859381536129717, 38.33953242348884], [28.85992052530017, 38.33953242348884], [28.85992052530017, 38.33899343431837], [28.860459514470648, 38.33899343431837], [28.860459514470648, 38.33953242348884], [28.860998503641127, 38.33953242348884], [28.860998503641127, 38.34007141265931], [28.861537492811607, 38.34007141265931], [28.861537492811607, 38.33899343431837], [28.862076481982058, 38.33899343431837], [28.862076481982058, 38.338454445147896], [28.861537492811607, 38.338454445147896], [28.861537492811607, 38.337915455977424], [28.862076481982058, 38.337915455977424], [28.862076481982058, 38.338454445147896], [28.862615471152537, 38.338454445147896], [28.862615471152537, 38.337915455977424], [28.863154460323017, 38.337915455977424], [28.863154460323017, 38.33683747763648], [28.862615471152537, 38.33683747763648], [28.862615471152537, 38.33629848846601], [28.863154460323017, 38.33629848846601], [28.863154460323017, 38.33683747763648], [28.864232438663947, 38.33683747763648], [28.864232438663947, 38.335759499295534], [28.863693449493496, 38.335759499295534], [28.863693449493496, 38.33468152095459], [28.864232438663947, 38.33468152095459], [28.864232438663947, 38.335759499295534], [28.864771427834427, 38.335759499295534], [28.864771427834427, 38.33522051012506], [28.866388395345837, 38.33522051012506], [28.866388395345837, 38.33468152095459], [28.867466373686796, 38.33468152095459], [28.867466373686796, 38.33522051012506], [28.868005362857247, 38.33522051012506], [28.868005362857247, 38.335759499295534], [28.869083341198206, 38.335759499295534], [28.869083341198206, 38.33629848846601], [28.870161319539136, 38.33629848846601], [28.870161319539136, 38.335759499295534], [28.870700308709615, 38.335759499295534], [28.870700308709615, 38.33468152095459]], [[28.88525301631236, 38.35947502279629], [28.88525301631236, 38.36001401196676], [28.884714027141882, 38.36001401196676], [28.884714027141882, 38.35947502279629], [28.88525301631236, 38.35947502279629]], [[28.875012222073394, 38.3535461419211], [28.875012222073394, 38.35408513109157], [28.874473232902915, 38.35408513109157], [28.874473232902915, 38.3535461419211], [28.875012222073394, 38.3535461419211]], [[28.875012222073394, 38.350851196068746], [28.875012222073394, 38.35139018523922], [28.873934243732435, 38.35139018523922], [28.873934243732435, 38.350851196068746], [28.875012222073394, 38.350851196068746]], [[28.864232438663947, 38.342227369341195], [28.864232438663947, 38.34276635851167], [28.864771427834427, 38.34276635851167], [28.864771427834427, 38.34330534768214], [28.863693449493496, 38.34330534768214], [28.863693449493496, 38.342227369341195], [28.864232438663947, 38.342227369341195]], [[28.863693449493496, 38.34114939100025], [28.863693449493496, 38.34168838017072], [28.863154460323017, 38.34168838017072], [28.863154460323017, 38.34114939100025], [28.863693449493496, 38.34114939100025]], [[28.860459514470648, 38.33953242348884], [28.860459514470648, 38.34007141265931], [28.85992052530017, 38.34007141265931], [28.85992052530017, 38.33953242348884], [28.860459514470648, 38.33953242348884]], [[28.865310417004906, 38.33683747763648], [28.865310417004906, 38.337915455977424], [28.864232438663947, 38.337915455977424], [28.864232438663947, 38.33683747763648], [28.865310417004906, 38.33683747763648]]]}, "properties": {"area_ha": 269.3059913429761, "mean_dnbr": 0.37209673573951607, "compactness": 0.1, "rectangularity": 0.564, "cropland_frac": 0.186, "persistent": true, "brightness_delta": -0.313}}]}