{"type": "FeatureCollection", "crs": {"type": "name", "properties": {"name": "urn:ogc:def:crs:OGC:1.3:CRS84"}}, "features": [{"type": "Feature", "geometry": {"geodesic": false, "type": "Polygon", "coordinates": [[[28.24331691428054, 39.64334722685991], [28.24439489262147, 39.64334722685991], [28.24439489262147, 39.64388621603038], [28.24385590345102, 39.64388621603038], [28.24385590345102, 39.644425205200854], [28.24439489262147, 39.644425205200854], [28.24439489262147, 39.644964194371326], [28.24493388179195, 39.644964194371326], [28.24493388179195, 39.6455031835418], [28.24439489262147, 39.6455031835418], [28.24439489262147, 39.64604217271227], [28.24331691428054, 39.64604217271227], [28.24331691428054, 39.647120151053215], [28.24277792511006, 39.647120151053215], [28.24277792511006, 39.648737118564625], [28.24169994676913, 39.648737118564625], [28.24169994676913, 39.6492761077351], [28.24223893593961, 39.6492761077351], [28.24223893593961, 39.64981509690557], [28.24116095759865, 39.64981509690557], [28.24116095759865, 39.65035408607604], [28.240621968428172, 39.65035408607604], [28.240621968428172, 39.650893075246515], [28.24008297925772, 39.650893075246515], [28.24008297925772, 39.65197105358746], [28.240621968428172, 39.65197105358746], [28.240621968428172, 39.65412701026935], [28.237388033405352, 39.65412701026935], [28.237388033405352, 39.654665999439814], [28.236310055064422, 39.654665999439814], [28.236310055064422, 39.65412701026935], [28.235771065893942, 39.65412701026935], [28.235771065893942, 39.65358802109888], [28.234693087552984, 39.65358802109888], [28.234693087552984, 39.653049031928404], [28.232537130871094, 39.653049031928404], [28.232537130871094, 39.65358802109888], [28.230920163359684, 39.65358802109888], [28.230920163359684, 39.653049031928404], [28.231459152530164, 39.653049031928404], [28.231459152530164, 39.65251004275793], [28.230920163359684, 39.65251004275793], [28.230920163359684, 39.65197105358746], [28.227147239166385, 39.65197105358746], [28.227147239166385, 39.65251004275793], [28.226608249995905, 39.65251004275793], [28.226608249995905, 39.65197105358746], [28.226069260825454, 39.65197105358746], [28.226069260825454, 39.65143206441699], [28.225530271654975, 39.65143206441699], [28.225530271654975, 39.65197105358746], [28.224991282484496, 39.65197105358746], [28.224991282484496, 39.65143206441699], [28.223374314973086, 39.65143206441699], [28.223374314973086, 39.650893075246515], [28.222835325802606, 39.650893075246515], [28.222835325802606, 39.65035408607604], [28.222296336632155, 39.65035408607604], [28.222296336632155, 39.65143206441699], [28.221757347461676, 39.65143206441699], [28.221757347461676, 39.64981509690557], [28.221218358291196, 39.64981509690557], [28.221218358291196, 39.648737118564625], [28.222296336632155, 39.648737118564625], [28.222296336632155, 39.64819812939416], [28.223374314973086, 39.64819812939416], [28.223374314973086, 39.648737118564625], [28.223913304143565, 39.648737118564625], [28.223913304143565, 39.64819812939416], [28.224452293314044, 39.64819812939416], [28.224452293314044, 39.647120151053215], [28.223913304143565, 39.647120151053215], [28.223913304143565, 39.64604217271227], [28.224452293314044, 39.64604217271227], [28.224452293314044, 39.644964194371326], [28.227686228336864, 39.644964194371326], [28.227686228336864, 39.6455031835418], [28.229303195848274, 39.6455031835418], [28.229303195848274, 39.64604217271227], [28.229842185018754, 39.64604217271227], [28.229842185018754, 39.6455031835418], [28.231459152530164, 39.6455031835418], [28.231459152530164, 39.64658116188274], [28.230920163359684, 39.64658116188274], [28.230920163359684, 39.647120151053215], [28.230381174189233, 39.647120151053215], [28.230381174189233, 39.64819812939416], [28.230920163359684, 39.64819812939416], [28.230920163359684, 39.64765914022369], [28.231459152530164, 39.64765914022369], [28.231459152530164, 39.647120151053215], [28.231998141700643, 39.647120151053215], [28.231998141700643, 39.64765914022369], [28.232537130871094, 39.64765914022369], [28.232537130871094, 39.64819812939416], [28.233076120041574, 39.64819812939416], [28.233076120041574, 39.648737118564625], [28.234154098382533, 39.648737118564625], [28.234154098382533, 39.65035408607604], [28.233615109212053, 39.65035408607604], [28.233615109212053, 39.650893075246515], [28.234693087552984, 39.650893075246515], [28.234693087552984, 39.65143206441699], [28.235232076723463, 39.65143206441699], [28.235232076723463, 39.65197105358746], [28.237927022575832, 39.65197105358746], [28.237927022575832, 39.65143206441699], [28.237388033405352, 39.65143206441699], [28.237388033405352, 39.650893075246515], [28.235771065893942, 39.650893075246515], [28.235771065893942, 39.64981509690557], [28.235232076723463, 39.64981509690557], [28.235232076723463, 39.648737118564625], [28.234693087552984, 39.648737118564625], [28.234693087552984, 39.64819812939416], [28.235232076723463, 39.64819812939416], [28.235232076723463, 39.648737118564625], [28.236310055064422, 39.648737118564625], [28.236310055064422, 39.64765914022369], [28.236849044234873, 39.64765914022369], [28.236849044234873, 39.64819812939416], [28.238466011746283, 39.64819812939416], [28.238466011746283, 39.64765914022369], [28.239005000916762, 39.64765914022369], [28.239005000916762, 39.647120151053215], [28.24008297925772, 39.647120151053215], [28.24008297925772, 39.64604217271227], [28.239543990087242, 39.64604217271227], [28.239543990087242, 39.64658116188274], [28.239005000916762, 39.64658116188274], [28.239005000916762, 39.64604217271227], [28.238466011746283, 39.64604217271227], [28.238466011746283, 39.6455031835418], [28.240621968428172, 39.6455031835418], [28.240621968428172, 39.644425205200854], [28.24169994676913, 39.644425205200854], [28.24169994676913, 39.64388621603038], [28.24331691428054, 39.64388621603038], [28.24331691428054, 39.64334722685991]], [[28.226069260825454, 39.64981509690557], [28.226069260825454, 39.65035408607604], [28.225530271654975, 39.65035408607604], [28.225530271654975, 39.64981509690557], [28.226069260825454, 39.64981509690557]], [[28.228764206677795, 39.64981509690557], [28.228764206677795, 39.65035408607604], [28.227686228336864, 39.65035408607604], [28.227686228336864, 39.64981509690557], [28.228764206677795, 39.64981509690557]], [[28.227147239166385, 39.64819812939416], [28.227147239166385, 39.648737118564625], [28.226608249995905, 39.648737118564625], [28.226608249995905, 39.64819812939416], [28.227147239166385, 39.64819812939416]], [[28.24116095759865, 39.647120151053215], [28.24116095759865, 39.64765914022369], [28.240621968428172, 39.64765914022369], [28.240621968428172, 39.647120151053215], [28.24116095759865, 39.647120151053215]], [[28.226069260825454, 39.6455031835418], [28.226069260825454, 39.64604217271227], [28.225530271654975, 39.64604217271227], [28.225530271654975, 39.6455031835418], [28.226069260825454, 39.6455031835418]], [[28.24385590345102, 39.644425205200854], [28.24385590345102, 39.644964194371326], [28.24331691428054, 39.644964194371326], [28.24331691428054, 39.644425205200854], [28.24385590345102, 39.644425205200854]]]}, "properties": {"area_ha": 111.45689412771584, "mean_dnbr": 0.3882940240757417, "compactness": 0.09, "rectangularity": 0.449, "cropland_frac": 0.109, "persistent": true, "brightness_delta": -0.217}}, {"type": "Feature", "geometry": {"geodesic": false, "type": "Polygon", "coordinates": [[[28.29829380966865, 38.9194847709164], [28.29937178800961, 38.9194847709164], [28.29937178800961, 38.92002376008687], [28.30098875552102, 38.92002376008687], [28.30098875552102, 38.923257695109704], [28.29937178800961, 38.923257695109704], [28.29937178800961, 38.92271870593923], [28.29883279883913, 38.92271870593923], [28.29883279883913, 38.92217971676876], [28.29829380966865, 38.92217971676876], [28.29829380966865, 38.921101738427815], [28.29775482049817, 38.921101738427815], [28.29775482049817, 38.92056274925734], [28.29829380966865, 38.92056274925734], [28.29829380966865, 38.9194847709164]], [[28.29991077718006, 38.921101738427815], [28.29991077718006, 38.92217971676876], [28.29937178800961, 38.92217971676876], [28.29937178800961, 38.92164072759829], [28.29883279883913, 38.92164072759829], [28.29883279883913, 38.921101738427815], [28.29991077718006, 38.921101738427815]]]}, "properties": {"area_ha": 7.545350783150376, "mean_dnbr": 0.27507727610776467, "compactness": 0.285, "rectangularity": 0.643, "cropland_frac": 0, "persistent": true, "brightness_delta": -0.157}}, {"type": "Feature", "geometry": {"geodesic": false, "type": "Polygon", "coordinates": [[[28.33817900828356, 39.584597407278494], [28.33871799745404, 39.584597407278494], [28.33871799745404, 39.585136396448966], [28.33817900828356, 39.585136396448966], [28.33817900828356, 39.58621437478991], [28.33871799745404, 39.58621437478991], [28.33871799745404, 39.58675336396038], [28.33817900828356, 39.58675336396038], [28.33817900828356, 39.587292353130856], [28.33764001911308, 39.587292353130856], [28.33764001911308, 39.58783134230133], [28.33710102994263, 39.58783134230133], [28.33710102994263, 39.585136396448966], [28.33817900828356, 39.585136396448966], [28.33817900828356, 39.584597407278494]]]}, "properties": {"area_ha": 3.0450187682006233, "mean_dnbr": 0.4534180846232096, "compactness": 0.323, "rectangularity": 0.611, "cropland_frac": 0, "persistent": true, "brightness_delta": -0.065}}, {"type": "Feature", "geometry": {"geodesic": false, "type": "Polygon", "coordinates": [[[28.369440380170914, 38.78096455410517], [28.369979369341394, 38.78096455410517], [28.369979369341394, 38.78150354327564], [28.370518358511873, 38.78150354327564], [28.370518358511873, 38.782581521616585], [28.369440380170914, 38.782581521616585], [28.369440380170914, 38.78365949995753], [28.368901391000463, 38.78365949995753], [28.368901391000463, 38.782581521616585], [28.366745434318574, 38.782581521616585], [28.366745434318574, 38.78204253244611], [28.367284423489025, 38.78204253244611], [28.367284423489025, 38.78150354327564], [28.369440380170914, 38.78150354327564], [28.369440380170914, 38.78096455410517]]]}, "properties": {"area_ha": 4.480078975761256, "mean_dnbr": 0.6277548256845787, "compactness": 0.358, "rectangularity": 0.484, "cropland_frac": 0.007, "persistent": true, "brightness_delta": -0.435}}]}