{"type": "FeatureCollection", "crs": {"type": "name", "properties": {"name": "urn:ogc:def:crs:OGC:1.3:CRS84"}}, "features": [{"type": "Feature", "geometry": {"geodesic": false, "type": "Polygon", "coordinates": [[[28.354348683397717, 37.81455697144939], [28.355965650909127, 37.81455697144939], [28.355965650909127, 37.815634949790336], [28.355426661738647, 37.815634949790336], [28.355426661738647, 37.81779090647222], [28.356504640079606, 37.81779090647222], [28.356504640079606, 37.81886888481316], [28.357043629250086, 37.81886888481316], [28.357043629250086, 37.82102484149505], [28.356504640079606, 37.82102484149505], [28.356504640079606, 37.821563830665525], [28.355965650909127, 37.821563830665525], [28.355965650909127, 37.82210281983599], [28.356504640079606, 37.82210281983599], [28.356504640079606, 37.82264180900646], [28.355965650909127, 37.82264180900646], [28.355965650909127, 37.823180798176935], [28.355426661738647, 37.823180798176935], [28.355426661738647, 37.82371978734741], [28.354348683397717, 37.82371978734741], [28.354348683397717, 37.823180798176935], [28.353809694227238, 37.823180798176935], [28.353809694227238, 37.82425877651788], [28.353270705056758, 37.82425877651788], [28.353270705056758, 37.82479776568835], [28.350575759204418, 37.82479776568835], [28.350575759204418, 37.8258757440293], [28.348958791693008, 37.8258757440293], [28.348958791693008, 37.82641473319977], [28.34841980252253, 37.82641473319977], [28.34841980252253, 37.8258757440293], [28.34788081335205, 37.8258757440293], [28.34788081335205, 37.825336754858824], [28.34841980252253, 37.825336754858824], [28.34841980252253, 37.82264180900646], [28.348958791693008, 37.82264180900646], [28.348958791693008, 37.82210281983599], [28.350036770033938, 37.82210281983599], [28.350036770033938, 37.82048585232458], [28.350575759204418, 37.82048585232458], [28.350575759204418, 37.81994686315411], [28.351114748374897, 37.81994686315411], [28.351114748374897, 37.81832989564269], [28.351653737545348, 37.81832989564269], [28.351653737545348, 37.81779090647222], [28.351114748374897, 37.81779090647222], [28.351114748374897, 37.816712928131274], [28.351653737545348, 37.816712928131274], [28.351653737545348, 37.8161739389608], [28.352192726715828, 37.8161739389608], [28.352192726715828, 37.815634949790336], [28.353270705056758, 37.815634949790336], [28.353270705056758, 37.815095960619864], [28.354348683397717, 37.815095960619864], [28.354348683397717, 37.81455697144939]], [[28.350575759204418, 37.82371978734741], [28.350575759204418, 37.82425877651788], [28.350036770033938, 37.82425877651788], [28.350036770033938, 37.82371978734741], [28.350575759204418, 37.82371978734741]], [[28.354887672568196, 37.81886888481316], [28.354887672568196, 37.819407873983636], [28.354348683397717, 37.819407873983636], [28.354348683397717, 37.81886888481316], [28.354887672568196, 37.81886888481316]]]}, "properties": {"area_ha": 54.76201777546548, "mean_dnbr": 0.42451122506781763, "compactness": 0.267, "rectangularity": 0.559, "cropland_frac": 0.007, "persistent": true, "brightness_delta": -0.242}}, {"type": "Feature", "geometry": {"geodesic": false, "type": "Polygon", "coordinates": [[[28.39207792533074, 37.7229288124692], [28.392616914501218, 37.7229288124692], [28.392616914501218, 37.724006790810144], [28.39315590367167, 37.724006790810144], [28.39315590367167, 37.7267017366625], [28.39369489284215, 37.7267017366625], [28.39369489284215, 37.730474660855805], [28.394233882012628, 37.730474660855805], [28.394233882012628, 37.73370859587863], [28.39369489284215, 37.73370859587863], [28.39369489284215, 37.73478657421958], [28.39099994698978, 37.73478657421958], [28.39099994698978, 37.73532556339005], [28.39046095781933, 37.73532556339005], [28.39046095781933, 37.73478657421958], [28.38938297947837, 37.73478657421958], [28.38938297947837, 37.73532556339005], [28.38884399030789, 37.73532556339005], [28.38884399030789, 37.73640354173099], [28.38830500113744, 37.73640354173099], [28.38830500113744, 37.736942530901466], [28.3829151094327, 37.736942530901466], [28.3829151094327, 37.73532556339005], [28.38345409860318, 37.73532556339005], [28.38345409860318, 37.734247585049104], [28.3829151094327, 37.734247585049104], [28.3829151094327, 37.73316960670816], [28.38345409860318, 37.73316960670816], [28.38345409860318, 37.73263061753769], [28.38399308777366, 37.73263061753769], [28.38399308777366, 37.73155263919674], [28.38345409860318, 37.73155263919674], [28.38345409860318, 37.72939668251486], [28.38399308777366, 37.72939668251486], [28.38399308777366, 37.72885769334439], [28.38453207694414, 37.72885769334439], [28.38453207694414, 37.728318704173915], [28.38507106611459, 37.728318704173915], [28.38507106611459, 37.72724072583297], [28.38668803362603, 37.72724072583297], [28.38668803362603, 37.7267017366625], [28.38776601196696, 37.7267017366625], [28.38776601196696, 37.726162747492026], [28.38830500113744, 37.726162747492026], [28.38830500113744, 37.725623758321554], [28.38884399030789, 37.725623758321554], [28.38884399030789, 37.72508476915109], [28.38992196864885, 37.72508476915109], [28.38992196864885, 37.724545779980616], [28.39046095781933, 37.724545779980616], [28.39046095781933, 37.724006790810144], [28.39153893616026, 37.724006790810144], [28.39153893616026, 37.72346780163967], [28.39207792533074, 37.72346780163967], [28.39207792533074, 37.7229288124692]], [[28.38938297947837, 37.73263061753769], [28.38938297947837, 37.73316960670816], [28.38884399030789, 37.73316960670816], [28.38884399030789, 37.73263061753769], [28.38938297947837, 37.73263061753769]], [[28.39046095781933, 37.730474660855805], [28.39046095781933, 37.73101365002628], [28.38992196864885, 37.73101365002628], [28.38992196864885, 37.730474660855805], [28.39046095781933, 37.730474660855805]], [[28.38830500113744, 37.7267017366625], [28.38830500113744, 37.728318704173915], [28.38776601196696, 37.728318704173915], [28.38776601196696, 37.7267017366625], [28.38830500113744, 37.7267017366625]]]}, "properties": {"area_ha": 101.1345011333617, "mean_dnbr": 0.35587834565233345, "compactness": 0.32, "rectangularity": 0.652, "cropland_frac": 0.0, "persistent": true, "brightness_delta": -0.064}}]}