{"type": "FeatureCollection", "crs": {"type": "name", "properties": {"name": "urn:ogc:def:crs:OGC:1.3:CRS84"}}, "features": [{"type": "Feature", "geometry": {"geodesic": false, "type": "Polygon", "coordinates": [[[29.96377034642626, 36.93115372104625], [29.967543270619558, 36.93115372104625], [29.967543270619558, 36.93169271021672], [29.96862124896049, 36.93169271021672], [29.96862124896049, 36.93277068855767], [29.967543270619558, 36.93277068855767], [29.967543270619558, 36.932231699387195], [29.96430933559671, 36.932231699387195], [29.96430933559671, 36.93169271021672], [29.96377034642626, 36.93169271021672], [29.96377034642626, 36.93115372104625]]]}, "properties": {"area_ha": 4.881085030660349, "mean_dnbr": 0.3639457321266363, "compactness": 0.411, "rectangularity": 0.63, "cropland_frac": 0, "persistent": null, "brightness_delta": -0.028}}, {"type": "Feature", "geometry": {"geodesic": false, "type": "Polygon", "coordinates": [[[30.249973595946727, 36.636326644798224], [30.251590563458137, 36.636326644798224], [30.251590563458137, 36.63740462313917], [30.252129552628617, 36.63740462313917], [30.252129552628617, 36.63794361230964], [30.251590563458137, 36.63794361230964], [30.251590563458137, 36.63848260148011], [30.249973595946727, 36.63848260148011], [30.249973595946727, 36.639021590650586], [30.248895617605797, 36.639021590650586], [30.248895617605797, 36.63794361230964], [30.249973595946727, 36.63794361230964], [30.249973595946727, 36.636326644798224]]]}, "properties": {"area_ha": 4.899869580242432, "mean_dnbr": 0.2957398499317618, "compactness": 0.445, "rectangularity": 0.567, "cropland_frac": 0, "persistent": null, "brightness_delta": 0.046}}, {"type": "Feature", "geometry": {"geodesic": false, "type": "Polygon", "coordinates": [[[30.261831357697105, 36.64333350401436], [30.262909336038064, 36.64333350401436], [30.262909336038064, 36.64387249318483], [30.262370346867584, 36.64387249318483], [30.262370346867584, 36.6444114823553], [30.261831357697105, 36.6444114823553], [30.261831357697105, 36.644950471525775], [30.262370346867584, 36.644950471525775], [30.262370346867584, 36.64548946069625], [30.261292368526625, 36.64548946069625], [30.261292368526625, 36.64602844986672], [30.260753379356174, 36.64602844986672], [30.260753379356174, 36.64548946069625], [30.260214390185695, 36.64548946069625], [30.260214390185695, 36.6444114823553], [30.261292368526625, 36.6444114823553], [30.261292368526625, 36.64387249318483], [30.261831357697105, 36.64387249318483], [30.261831357697105, 36.64333350401436]]]}, "properties": {"area_ha": 3.4584162002153693, "mean_dnbr": 0.21761952161708004, "compactness": 0.314, "rectangularity": 0.48, "cropland_frac": 0, "persistent": null, "brightness_delta": 0.023}}, {"type": "Feature", "geometry": {"geodesic": false, "type": "Polygon", "coordinates": [[[30.312496339721434, 36.67028296253795], [30.313035328891914, 36.67028296253795], [30.313035328891914, 36.67082195170841], [30.313574318062393, 36.67082195170841], [30.313574318062393, 36.67243891921983], [30.314113307232873, 36.67243891921983], [30.314113307232873, 36.67351689756077], [30.313035328891914, 36.67351689756077], [30.313035328891914, 36.674055886731246], [30.314113307232873, 36.674055886731246], [30.314113307232873, 36.67459487590172], [30.312496339721434, 36.67459487590172], [30.312496339721434, 36.67351689756077], [30.313035328891914, 36.67351689756077], [30.313035328891914, 36.6729779083903], [30.310340383039573, 36.6729779083903], [30.310340383039573, 36.671899930049356], [30.309801393869094, 36.671899930049356], [30.309801393869094, 36.671360940878884], [30.309262404698615, 36.671360940878884], [30.309262404698615, 36.67082195170841], [30.309801393869094, 36.67082195170841], [30.309801393869094, 36.671360940878884], [30.310340383039573, 36.671360940878884], [30.310340383039573, 36.67082195170841], [30.310879372210024, 36.67082195170841], [30.310879372210024, 36.67028296253795], [30.311418361380504, 36.67028296253795], [30.311418361380504, 36.67082195170841], [30.312496339721434, 36.67082195170841], [30.312496339721434, 36.67028296253795]], [[30.313574318062393, 36.67243891921983], [30.313574318062393, 36.6729779083903], [30.313035328891914, 36.6729779083903], [30.313035328891914, 36.67243891921983], [30.313574318062393, 36.67243891921983]]]}, "properties": {"area_ha": 9.795368515837632, "mean_dnbr": 0.49274541239612024, "compactness": 0.187, "rectangularity": 0.472, "cropland_frac": 0, "persistent": null, "brightness_delta": -0.0}}, {"type": "Feature", "geometry": {"geodesic": false, "type": "Polygon", "coordinates": [[[30.33082197151748, 36.86108512888493], [30.33136096068796, 36.86108512888493], [30.33136096068796, 36.8616241180554], [30.33082197151748, 36.8616241180554], [30.33082197151748, 36.86270209639635], [30.3265100581537, 36.86270209639635], [30.3265100581537, 36.862163107225875], [30.32381511230136, 36.862163107225875], [30.32381511230136, 36.8616241180554], [30.322737133960402, 36.8616241180554], [30.322737133960402, 36.86108512888493], [30.324354101471812, 36.86108512888493], [30.324354101471812, 36.8616241180554], [30.32812702566514, 36.8616241180554], [30.32812702566514, 36.862163107225875], [30.330282982347, 36.862163107225875], [30.330282982347, 36.8616241180554], [30.33082197151748, 36.8616241180554], [30.33082197151748, 36.86108512888493]]]}, "properties": {"area_ha": 6.035132797065165, "mean_dnbr": 0.2427791011809213, "compactness": 0.167, "rectangularity": 0.438, "cropland_frac": 0, "persistent": null, "brightness_delta": 0.012}}, {"type": "Feature", "geometry": {"geodesic": false, "type": "Polygon", "coordinates": [[[30.33082197151748, 36.86701400976012], [30.33189994985844, 36.86701400976012], [30.33189994985844, 36.86755299893059], [30.33405590654033, 36.86755299893059], [30.33405590654033, 36.868091988101064], [30.33243893902889, 36.868091988101064], [30.33243893902889, 36.868630977271536], [30.33189994985844, 36.868630977271536], [30.33189994985844, 36.868091988101064], [30.33136096068796, 36.868091988101064], [30.33136096068796, 36.868630977271536], [30.33082197151748, 36.868630977271536], [30.33082197151748, 36.868091988101064], [30.32920500400607, 36.868091988101064], [30.32920500400607, 36.86701400976012], [30.330282982347, 36.86701400976012], [30.330282982347, 36.86755299893059], [30.33082197151748, 36.86755299893059], [30.33082197151748, 36.86701400976012]]]}, "properties": {"area_ha": 4.310465673814911, "mean_dnbr": 0.2291371842146998, "compactness": 0.253, "rectangularity": 0.556, "cropland_frac": 0, "persistent": null, "brightness_delta": 0.014}}, {"type": "Feature", "geometry": {"geodesic": false, "type": "Polygon", "coordinates": [[[30.33405590654033, 36.83197971367946], [30.33459489571078, 36.83197971367946], [30.33459489571078, 36.83251870284993], [30.33405590654033, 36.83251870284993], [30.33405590654033, 36.833057692020404], [30.33351691736985, 36.833057692020404], [30.33351691736985, 36.83413567036134], [30.33297792819937, 36.83413567036134], [30.33297792819937, 36.835213648702286], [30.33189994985844, 36.835213648702286], [30.33189994985844, 36.83629162704323], [30.33136096068796, 36.83629162704323], [30.33136096068796, 36.83575263787276], [30.33082197151748, 36.83575263787276], [30.33082197151748, 36.835213648702286], [30.33136096068796, 36.835213648702286], [30.33136096068796, 36.834674659531814], [30.330282982347, 36.834674659531814], [30.330282982347, 36.83359668119087], [30.33082197151748, 36.83359668119087], [30.33082197151748, 36.83413567036134], [30.33243893902889, 36.83413567036134], [30.33243893902889, 36.83359668119087], [30.33297792819937, 36.83359668119087], [30.33297792819937, 36.833057692020404], [30.33351691736985, 36.833057692020404], [30.33351691736985, 36.83251870284993], [30.33405590654033, 36.83251870284993], [30.33405590654033, 36.83197971367946]]]}, "properties": {"area_ha": 4.887331494796753, "mean_dnbr": 0.22981918089357148, "compactness": 0.163, "rectangularity": 0.299, "cropland_frac": 0, "persistent": null, "brightness_delta": 0.007}}, {"type": "Feature", "geometry": {"geodesic": false, "type": "Polygon", "coordinates": [[[30.33728984156315, 36.841142529577475], [30.33836781990408, 36.841142529577475], [30.33836781990408, 36.84168151874795], [30.338906809074558, 36.84168151874795], [30.338906809074558, 36.84222050791842], [30.33836781990408, 36.84222050791842], [30.33836781990408, 36.84168151874795], [30.337828830733628, 36.84168151874795], [30.337828830733628, 36.84222050791842], [30.33728984156315, 36.84222050791842], [30.33728984156315, 36.84275949708889], [30.33621186322219, 36.84275949708889], [30.33621186322219, 36.84222050791842], [30.33513388488126, 36.84222050791842], [30.33513388488126, 36.84275949708889], [30.33351691736985, 36.84275949708889], [30.33351691736985, 36.84222050791842], [30.33405590654033, 36.84222050791842], [30.33405590654033, 36.84168151874795], [30.33621186322219, 36.84168151874795], [30.33621186322219, 36.84222050791842], [30.33675085239267, 36.84222050791842], [30.33675085239267, 36.84168151874795], [30.33728984156315, 36.84168151874795], [30.33728984156315, 36.841142529577475]]]}, "properties": {"area_ha": 4.024452563987294, "mean_dnbr": 0.2667191674697783, "compactness": 0.18, "rectangularity": 0.467, "cropland_frac": 0, "persistent": null, "brightness_delta": -0.049}}, {"type": "Feature", "geometry": {"geodesic": false, "type": "Polygon", "coordinates": [[[30.345913668290706, 36.85515624800974], [30.346991646631636, 36.85515624800974], [30.346991646631636, 36.855695237180214], [30.349147603313526, 36.855695237180214], [30.349147603313526, 36.856234226350686], [30.349686592484005, 36.856234226350686], [30.349686592484005, 36.855695237180214], [30.350225581654456, 36.855695237180214], [30.350225581654456, 36.85677321552116], [30.348069624972567, 36.85677321552116], [30.348069624972567, 36.857851193862096], [30.346452657461157, 36.857851193862096], [30.346452657461157, 36.857312204691624], [30.345374679120226, 36.857312204691624], [30.345374679120226, 36.85677321552116], [30.346452657461157, 36.85677321552116], [30.346452657461157, 36.857312204691624], [30.346991646631636, 36.857312204691624], [30.346991646631636, 36.85677321552116], [30.347530635802116, 36.85677321552116], [30.347530635802116, 36.856234226350686], [30.346452657461157, 36.856234226350686], [30.346452657461157, 36.855695237180214], [30.345913668290706, 36.855695237180214], [30.345913668290706, 36.85515624800974]]]}, "properties": {"area_ha": 5.748139591276982, "mean_dnbr": 0.37450206922942664, "compactness": 0.182, "rectangularity": 0.449, "cropland_frac": 0, "persistent": null, "brightness_delta": -0.038}}, {"type": "Feature", "geometry": {"geodesic": false, "type": "Polygon", "coordinates": [[[30.3798699860304, 36.874559858146725], [30.38040897520088, 36.874559858146725], [30.38040897520088, 36.8750988473172], [30.38202594271229, 36.8750988473172], [30.38202594271229, 36.87563783648766], [30.383103921053248, 36.87563783648766], [30.383103921053248, 36.8750988473172], [30.38418189939418, 36.8750988473172], [30.38418189939418, 36.87563783648766], [30.383642910223728, 36.87563783648766], [30.383642910223728, 36.87671581482861], [30.383103921053248, 36.87671581482861], [30.383103921053248, 36.87725480399908], [30.38256493188277, 36.87725480399908], [30.38256493188277, 36.87779379316955], [30.38040897520088, 36.87779379316955], [30.38040897520088, 36.87671581482861], [30.37933099685995, 36.87671581482861], [30.37933099685995, 36.87563783648766], [30.37825301851899, 36.87563783648766], [30.37825301851899, 36.8750988473172], [30.37879200768947, 36.8750988473172], [30.37879200768947, 36.874559858146725], [30.37933099685995, 36.874559858146725], [30.37933099685995, 36.8750988473172], [30.3798699860304, 36.8750988473172], [30.3798699860304, 36.874559858146725]], [[30.381486953541838, 36.87563783648766], [30.381486953541838, 36.876176825658135], [30.38256493188277, 36.876176825658135], [30.38256493188277, 36.87725480399908], [30.38202594271229, 36.87725480399908], [30.38202594271229, 36.87671581482861], [30.38040897520088, 36.87671581482861], [30.38040897520088, 36.87563783648766], [30.381486953541838, 36.87563783648766]]]}, "properties": {"area_ha": 8.332662509740258, "mean_dnbr": 0.26751122176341374, "compactness": 0.138, "rectangularity": 0.444, "cropland_frac": 0, "persistent": null, "brightness_delta": -0.018}}, {"type": "Feature", "geometry": {"geodesic": false, "type": "Polygon", "coordinates": [[[30.41328731459967, 36.80125733096257], [30.4143652929406, 36.80125733096257], [30.4143652929406, 36.802335309303515], [30.413826303770122, 36.802335309303515], [30.413826303770122, 36.80287429847399], [30.4143652929406, 36.80287429847399], [30.4143652929406, 36.80341328764445], [30.410592368747302, 36.80341328764445], [30.410592368747302, 36.80287429847399], [30.408436412065413, 36.80287429847399], [30.408436412065413, 36.802335309303515], [30.408975401235892, 36.802335309303515], [30.408975401235892, 36.80179632013304], [30.409514390406343, 36.80179632013304], [30.409514390406343, 36.80125733096257], [30.410592368747302, 36.80125733096257], [30.410592368747302, 36.80179632013304], [30.41113135791778, 36.80179632013304], [30.41113135791778, 36.802335309303515], [30.41328731459967, 36.802335309303515], [30.41328731459967, 36.80125733096257]]]}, "properties": {"area_ha": 7.76550299669255, "mean_dnbr": 0.39474305389208436, "compactness": 0.279, "rectangularity": 0.614, "cropland_frac": 0, "persistent": null, "brightness_delta": -0.062}}, {"type": "Feature", "geometry": {"geodesic": false, "type": "Polygon", "coordinates": [[[30.4143652929406, 36.8044912659854], [30.41490428211108, 36.8044912659854], [30.41490428211108, 36.80503025515587], [30.4143652929406, 36.80503025515587], [30.4143652929406, 36.80556924432634], [30.411670347088233, 36.80556924432634], [30.411670347088233, 36.806108233496815], [30.410592368747302, 36.806108233496815], [30.410592368747302, 36.80556924432634], [30.411670347088233, 36.80556924432634], [30.411670347088233, 36.80503025515587], [30.412209336258712, 36.80503025515587], [30.412209336258712, 36.8044912659854], [30.413826303770122, 36.8044912659854], [30.413826303770122, 36.80503025515587], [30.4143652929406, 36.80503025515587], [30.4143652929406, 36.8044912659854]]]}, "properties": {"area_ha": 3.163606489775557, "mean_dnbr": 0.1841984097724427, "compactness": 0.256, "rectangularity": 0.467, "cropland_frac": 0, "persistent": null, "brightness_delta": -0.108}}, {"type": "Feature", "geometry": {"geodesic": false, "type": "Polygon", "coordinates": [[[30.41652124962249, 36.84275949708889], [30.41975518464531, 36.84275949708889], [30.41975518464531, 36.843298486259364], [30.41921619547486, 36.843298486259364], [30.41921619547486, 36.84437646460031], [30.41867720630438, 36.84437646460031], [30.41867720630438, 36.84383747542984], [30.41706023879297, 36.84383747542984], [30.41706023879297, 36.843298486259364], [30.41652124962249, 36.843298486259364], [30.41652124962249, 36.84275949708889]]]}, "properties": {"area_ha": 3.1620003518621345, "mean_dnbr": 0.2626802440566796, "compactness": 0.454, "rectangularity": 0.611, "cropland_frac": 0.02, "persistent": null, "brightness_delta": -0.008}}, {"type": "Feature", "geometry": {"geodesic": false, "type": "Polygon", "coordinates": [[[30.42784002220239, 36.85677321552116], [30.42837901137287, 36.85677321552116], [30.42837901137287, 36.85892917220304], [30.428918000543348, 36.85892917220304], [30.428918000543348, 36.85946816137351], [30.42837901137287, 36.85946816137351], [30.42837901137287, 36.86054613971446], [30.42730103303191, 36.86054613971446], [30.42730103303191, 36.8616241180554], [30.42676204386146, 36.8616241180554], [30.42676204386146, 36.860007150543986], [30.42622305469098, 36.860007150543986], [30.42622305469098, 36.85892917220304], [30.42676204386146, 36.85892917220304], [30.42676204386146, 36.85839018303257], [30.42622305469098, 36.85839018303257], [30.42622305469098, 36.857851193862096], [30.4256840655205, 36.857851193862096], [30.4256840655205, 36.85892917220304], [30.42460608717957, 36.85892917220304], [30.42460608717957, 36.85946816137351], [30.42406709800909, 36.85946816137351], [30.42406709800909, 36.85839018303257], [30.42460608717957, 36.85839018303257], [30.42460608717957, 36.857851193862096], [30.4256840655205, 36.857851193862096], [30.4256840655205, 36.857312204691624], [30.42784002220239, 36.857312204691624], [30.42784002220239, 36.85677321552116]], [[30.42730103303191, 36.85946816137351], [30.42730103303191, 36.860007150543986], [30.42676204386146, 36.860007150543986], [30.42676204386146, 36.85946816137351], [30.42730103303191, 36.85946816137351]], [[30.42784002220239, 36.857851193862096], [30.42784002220239, 36.85839018303257], [30.42676204386146, 36.85839018303257], [30.42676204386146, 36.857851193862096], [30.42784002220239, 36.857851193862096]]]}, "properties": {"area_ha": 8.62193008649191, "mean_dnbr": 0.2272985955818562, "compactness": 0.127, "rectangularity": 0.383, "cropland_frac": 0, "persistent": null, "brightness_delta": -0.019}}, {"type": "Feature", "geometry": {"geodesic": false, "type": "Polygon", "coordinates": [[[30.428918000543348, 36.595363467842375], [30.4294569897138, 36.595363467842375], [30.4294569897138, 36.59590245701285], [30.428918000543348, 36.59590245701285], [30.428918000543348, 36.59644144618332], [30.431073957225237, 36.59644144618332], [30.431073957225237, 36.59698043535379], [30.4294569897138, 36.59698043535379], [30.4294569897138, 36.597519424524265], [30.428918000543348, 36.597519424524265], [30.428918000543348, 36.5985974028652], [30.42730103303191, 36.5985974028652], [30.42730103303191, 36.59805841369473], [30.42784002220239, 36.59805841369473], [30.42784002220239, 36.597519424524265], [30.42837901137287, 36.597519424524265], [30.42837901137287, 36.59698043535379], [30.428918000543348, 36.59698043535379], [30.428918000543348, 36.59644144618332], [30.42837901137287, 36.59644144618332], [30.42837901137287, 36.59590245701285], [30.428918000543348, 36.59590245701285], [30.428918000543348, 36.595363467842375]]]}, "properties": {"area_ha": 3.7489248584249335, "mean_dnbr": 0.1988004435987446, "compactness": 0.187, "rectangularity": 0.357, "cropland_frac": 0, "persistent": null, "brightness_delta": 0.029}}, {"type": "Feature", "geometry": {"geodesic": false, "type": "Polygon", "coordinates": [[[30.433768903077578, 36.85946816137351], [30.434307892248057, 36.85946816137351], [30.434307892248057, 36.860007150543986], [30.434846881418537, 36.860007150543986], [30.434846881418537, 36.86054613971446], [30.4332299139071, 36.86054613971446], [30.4332299139071, 36.86108512888493], [30.432690924736647, 36.86108512888493], [30.432690924736647, 36.86054613971446], [30.43161294639569, 36.86054613971446], [30.43161294639569, 36.86108512888493], [30.428918000543348, 36.86108512888493], [30.428918000543348, 36.8616241180554], [30.42837901137287, 36.8616241180554], [30.42837901137287, 36.86108512888493], [30.428918000543348, 36.86108512888493], [30.428918000543348, 36.86054613971446], [30.43161294639569, 36.86054613971446], [30.43161294639569, 36.860007150543986], [30.433768903077578, 36.860007150543986], [30.433768903077578, 36.85946816137351]]]}, "properties": {"area_ha": 4.023479832769676, "mean_dnbr": 0.2776373074641786, "compactness": 0.165, "rectangularity": 0.416, "cropland_frac": 0, "persistent": null, "brightness_delta": -0.059}}, {"type": "Feature", "geometry": {"geodesic": false, "type": "Polygon", "coordinates": [[[30.449938578191734, 36.54469848581803], [30.450477567362213, 36.54469848581803], [30.450477567362213, 36.545776464158976], [30.448321610680324, 36.545776464158976], [30.448321610680324, 36.54685444249992], [30.448860599850804, 36.54685444249992], [30.448860599850804, 36.54631545332945], [30.449938578191734, 36.54631545332945], [30.449938578191734, 36.54685444249992], [30.448860599850804, 36.54685444249992], [30.448860599850804, 36.54739343167039], [30.449399589021255, 36.54739343167039], [30.449399589021255, 36.547932420840866], [30.447782621509845, 36.547932420840866], [30.447782621509845, 36.54739343167039], [30.447243632339365, 36.54739343167039], [30.447243632339365, 36.54685444249992], [30.447782621509845, 36.54685444249992], [30.447782621509845, 36.545237474988504], [30.449938578191734, 36.545237474988504], [30.449938578191734, 36.54469848581803]], [[30.448321610680324, 36.54685444249992], [30.448321610680324, 36.54739343167039], [30.447782621509845, 36.54739343167039], [30.447782621509845, 36.54685444249992], [30.448321610680324, 36.54685444249992]]]}, "properties": {"area_ha": 4.328535146734603, "mean_dnbr": 0.2570297109290104, "compactness": 0.134, "rectangularity": 0.426, "cropland_frac": 0, "persistent": null, "brightness_delta": -0.15}}, {"type": "Feature", "geometry": {"geodesic": false, "type": "Polygon", "coordinates": [[[30.449938578191734, 36.58134974941011], [30.451016556532664, 36.58134974941011], [30.451016556532664, 36.58188873858058], [30.452633524044103, 36.58188873858058], [30.452633524044103, 36.58242772775105], [30.452094534873623, 36.58242772775105], [30.452094534873623, 36.583505706092], [30.451555545703144, 36.583505706092], [30.451555545703144, 36.582966716921526], [30.450477567362213, 36.582966716921526], [30.450477567362213, 36.583505706092], [30.449399589021255, 36.583505706092], [30.449399589021255, 36.58242772775105], [30.450477567362213, 36.58242772775105], [30.450477567362213, 36.58188873858058], [30.449938578191734, 36.58188873858058], [30.449938578191734, 36.58134974941011]]]}, "properties": {"area_ha": 4.038071751217112, "mean_dnbr": 0.22928601536597304, "compactness": 0.313, "rectangularity": 0.583, "cropland_frac": 0, "persistent": null, "brightness_delta": -0.004}}]}