{"type": "FeatureCollection", "crs": {"type": "name", "properties": {"name": "urn:ogc:def:crs:OGC:1.3:CRS84"}}, "features": [{"type": "Feature", "geometry": {"geodesic": false, "type": "Polygon", "coordinates": [[[29.35579056213416, 37.87600173688317], [29.35794651881605, 37.87600173688317], [29.35794651881605, 37.877079715224106], [29.35848550798653, 37.877079715224106], [29.35848550798653, 37.87761870439458], [29.35956348632746, 37.87761870439458], [29.35956348632746, 37.87815769356505], [29.36064146466839, 37.87815769356505], [29.36064146466839, 37.879235671905995], [29.36118045383887, 37.879235671905995], [29.36118045383887, 37.88031365024694], [29.36171944300935, 37.88031365024694], [29.36171944300935, 37.88193061775836], [29.36279742135028, 37.88193061775836], [29.36279742135028, 37.88354758526977], [29.36333641052076, 37.88354758526977], [29.36333641052076, 37.88408657444024], [29.364414388861718, 37.88408657444024], [29.364414388861718, 37.885703541951656], [29.36387539969124, 37.885703541951656], [29.36387539969124, 37.885164552781184], [29.36225843217983, 37.885164552781184], [29.36225843217983, 37.885703541951656], [29.36333641052076, 37.885703541951656], [29.36333641052076, 37.88624253112213], [29.366031356373128, 37.88624253112213], [29.366031356373128, 37.887859498633546], [29.36495337803217, 37.887859498633546], [29.36495337803217, 37.88839848780401], [29.36387539969124, 37.88839848780401], [29.36387539969124, 37.887859498633546], [29.36333641052076, 37.887859498633546], [29.36333641052076, 37.89001545531543], [29.36387539969124, 37.89001545531543], [29.36387539969124, 37.8905544444859], [29.364414388861718, 37.8905544444859], [29.364414388861718, 37.89109343365637], [29.36495337803217, 37.89109343365637], [29.36495337803217, 37.891632422826845], [29.36549236720265, 37.891632422826845], [29.36549236720265, 37.893788379508734], [29.36387539969124, 37.893788379508734], [29.36387539969124, 37.89324939033826], [29.36333641052076, 37.89324939033826], [29.36333641052076, 37.89271040116779], [29.36010247549794, 37.89271040116779], [29.36010247549794, 37.89217141199732], [29.35956348632746, 37.89217141199732], [29.35956348632746, 37.891632422826845], [29.35902449715698, 37.891632422826845], [29.35902449715698, 37.89109343365637], [29.35848550798653, 37.89109343365637], [29.35848550798653, 37.8905544444859], [29.35794651881605, 37.8905544444859], [29.35794651881605, 37.889476466144956], [29.35848550798653, 37.889476466144956], [29.35848550798653, 37.88893747697448], [29.35794651881605, 37.88893747697448], [29.35794651881605, 37.887859498633546], [29.35740752964557, 37.887859498633546], [29.35740752964557, 37.88732050946307], [29.35848550798653, 37.88732050946307], [29.35848550798653, 37.885164552781184], [29.35794651881605, 37.885164552781184], [29.35794651881605, 37.88408657444024], [29.35740752964557, 37.88408657444024], [29.35740752964557, 37.883008596099295], [29.35686854047509, 37.883008596099295], [29.35686854047509, 37.88193061775836], [29.35740752964557, 37.88193061775836], [29.35740752964557, 37.881391628587885], [29.35632955130464, 37.881391628587885], [29.35632955130464, 37.88085263941741], [29.35579056213416, 37.88085263941741], [29.35579056213416, 37.87869668273552], [29.35525157296368, 37.87869668273552], [29.35525157296368, 37.87654072605363], [29.35579056213416, 37.87654072605363], [29.35579056213416, 37.87600173688317]], [[29.36333641052076, 37.8867815202926], [29.36333641052076, 37.88732050946307], [29.36279742135028, 37.88732050946307], [29.36279742135028, 37.8867815202926], [29.36333641052076, 37.8867815202926]], [[29.36171944300935, 37.885164552781184], [29.36171944300935, 37.885703541951656], [29.36225843217983, 37.885703541951656], [29.36225843217983, 37.8867815202926], [29.36171944300935, 37.8867815202926], [29.36171944300935, 37.88624253112213], [29.36010247549794, 37.88624253112213], [29.36010247549794, 37.885703541951656], [29.36064146466839, 37.885703541951656], [29.36064146466839, 37.885164552781184], [29.36171944300935, 37.885164552781184]], [[29.36010247549794, 37.88462556361071], [29.36010247549794, 37.885164552781184], [29.35956348632746, 37.885164552781184], [29.35956348632746, 37.88462556361071], [29.36010247549794, 37.88462556361071]], [[29.35956348632746, 37.883008596099295], [29.35956348632746, 37.88408657444024], [29.35902449715698, 37.88408657444024], [29.35902449715698, 37.883008596099295], [29.35956348632746, 37.883008596099295]], [[29.36010247549794, 37.88085263941741], [29.36010247549794, 37.881391628587885], [29.36064146466839, 37.881391628587885], [29.36064146466839, 37.88246960692882], [29.36010247549794, 37.88246960692882], [29.36010247549794, 37.88193061775836], [29.35902449715698, 37.88193061775836], [29.35902449715698, 37.88085263941741], [29.36010247549794, 37.88085263941741]], [[29.35902449715698, 37.88031365024694], [29.35902449715698, 37.88085263941741], [29.35848550798653, 37.88085263941741], [29.35848550798653, 37.88031365024694], [29.35902449715698, 37.88031365024694]]]}, "properties": {"area_ha": 85.89819723225622, "mean_dnbr": 0.30401876008748785, "compactness": 0.118, "rectangularity": 0.523, "cropland_frac": 0.21, "persistent": true, "brightness_delta": -0.103}}]}