{"type": "FeatureCollection", "crs": {"type": "name", "properties": {"name": "urn:ogc:def:crs:OGC:1.3:CRS84"}}, "features": [{"type": "Feature", "geometry": {"geodesic": false, "type": "Polygon", "coordinates": [[[29.59186781880078, 37.0923114830173], [29.59348478631219, 37.0923114830173], [29.59348478631219, 37.09392845052871], [29.59402377548264, 37.09392845052871], [29.59402377548264, 37.09446743969918], [29.59348478631219, 37.09446743969918], [29.59348478631219, 37.09500642886965], [29.59402377548264, 37.09500642886965], [29.59402377548264, 37.09662339638107], [29.59456276465312, 37.09662339638107], [29.59456276465312, 37.097701374722014], [29.59402377548264, 37.097701374722014], [29.59402377548264, 37.09877935306295], [29.59456276465312, 37.09877935306295], [29.59456276465312, 37.099318342233424], [29.59402377548264, 37.099318342233424], [29.59402377548264, 37.099857331403896], [29.5951017538236, 37.099857331403896], [29.5951017538236, 37.10255227725626], [29.595640742994078, 37.10255227725626], [29.595640742994078, 37.10309126642673], [29.59617973216453, 37.10309126642673], [29.59617973216453, 37.10524722310861], [29.595640742994078, 37.10524722310861], [29.595640742994078, 37.104169244767675], [29.5951017538236, 37.104169244767675], [29.5951017538236, 37.10309126642673], [29.59402377548264, 37.10309126642673], [29.59402377548264, 37.10255227725626], [29.59348478631219, 37.10255227725626], [29.59348478631219, 37.1036302555972], [29.59294579714171, 37.1036302555972], [29.59294579714171, 37.10255227725626], [29.59186781880078, 37.10255227725626], [29.59186781880078, 37.10309126642673], [29.5913288296303, 37.10309126642673], [29.5913288296303, 37.102013288085786], [29.59348478631219, 37.102013288085786], [29.59348478631219, 37.10093530974484], [29.59294579714171, 37.10093530974484], [29.59294579714171, 37.10039632057437], [29.59186781880078, 37.10039632057437], [29.59186781880078, 37.10093530974484], [29.5913288296303, 37.10093530974484], [29.5913288296303, 37.099857331403896], [29.58917287294841, 37.099857331403896], [29.58917287294841, 37.099318342233424], [29.59025085128934, 37.099318342233424], [29.59025085128934, 37.09877935306295], [29.58917287294841, 37.09877935306295], [29.58917287294841, 37.097701374722014], [29.5913288296303, 37.097701374722014], [29.5913288296303, 37.09500642886965], [29.59078984045982, 37.09500642886965], [29.59078984045982, 37.09446743969918], [29.5913288296303, 37.09446743969918], [29.5913288296303, 37.09285047218776], [29.59186781880078, 37.09285047218776], [29.59186781880078, 37.0923114830173]], [[29.59348478631219, 37.09877935306295], [29.59348478631219, 37.099318342233424], [29.59294579714171, 37.099318342233424], [29.59294579714171, 37.09877935306295], [29.59348478631219, 37.09877935306295]]]}, "properties": {"area_ha": 34.09289176789278, "mean_dnbr": 0.24182078171349647, "compactness": 0.129, "rectangularity": 0.422, "cropland_frac": 0.405, "persistent": true, "brightness_delta": -0.097}}, {"type": "Feature", "geometry": {"geodesic": false, "type": "Polygon", "coordinates": [[[29.86621330657087, 37.659867079524005], [29.86836926325276, 37.659867079524005], [29.86836926325276, 37.66148404703542], [29.86944724159369, 37.66148404703542], [29.86944724159369, 37.66256202537637], [29.86890825242324, 37.66256202537637], [29.86890825242324, 37.66310101454684], [29.86675229574135, 37.66310101454684], [29.86675229574135, 37.66256202537637], [29.86621330657087, 37.66256202537637], [29.86621330657087, 37.66310101454684], [29.86405734988898, 37.66310101454684], [29.86405734988898, 37.66364000371731], [29.8635183607185, 37.66364000371731], [29.8635183607185, 37.66471798205826], [29.86405734988898, 37.66471798205826], [29.86405734988898, 37.66525697122872], [29.86459633905946, 37.66525697122872], [29.86459633905946, 37.66471798205826], [29.86513532822994, 37.66471798205826], [29.86513532822994, 37.664178992887784], [29.86783027408228, 37.664178992887784], [29.86783027408228, 37.66525697122872], [29.86836926325276, 37.66525697122872], [29.86836926325276, 37.66471798205826], [29.86890825242324, 37.66471798205826], [29.86890825242324, 37.664178992887784], [29.86944724159369, 37.664178992887784], [29.86944724159369, 37.66310101454684], [29.87052521993465, 37.66310101454684], [29.87052521993465, 37.66364000371731], [29.86998623076417, 37.66364000371731], [29.86998623076417, 37.664178992887784], [29.86944724159369, 37.664178992887784], [29.86944724159369, 37.66471798205826], [29.87052521993465, 37.66471798205826], [29.87052521993465, 37.66525697122872], [29.86836926325276, 37.66525697122872], [29.86836926325276, 37.666334949569666], [29.86944724159369, 37.666334949569666], [29.86944724159369, 37.665795960399194], [29.86998623076417, 37.665795960399194], [29.86998623076417, 37.66741292791061], [29.87106420910513, 37.66741292791061], [29.87106420910513, 37.66795191708108], [29.87160319827558, 37.66795191708108], [29.87160319827558, 37.668490906251556], [29.87106420910513, 37.668490906251556], [29.87106420910513, 37.66902989542203], [29.86998623076417, 37.66902989542203], [29.86998623076417, 37.6695688845925], [29.86890825242324, 37.6695688845925], [29.86890825242324, 37.67010787376297], [29.86836926325276, 37.67010787376297], [29.86836926325276, 37.670646862933445], [29.86675229574135, 37.670646862933445], [29.86675229574135, 37.67118585210391], [29.86621330657087, 37.67118585210391], [29.86621330657087, 37.672263830444855], [29.86567431740039, 37.672263830444855], [29.86567431740039, 37.67118585210391], [29.86621330657087, 37.67118585210391], [29.86621330657087, 37.670646862933445], [29.86675229574135, 37.670646862933445], [29.86675229574135, 37.6695688845925], [29.86621330657087, 37.6695688845925], [29.86621330657087, 37.66902989542203], [29.86567431740039, 37.66902989542203], [29.86567431740039, 37.668490906251556], [29.86513532822994, 37.668490906251556], [29.86513532822994, 37.66902989542203], [29.86459633905946, 37.66902989542203], [29.86459633905946, 37.67010787376297], [29.86513532822994, 37.67010787376297], [29.86513532822994, 37.6695688845925], [29.86567431740039, 37.6695688845925], [29.86567431740039, 37.670646862933445], [29.86513532822994, 37.670646862933445], [29.86513532822994, 37.67172484127438], [29.86405734988898, 37.67172484127438], [29.86405734988898, 37.67118585210391], [29.8635183607185, 37.67118585210391], [29.8635183607185, 37.67172484127438], [29.86297937154805, 37.67172484127438], [29.86297937154805, 37.67495877629722], [29.86244038237757, 37.67495877629722], [29.86244038237757, 37.67549776546769], [29.8635183607185, 37.67549776546769], [29.8635183607185, 37.67495877629722], [29.86459633905946, 37.67495877629722], [29.86459633905946, 37.67603675463816], [29.86297937154805, 37.67603675463816], [29.86297937154805, 37.676575743808634], [29.86244038237757, 37.676575743808634], [29.86244038237757, 37.67765372214957], [29.86297937154805, 37.67765372214957], [29.86297937154805, 37.678731700490516], [29.8635183607185, 37.678731700490516], [29.8635183607185, 37.678192711320044], [29.86567431740039, 37.678192711320044], [29.86567431740039, 37.678731700490516], [29.86513532822994, 37.678731700490516], [29.86513532822994, 37.67980967883146], [29.86459633905946, 37.67980967883146], [29.86459633905946, 37.68034866800193], [29.8635183607185, 37.68034866800193], [29.8635183607185, 37.67927068966099], [29.86297937154805, 37.67927068966099], [29.86297937154805, 37.678731700490516], [29.861362404036612, 37.678731700490516], [29.861362404036612, 37.678192711320044], [29.86028442569568, 37.678192711320044], [29.86028442569568, 37.67765372214957], [29.86082341486616, 37.67765372214957], [29.86082341486616, 37.676575743808634], [29.858128469013792, 37.676575743808634], [29.858128469013792, 37.677114732979106], [29.857589479843313, 37.677114732979106], [29.857589479843313, 37.676575743808634], [29.858128469013792, 37.676575743808634], [29.858128469013792, 37.67603675463816], [29.857589479843313, 37.67603675463816], [29.857589479843313, 37.67495877629722], [29.85705049067286, 37.67495877629722], [29.85705049067286, 37.674419787126745], [29.856511501502382, 37.674419787126745], [29.856511501502382, 37.67495877629722], [29.852738577309083, 37.67495877629722], [29.852738577309083, 37.674419787126745], [29.854355544820493, 37.674419787126745], [29.854355544820493, 37.67388079795627], [29.854894533990972, 37.67388079795627], [29.854894533990972, 37.674419787126745], [29.855433523161423, 37.674419787126745], [29.855433523161423, 37.6733418087858], [29.855972512331903, 37.6733418087858], [29.855972512331903, 37.672263830444855], [29.855433523161423, 37.672263830444855], [29.855433523161423, 37.67280281961533], [29.854355544820493, 37.67280281961533], [29.854355544820493, 37.67172484127438], [29.853816555650013, 37.67172484127438], [29.853816555650013, 37.6695688845925], [29.854894533990972, 37.6695688845925], [29.854894533990972, 37.67010787376297], [29.854355544820493, 37.67010787376297], [29.854355544820493, 37.67118585210391], [29.854894533990972, 37.67118585210391], [29.854894533990972, 37.67172484127438], [29.855972512331903, 37.67172484127438], [29.855972512331903, 37.672263830444855], [29.85705049067286, 37.672263830444855], [29.85705049067286, 37.67118585210391], [29.857589479843313, 37.67118585210391], [29.857589479843313, 37.670646862933445], [29.858128469013792, 37.670646862933445], [29.858128469013792, 37.67010787376297], [29.856511501502382, 37.67010787376297], [29.856511501502382, 37.6695688845925], [29.855972512331903, 37.6695688845925], [29.855972512331903, 37.668490906251556], [29.855433523161423, 37.668490906251556], [29.855433523161423, 37.66795191708108], [29.853816555650013, 37.66795191708108], [29.853816555650013, 37.66741292791061], [29.854894533990972, 37.66741292791061], [29.854894533990972, 37.66687393874014], [29.853277566479534, 37.66687393874014], [29.853277566479534, 37.66741292791061], [29.852738577309083, 37.66741292791061], [29.852738577309083, 37.66687393874014], [29.853277566479534, 37.66687393874014], [29.853277566479534, 37.666334949569666], [29.854355544820493, 37.666334949569666], [29.854355544820493, 37.665795960399194], [29.853277566479534, 37.665795960399194], [29.853277566479534, 37.66525697122872], [29.852199588138603, 37.66525697122872], [29.852199588138603, 37.664178992887784], [29.851660598968124, 37.664178992887784], [29.851660598968124, 37.66364000371731], [29.850582620627193, 37.66364000371731], [29.850582620627193, 37.66310101454684], [29.850043631456714, 37.66310101454684], [29.850043631456714, 37.66256202537637], [29.850582620627193, 37.66256202537637], [29.850582620627193, 37.66310101454684], [29.851660598968124, 37.66310101454684], [29.851660598968124, 37.66364000371731], [29.852199588138603, 37.66364000371731], [29.852199588138603, 37.66310101454684], [29.854894533990972, 37.66310101454684], [29.854894533990972, 37.66256202537637], [29.855433523161423, 37.66256202537637], [29.855433523161423, 37.66310101454684], [29.855972512331903, 37.66310101454684], [29.855972512331903, 37.66364000371731], [29.856511501502382, 37.66364000371731], [29.856511501502382, 37.664178992887784], [29.85705049067286, 37.664178992887784], [29.85705049067286, 37.66364000371731], [29.859206447354723, 37.66364000371731], [29.859206447354723, 37.664178992887784], [29.859745436525202, 37.664178992887784], [29.859745436525202, 37.66471798205826], [29.86028442569568, 37.66471798205826], [29.86028442569568, 37.66364000371731], [29.859745436525202, 37.66364000371731], [29.859745436525202, 37.662023036205895], [29.86028442569568, 37.662023036205895], [29.86028442569568, 37.66148404703542], [29.86082341486616, 37.66148404703542], [29.86082341486616, 37.662023036205895], [29.861362404036612, 37.662023036205895], [29.861362404036612, 37.66256202537637], [29.86190139320709, 37.66256202537637], [29.86190139320709, 37.66364000371731], [29.861362404036612, 37.66364000371731], [29.861362404036612, 37.664178992887784], [29.86082341486616, 37.664178992887784], [29.86082341486616, 37.66471798205826], [29.86190139320709, 37.66471798205826], [29.86190139320709, 37.66525697122872], [29.86244038237757, 37.66525697122872], [29.86244038237757, 37.665795960399194], [29.86297937154805, 37.665795960399194], [29.86297937154805, 37.66471798205826], [29.86244038237757, 37.66471798205826], [29.86244038237757, 37.66364000371731], [29.8635183607185, 37.66364000371731], [29.8635183607185, 37.662023036205895], [29.86459633905946, 37.662023036205895], [29.86459633905946, 37.66094505786495], [29.86567431740039, 37.66094505786495], [29.86567431740039, 37.66040606869448], [29.86621330657087, 37.66040606869448], [29.86621330657087, 37.659867079524005]], [[29.859206447354723, 37.67388079795627], [29.859206447354723, 37.674419787126745], [29.857589479843313, 37.674419787126745], [29.857589479843313, 37.67388079795627], [29.859206447354723, 37.67388079795627]], [[29.86244038237757, 37.67172484127438], [29.86244038237757, 37.6733418087858], [29.86028442569568, 37.6733418087858], [29.86028442569568, 37.67388079795627], [29.861362404036612, 37.67388079795627], [29.861362404036612, 37.674419787126745], [29.859745436525202, 37.674419787126745], [29.859745436525202, 37.67172484127438], [29.86244038237757, 37.67172484127438]], [[29.8635183607185, 37.670646862933445], [29.8635183607185, 37.67118585210391], [29.86297937154805, 37.67118585210391], [29.86297937154805, 37.670646862933445], [29.8635183607185, 37.670646862933445]], [[29.86028442569568, 37.668490906251556], [29.86028442569568, 37.66902989542203], [29.859206447354723, 37.66902989542203], [29.859206447354723, 37.668490906251556], [29.86028442569568, 37.668490906251556]], [[29.86459633905946, 37.66795191708108], [29.86459633905946, 37.66902989542203], [29.86405734988898, 37.66902989542203], [29.86405734988898, 37.66795191708108], [29.86459633905946, 37.66795191708108]], [[29.86998623076417, 37.66795191708108], [29.86998623076417, 37.668490906251556], [29.86944724159369, 37.668490906251556], [29.86944724159369, 37.66795191708108], [29.86998623076417, 37.66795191708108]], [[29.86836926325276, 37.66741292791061], [29.86836926325276, 37.668490906251556], [29.86944724159369, 37.668490906251556], [29.86944724159369, 37.66902989542203], [29.86836926325276, 37.66902989542203], [29.86836926325276, 37.6695688845925], [29.86783027408228, 37.6695688845925], [29.86783027408228, 37.668490906251556], [29.8672912849118, 37.668490906251556], [29.8672912849118, 37.6695688845925], [29.86675229574135, 37.6695688845925], [29.86675229574135, 37.66795191708108], [29.86783027408228, 37.66795191708108], [29.86783027408228, 37.66741292791061], [29.86836926325276, 37.66741292791061]], [[29.861362404036612, 37.66687393874014], [29.861362404036612, 37.66741292791061], [29.86082341486616, 37.66741292791061], [29.86082341486616, 37.66687393874014], [29.861362404036612, 37.66687393874014]], [[29.86459633905946, 37.66687393874014], [29.86459633905946, 37.66741292791061], [29.86405734988898, 37.66741292791061], [29.86405734988898, 37.66687393874014], [29.86459633905946, 37.66687393874014]], [[29.86405734988898, 37.665795960399194], [29.86405734988898, 37.66687393874014], [29.8635183607185, 37.66687393874014], [29.8635183607185, 37.66741292791061], [29.86297937154805, 37.66741292791061], [29.86297937154805, 37.665795960399194], [29.86405734988898, 37.665795960399194]], [[29.8672912849118, 37.665795960399194], [29.8672912849118, 37.666334949569666], [29.86675229574135, 37.666334949569666], [29.86675229574135, 37.665795960399194], [29.8672912849118, 37.665795960399194]], [[29.856511501502382, 37.66471798205826], [29.856511501502382, 37.66525697122872], [29.85705049067286, 37.66525697122872], [29.85705049067286, 37.665795960399194], [29.859206447354723, 37.665795960399194], [29.859206447354723, 37.666334949569666], [29.86082341486616, 37.666334949569666], [29.86082341486616, 37.66687393874014], [29.85866745818427, 37.66687393874014], [29.85866745818427, 37.66741292791061], [29.859206447354723, 37.66741292791061], [29.859206447354723, 37.66795191708108], [29.858128469013792, 37.66795191708108], [29.858128469013792, 37.66687393874014], [29.85705049067286, 37.66687393874014], [29.85705049067286, 37.666334949569666], [29.856511501502382, 37.666334949569666], [29.856511501502382, 37.665795960399194], [29.855433523161423, 37.665795960399194], [29.855433523161423, 37.66471798205826], [29.856511501502382, 37.66471798205826]], [[29.853277566479534, 37.664178992887784], [29.853277566479534, 37.66471798205826], [29.852738577309083, 37.66471798205826], [29.852738577309083, 37.664178992887784], [29.853277566479534, 37.664178992887784]], [[29.855433523161423, 37.66310101454684], [29.855433523161423, 37.66364000371731], [29.854894533990972, 37.66364000371731], [29.854894533990972, 37.66310101454684], [29.855433523161423, 37.66310101454684]], [[29.8672912849118, 37.66094505786495], [29.8672912849118, 37.66148404703542], [29.86783027408228, 37.66148404703542], [29.86783027408228, 37.662023036205895], [29.86567431740039, 37.662023036205895], [29.86567431740039, 37.66094505786495], [29.8672912849118, 37.66094505786495]]]}, "properties": {"area_ha": 146.9953779348953, "mean_dnbr": 0.1928188658570545, "compactness": 0.025, "rectangularity": 0.374, "cropland_frac": 0.443, "persistent": true, "brightness_delta": 0.014}}, {"type": "Feature", "geometry": {"geodesic": false, "type": "Polygon", "coordinates": [[[29.979401032369935, 37.90133422789533], [29.980479010710866, 37.90133422789533], [29.980479010710866, 37.901873217065805], [29.981017999881345, 37.901873217065805], [29.981017999881345, 37.90295119540675], [29.980479010710866, 37.90295119540675], [29.980479010710866, 37.90456816291817], [29.981017999881345, 37.90456816291817], [29.981017999881345, 37.90510715208864], [29.981556989051825, 37.90510715208864], [29.981556989051825, 37.90564614125911], [29.979940021540386, 37.90564614125911], [29.979940021540386, 37.906185130429584], [29.980479010710866, 37.906185130429584], [29.980479010710866, 37.90672411960005], [29.979940021540386, 37.90672411960005], [29.979940021540386, 37.90726310877052], [29.979401032369935, 37.90726310877052], [29.979401032369935, 37.907802097940994], [29.978862043199456, 37.907802097940994], [29.978862043199456, 37.90834108711147], [29.976706086517567, 37.90834108711147], [29.976706086517567, 37.90888007628194], [29.975628108176636, 37.90888007628194], [29.975628108176636, 37.90834108711147], [29.976167097347087, 37.90834108711147], [29.976167097347087, 37.907802097940994], [29.974550129835677, 37.907802097940994], [29.974550129835677, 37.90726310877052], [29.974011140665198, 37.90726310877052], [29.974011140665198, 37.90672411960005], [29.974550129835677, 37.90672411960005], [29.974550129835677, 37.906185130429584], [29.974011140665198, 37.906185130429584], [29.974011140665198, 37.90510715208864], [29.974550129835677, 37.90510715208864], [29.974550129835677, 37.904029173747695], [29.975089119006157, 37.904029173747695], [29.975089119006157, 37.90349018457722], [29.974550129835677, 37.90349018457722], [29.974550129835677, 37.90295119540675], [29.976706086517567, 37.90295119540675], [29.976706086517567, 37.90349018457722], [29.977784064858525, 37.90349018457722], [29.977784064858525, 37.90295119540675], [29.978323054028976, 37.90295119540675], [29.978323054028976, 37.90241220623628], [29.979401032369935, 37.90241220623628], [29.979401032369935, 37.90133422789533]]]}, "properties": {"area_ha": 32.59274564453184, "mean_dnbr": 0.22381883996301058, "compactness": 0.317, "rectangularity": 0.592, "cropland_frac": 0.33, "persistent": true, "brightness_delta": -0.191}}, {"type": "Feature", "geometry": {"geodesic": false, "type": "Polygon", "coordinates": [[[30.04623568950842, 37.62914469680712], [30.0467746786789, 37.62914469680712], [30.0467746786789, 37.62968368597759], [30.04731366784935, 37.62968368597759], [30.04731366784935, 37.630761664318534], [30.04785265701983, 37.630761664318534], [30.04785265701983, 37.631300653489006], [30.04731366784935, 37.631300653489006], [30.04731366784935, 37.630761664318534], [30.0467746786789, 37.630761664318534], [30.0467746786789, 37.63183964265948], [30.04839164619031, 37.63183964265948], [30.04839164619031, 37.633456610170896], [30.04893063536079, 37.633456610170896], [30.04893063536079, 37.63399559934137], [30.04839164619031, 37.63399559934137], [30.04839164619031, 37.633456610170896], [30.04731366784935, 37.633456610170896], [30.04731366784935, 37.63399559934137], [30.04785265701983, 37.63399559934137], [30.04785265701983, 37.63453458851184], [30.04839164619031, 37.63453458851184], [30.04839164619031, 37.635073577682306], [30.04946962453124, 37.635073577682306], [30.04946962453124, 37.63399559934137], [30.05000861370172, 37.63399559934137], [30.05000861370172, 37.63453458851184], [30.0505476028722, 37.63453458851184], [30.0505476028722, 37.63399559934137], [30.05162558121313, 37.63399559934137], [30.05162558121313, 37.633456610170896], [30.05270355955409, 37.633456610170896], [30.05270355955409, 37.63453458851184], [30.0505476028722, 37.63453458851184], [30.0505476028722, 37.63561256685278], [30.05000861370172, 37.63561256685278], [30.05000861370172, 37.635073577682306], [30.04946962453124, 37.635073577682306], [30.04946962453124, 37.63615155602325], [30.04893063536079, 37.63615155602325], [30.04893063536079, 37.63561256685278], [30.04839164619031, 37.63561256685278], [30.04839164619031, 37.63615155602325], [30.04461872199701, 37.63615155602325], [30.04461872199701, 37.63453458851184], [30.044079732826532, 37.63453458851184], [30.044079732826532, 37.635073577682306], [30.043540743656052, 37.635073577682306], [30.043540743656052, 37.63453458851184], [30.0430017544856, 37.63453458851184], [30.0430017544856, 37.63399559934137], [30.044079732826532, 37.63399559934137], [30.044079732826532, 37.633456610170896], [30.04461872199701, 37.633456610170896], [30.04461872199701, 37.63237863182995], [30.04515771116749, 37.63237863182995], [30.04515771116749, 37.630761664318534], [30.04461872199701, 37.630761664318534], [30.04461872199701, 37.63022267514806], [30.04515771116749, 37.63022267514806], [30.04515771116749, 37.62968368597759], [30.04623568950842, 37.62968368597759], [30.04623568950842, 37.62914469680712]], [[30.045696700337942, 37.63022267514806], [30.045696700337942, 37.630761664318534], [30.04515771116749, 37.630761664318534], [30.04515771116749, 37.63022267514806], [30.045696700337942, 37.63022267514806]]]}, "properties": {"area_ha": 24.747946662350245, "mean_dnbr": 0.19026009155316437, "compactness": 0.118, "rectangularity": 0.413, "cropland_frac": 0.337, "persistent": true, "brightness_delta": -0.162}}, {"type": "Feature", "geometry": {"geodesic": false, "type": "Polygon", "coordinates": [[[30.074802115543434, 37.842045419143446], [30.075880093884365, 37.842045419143446], [30.075880093884365, 37.84312339748439], [30.076958072225295, 37.84312339748439], [30.076958072225295, 37.84474036499581], [30.077497061395775, 37.84474036499581], [30.077497061395775, 37.84581834333675], [30.078036050566254, 37.84581834333675], [30.078036050566254, 37.84527935416628], [30.078575039736734, 37.84527935416628], [30.078575039736734, 37.84474036499581], [30.079114028907185, 37.84474036499581], [30.079114028907185, 37.84527935416628], [30.079653018077664, 37.84527935416628], [30.079653018077664, 37.84474036499581], [30.082347963930033, 37.84474036499581], [30.082347963930033, 37.84527935416628], [30.082886953100484, 37.84527935416628], [30.082886953100484, 37.84474036499581], [30.085042909782373, 37.84474036499581], [30.085042909782373, 37.844201375825335], [30.087737855634742, 37.844201375825335], [30.087737855634742, 37.84474036499581], [30.088815833975673, 37.84474036499581], [30.088815833975673, 37.844201375825335], [30.092588758169, 37.844201375825335], [30.092588758169, 37.84312339748439], [30.09312774733945, 37.84312339748439], [30.09312774733945, 37.84366238665486], [30.09366673650993, 37.84366238665486], [30.09366673650993, 37.844201375825335], [30.09420572568041, 37.844201375825335], [30.09420572568041, 37.84581834333675], [30.09366673650993, 37.84581834333675], [30.09366673650993, 37.84635733250722], [30.092588758169, 37.84635733250722], [30.092588758169, 37.84689632167769], [30.09043280148711, 37.84689632167769], [30.09043280148711, 37.84743531084816], [30.088815833975673, 37.84743531084816], [30.088815833975673, 37.847974300018635], [30.088276844805222, 37.847974300018635], [30.088276844805222, 37.84851328918911], [30.085581898952853, 37.84851328918911], [30.085581898952853, 37.84905227835958], [30.085042909782373, 37.84905227835958], [30.085042909782373, 37.84959126753005], [30.083425942270964, 37.84959126753005], [30.083425942270964, 37.84905227835958], [30.082347963930033, 37.84905227835958], [30.082347963930033, 37.84959126753005], [30.082886953100484, 37.84959126753005], [30.082886953100484, 37.850130256700524], [30.081269985589074, 37.850130256700524], [30.081269985589074, 37.84905227835958], [30.081808974759554, 37.84905227835958], [30.081808974759554, 37.84851328918911], [30.080192007248144, 37.84851328918911], [30.080192007248144, 37.847974300018635], [30.079653018077664, 37.847974300018635], [30.079653018077664, 37.84851328918911], [30.078575039736734, 37.84851328918911], [30.078575039736734, 37.847974300018635], [30.079114028907185, 37.847974300018635], [30.079114028907185, 37.84743531084816], [30.078036050566254, 37.84743531084816], [30.078036050566254, 37.84689632167769], [30.077497061395775, 37.84689632167769], [30.077497061395775, 37.84581834333675], [30.076419083054844, 37.84581834333675], [30.076419083054844, 37.84527935416628], [30.075880093884365, 37.84527935416628], [30.075880093884365, 37.844201375825335], [30.075341104713885, 37.844201375825335], [30.075341104713885, 37.84474036499581], [30.074802115543434, 37.84474036499581], [30.074802115543434, 37.844201375825335], [30.073185148031996, 37.844201375825335], [30.073185148031996, 37.84312339748439], [30.072646158861545, 37.84312339748439], [30.072646158861545, 37.84258440831392], [30.073185148031996, 37.84258440831392], [30.073185148031996, 37.84312339748439], [30.074263126372955, 37.84312339748439], [30.074263126372955, 37.84258440831392], [30.074802115543434, 37.84258440831392], [30.074802115543434, 37.842045419143446]], [[30.081808974759554, 37.84743531084816], [30.081808974759554, 37.847974300018635], [30.081269985589074, 37.847974300018635], [30.081269985589074, 37.84743531084816], [30.081808974759554, 37.84743531084816]]]}, "properties": {"area_ha": 66.08874881613063, "mean_dnbr": 0.21692398334386073, "compactness": 0.147, "rectangularity": 0.402, "cropland_frac": 0.185, "persistent": true, "brightness_delta": -0.036}}]}