{"type": "FeatureCollection", "crs": {"type": "name", "properties": {"name": "urn:ogc:def:crs:OGC:1.3:CRS84"}}, "features": [{"type": "Feature", "geometry": {"geodesic": false, "type": "Polygon", "coordinates": [[[29.96430933559671, 37.52458079773561], [29.96538731393767, 37.52458079773561], [29.96538731393767, 37.52511978690608], [29.96700428144908, 37.52511978690608], [29.96700428144908, 37.525658776076554], [29.967543270619558, 37.525658776076554], [29.967543270619558, 37.526197765247026], [29.96862124896049, 37.526197765247026], [29.96862124896049, 37.525658776076554], [29.969160238130968, 37.525658776076554], [29.969160238130968, 37.526197765247026], [29.9702382164719, 37.526197765247026], [29.9702382164719, 37.52673675441749], [29.970777205642378, 37.52673675441749], [29.970777205642378, 37.527275743587964], [29.971316194812857, 37.527275743587964], [29.971316194812857, 37.527814732758436], [29.9702382164719, 37.527814732758436], [29.9702382164719, 37.527275743587964], [29.969699227301447, 37.527275743587964], [29.969699227301447, 37.527814732758436], [29.969160238130968, 37.527814732758436], [29.969160238130968, 37.527275743587964], [29.96808225979001, 37.527275743587964], [29.96808225979001, 37.527814732758436], [29.967543270619558, 37.527814732758436], [29.967543270619558, 37.52835372192891], [29.96700428144908, 37.52835372192891], [29.96700428144908, 37.52889271109938], [29.96808225979001, 37.52889271109938], [29.96808225979001, 37.529970689440326], [29.96700428144908, 37.529970689440326], [29.96700428144908, 37.52943170026985], [29.9664652922786, 37.52943170026985], [29.9664652922786, 37.52835372192891], [29.96538731393767, 37.52835372192891], [29.96538731393767, 37.527814732758436], [29.96377034642626, 37.527814732758436], [29.96377034642626, 37.52835372192891], [29.9626923680853, 37.52835372192891], [29.9626923680853, 37.527814732758436], [29.96215337891482, 37.527814732758436], [29.96215337891482, 37.527275743587964], [29.96161438974437, 37.527275743587964], [29.96161438974437, 37.526197765247026], [29.96430933559671, 37.526197765247026], [29.96430933559671, 37.52458079773561]], [[29.96700428144908, 37.527814732758436], [29.96700428144908, 37.52835372192891], [29.9664652922786, 37.52835372192891], [29.9664652922786, 37.527814732758436], [29.96700428144908, 37.527814732758436]]]}, "properties": {"area_ha": 20.510342676983342, "mean_dnbr": 0.2758440621657453, "compactness": 0.179, "rectangularity": 0.469, "cropland_frac": 0.313, "persistent": true, "brightness_delta": -0.004}}]}