{"type": "FeatureCollection", "crs": {"type": "name", "properties": {"name": "urn:ogc:def:crs:OGC:1.3:CRS84"}}, "features": [{"type": "Feature", "geometry": {"geodesic": false, "type": "Polygon", "coordinates": [[[28.409864567956305, 40.2723475888004], [28.411481535467715, 40.2723475888004], [28.411481535467715, 40.27288657797087], [28.412020524638194, 40.27288657797087], [28.412020524638194, 40.273425567141345], [28.413098502979125, 40.273425567141345], [28.413098502979125, 40.27504253465276], [28.412559513808645, 40.27504253465276], [28.412559513808645, 40.27558152382323], [28.415793448831494, 40.27558152382323], [28.415793448831494, 40.2761205129937], [28.417410416342904, 40.2761205129937], [28.417410416342904, 40.27558152382323], [28.417949405513383, 40.27558152382323], [28.417949405513383, 40.27504253465276], [28.418488394683834, 40.27504253465276], [28.418488394683834, 40.2761205129937], [28.417410416342904, 40.2761205129937], [28.417410416342904, 40.27665950216417], [28.416871427172424, 40.27665950216417], [28.416871427172424, 40.27773748050512], [28.412559513808645, 40.27773748050512], [28.412559513808645, 40.277198491334644], [28.409864567956305, 40.277198491334644], [28.409864567956305, 40.2723475888004]]]}, "properties": {"area_ha": 21.649668080374585, "mean_dnbr": 0.6393909529286197, "compactness": 0.304, "rectangularity": 0.494, "cropland_frac": 0.468, "persistent": true, "brightness_delta": -0.105}}, {"type": "Feature", "geometry": {"geodesic": false, "type": "Polygon", "coordinates": [[[28.655104640520932, 40.1791024623088], [28.656182618861862, 40.1791024623088], [28.656182618861862, 40.17964145147926], [28.65564362969141, 40.17964145147926], [28.65564362969141, 40.18125841899068], [28.655104640520932, 40.18125841899068], [28.655104640520932, 40.182336397331625], [28.654565651350453, 40.182336397331625], [28.654565651350453, 40.18395336484304], [28.654026662179973, 40.18395336484304], [28.654026662179973, 40.186109321524924], [28.654565651350453, 40.186109321524924], [28.654565651350453, 40.18772628903634], [28.654026662179973, 40.18772628903634], [28.654026662179973, 40.18826527820681], [28.653487673009522, 40.18826527820681], [28.653487673009522, 40.188804267377286], [28.652409694668563, 40.188804267377286], [28.652409694668563, 40.18988224571823], [28.651331716327633, 40.18988224571823], [28.651331716327633, 40.190960224059175], [28.650792727157153, 40.190960224059175], [28.650792727157153, 40.19149921322964], [28.648636770475264, 40.19149921322964], [28.648636770475264, 40.190960224059175], [28.649714748816223, 40.190960224059175], [28.649714748816223, 40.18988224571823], [28.649175759645743, 40.18988224571823], [28.649175759645743, 40.18934325654776], [28.648636770475264, 40.18934325654776], [28.648636770475264, 40.188804267377286], [28.648097781304784, 40.188804267377286], [28.648097781304784, 40.18826527820681], [28.647558792134333, 40.18826527820681], [28.647558792134333, 40.18772628903634], [28.645941824622923, 40.18772628903634], [28.645941824622923, 40.18718729986587], [28.644863846281964, 40.18718729986587], [28.644863846281964, 40.186648310695396], [28.644324857111485, 40.186648310695396], [28.644324857111485, 40.18557033235445], [28.644863846281964, 40.18557033235445], [28.644863846281964, 40.18503134318399], [28.645402835452444, 40.18503134318399], [28.645402835452444, 40.184492354013514], [28.645941824622923, 40.184492354013514], [28.645941824622923, 40.18503134318399], [28.646480813793374, 40.18503134318399], [28.646480813793374, 40.184492354013514], [28.647558792134333, 40.184492354013514], [28.647558792134333, 40.18395336484304], [28.648097781304784, 40.18395336484304], [28.648097781304784, 40.1828753865021], [28.648636770475264, 40.1828753865021], [28.648636770475264, 40.182336397331625], [28.649175759645743, 40.182336397331625], [28.649175759645743, 40.18179740816115], [28.649714748816223, 40.18179740816115], [28.649714748816223, 40.182336397331625], [28.650253737986674, 40.182336397331625], [28.650253737986674, 40.18179740816115], [28.650792727157153, 40.18179740816115], [28.650792727157153, 40.18125841899068], [28.651870705498112, 40.18125841899068], [28.651870705498112, 40.18071942982021], [28.654026662179973, 40.18071942982021], [28.654026662179973, 40.180180440649735], [28.654565651350453, 40.180180440649735], [28.654565651350453, 40.17964145147926], [28.655104640520932, 40.17964145147926], [28.655104640520932, 40.1791024623088]], [[28.649714748816223, 40.182336397331625], [28.649714748816223, 40.1828753865021], [28.649175759645743, 40.1828753865021], [28.649175759645743, 40.182336397331625], [28.649714748816223, 40.182336397331625]]]}, "properties": {"area_ha": 62.01686246103275, "mean_dnbr": 0.6026187126534367, "compactness": 0.258, "rectangularity": 0.499, "cropland_frac": 0.231, "persistent": true, "brightness_delta": -0.34}}, {"type": "Feature", "geometry": {"geodesic": false, "type": "Polygon", "coordinates": [[[28.71762738429564, 40.18503134318399], [28.71762738429564, 40.18557033235445], [28.71816637346612, 40.18557033235445], [28.71816637346612, 40.186109321524924], [28.718705362636598, 40.186109321524924], [28.718705362636598, 40.18826527820681], [28.719244351807077, 40.18826527820681], [28.719244351807077, 40.188804267377286], [28.718705362636598, 40.188804267377286], [28.718705362636598, 40.18934325654776], [28.71816637346612, 40.18934325654776], [28.71816637346612, 40.18988224571823], [28.718705362636598, 40.18988224571823], [28.718705362636598, 40.1904212348887], [28.71978334097753, 40.1904212348887], [28.71978334097753, 40.190960224059175], [28.719244351807077, 40.190960224059175], [28.719244351807077, 40.19203820240011], [28.71978334097753, 40.19203820240011], [28.71978334097753, 40.19311618074106], [28.720322330148008, 40.19311618074106], [28.720322330148008, 40.194733148252475], [28.718705362636598, 40.194733148252475], [28.718705362636598, 40.194194159082], [28.71816637346612, 40.194194159082], [28.71816637346612, 40.19365516991153], [28.71654940595471, 40.19365516991153], [28.71654940595471, 40.19311618074106], [28.71601041678423, 40.19311618074106], [28.71601041678423, 40.192577191570585], [28.71654940595471, 40.192577191570585], [28.71654940595471, 40.19149921322964], [28.71547142761375, 40.19149921322964], [28.71547142761375, 40.1904212348887], [28.71601041678423, 40.1904212348887], [28.71601041678423, 40.18988224571823], [28.7149324384433, 40.18988224571823], [28.7149324384433, 40.18934325654776], [28.71385446010234, 40.18934325654776], [28.71385446010234, 40.18826527820681], [28.71331547093189, 40.18826527820681], [28.71331547093189, 40.18772628903634], [28.71277648176141, 40.18772628903634], [28.71277648176141, 40.18718729986587], [28.71169850342045, 40.18718729986587], [28.71169850342045, 40.18557033235445], [28.71223749259093, 40.18557033235445], [28.71223749259093, 40.18503134318399], [28.71169850342045, 40.18503134318399], [28.71169850342045, 40.184492354013514], [28.71331547093189, 40.184492354013514], [28.71331547093189, 40.18395336484304], [28.71601041678423, 40.18395336484304], [28.71601041678423, 40.18503134318399], [28.71762738429564, 40.18503134318399]], [[28.71654940595471, 40.1904212348887], [28.71654940595471, 40.190960224059175], [28.71601041678423, 40.190960224059175], [28.71601041678423, 40.1904212348887], [28.71654940595471, 40.1904212348887]]]}, "properties": {"area_ha": 43.35490891813726, "mean_dnbr": 0.4301422246831931, "compactness": 0.255, "rectangularity": 0.555, "cropland_frac": 0.297, "persistent": true, "brightness_delta": -0.221}}]}