{"type": "FeatureCollection", "crs": {"type": "name", "properties": {"name": "urn:ogc:def:crs:OGC:1.3:CRS84"}}, "features": [{"type": "Feature", "geometry": {"geodesic": false, "type": "Polygon", "coordinates": [[[28.409864567956305, 40.2723475888004], [28.411481535467715, 40.2723475888004], [28.411481535467715, 40.27288657797087], [28.412020524638194, 40.27288657797087], [28.412020524638194, 40.273425567141345], [28.413098502979125, 40.273425567141345], [28.413098502979125, 40.27504253465276], [28.412559513808645, 40.27504253465276], [28.412559513808645, 40.27558152382323], [28.415793448831494, 40.27558152382323], [28.415793448831494, 40.2761205129937], [28.417410416342904, 40.2761205129937], [28.417410416342904, 40.27558152382323], [28.417949405513383, 40.27558152382323], [28.417949405513383, 40.27504253465276], [28.418488394683834, 40.27504253465276], [28.418488394683834, 40.2761205129937], [28.417410416342904, 40.2761205129937], [28.417410416342904, 40.27665950216417], [28.416871427172424, 40.27665950216417], [28.416871427172424, 40.27773748050512], [28.412559513808645, 40.27773748050512], [28.412559513808645, 40.277198491334644], [28.409864567956305, 40.277198491334644], [28.409864567956305, 40.2723475888004]]]}, "properties": {"area_ha": 21.649668080374585, "mean_dnbr": 0.5950920987263107, "compactness": 0.304, "rectangularity": 0.494, "cropland_frac": 0.468, "persistent": true, "brightness_delta": -0.103}}, {"type": "Feature", "geometry": {"geodesic": false, "type": "Polygon", "coordinates": [[[28.655104640520932, 40.1791024623088], [28.656182618861862, 40.1791024623088], [28.656182618861862, 40.17964145147926], [28.65564362969141, 40.17964145147926], [28.65564362969141, 40.180180440649735], [28.655104640520932, 40.180180440649735], [28.655104640520932, 40.182336397331625], [28.654565651350453, 40.182336397331625], [28.654565651350453, 40.18395336484304], [28.654026662179973, 40.18395336484304], [28.654026662179973, 40.186109321524924], [28.654565651350453, 40.186109321524924], [28.654565651350453, 40.186648310695396], [28.654026662179973, 40.186648310695396], [28.654026662179973, 40.18826527820681], [28.653487673009522, 40.18826527820681], [28.653487673009522, 40.188804267377286], [28.652409694668563, 40.188804267377286], [28.652409694668563, 40.18988224571823], [28.651331716327633, 40.18988224571823], [28.651331716327633, 40.190960224059175], [28.650792727157153, 40.190960224059175], [28.650792727157153, 40.19149921322964], [28.648636770475264, 40.19149921322964], [28.648636770475264, 40.190960224059175], [28.649714748816223, 40.190960224059175], [28.649714748816223, 40.18988224571823], [28.649175759645743, 40.18988224571823], [28.649175759645743, 40.18934325654776], [28.648636770475264, 40.18934325654776], [28.648636770475264, 40.188804267377286], [28.648097781304784, 40.188804267377286], [28.648097781304784, 40.18826527820681], [28.647558792134333, 40.18826527820681], [28.647558792134333, 40.18772628903634], [28.645941824622923, 40.18772628903634], [28.645941824622923, 40.18718729986587], [28.644863846281964, 40.18718729986587], [28.644863846281964, 40.186648310695396], [28.644324857111485, 40.186648310695396], [28.644324857111485, 40.18557033235445], [28.644863846281964, 40.18557033235445], [28.644863846281964, 40.18503134318399], [28.645402835452444, 40.18503134318399], [28.645402835452444, 40.184492354013514], [28.645941824622923, 40.184492354013514], [28.645941824622923, 40.18503134318399], [28.646480813793374, 40.18503134318399], [28.646480813793374, 40.184492354013514], [28.647558792134333, 40.184492354013514], [28.647558792134333, 40.18395336484304], [28.648097781304784, 40.18395336484304], [28.648097781304784, 40.1828753865021], [28.648636770475264, 40.1828753865021], [28.648636770475264, 40.182336397331625], [28.649175759645743, 40.182336397331625], [28.649175759645743, 40.18179740816115], [28.649714748816223, 40.18179740816115], [28.649714748816223, 40.182336397331625], [28.650253737986674, 40.182336397331625], [28.650253737986674, 40.18179740816115], [28.650792727157153, 40.18179740816115], [28.650792727157153, 40.18125841899068], [28.651870705498112, 40.18125841899068], [28.651870705498112, 40.18071942982021], [28.654026662179973, 40.18071942982021], [28.654026662179973, 40.180180440649735], [28.654565651350453, 40.180180440649735], [28.654565651350453, 40.17964145147926], [28.655104640520932, 40.17964145147926], [28.655104640520932, 40.1791024623088]], [[28.649714748816223, 40.182336397331625], [28.649714748816223, 40.1828753865021], [28.649175759645743, 40.1828753865021], [28.649175759645743, 40.182336397331625], [28.649714748816223, 40.182336397331625]]]}, "properties": {"area_ha": 60.91919409887054, "mean_dnbr": 0.5613471021629916, "compactness": 0.253, "rectangularity": 0.49, "cropland_frac": 0.226, "persistent": true, "brightness_delta": -0.349}}, {"type": "Feature", "geometry": {"geodesic": false, "type": "Polygon", "coordinates": [[[28.71762738429564, 40.192577191570585], [28.71762738429564, 40.19203820240011], [28.71654940595471, 40.19203820240011], [28.71654940595471, 40.190960224059175], [28.717088395125188, 40.190960224059175], [28.717088395125188, 40.1904212348887], [28.71601041678423, 40.1904212348887], [28.71601041678423, 40.190960224059175], [28.71547142761375, 40.190960224059175], [28.71547142761375, 40.1904212348887], [28.71601041678423, 40.1904212348887], [28.71601041678423, 40.18988224571823], [28.7149324384433, 40.18988224571823], [28.7149324384433, 40.18934325654776], [28.71385446010234, 40.18934325654776], [28.71385446010234, 40.18826527820681], [28.71331547093189, 40.18826527820681], [28.71331547093189, 40.18772628903634], [28.71277648176141, 40.18772628903634], [28.71277648176141, 40.18718729986587], [28.71223749259093, 40.18718729986587], [28.71223749259093, 40.186648310695396], [28.71169850342045, 40.186648310695396], [28.71169850342045, 40.18557033235445], [28.71277648176141, 40.18557033235445], [28.71277648176141, 40.18503134318399], [28.71169850342045, 40.18503134318399], [28.71169850342045, 40.184492354013514], [28.71331547093189, 40.184492354013514], [28.71331547093189, 40.18395336484304], [28.71547142761375, 40.18395336484304], [28.71547142761375, 40.184492354013514], [28.71601041678423, 40.184492354013514], [28.71601041678423, 40.18503134318399], [28.71762738429564, 40.18503134318399], [28.71762738429564, 40.18557033235445], [28.71816637346612, 40.18557033235445], [28.71816637346612, 40.186109321524924], [28.718705362636598, 40.186109321524924], [28.718705362636598, 40.18826527820681], [28.719244351807077, 40.18826527820681], [28.719244351807077, 40.188804267377286], [28.718705362636598, 40.188804267377286], [28.718705362636598, 40.18934325654776], [28.71816637346612, 40.18934325654776], [28.71816637346612, 40.1904212348887], [28.719244351807077, 40.1904212348887], [28.719244351807077, 40.192577191570585], [28.71978334097753, 40.192577191570585], [28.71978334097753, 40.19311618074106], [28.720322330148008, 40.19311618074106], [28.720322330148008, 40.194733148252475], [28.719244351807077, 40.194733148252475], [28.719244351807077, 40.194194159082], [28.718705362636598, 40.194194159082], [28.718705362636598, 40.19365516991153], [28.71654940595471, 40.19365516991153], [28.71654940595471, 40.19311618074106], [28.71601041678423, 40.19311618074106], [28.71601041678423, 40.192577191570585], [28.71762738429564, 40.192577191570585]], [[28.71385446010234, 40.186648310695396], [28.71385446010234, 40.18718729986587], [28.71331547093189, 40.18718729986587], [28.71331547093189, 40.186648310695396], [28.71385446010234, 40.186648310695396]]]}, "properties": {"area_ha": 39.51342860452445, "mean_dnbr": 0.40456013569440313, "compactness": 0.197, "rectangularity": 0.526, "cropland_frac": 0.258, "persistent": true, "brightness_delta": -0.23}}, {"type": "Feature", "geometry": {"geodesic": false, "type": "Polygon", "coordinates": [[[29.03724796238538, 39.72042267823737], [29.03778695155586, 39.72042267823737], [29.03778695155586, 39.720961667407835], [29.03994290823772, 39.720961667407835], [29.03994290823772, 39.72203964574878], [29.0404818974082, 39.72203964574878], [29.0404818974082, 39.72257863491925], [29.04102088657868, 39.72257863491925], [29.04102088657868, 39.72203964574878], [29.04263785409009, 39.72203964574878], [29.04263785409009, 39.72257863491925], [29.0442548216015, 39.72257863491925], [29.0442548216015, 39.723117624089724], [29.045332799942457, 39.723117624089724], [29.045332799942457, 39.7236566132602], [29.04587178911291, 39.7236566132602], [29.04587178911291, 39.72419560243067], [29.046410778283388, 39.72419560243067], [29.046410778283388, 39.72473459160114], [29.048027745794798, 39.72473459160114], [29.048027745794798, 39.72419560243067], [29.049105724135757, 39.72419560243067], [29.049105724135757, 39.72527358077161], [29.049644713306236, 39.72527358077161], [29.049644713306236, 39.725812569942086], [29.051261680817646, 39.725812569942086], [29.051261680817646, 39.72635155911256], [29.052339659158577, 39.72635155911256], [29.052339659158577, 39.72689054828303], [29.052878648329056, 39.72689054828303], [29.052878648329056, 39.727429537453496], [29.053417637499535, 39.727429537453496], [29.053417637499535, 39.72796852662397], [29.053956626669986, 39.72796852662397], [29.053956626669986, 39.72850751579444], [29.054495615840466, 39.72850751579444], [29.054495615840466, 39.72904650496491], [29.056112583351876, 39.72904650496491], [29.056112583351876, 39.729585494135385], [29.057190561692835, 39.729585494135385], [29.057190561692835, 39.73012448330586], [29.060424496715655, 39.73012448330586], [29.060424496715655, 39.73066347247633], [29.060963485886134, 39.73066347247633], [29.060963485886134, 39.7312024616468], [29.061502475056614, 39.7312024616468], [29.061502475056614, 39.73228043998775], [29.060963485886134, 39.73228043998775], [29.060963485886134, 39.731741450817275], [29.060424496715655, 39.731741450817275], [29.060424496715655, 39.73228043998775], [29.058268540033765, 39.73228043998775], [29.058268540033765, 39.73389740749916], [29.057729550863286, 39.73389740749916], [29.057729550863286, 39.73443639666963], [29.054495615840466, 39.73443639666963], [29.054495615840466, 39.73389740749916], [29.053956626669986, 39.73389740749916], [29.053956626669986, 39.73443639666963], [29.053417637499535, 39.73443639666963], [29.053417637499535, 39.73389740749916], [29.052878648329056, 39.73389740749916], [29.052878648329056, 39.733358418328685], [29.051261680817646, 39.733358418328685], [29.051261680817646, 39.73281942915822], [29.050722691647167, 39.73281942915822], [29.050722691647167, 39.73228043998775], [29.049105724135757, 39.73228043998775], [29.049105724135757, 39.731741450817275], [29.048027745794798, 39.731741450817275], [29.048027745794798, 39.7312024616468], [29.046949767453867, 39.7312024616468], [29.046949767453867, 39.73066347247633], [29.044793810771978, 39.73066347247633], [29.044793810771978, 39.73012448330586], [29.0442548216015, 39.73012448330586], [29.0442548216015, 39.729585494135385], [29.043715832431047, 39.729585494135385], [29.043715832431047, 39.727429537453496], [29.043176843260568, 39.727429537453496], [29.043176843260568, 39.72796852662397], [29.04263785409009, 39.72796852662397], [29.04263785409009, 39.727429537453496], [29.04209886491961, 39.727429537453496], [29.04209886491961, 39.72689054828303], [29.041559875749158, 39.72689054828303], [29.041559875749158, 39.725812569942086], [29.03886492989679, 39.725812569942086], [29.03886492989679, 39.72527358077161], [29.03940391906727, 39.72527358077161], [29.03940391906727, 39.72419560243067], [29.0404818974082, 39.72419560243067], [29.0404818974082, 39.723117624089724], [29.03994290823772, 39.723117624089724], [29.03994290823772, 39.72257863491925], [29.03940391906727, 39.72257863491925], [29.03940391906727, 39.723117624089724], [29.03886492989679, 39.723117624089724], [29.03886492989679, 39.72203964574878], [29.03778695155586, 39.72203964574878], [29.03778695155586, 39.720961667407835], [29.03724796238538, 39.720961667407835], [29.03724796238538, 39.72042267823737]]]}, "properties": {"area_ha": 111.88165295475086, "mean_dnbr": 0.5073178027721071, "compactness": 0.206, "rectangularity": 0.568, "cropland_frac": 0, "persistent": true, "brightness_delta": -0.09}}, {"type": "Feature", "geometry": {"geodesic": false, "type": "Polygon", "coordinates": [[[29.26793532734726, 40.28204939386889], [29.26793532734726, 40.28258838303936], [29.26524038149492, 40.28258838303936], [29.26524038149492, 40.28204939386889], [29.26470139232444, 40.28204939386889], [29.26470139232444, 40.28312737220983], [29.26416240315396, 40.28312737220983], [29.26416240315396, 40.28258838303936], [29.26308442481303, 40.28258838303936], [29.26308442481303, 40.28312737220983], [29.26254543564255, 40.28312737220983], [29.26254543564255, 40.283666361380305], [29.26146745730162, 40.283666361380305], [29.26146745730162, 40.28312737220983], [29.26038947896066, 40.28312737220983], [29.26038947896066, 40.283666361380305], [29.259850489790182, 40.283666361380305], [29.259850489790182, 40.28420535055078], [29.25931150061973, 40.28420535055078], [29.25931150061973, 40.28474433972125], [29.25877251144925, 40.28474433972125], [29.25877251144925, 40.28420535055078], [29.258233522278772, 40.28420535055078], [29.258233522278772, 40.283666361380305], [29.257694533108292, 40.283666361380305], [29.257694533108292, 40.28312737220983], [29.25715554393784, 40.28312737220983], [29.25715554393784, 40.28258838303936], [29.256616554767362, 40.28258838303936], [29.256616554767362, 40.28204939386889], [29.25553857642643, 40.28204939386889], [29.25553857642643, 40.28151040469842], [29.254999587255952, 40.28151040469842], [29.254999587255952, 40.28043242635748], [29.25553857642643, 40.28043242635748], [29.25553857642643, 40.279893437187006], [29.256077565596883, 40.279893437187006], [29.256077565596883, 40.27827646967559], [29.256616554767362, 40.27827646967559], [29.256616554767362, 40.27773748050512], [29.257694533108292, 40.27773748050512], [29.257694533108292, 40.27827646967559], [29.258233522278772, 40.27827646967559], [29.258233522278772, 40.27773748050512], [29.25877251144925, 40.27773748050512], [29.25877251144925, 40.277198491334644], [29.25931150061973, 40.277198491334644], [29.25931150061973, 40.27773748050512], [29.259850489790182, 40.27773748050512], [29.259850489790182, 40.27665950216417], [29.257694533108292, 40.27665950216417], [29.257694533108292, 40.2761205129937], [29.25715554393784, 40.2761205129937], [29.25715554393784, 40.27558152382323], [29.25553857642643, 40.27558152382323], [29.25553857642643, 40.27504253465276], [29.254999587255952, 40.27504253465276], [29.254999587255952, 40.27450354548229], [29.254460598085473, 40.27450354548229], [29.254460598085473, 40.27396455631182], [29.254999587255952, 40.27396455631182], [29.254999587255952, 40.273425567141345], [29.25553857642643, 40.273425567141345], [29.25553857642643, 40.27396455631182], [29.256077565596883, 40.27396455631182], [29.256077565596883, 40.273425567141345], [29.256616554767362, 40.273425567141345], [29.256616554767362, 40.27450354548229], [29.25715554393784, 40.27450354548229], [29.25715554393784, 40.27558152382323], [29.257694533108292, 40.27558152382323], [29.257694533108292, 40.27504253465276], [29.258233522278772, 40.27504253465276], [29.258233522278772, 40.2761205129937], [29.259850489790182, 40.2761205129937], [29.259850489790182, 40.27504253465276], [29.25931150061973, 40.27504253465276], [29.25931150061973, 40.27450354548229], [29.259850489790182, 40.27450354548229], [29.259850489790182, 40.27396455631182], [29.26038947896066, 40.27396455631182], [29.26038947896066, 40.273425567141345], [29.259850489790182, 40.273425567141345], [29.259850489790182, 40.27288657797087], [29.26038947896066, 40.27288657797087], [29.26038947896066, 40.27180859962993], [29.26092846813114, 40.27180859962993], [29.26092846813114, 40.27288657797087], [29.26308442481303, 40.27288657797087], [29.26308442481303, 40.27019163211851], [29.26254543564255, 40.27019163211851], [29.26254543564255, 40.27073062128898], [29.26200644647207, 40.27073062128898], [29.26200644647207, 40.27019163211851], [29.26146745730162, 40.27019163211851], [29.26146745730162, 40.26911365377757], [29.26092846813114, 40.26911365377757], [29.26092846813114, 40.2685746646071], [29.26200644647207, 40.2685746646071], [29.26200644647207, 40.26803567543663], [29.26524038149492, 40.26803567543663], [29.26524038149492, 40.267496686266156], [29.26577937066537, 40.267496686266156], [29.26577937066537, 40.266957697095684], [29.26631835983585, 40.266957697095684], [29.26631835983585, 40.26641870792521], [29.26739633817681, 40.26641870792521], [29.26739633817681, 40.26587971875474], [29.26793532734726, 40.26587971875474], [29.26793532734726, 40.264801740413795], [29.26847431651774, 40.264801740413795], [29.26847431651774, 40.26426275124332], [29.26955229485867, 40.26426275124332], [29.26955229485867, 40.26372376207285], [29.27009128402915, 40.26372376207285], [29.27009128402915, 40.263184772902385], [29.27063027319963, 40.263184772902385], [29.27063027319963, 40.26264578373191], [29.27009128402915, 40.26264578373191], [29.27009128402915, 40.26210679456144], [29.27063027319963, 40.26210679456144], [29.27063027319963, 40.26264578373191], [29.27224724071104, 40.26264578373191], [29.27224724071104, 40.26372376207285], [29.27278622988152, 40.26372376207285], [29.27278622988152, 40.26534072958427], [29.273325219051998, 40.26534072958427], [29.273325219051998, 40.264801740413795], [29.27386420822245, 40.264801740413795], [29.27386420822245, 40.26534072958427], [29.274403197392928, 40.26534072958427], [29.274403197392928, 40.264801740413795], [29.274942186563408, 40.264801740413795], [29.274942186563408, 40.26426275124332], [29.27548117573386, 40.26426275124332], [29.27548117573386, 40.264801740413795], [29.276559154074818, 40.264801740413795], [29.276559154074818, 40.26534072958427], [29.277098143245297, 40.26534072958427], [29.277098143245297, 40.26587971875474], [29.277637132415748, 40.26587971875474], [29.277637132415748, 40.26641870792521], [29.278715110756707, 40.26641870792521], [29.278715110756707, 40.267496686266156], [29.279254099927186, 40.267496686266156], [29.279254099927186, 40.2685746646071], [29.279793089097637, 40.2685746646071], [29.279793089097637, 40.26911365377757], [29.280871067438596, 40.26911365377757], [29.280871067438596, 40.27073062128898], [29.280332078268117, 40.27073062128898], [29.280332078268117, 40.27288657797087], [29.280871067438596, 40.27288657797087], [29.280871067438596, 40.273425567141345], [29.281949045779527, 40.273425567141345], [29.281949045779527, 40.27450354548229], [29.282488034950006, 40.27450354548229], [29.282488034950006, 40.27504253465276], [29.283027024120486, 40.27504253465276], [29.283027024120486, 40.27558152382323], [29.283566013290937, 40.27558152382323], [29.283566013290937, 40.28043242635748], [29.284105002461416, 40.28043242635748], [29.284105002461416, 40.28097141552795], [29.285182980802375, 40.28097141552795], [29.285182980802375, 40.28204939386889], [29.284643991631896, 40.28204939386889], [29.284643991631896, 40.28258838303936], [29.285182980802375, 40.28258838303936], [29.285182980802375, 40.28312737220983], [29.284643991631896, 40.28312737220983], [29.284643991631896, 40.28258838303936], [29.284105002461416, 40.28258838303936], [29.284105002461416, 40.28204939386889], [29.281949045779527, 40.28204939386889], [29.281949045779527, 40.28258838303936], [29.281410056609047, 40.28258838303936], [29.281410056609047, 40.283666361380305], [29.280332078268117, 40.283666361380305], [29.280332078268117, 40.28420535055078], [29.279254099927186, 40.28420535055078], [29.279254099927186, 40.28474433972125], [29.278176121586228, 40.28474433972125], [29.278176121586228, 40.28528332889172], [29.277098143245297, 40.28528332889172], [29.277098143245297, 40.285822318062195], [29.276020164904338, 40.285822318062195], [29.276020164904338, 40.28528332889172], [29.27548117573386, 40.28528332889172], [29.27548117573386, 40.28474433972125], [29.274942186563408, 40.28474433972125], [29.274942186563408, 40.283666361380305], [29.27548117573386, 40.283666361380305], [29.27548117573386, 40.28312737220983], [29.27386420822245, 40.28312737220983], [29.27386420822245, 40.28151040469842], [29.273325219051998, 40.28151040469842], [29.273325219051998, 40.28097141552795], [29.27386420822245, 40.28097141552795], [29.27386420822245, 40.279893437187006], [29.27224724071104, 40.279893437187006], [29.27224724071104, 40.28097141552795], [29.27278622988152, 40.28097141552795], [29.27278622988152, 40.28151040469842], [29.27170825154056, 40.28151040469842], [29.27170825154056, 40.28097141552795], [29.27116926237011, 40.28097141552795], [29.27116926237011, 40.28204939386889], [29.27063027319963, 40.28204939386889], [29.27063027319963, 40.28258838303936], [29.27009128402915, 40.28258838303936], [29.27009128402915, 40.28204939386889], [29.26793532734726, 40.28204939386889]], [[29.27548117573386, 40.28097141552795], [29.27548117573386, 40.28151040469842], [29.274403197392928, 40.28151040469842], [29.274403197392928, 40.28097141552795], [29.27548117573386, 40.28097141552795]], [[29.27170825154056, 40.279893437187006], [29.27170825154056, 40.28043242635748], [29.27116926237011, 40.28043242635748], [29.27116926237011, 40.279893437187006], [29.27170825154056, 40.279893437187006]], [[29.27170825154056, 40.27881545884606], [29.27170825154056, 40.279354448016534], [29.27116926237011, 40.279354448016534], [29.27116926237011, 40.27881545884606], [29.27170825154056, 40.27881545884606]], [[29.279254099927186, 40.27827646967559], [29.279254099927186, 40.27881545884606], [29.278715110756707, 40.27881545884606], [29.278715110756707, 40.27827646967559], [29.279254099927186, 40.27827646967559]], [[29.279793089097637, 40.27665950216417], [29.279793089097637, 40.277198491334644], [29.279254099927186, 40.277198491334644], [29.279254099927186, 40.27665950216417], [29.279793089097637, 40.27665950216417]], [[29.27009128402915, 40.26587971875474], [29.27009128402915, 40.26641870792521], [29.26955229485867, 40.26641870792521], [29.26955229485867, 40.26587971875474], [29.27009128402915, 40.26587971875474]], [[29.27170825154056, 40.26534072958427], [29.27170825154056, 40.26587971875474], [29.27116926237011, 40.26587971875474], [29.27116926237011, 40.26534072958427], [29.27170825154056, 40.26534072958427]], [[29.27009128402915, 40.26426275124332], [29.27009128402915, 40.264801740413795], [29.26955229485867, 40.264801740413795], [29.26955229485867, 40.26426275124332], [29.27009128402915, 40.26426275124332]], [[29.25877251144925, 40.28204939386889], [29.25877251144925, 40.28258838303936], [29.258233522278772, 40.28258838303936], [29.258233522278772, 40.28204939386889], [29.25877251144925, 40.28204939386889]], [[29.26577937066537, 40.28097141552795], [29.26577937066537, 40.28151040469842], [29.26470139232444, 40.28151040469842], [29.26470139232444, 40.28097141552795], [29.26577937066537, 40.28097141552795]], [[29.26847431651774, 40.28097141552795], [29.26847431651774, 40.28151040469842], [29.26739633817681, 40.28151040469842], [29.26739633817681, 40.28097141552795], [29.26847431651774, 40.28097141552795]], [[29.26577937066537, 40.279893437187006], [29.26577937066537, 40.28043242635748], [29.26524038149492, 40.28043242635748], [29.26524038149492, 40.279893437187006], [29.26577937066537, 40.279893437187006]], [[29.26685734900633, 40.279893437187006], [29.26685734900633, 40.28043242635748], [29.26631835983585, 40.28043242635748], [29.26631835983585, 40.279893437187006], [29.26685734900633, 40.279893437187006]], [[29.26631835983585, 40.279354448016534], [29.26631835983585, 40.279893437187006], [29.26577937066537, 40.279893437187006], [29.26577937066537, 40.279354448016534], [29.26631835983585, 40.279354448016534]], [[29.26470139232444, 40.277198491334644], [29.26470139232444, 40.27773748050512], [29.26416240315396, 40.27773748050512], [29.26416240315396, 40.277198491334644], [29.26470139232444, 40.277198491334644]], [[29.26524038149492, 40.27665950216417], [29.26524038149492, 40.277198491334644], [29.26470139232444, 40.277198491334644], [29.26470139232444, 40.27665950216417], [29.26524038149492, 40.27665950216417]], [[29.26470139232444, 40.27450354548229], [29.26470139232444, 40.27504253465276], [29.26416240315396, 40.27504253465276], [29.26416240315396, 40.27450354548229], [29.26470139232444, 40.27450354548229]], [[29.26416240315396, 40.273425567141345], [29.26416240315396, 40.27396455631182], [29.26362341398348, 40.27396455631182], [29.26362341398348, 40.273425567141345], [29.26416240315396, 40.273425567141345]], [[29.26470139232444, 40.27288657797087], [29.26470139232444, 40.273425567141345], [29.26416240315396, 40.273425567141345], [29.26416240315396, 40.27288657797087], [29.26470139232444, 40.27288657797087]], [[29.26685734900633, 40.26803567543663], [29.26685734900633, 40.2685746646071], [29.26739633817681, 40.2685746646071], [29.26739633817681, 40.26911365377757], [29.26631835983585, 40.26911365377757], [29.26631835983585, 40.26803567543663], [29.26685734900633, 40.26803567543663]], [[29.26847431651774, 40.27881545884606], [29.26901330568822, 40.27881545884606], [29.26901330568822, 40.279893437187006], [29.27009128402915, 40.279893437187006], [29.27009128402915, 40.28097141552795], [29.26901330568822, 40.28097141552795], [29.26901330568822, 40.28043242635748], [29.26847431651774, 40.28043242635748], [29.26847431651774, 40.279893437187006], [29.26739633817681, 40.279893437187006], [29.26739633817681, 40.279354448016534], [29.26685734900633, 40.279354448016534], [29.26685734900633, 40.27827646967559], [29.26739633817681, 40.27827646967559], [29.26739633817681, 40.27773748050512], [29.26685734900633, 40.27773748050512], [29.26685734900633, 40.277198491334644], [29.26631835983585, 40.277198491334644], [29.26631835983585, 40.27773748050512], [29.26685734900633, 40.27773748050512], [29.26685734900633, 40.27827646967559], [29.26470139232444, 40.27827646967559], [29.26470139232444, 40.27773748050512], [29.26524038149492, 40.27773748050512], [29.26524038149492, 40.277198491334644], [29.26577937066537, 40.277198491334644], [29.26577937066537, 40.27665950216417], [29.26524038149492, 40.27665950216417], [29.26524038149492, 40.2761205129937], [29.26577937066537, 40.2761205129937], [29.26577937066537, 40.27558152382323], [29.26524038149492, 40.27558152382323], [29.26524038149492, 40.27396455631182], [29.26470139232444, 40.27396455631182], [29.26470139232444, 40.273425567141345], [29.26577937066537, 40.273425567141345], [29.26577937066537, 40.27180859962993], [29.26631835983585, 40.27180859962993], [29.26631835983585, 40.27073062128898], [29.26847431651774, 40.27073062128898], [29.26847431651774, 40.271269610459456], [29.26685734900633, 40.271269610459456], [29.26685734900633, 40.27288657797087], [29.26793532734726, 40.27288657797087], [29.26793532734726, 40.273425567141345], [29.26685734900633, 40.273425567141345], [29.26685734900633, 40.27396455631182], [29.26793532734726, 40.27396455631182], [29.26793532734726, 40.27504253465276], [29.26739633817681, 40.27504253465276], [29.26739633817681, 40.27558152382323], [29.26793532734726, 40.27558152382323], [29.26793532734726, 40.27773748050512], [29.26847431651774, 40.27773748050512], [29.26847431651774, 40.27881545884606]], [[29.26793532734726, 40.26803567543663], [29.26955229485867, 40.26803567543663], [29.26955229485867, 40.266957697095684], [29.27116926237011, 40.266957697095684], [29.27116926237011, 40.26641870792521], [29.27224724071104, 40.26641870792521], [29.27224724071104, 40.26587971875474], [29.273325219051998, 40.26587971875474], [29.273325219051998, 40.26641870792521], [29.27278622988152, 40.26641870792521], [29.27278622988152, 40.266957697095684], [29.273325219051998, 40.266957697095684], [29.273325219051998, 40.26641870792521], [29.27386420822245, 40.26641870792521], [29.27386420822245, 40.267496686266156], [29.27170825154056, 40.267496686266156], [29.27170825154056, 40.26803567543663], [29.27063027319963, 40.26803567543663], [29.27063027319963, 40.26965264294804], [29.26955229485867, 40.26965264294804], [29.26955229485867, 40.27019163211851], [29.26901330568822, 40.27019163211851], [29.26901330568822, 40.26965264294804], [29.26847431651774, 40.26965264294804], [29.26847431651774, 40.27019163211851], [29.26793532734726, 40.27019163211851], [29.26793532734726, 40.26911365377757], [29.26901330568822, 40.26911365377757], [29.26901330568822, 40.2685746646071], [29.26793532734726, 40.2685746646071], [29.26793532734726, 40.26803567543663]]]}, "properties": {"area_ha": 340.36610887807495, "mean_dnbr": 0.43489824667346116, "compactness": 0.056, "rectangularity": 0.504, "cropland_frac": 0.001, "persistent": true, "brightness_delta": -0.042}}]}