{"type": "FeatureCollection", "crs": {"type": "name", "properties": {"name": "urn:ogc:def:crs:OGC:1.3:CRS84"}}, "features": [{"type": "Feature", "geometry": {"geodesic": false, "type": "Polygon", "coordinates": [[[28.34949778086346, 40.051362028907], [28.351114748374897, 40.051362028907], [28.351114748374897, 40.052440007247945], [28.352192726715828, 40.052440007247945], [28.352192726715828, 40.05351798558888], [28.352731715886307, 40.05351798558888], [28.352731715886307, 40.054056974759355], [28.352192726715828, 40.054056974759355], [28.352192726715828, 40.05351798558888], [28.351114748374897, 40.05351798558888], [28.351114748374897, 40.05459596392983], [28.351653737545348, 40.05459596392983], [28.351653737545348, 40.0551349531003], [28.352192726715828, 40.0551349531003], [28.352192726715828, 40.05459596392983], [28.352731715886307, 40.05459596392983], [28.352731715886307, 40.05567394227077], [28.353270705056758, 40.05567394227077], [28.353270705056758, 40.05675192061172], [28.353809694227238, 40.05675192061172], [28.353809694227238, 40.05729090978219], [28.354348683397717, 40.05729090978219], [28.354348683397717, 40.05782989895266], [28.354887672568196, 40.05782989895266], [28.354887672568196, 40.058368888123134], [28.355426661738647, 40.058368888123134], [28.355426661738647, 40.0589078772936], [28.354887672568196, 40.0589078772936], [28.354887672568196, 40.060524844805016], [28.355426661738647, 40.060524844805016], [28.355426661738647, 40.06106383397549], [28.356504640079606, 40.06106383397549], [28.356504640079606, 40.06214181231643], [28.354887672568196, 40.06214181231643], [28.354887672568196, 40.06160282314596], [28.354348683397717, 40.06160282314596], [28.354348683397717, 40.06106383397549], [28.353809694227238, 40.06106383397549], [28.353809694227238, 40.060524844805016], [28.352731715886307, 40.060524844805016], [28.352731715886307, 40.059985855634544], [28.351653737545348, 40.059985855634544], [28.351653737545348, 40.05944686646407], [28.351114748374897, 40.05944686646407], [28.351114748374897, 40.058368888123134], [28.350575759204418, 40.058368888123134], [28.350575759204418, 40.056212931441245], [28.350036770033938, 40.056212931441245], [28.350036770033938, 40.054056974759355], [28.348958791693008, 40.054056974759355], [28.348958791693008, 40.052440007247945], [28.350036770033938, 40.052440007247945], [28.350036770033938, 40.05190101807747], [28.34949778086346, 40.05190101807747], [28.34949778086346, 40.051362028907]]]}, "properties": {"area_ha": 27.493024874044618, "mean_dnbr": 0.40805729912448985, "compactness": 0.18, "rectangularity": 0.535, "cropland_frac": 0.301, "persistent": true, "brightness_delta": -0.277}}, {"type": "Feature", "geometry": {"geodesic": false, "type": "Polygon", "coordinates": [[[28.89818875640367, 39.9408692489603], [28.89872774557415, 39.9408692489603], [28.89872774557415, 39.94194722730124], [28.89926673474463, 39.94194722730124], [28.89926673474463, 39.94140823813077], [28.89980572391508, 39.94140823813077], [28.89980572391508, 39.942486216471714], [28.89926673474463, 39.942486216471714], [28.89926673474463, 39.943025205642186], [28.89980572391508, 39.943025205642186], [28.89980572391508, 39.944103183983124], [28.90034471308556, 39.944103183983124], [28.90034471308556, 39.944642173153596], [28.89980572391508, 39.944642173153596], [28.89980572391508, 39.94518116232407], [28.89926673474463, 39.94518116232407], [28.89926673474463, 39.94625914066501], [28.89980572391508, 39.94625914066501], [28.89980572391508, 39.94733711900596], [28.90034471308556, 39.94733711900596], [28.90034471308556, 39.948954086517375], [28.89926673474463, 39.948954086517375], [28.89926673474463, 39.95111004319926], [28.89872774557415, 39.95111004319926], [28.89872774557415, 39.95164903236973], [28.89818875640367, 39.95164903236973], [28.89818875640367, 39.9521880215402], [28.89764976723319, 39.9521880215402], [28.89764976723319, 39.95326599988115], [28.89711077806274, 39.95326599988115], [28.89711077806274, 39.95380498905162], [28.89657178889226, 39.95380498905162], [28.89657178889226, 39.955421956563036], [28.89441583221037, 39.955421956563036], [28.89441583221037, 39.95596094573351], [28.89387684303989, 39.95596094573351], [28.89387684303989, 39.955421956563036], [28.89441583221037, 39.955421956563036], [28.89441583221037, 39.954882967392564], [28.89118189718755, 39.954882967392564], [28.89118189718755, 39.95434397822209], [28.89064290801707, 39.95434397822209], [28.89064290801707, 39.95380498905162], [28.89010391884659, 39.95380498905162], [28.89010391884659, 39.95326599988115], [28.89118189718755, 39.95326599988115], [28.89118189718755, 39.95380498905162], [28.89225987552848, 39.95380498905162], [28.89225987552848, 39.95164903236973], [28.891720886358, 39.95164903236973], [28.891720886358, 39.95111004319926], [28.89279886469896, 39.95111004319926], [28.89279886469896, 39.95003206485831], [28.89333785386944, 39.95003206485831], [28.89333785386944, 39.94733711900596], [28.89387684303989, 39.94733711900596], [28.89387684303989, 39.946798129835486], [28.89333785386944, 39.946798129835486], [28.89333785386944, 39.94625914066501], [28.89279886469896, 39.94625914066501], [28.89279886469896, 39.94518116232407], [28.89333785386944, 39.94518116232407], [28.89333785386944, 39.94356419481266], [28.89387684303989, 39.94356419481266], [28.89387684303989, 39.942486216471714], [28.89441583221037, 39.942486216471714], [28.89441583221037, 39.94140823813077], [28.8954938105513, 39.94140823813077], [28.8954938105513, 39.942486216471714], [28.89603279972178, 39.942486216471714], [28.89603279972178, 39.94194722730124], [28.89764976723319, 39.94194722730124], [28.89764976723319, 39.94140823813077], [28.89818875640367, 39.94140823813077], [28.89818875640367, 39.9408692489603]], [[28.89333785386944, 39.95380498905162], [28.89333785386944, 39.95434397822209], [28.89225987552848, 39.95434397822209], [28.89225987552848, 39.95380498905162], [28.89333785386944, 39.95380498905162]], [[28.89872774557415, 39.95003206485831], [28.89872774557415, 39.950571054028785], [28.89764976723319, 39.950571054028785], [28.89764976723319, 39.95003206485831], [28.89872774557415, 39.95003206485831]], [[28.89657178889226, 39.94572015149454], [28.89657178889226, 39.94625914066501], [28.89603279972178, 39.94625914066501], [28.89603279972178, 39.94572015149454], [28.89657178889226, 39.94572015149454]], [[28.89872774557415, 39.94572015149454], [28.89872774557415, 39.94625914066501], [28.89818875640367, 39.94625914066501], [28.89818875640367, 39.94572015149454], [28.89872774557415, 39.94572015149454]], [[28.89872774557415, 39.944103183983124], [28.89872774557415, 39.944642173153596], [28.89818875640367, 39.944642173153596], [28.89818875640367, 39.94518116232407], [28.89711077806274, 39.94518116232407], [28.89711077806274, 39.944103183983124], [28.89872774557415, 39.944103183983124]], [[28.89603279972178, 39.94356419481266], [28.89603279972178, 39.944103183983124], [28.8954938105513, 39.944103183983124], [28.8954938105513, 39.94356419481266], [28.89603279972178, 39.94356419481266]]]}, "properties": {"area_ha": 75.45075468172418, "mean_dnbr": 0.3840267626340092, "compactness": 0.149, "rectangularity": 0.6, "cropland_frac": 0.11, "persistent": true, "brightness_delta": 0.006}}]}