{"type": "FeatureCollection", "crs": {"type": "name", "properties": {"name": "urn:ogc:def:crs:OGC:1.3:CRS84"}}, "features": [{"type": "Feature", "geometry": {"geodesic": false, "type": "Polygon", "coordinates": [[[30.835315835079, 36.973733865513516], [30.83693280259041, 36.973733865513516], [30.83693280259041, 36.97427285468399], [30.83747179176089, 36.97427285468399], [30.83747179176089, 36.97481184385446], [30.83801078093137, 36.97481184385446], [30.83801078093137, 36.975889822195406], [30.83854977010185, 36.975889822195406], [30.83854977010185, 36.97642881136588], [30.8390887592723, 36.97642881136588], [30.8390887592723, 36.97912375721823], [30.83854977010185, 36.97912375721823], [30.83854977010185, 36.98020173555918], [30.83585482424948, 36.98020173555918], [30.83585482424948, 36.98074072472965], [30.83639381341996, 36.98074072472965], [30.83639381341996, 36.98127971390012], [30.83423785673807, 36.98127971390012], [30.83423785673807, 36.97912375721823], [30.83477684590855, 36.97912375721823], [30.83477684590855, 36.97804577887729], [30.83639381341996, 36.97804577887729], [30.83639381341996, 36.97750678970682], [30.83747179176089, 36.97750678970682], [30.83747179176089, 36.97642881136588], [30.83585482424948, 36.97642881136588], [30.83585482424948, 36.97696780053635], [30.835315835079, 36.97696780053635], [30.835315835079, 36.97642881136588], [30.83477684590855, 36.97642881136588], [30.83477684590855, 36.975889822195406], [30.835315835079, 36.975889822195406], [30.835315835079, 36.973733865513516]]]}, "properties": {"area_ha": 21.52128604858641, "mean_dnbr": 0.5419988170263433, "compactness": 0.259, "rectangularity": 0.595, "cropland_frac": 0, "persistent": true, "brightness_delta": 0.0}}]}