{"type": "FeatureCollection", "crs": {"type": "name", "properties": {"name": "urn:ogc:def:crs:OGC:1.3:CRS84"}}, "features": [{"type": "Feature", "geometry": {"geodesic": false, "type": "Polygon", "coordinates": [[[30.322737133960402, 38.77126274903668], [30.32327612313088, 38.77126274903668], [30.32327612313088, 38.77180173820715], [30.32489309064229, 38.77180173820715], [30.32489309064229, 38.7728797165481], [30.32543207981277, 38.7728797165481], [30.32543207981277, 38.77449668405951], [30.32597106898325, 38.77449668405951], [30.32597106898325, 38.77557466240045], [30.3265100581537, 38.77557466240045], [30.3265100581537, 38.77719162991187], [30.32543207981277, 38.77719162991187], [30.32543207981277, 38.77773061908234], [30.324354101471812, 38.77773061908234], [30.324354101471812, 38.778808597423286], [30.32489309064229, 38.778808597423286], [30.32489309064229, 38.77934758659376], [30.32597106898325, 38.77934758659376], [30.32597106898325, 38.77988657576423], [30.3265100581537, 38.77988657576423], [30.3265100581537, 38.778808597423286], [30.32597106898325, 38.778808597423286], [30.32597106898325, 38.77826960825281], [30.32704904732418, 38.77826960825281], [30.32704904732418, 38.776652640741396], [30.32758803649466, 38.776652640741396], [30.32758803649466, 38.776113651570924], [30.32866601483559, 38.776113651570924], [30.32866601483559, 38.77719162991187], [30.32920500400607, 38.77719162991187], [30.32920500400607, 38.77773061908234], [30.32974399317655, 38.77773061908234], [30.32974399317655, 38.778808597423286], [30.330282982347, 38.778808597423286], [30.330282982347, 38.77934758659376], [30.33136096068796, 38.77934758659376], [30.33136096068796, 38.77988657576423], [30.33189994985844, 38.77988657576423], [30.33189994985844, 38.77934758659376], [30.33243893902889, 38.77934758659376], [30.33243893902889, 38.77988657576423], [30.33189994985844, 38.77988657576423], [30.33189994985844, 38.780425564934696], [30.33243893902889, 38.780425564934696], [30.33243893902889, 38.78096455410517], [30.33405590654033, 38.78096455410517], [30.33405590654033, 38.78204253244611], [30.33513388488126, 38.78204253244611], [30.33513388488126, 38.782581521616585], [30.33351691736985, 38.782581521616585], [30.33351691736985, 38.784198489128], [30.33459489571078, 38.784198489128], [30.33459489571078, 38.78527646746895], [30.33728984156315, 38.78527646746895], [30.33728984156315, 38.78581545663942], [30.33459489571078, 38.78581545663942], [30.33459489571078, 38.78635444580989], [30.33513388488126, 38.78635444580989], [30.33513388488126, 38.78689343498036], [30.33567287405174, 38.78689343498036], [30.33567287405174, 38.78635444580989], [30.33621186322219, 38.78635444580989], [30.33621186322219, 38.78689343498036], [30.33567287405174, 38.78689343498036], [30.33567287405174, 38.78743242415083], [30.33675085239267, 38.78743242415083], [30.33675085239267, 38.78689343498036], [30.33728984156315, 38.78689343498036], [30.33728984156315, 38.78635444580989], [30.33836781990408, 38.78635444580989], [30.33836781990408, 38.78689343498036], [30.33728984156315, 38.78689343498036], [30.33728984156315, 38.78743242415083], [30.337828830733628, 38.78743242415083], [30.337828830733628, 38.7879714133213], [30.33836781990408, 38.7879714133213], [30.33836781990408, 38.78743242415083], [30.339445798245038, 38.78743242415083], [30.339445798245038, 38.788510402491774], [30.337828830733628, 38.788510402491774], [30.337828830733628, 38.789049391662246], [30.33836781990408, 38.789049391662246], [30.33836781990408, 38.78958838083272], [30.339445798245038, 38.78958838083272], [30.339445798245038, 38.79012737000319], [30.338906809074558, 38.79012737000319], [30.338906809074558, 38.79066635917366], [30.337828830733628, 38.79066635917366], [30.337828830733628, 38.79012737000319], [30.33836781990408, 38.79012737000319], [30.33836781990408, 38.78958838083272], [30.33621186322219, 38.78958838083272], [30.33621186322219, 38.79012737000319], [30.33675085239267, 38.79012737000319], [30.33675085239267, 38.79066635917366], [30.33728984156315, 38.79066635917366], [30.33728984156315, 38.79174433751461], [30.33675085239267, 38.79174433751461], [30.33675085239267, 38.791205348344135], [30.33567287405174, 38.791205348344135], [30.33567287405174, 38.792822315855545], [30.33728984156315, 38.792822315855545], [30.33728984156315, 38.79336130502602], [30.337828830733628, 38.79336130502602], [30.337828830733628, 38.792822315855545], [30.339984787415517, 38.792822315855545], [30.339984787415517, 38.79390029419649], [30.33836781990408, 38.79390029419649], [30.33836781990408, 38.79443928336696], [30.33728984156315, 38.79443928336696], [30.33728984156315, 38.79390029419649], [30.33351691736985, 38.79390029419649], [30.33351691736985, 38.79443928336696], [30.33297792819937, 38.79443928336696], [30.33297792819937, 38.79390029419649], [30.33082197151748, 38.79390029419649], [30.33082197151748, 38.79336130502602], [30.32920500400607, 38.79336130502602], [30.32920500400607, 38.791205348344135], [30.32812702566514, 38.791205348344135], [30.32812702566514, 38.79066635917366], [30.32704904732418, 38.79066635917366], [30.32704904732418, 38.791205348344135], [30.32597106898325, 38.791205348344135], [30.32597106898325, 38.79066635917366], [30.32704904732418, 38.79066635917366], [30.32704904732418, 38.78958838083272], [30.3265100581537, 38.78958838083272], [30.3265100581537, 38.79012737000319], [30.32597106898325, 38.79012737000319], [30.32597106898325, 38.78958838083272], [30.324354101471812, 38.78958838083272], [30.324354101471812, 38.789049391662246], [30.32489309064229, 38.789049391662246], [30.32489309064229, 38.7879714133213], [30.324354101471812, 38.7879714133213], [30.324354101471812, 38.78689343498036], [30.32381511230136, 38.78689343498036], [30.32381511230136, 38.78527646746895], [30.324354101471812, 38.78527646746895], [30.324354101471812, 38.78581545663942], [30.32489309064229, 38.78581545663942], [30.32489309064229, 38.78527646746895], [30.32543207981277, 38.78527646746895], [30.32543207981277, 38.78635444580989], [30.32597106898325, 38.78635444580989], [30.32597106898325, 38.78581545663942], [30.3265100581537, 38.78581545663942], [30.3265100581537, 38.78635444580989], [30.32704904732418, 38.78635444580989], [30.32704904732418, 38.78743242415083], [30.3265100581537, 38.78743242415083], [30.3265100581537, 38.7879714133213], [30.32866601483559, 38.7879714133213], [30.32866601483559, 38.788510402491774], [30.32812702566514, 38.788510402491774], [30.32812702566514, 38.789049391662246], [30.32758803649466, 38.789049391662246], [30.32758803649466, 38.78958838083272], [30.32812702566514, 38.78958838083272], [30.32812702566514, 38.79012737000319], [30.32866601483559, 38.79012737000319], [30.32866601483559, 38.79066635917366], [30.32920500400607, 38.79066635917366], [30.32920500400607, 38.791205348344135], [30.32974399317655, 38.791205348344135], [30.32974399317655, 38.79066635917366], [30.330282982347, 38.79066635917366], [30.330282982347, 38.79174433751461], [30.33082197151748, 38.79174433751461], [30.33082197151748, 38.791205348344135], [30.33136096068796, 38.791205348344135], [30.33136096068796, 38.79174433751461], [30.33189994985844, 38.79174433751461], [30.33189994985844, 38.791205348344135], [30.33243893902889, 38.791205348344135], [30.33243893902889, 38.792822315855545], [30.33189994985844, 38.792822315855545], [30.33189994985844, 38.79336130502602], [30.33297792819937, 38.79336130502602], [30.33297792819937, 38.79228332668508], [30.33351691736985, 38.79228332668508], [30.33351691736985, 38.792822315855545], [30.33459489571078, 38.792822315855545], [30.33459489571078, 38.79336130502602], [30.33513388488126, 38.79336130502602], [30.33513388488126, 38.79174433751461], [30.33405590654033, 38.79174433751461], [30.33405590654033, 38.791205348344135], [30.33297792819937, 38.791205348344135], [30.33297792819937, 38.79012737000319], [30.33243893902889, 38.79012737000319], [30.33243893902889, 38.78958838083272], [30.33189994985844, 38.78958838083272], [30.33189994985844, 38.789049391662246], [30.33243893902889, 38.789049391662246], [30.33243893902889, 38.788510402491774], [30.33351691736985, 38.788510402491774], [30.33351691736985, 38.78689343498036], [30.33405590654033, 38.78689343498036], [30.33405590654033, 38.78635444580989], [30.33243893902889, 38.78635444580989], [30.33243893902889, 38.78527646746895], [30.33189994985844, 38.78527646746895], [30.33189994985844, 38.78365949995753], [30.33136096068796, 38.78365949995753], [30.33136096068796, 38.784737478298474], [30.33082197151748, 38.784737478298474], [30.33082197151748, 38.78527646746895], [30.33136096068796, 38.78527646746895], [30.33136096068796, 38.78581545663942], [30.33082197151748, 38.78581545663942], [30.33082197151748, 38.78635444580989], [30.330282982347, 38.78635444580989], [30.330282982347, 38.78581545663942], [30.32974399317655, 38.78581545663942], [30.32974399317655, 38.78527646746895], [30.32812702566514, 38.78527646746895], [30.32812702566514, 38.784737478298474], [30.32597106898325, 38.784737478298474], [30.32597106898325, 38.784198489128], [30.32543207981277, 38.784198489128], [30.32543207981277, 38.78365949995753], [30.32597106898325, 38.78365949995753], [30.32597106898325, 38.78150354327564], [30.324354101471812, 38.78150354327564], [30.324354101471812, 38.78096455410517], [30.32381511230136, 38.78096455410517], [30.32381511230136, 38.78150354327564], [30.32327612313088, 38.78150354327564], [30.32327612313088, 38.78204253244611], [30.324354101471812, 38.78204253244611], [30.324354101471812, 38.78312051078706], [30.32381511230136, 38.78312051078706], [30.32381511230136, 38.78365949995753], [30.322737133960402, 38.78365949995753], [30.322737133960402, 38.782581521616585], [30.32219814478995, 38.782581521616585], [30.32219814478995, 38.78204253244611], [30.322737133960402, 38.78204253244611], [30.322737133960402, 38.77988657576423], [30.32327612313088, 38.77988657576423], [30.32327612313088, 38.77934758659376], [30.322737133960402, 38.77934758659376], [30.322737133960402, 38.778808597423286], [30.32165915561947, 38.778808597423286], [30.32165915561947, 38.77826960825281], [30.321120166448992, 38.77826960825281], [30.321120166448992, 38.776652640741396], [30.320581177278513, 38.776652640741396], [30.320581177278513, 38.776113651570924], [30.321120166448992, 38.776113651570924], [30.321120166448992, 38.77557466240045], [30.320581177278513, 38.77557466240045], [30.320581177278513, 38.77449668405951], [30.32004218810806, 38.77449668405951], [30.32004218810806, 38.7728797165481], [30.320581177278513, 38.7728797165481], [30.320581177278513, 38.772340727377625], [30.32165915561947, 38.772340727377625], [30.32165915561947, 38.77180173820715], [30.32219814478995, 38.77180173820715], [30.32219814478995, 38.772340727377625], [30.322737133960402, 38.772340727377625], [30.322737133960402, 38.77126274903668]], [[30.32327612313088, 38.78204253244611], [30.32327612313088, 38.782581521616585], [30.322737133960402, 38.782581521616585], [30.322737133960402, 38.78204253244611], [30.32327612313088, 38.78204253244611]], [[30.330282982347, 38.784737478298474], [30.330282982347, 38.78527646746895], [30.32974399317655, 38.78527646746895], [30.32974399317655, 38.784737478298474], [30.330282982347, 38.784737478298474]], [[30.32920500400607, 38.784198489128], [30.32920500400607, 38.784737478298474], [30.32866601483559, 38.784737478298474], [30.32866601483559, 38.784198489128], [30.32920500400607, 38.784198489128]], [[30.33675085239267, 38.788510402491774], [30.33675085239267, 38.789049391662246], [30.33621186322219, 38.789049391662246], [30.33621186322219, 38.788510402491774], [30.33675085239267, 38.788510402491774]], [[30.33405590654033, 38.78527646746895], [30.33405590654033, 38.78581545663942], [30.33351691736985, 38.78581545663942], [30.33351691736985, 38.78527646746895], [30.33405590654033, 38.78527646746895]], [[30.33351691736985, 38.784198489128], [30.33351691736985, 38.78527646746895], [30.33297792819937, 38.78527646746895], [30.33297792819937, 38.784198489128], [30.33351691736985, 38.784198489128]], [[30.33189994985844, 38.78204253244611], [30.33189994985844, 38.78312051078706], [30.33136096068796, 38.78312051078706], [30.33136096068796, 38.78204253244611], [30.33189994985844, 38.78204253244611]], [[30.33136096068796, 38.78150354327564], [30.33136096068796, 38.78204253244611], [30.33082197151748, 38.78204253244611], [30.33082197151748, 38.78150354327564], [30.33136096068796, 38.78150354327564]], [[30.32866601483559, 38.78096455410517], [30.32866601483559, 38.78150354327564], [30.32812702566514, 38.78150354327564], [30.32812702566514, 38.78096455410517], [30.32866601483559, 38.78096455410517]], [[30.32597106898325, 38.780425564934696], [30.32597106898325, 38.78096455410517], [30.32489309064229, 38.78096455410517], [30.32489309064229, 38.780425564934696], [30.32597106898325, 38.780425564934696]], [[30.322737133960402, 38.77719162991187], [30.322737133960402, 38.77773061908234], [30.32219814478995, 38.77773061908234], [30.32219814478995, 38.77719162991187], [30.322737133960402, 38.77719162991187]], [[30.32327612313088, 38.77341870571857], [30.32327612313088, 38.77395769488904], [30.322737133960402, 38.77395769488904], [30.322737133960402, 38.77449668405951], [30.32165915561947, 38.77449668405951], [30.32165915561947, 38.77341870571857], [30.32327612313088, 38.77341870571857]]]}, "properties": {"area_ha": 143.3599769145054, "mean_dnbr": 0.19270801570186402, "compactness": 0.03, "rectangularity": 0.396, "cropland_frac": 0.355, "persistent": true, "brightness_delta": -0.074}}, {"type": "Feature", "geometry": {"geodesic": false, "type": "Polygon", "coordinates": [[[30.46610825330589, 38.698499211023], [30.46718623164682, 38.698499211023], [30.46718623164682, 38.69903820019347], [30.46664724247637, 38.69903820019347], [30.46664724247637, 38.69957718936394], [30.4677252208173, 38.69957718936394], [30.4677252208173, 38.700116178534415], [30.46826420998778, 38.700116178534415], [30.46826420998778, 38.7022721352163], [30.4677252208173, 38.7022721352163], [30.4677252208173, 38.70281112438677], [30.46826420998778, 38.70281112438677], [30.46826420998778, 38.703889102727715], [30.46880319915823, 38.703889102727715], [30.46880319915823, 38.70281112438677], [30.46934218832871, 38.70281112438677], [30.46934218832871, 38.70065516770489], [30.46988117749919, 38.70065516770489], [30.46988117749919, 38.700116178534415], [30.47042016666967, 38.700116178534415], [30.47042016666967, 38.69957718936394], [30.47203713418108, 38.69957718936394], [30.47203713418108, 38.70065516770489], [30.4714981450106, 38.70065516770489], [30.4714981450106, 38.70173314604583], [30.47203713418108, 38.70173314604583], [30.47203713418108, 38.7022721352163], [30.47095915584012, 38.7022721352163], [30.47095915584012, 38.70496708106866], [30.46988117749919, 38.70496708106866], [30.46988117749919, 38.70550607023913], [30.46880319915823, 38.70550607023913], [30.46880319915823, 38.70496708106866], [30.46826420998778, 38.70496708106866], [30.46826420998778, 38.70550607023913], [30.46718623164682, 38.70550607023913], [30.46718623164682, 38.706045059409604], [30.46664724247637, 38.706045059409604], [30.46664724247637, 38.706584048580076], [30.46556926413541, 38.706584048580076], [30.46556926413541, 38.706045059409604], [30.46503027496493, 38.706045059409604], [30.46503027496493, 38.70550607023913], [30.46664724247637, 38.70550607023913], [30.46664724247637, 38.70496708106866], [30.46556926413541, 38.70496708106866], [30.46556926413541, 38.703889102727715], [30.46503027496493, 38.703889102727715], [30.46503027496493, 38.70281112438677], [30.46449128579448, 38.70281112438677], [30.46449128579448, 38.7022721352163], [30.46503027496493, 38.7022721352163], [30.46503027496493, 38.70173314604583], [30.463952296624, 38.70173314604583], [30.463952296624, 38.70119415687536], [30.46233532911259, 38.70119415687536], [30.46233532911259, 38.70065516770489], [30.462874318283042, 38.70065516770489], [30.462874318283042, 38.700116178534415], [30.463952296624, 38.700116178534415], [30.463952296624, 38.70119415687536], [30.46556926413541, 38.70119415687536], [30.46556926413541, 38.69903820019347], [30.46610825330589, 38.69903820019347], [30.46610825330589, 38.698499211023]], [[30.46934218832871, 38.703889102727715], [30.46934218832871, 38.70442809189819], [30.46880319915823, 38.70442809189819], [30.46880319915823, 38.703889102727715], [30.46934218832871, 38.703889102727715]], [[30.4677252208173, 38.70065516770489], [30.4677252208173, 38.70119415687536], [30.46718623164682, 38.70119415687536], [30.46718623164682, 38.70065516770489], [30.4677252208173, 38.70065516770489]], [[30.46664724247637, 38.700116178534415], [30.46664724247637, 38.70065516770489], [30.46610825330589, 38.70065516770489], [30.46610825330589, 38.700116178534415], [30.46664724247637, 38.700116178534415]]]}, "properties": {"area_ha": 31.95617748842979, "mean_dnbr": 0.27089197035342183, "compactness": 0.108, "rectangularity": 0.448, "cropland_frac": 0.261, "persistent": true, "brightness_delta": 0.01}}, {"type": "Feature", "geometry": {"geodesic": false, "type": "Polygon", "coordinates": [[[30.79866457148694, 38.40367213477497], [30.800820528168828, 38.40367213477497], [30.800820528168828, 38.404211123945444], [30.802437495680238, 38.404211123945444], [30.802437495680238, 38.406367080627334], [30.800281538998348, 38.406367080627334], [30.800281538998348, 38.4069060697978], [30.800820528168828, 38.4069060697978], [30.800820528168828, 38.40744505896827], [30.802437495680238, 38.40744505896827], [30.802437495680238, 38.407984048138744], [30.802976484850717, 38.407984048138744], [30.802976484850717, 38.40906202647969], [30.804593452362127, 38.40906202647969], [30.804593452362127, 38.41121798316158], [30.805132441532606, 38.41121798316158], [30.805132441532606, 38.410678993991105], [30.805671430703057, 38.410678993991105], [30.805671430703057, 38.41121798316158], [30.807827387384947, 38.41121798316158], [30.807827387384947, 38.41175697233205], [30.808905365725906, 38.41175697233205], [30.808905365725906, 38.41121798316158], [30.809444354896357, 38.41121798316158], [30.809444354896357, 38.41014000482063], [30.811600311578246, 38.41014000482063], [30.811600311578246, 38.41121798316158], [30.812139300748726, 38.41121798316158], [30.812139300748726, 38.41229596150252], [30.810522333237316, 38.41229596150252], [30.810522333237316, 38.41283495067299], [30.811061322407795, 38.41283495067299], [30.811061322407795, 38.41337393984346], [30.811600311578246, 38.41337393984346], [30.811600311578246, 38.41391292901393], [30.812678289919205, 38.41391292901393], [30.812678289919205, 38.41499090735488], [30.810522333237316, 38.41499090735488], [30.810522333237316, 38.414451918184405], [30.809983344066836, 38.414451918184405], [30.809983344066836, 38.41499090735488], [30.808366376555426, 38.41499090735488], [30.808366376555426, 38.41552989652535], [30.807827387384947, 38.41552989652535], [30.807827387384947, 38.41499090735488], [30.806210419873537, 38.41499090735488], [30.806210419873537, 38.41552989652535], [30.805671430703057, 38.41552989652535], [30.805671430703057, 38.41499090735488], [30.803515474021168, 38.41499090735488], [30.803515474021168, 38.41391292901393], [30.802976484850717, 38.41391292901393], [30.802976484850717, 38.41337393984346], [30.801898506509758, 38.41337393984346], [30.801898506509758, 38.41283495067299], [30.802437495680238, 38.41283495067299], [30.802437495680238, 38.41229596150252], [30.801898506509758, 38.41229596150252], [30.801898506509758, 38.41175697233205], [30.80135951733928, 38.41175697233205], [30.80135951733928, 38.41121798316158], [30.800820528168828, 38.41121798316158], [30.800820528168828, 38.410678993991105], [30.799203560657418, 38.410678993991105], [30.799203560657418, 38.41121798316158], [30.79866457148694, 38.41121798316158], [30.79866457148694, 38.40960101565016], [30.79812558231646, 38.40960101565016], [30.79812558231646, 38.408523037309216], [30.79596962563457, 38.408523037309216], [30.79596962563457, 38.407984048138744], [30.79543063646409, 38.407984048138744], [30.79543063646409, 38.40582809145686], [30.79489164729364, 38.40582809145686], [30.79489164729364, 38.406367080627334], [30.79381366895268, 38.406367080627334], [30.79381366895268, 38.404211123945444], [30.79273569061175, 38.404211123945444], [30.79273569061175, 38.40367213477497], [30.79650861480505, 38.40367213477497], [30.79650861480505, 38.404211123945444], [30.79866457148694, 38.404211123945444], [30.79866457148694, 38.40367213477497]], [[30.809444354896357, 38.41229596150252], [30.809444354896357, 38.41283495067299], [30.809983344066836, 38.41283495067299], [30.809983344066836, 38.41337393984346], [30.808905365725906, 38.41337393984346], [30.808905365725906, 38.41391292901393], [30.808366376555426, 38.41391292901393], [30.808366376555426, 38.41229596150252], [30.809444354896357, 38.41229596150252]], [[30.800281538998348, 38.40960101565016], [30.800281538998348, 38.41014000482063], [30.79974254982787, 38.41014000482063], [30.79974254982787, 38.40960101565016], [30.800281538998348, 38.40960101565016]]]}, "properties": {"area_ha": 82.18685160245832, "mean_dnbr": 0.5467450796022927, "compactness": 0.133, "rectangularity": 0.444, "cropland_frac": 0.008, "persistent": true, "brightness_delta": -0.073}}]}