{"type": "FeatureCollection", "crs": {"type": "name", "properties": {"name": "urn:ogc:def:crs:OGC:1.3:CRS84"}}, "features": [{"type": "Feature", "geometry": {"geodesic": false, "type": "Polygon", "coordinates": [[[29.976706086517567, 37.89702231453156], [29.977784064858525, 37.89702231453156], [29.977784064858525, 37.897561303702034], [29.978862043199456, 37.897561303702034], [29.978862043199456, 37.898100292872506], [29.979940021540386, 37.898100292872506], [29.979940021540386, 37.89863928204298], [29.981556989051825, 37.89863928204298], [29.981556989051825, 37.90079523872486], [29.981017999881345, 37.90079523872486], [29.981017999881345, 37.90133422789533], [29.980479010710866, 37.90133422789533], [29.980479010710866, 37.901873217065805], [29.981017999881345, 37.901873217065805], [29.981017999881345, 37.90295119540675], [29.980479010710866, 37.90295119540675], [29.980479010710866, 37.90510715208864], [29.981017999881345, 37.90510715208864], [29.981017999881345, 37.906185130429584], [29.980479010710866, 37.906185130429584], [29.980479010710866, 37.90564614125911], [29.979940021540386, 37.90564614125911], [29.979940021540386, 37.90726310877052], [29.979401032369935, 37.90726310877052], [29.979401032369935, 37.90834108711147], [29.978862043199456, 37.90834108711147], [29.978862043199456, 37.907802097940994], [29.974550129835677, 37.907802097940994], [29.974550129835677, 37.90726310877052], [29.974011140665198, 37.90726310877052], [29.974011140665198, 37.907802097940994], [29.973472151494747, 37.907802097940994], [29.973472151494747, 37.90834108711147], [29.96808225979001, 37.90834108711147], [29.96808225979001, 37.90672411960005], [29.9664652922786, 37.90672411960005], [29.9664652922786, 37.906185130429584], [29.965926303108148, 37.906185130429584], [29.965926303108148, 37.90564614125911], [29.96808225979001, 37.90564614125911], [29.96808225979001, 37.90510715208864], [29.96862124896049, 37.90510715208864], [29.96862124896049, 37.90456816291817], [29.969699227301447, 37.90456816291817], [29.969699227301447, 37.90510715208864], [29.972394173153788, 37.90510715208864], [29.972394173153788, 37.90564614125911], [29.972933162324267, 37.90564614125911], [29.972933162324267, 37.906185130429584], [29.973472151494747, 37.906185130429584], [29.973472151494747, 37.90672411960005], [29.974011140665198, 37.90672411960005], [29.974011140665198, 37.90510715208864], [29.974550129835677, 37.90510715208864], [29.974550129835677, 37.904029173747695], [29.975089119006157, 37.904029173747695], [29.975089119006157, 37.90349018457722], [29.975628108176636, 37.90349018457722], [29.975628108176636, 37.90295119540675], [29.976706086517567, 37.90295119540675], [29.976706086517567, 37.90349018457722], [29.977784064858525, 37.90349018457722], [29.977784064858525, 37.901873217065805], [29.978323054028976, 37.901873217065805], [29.978323054028976, 37.90241220623628], [29.978862043199456, 37.90241220623628], [29.978862043199456, 37.901873217065805], [29.979940021540386, 37.901873217065805], [29.979940021540386, 37.90133422789533], [29.980479010710866, 37.90133422789533], [29.980479010710866, 37.89971726038392], [29.979401032369935, 37.89971726038392], [29.979401032369935, 37.90025624955439], [29.978323054028976, 37.90025624955439], [29.978323054028976, 37.89971726038392], [29.977784064858525, 37.89971726038392], [29.977784064858525, 37.89917827121345], [29.976706086517567, 37.89917827121345], [29.976706086517567, 37.89971726038392], [29.977245075688046, 37.89971726038392], [29.977245075688046, 37.90025624955439], [29.977784064858525, 37.90025624955439], [29.977784064858525, 37.90079523872486], [29.977245075688046, 37.90079523872486], [29.977245075688046, 37.90025624955439], [29.976706086517567, 37.90025624955439], [29.976706086517567, 37.90133422789533], [29.975628108176636, 37.90133422789533], [29.975628108176636, 37.90079523872486], [29.975089119006157, 37.90079523872486], [29.975089119006157, 37.90025624955439], [29.974011140665198, 37.90025624955439], [29.974011140665198, 37.90079523872486], [29.973472151494747, 37.90079523872486], [29.973472151494747, 37.89971726038392], [29.974550129835677, 37.89971726038392], [29.974550129835677, 37.89917827121345], [29.976706086517567, 37.89917827121345], [29.976706086517567, 37.898100292872506], [29.976167097347087, 37.898100292872506], [29.976167097347087, 37.897561303702034], [29.976706086517567, 37.897561303702034], [29.976706086517567, 37.89702231453156]]]}, "properties": {"area_ha": 65.1865590386489, "mean_dnbr": 0.20563824927862515, "compactness": 0.104, "rectangularity": 0.388, "cropland_frac": 0.305, "persistent": true, "brightness_delta": -0.17}}, {"type": "Feature", "geometry": {"geodesic": false, "type": "Polygon", "coordinates": [[[30.04623568950842, 37.62914469680712], [30.04731366784935, 37.62914469680712], [30.04731366784935, 37.62968368597759], [30.04839164619031, 37.62968368597759], [30.04839164619031, 37.63022267514806], [30.04731366784935, 37.63022267514806], [30.04731366784935, 37.630761664318534], [30.04785265701983, 37.630761664318534], [30.04785265701983, 37.63183964265948], [30.04839164619031, 37.63183964265948], [30.04839164619031, 37.63291762100042], [30.04893063536079, 37.63291762100042], [30.04893063536079, 37.63399559934137], [30.0505476028722, 37.63399559934137], [30.0505476028722, 37.635073577682306], [30.05000861370172, 37.635073577682306], [30.05000861370172, 37.63561256685278], [30.04946962453124, 37.63561256685278], [30.04946962453124, 37.635073577682306], [30.04893063536079, 37.635073577682306], [30.04893063536079, 37.63615155602325], [30.0467746786789, 37.63615155602325], [30.0467746786789, 37.63561256685278], [30.045696700337942, 37.63561256685278], [30.045696700337942, 37.63615155602325], [30.044079732826532, 37.63615155602325], [30.044079732826532, 37.63453458851184], [30.043540743656052, 37.63453458851184], [30.043540743656052, 37.63399559934137], [30.044079732826532, 37.63399559934137], [30.044079732826532, 37.633456610170896], [30.04461872199701, 37.633456610170896], [30.04461872199701, 37.63183964265948], [30.04515771116749, 37.63183964265948], [30.04515771116749, 37.631300653489006], [30.04461872199701, 37.631300653489006], [30.04461872199701, 37.630761664318534], [30.045696700337942, 37.630761664318534], [30.045696700337942, 37.63022267514806], [30.04515771116749, 37.63022267514806], [30.04515771116749, 37.62968368597759], [30.04623568950842, 37.62968368597759], [30.04623568950842, 37.62914469680712]], [[30.04839164619031, 37.63291762100042], [30.04839164619031, 37.63399559934137], [30.04893063536079, 37.63399559934137], [30.04893063536079, 37.635073577682306], [30.04785265701983, 37.635073577682306], [30.04785265701983, 37.63399559934137], [30.04731366784935, 37.63399559934137], [30.04731366784935, 37.633456610170896], [30.04785265701983, 37.633456610170896], [30.04785265701983, 37.63291762100042], [30.04839164619031, 37.63291762100042]], [[30.04785265701983, 37.63183964265948], [30.04785265701983, 37.63237863182995], [30.04731366784935, 37.63237863182995], [30.04731366784935, 37.63183964265948], [30.04785265701983, 37.63183964265948]]]}, "properties": {"area_ha": 24.74799825734764, "mean_dnbr": 0.18882656201110515, "compactness": 0.161, "rectangularity": 0.515, "cropland_frac": 0.361, "persistent": true, "brightness_delta": -0.16}}, {"type": "Feature", "geometry": {"geodesic": false, "type": "Polygon", "coordinates": [[[30.074802115543434, 37.842045419143446], [30.075880093884365, 37.842045419143446], [30.075880093884365, 37.84312339748439], [30.077497061395775, 37.84312339748439], [30.077497061395775, 37.84366238665486], [30.076958072225295, 37.84366238665486], [30.076958072225295, 37.84474036499581], [30.077497061395775, 37.84474036499581], [30.077497061395775, 37.84581834333675], [30.078036050566254, 37.84581834333675], [30.078036050566254, 37.84474036499581], [30.079114028907185, 37.84474036499581], [30.079114028907185, 37.84527935416628], [30.081269985589074, 37.84527935416628], [30.081269985589074, 37.84474036499581], [30.082347963930033, 37.84474036499581], [30.082347963930033, 37.84527935416628], [30.082886953100484, 37.84527935416628], [30.082886953100484, 37.84474036499581], [30.084503920611922, 37.84474036499581], [30.084503920611922, 37.844201375825335], [30.087198866464263, 37.844201375825335], [30.087198866464263, 37.84258440831392], [30.088276844805222, 37.84258440831392], [30.088276844805222, 37.84312339748439], [30.087737855634742, 37.84312339748439], [30.087737855634742, 37.84366238665486], [30.088276844805222, 37.84366238665486], [30.088276844805222, 37.84474036499581], [30.088815833975673, 37.84474036499581], [30.088815833975673, 37.844201375825335], [30.08989381231663, 37.844201375825335], [30.08989381231663, 37.84366238665486], [30.09043280148711, 37.84366238665486], [30.09043280148711, 37.844201375825335], [30.09204976899852, 37.844201375825335], [30.09204976899852, 37.84312339748439], [30.09312774733945, 37.84312339748439], [30.09312774733945, 37.844201375825335], [30.09528370402134, 37.844201375825335], [30.09528370402134, 37.84527935416628], [30.09420572568041, 37.84527935416628], [30.09420572568041, 37.84635733250722], [30.09366673650993, 37.84635733250722], [30.09366673650993, 37.84581834333675], [30.09312774733945, 37.84581834333675], [30.09312774733945, 37.84635733250722], [30.092588758169, 37.84635733250722], [30.092588758169, 37.84689632167769], [30.090971790657562, 37.84689632167769], [30.090971790657562, 37.84743531084816], [30.08989381231663, 37.84743531084816], [30.08989381231663, 37.847974300018635], [30.087737855634742, 37.847974300018635], [30.087737855634742, 37.84851328918911], [30.085042909782373, 37.84851328918911], [30.085042909782373, 37.84959126753005], [30.082886953100484, 37.84959126753005], [30.082886953100484, 37.84905227835958], [30.082347963930033, 37.84905227835958], [30.082347963930033, 37.850130256700524], [30.081808974759554, 37.850130256700524], [30.081808974759554, 37.84851328918911], [30.080192007248144, 37.84851328918911], [30.080192007248144, 37.84905227835958], [30.080730996418623, 37.84905227835958], [30.080730996418623, 37.84959126753005], [30.080192007248144, 37.84959126753005], [30.080192007248144, 37.84905227835958], [30.079653018077664, 37.84905227835958], [30.079653018077664, 37.84851328918911], [30.078036050566254, 37.84851328918911], [30.078036050566254, 37.847974300018635], [30.079114028907185, 37.847974300018635], [30.079114028907185, 37.84743531084816], [30.078575039736734, 37.84743531084816], [30.078575039736734, 37.84689632167769], [30.077497061395775, 37.84689632167769], [30.077497061395775, 37.84581834333675], [30.076958072225295, 37.84581834333675], [30.076958072225295, 37.84527935416628], [30.075341104713885, 37.84527935416628], [30.075341104713885, 37.84474036499581], [30.074263126372955, 37.84474036499581], [30.074263126372955, 37.844201375825335], [30.073185148031996, 37.844201375825335], [30.073185148031996, 37.84366238665486], [30.072646158861545, 37.84366238665486], [30.072646158861545, 37.84258440831392], [30.073185148031996, 37.84258440831392], [30.073185148031996, 37.84312339748439], [30.073724137202476, 37.84312339748439], [30.073724137202476, 37.84366238665486], [30.074263126372955, 37.84366238665486], [30.074263126372955, 37.84258440831392], [30.074802115543434, 37.84258440831392], [30.074802115543434, 37.842045419143446]], [[30.080192007248144, 37.847974300018635], [30.080192007248144, 37.84851328918911], [30.079653018077664, 37.84851328918911], [30.079653018077664, 37.847974300018635], [30.080192007248144, 37.847974300018635]], [[30.089354823146152, 37.84689632167769], [30.089354823146152, 37.84743531084816], [30.088815833975673, 37.84743531084816], [30.088815833975673, 37.84689632167769], [30.089354823146152, 37.84689632167769]], [[30.09420572568041, 37.84474036499581], [30.09420572568041, 37.84527935416628], [30.09366673650993, 37.84527935416628], [30.09366673650993, 37.84474036499581], [30.09420572568041, 37.84474036499581]], [[30.075880093884365, 37.844201375825335], [30.075880093884365, 37.84474036499581], [30.075341104713885, 37.84474036499581], [30.075341104713885, 37.844201375825335], [30.075880093884365, 37.844201375825335]]]}, "properties": {"area_ha": 69.77625687464375, "mean_dnbr": 0.21622246145066154, "compactness": 0.102, "rectangularity": 0.401, "cropland_frac": 0.208, "persistent": true, "brightness_delta": -0.032}}, {"type": "Feature", "geometry": {"geodesic": false, "type": "Polygon", "coordinates": [[[30.086120888123332, 37.649626285285045], [30.088276844805222, 37.649626285285045], [30.088276844805222, 37.65016527445552], [30.09043280148711, 37.65016527445552], [30.09043280148711, 37.65070426362599], [30.090971790657562, 37.65070426362599], [30.090971790657562, 37.65124325279646], [30.092588758169, 37.65124325279646], [30.092588758169, 37.65070426362599], [30.09366673650993, 37.65070426362599], [30.09366673650993, 37.651782241966934], [30.09474471485086, 37.651782241966934], [30.09474471485086, 37.65232123113741], [30.09528370402134, 37.65232123113741], [30.09528370402134, 37.65286022030788], [30.09582269319182, 37.65286022030788], [30.09582269319182, 37.65393819864882], [30.09528370402134, 37.65393819864882], [30.09528370402134, 37.653399209478344], [30.09474471485086, 37.653399209478344], [30.09474471485086, 37.65447718781929], [30.09312774733945, 37.65447718781929], [30.09312774733945, 37.65501617698976], [30.092588758169, 37.65501617698976], [30.092588758169, 37.65663314450118], [30.09204976899852, 37.65663314450118], [30.09204976899852, 37.65771112284212], [30.09151077982804, 37.65771112284212], [30.09151077982804, 37.65663314450118], [30.089354823146152, 37.65663314450118], [30.089354823146152, 37.656094155330706], [30.088815833975673, 37.656094155330706], [30.088815833975673, 37.655555166160234], [30.089354823146152, 37.655555166160234], [30.089354823146152, 37.65447718781929], [30.085042909782373, 37.65447718781929], [30.085042909782373, 37.65393819864882], [30.085581898952853, 37.65393819864882], [30.085581898952853, 37.65286022030788], [30.084503920611922, 37.65286022030788], [30.084503920611922, 37.65393819864882], [30.083964931441443, 37.65393819864882], [30.083964931441443, 37.653399209478344], [30.082886953100484, 37.653399209478344], [30.082886953100484, 37.65286022030788], [30.083425942270964, 37.65286022030788], [30.083425942270964, 37.65124325279646], [30.082347963930033, 37.65124325279646], [30.082347963930033, 37.65070426362599], [30.081269985589074, 37.65070426362599], [30.081269985589074, 37.65124325279646], [30.080192007248144, 37.65124325279646], [30.080192007248144, 37.65070426362599], [30.079653018077664, 37.65070426362599], [30.079653018077664, 37.65016527445552], [30.079114028907185, 37.65016527445552], [30.079114028907185, 37.649626285285045], [30.079653018077664, 37.649626285285045], [30.079653018077664, 37.65016527445552], [30.080192007248144, 37.65016527445552], [30.080192007248144, 37.649626285285045], [30.082347963930033, 37.649626285285045], [30.082347963930033, 37.65016527445552], [30.082886953100484, 37.65016527445552], [30.082886953100484, 37.649626285285045], [30.083964931441443, 37.649626285285045], [30.083964931441443, 37.65016527445552], [30.084503920611922, 37.65016527445552], [30.084503920611922, 37.65070426362599], [30.085042909782373, 37.65070426362599], [30.085042909782373, 37.65124325279646], [30.086120888123332, 37.65124325279646], [30.086120888123332, 37.649626285285045]], [[30.088276844805222, 37.651782241966934], [30.088276844805222, 37.65232123113741], [30.088815833975673, 37.65232123113741], [30.088815833975673, 37.653399209478344], [30.088276844805222, 37.653399209478344], [30.088276844805222, 37.65286022030788], [30.087737855634742, 37.65286022030788], [30.087737855634742, 37.653399209478344], [30.087198866464263, 37.653399209478344], [30.087198866464263, 37.65286022030788], [30.086659877293812, 37.65286022030788], [30.086659877293812, 37.651782241966934], [30.088276844805222, 37.651782241966934]], [[30.090971790657562, 37.65124325279646], [30.090971790657562, 37.651782241966934], [30.09043280148711, 37.651782241966934], [30.09043280148711, 37.65232123113741], [30.088815833975673, 37.65232123113741], [30.088815833975673, 37.651782241966934], [30.08989381231663, 37.651782241966934], [30.08989381231663, 37.65124325279646], [30.090971790657562, 37.65124325279646]]]}, "properties": {"area_ha": 51.47375604911521, "mean_dnbr": 0.16721264532056523, "compactness": 0.109, "rectangularity": 0.452, "cropland_frac": 0.485, "persistent": true, "brightness_delta": -0.144}}]}