{"type": "FeatureCollection", "crs": {"type": "name", "properties": {"name": "urn:ogc:def:crs:OGC:1.3:CRS84"}}, "features": [{"type": "Feature", "geometry": {"geodesic": false, "type": "Polygon", "coordinates": [[[30.74907756780354, 39.047225204318195], [30.74961655697402, 39.047225204318195], [30.74961655697402, 39.04776419348867], [30.75015554614447, 39.04776419348867], [30.75015554614447, 39.04830318265914], [30.75123352448543, 39.04830318265914], [30.75123352448543, 39.04776419348867], [30.75177251365588, 39.04776419348867], [30.75177251365588, 39.04884217182961], [30.75285049199684, 39.04884217182961], [30.75285049199684, 39.049381161000085], [30.75177251365588, 39.049381161000085], [30.75177251365588, 39.05045913934103], [30.75069453531495, 39.05045913934103], [30.75069453531495, 39.04992015017056], [30.75123352448543, 39.04992015017056], [30.75123352448543, 39.049381161000085], [30.75069453531495, 39.049381161000085], [30.75069453531495, 39.04884217182961], [30.74961655697402, 39.04884217182961], [30.74961655697402, 39.049381161000085], [30.74853857863306, 39.049381161000085], [30.74853857863306, 39.05045913934103], [30.74907756780354, 39.05045913934103], [30.74907756780354, 39.0509981285115], [30.74961655697402, 39.0509981285115], [30.74961655697402, 39.05261509602291], [30.74799958946258, 39.05261509602291], [30.74799958946258, 39.053154085193384], [30.74746060029213, 39.053154085193384], [30.74746060029213, 39.053693074363856], [30.74638262195117, 39.053693074363856], [30.74638262195117, 39.053154085193384], [30.74530464361024, 39.053154085193384], [30.74530464361024, 39.053693074363856], [30.74476565443976, 39.053693074363856], [30.74476565443976, 39.05423206353433], [30.74422666526928, 39.05423206353433], [30.74422666526928, 39.053154085193384], [30.74530464361024, 39.053154085193384], [30.74530464361024, 39.05261509602291], [30.74638262195117, 39.05261509602291], [30.74638262195117, 39.05207610685244], [30.74584363278069, 39.05207610685244], [30.74584363278069, 39.05045913934103], [30.74476565443976, 39.05045913934103], [30.74476565443976, 39.051537117681974], [30.74422666526928, 39.051537117681974], [30.74422666526928, 39.04992015017056], [30.74476565443976, 39.04992015017056], [30.74476565443976, 39.049381161000085], [30.74530464361024, 39.049381161000085], [30.74530464361024, 39.04884217182961], [30.74584363278069, 39.04884217182961], [30.74584363278069, 39.04776419348867], [30.74692161112165, 39.04776419348867], [30.74692161112165, 39.04830318265914], [30.74746060029213, 39.04830318265914], [30.74746060029213, 39.04776419348867], [30.74907756780354, 39.04776419348867], [30.74907756780354, 39.047225204318195]], [[30.74638262195117, 39.04992015017056], [30.74638262195117, 39.05045913934103], [30.74584363278069, 39.05045913934103], [30.74584363278069, 39.04992015017056], [30.74638262195117, 39.04992015017056]], [[30.74799958946258, 39.04992015017056], [30.74799958946258, 39.051537117681974], [30.74692161112165, 39.051537117681974], [30.74692161112165, 39.0509981285115], [30.74746060029213, 39.0509981285115], [30.74746060029213, 39.04992015017056], [30.74799958946258, 39.04992015017056]], [[30.75177251365588, 39.04884217182961], [30.75177251365588, 39.049381161000085], [30.75123352448543, 39.049381161000085], [30.75123352448543, 39.04884217182961], [30.75177251365588, 39.04884217182961]]]}, "properties": {"area_ha": 22.873801658989436, "mean_dnbr": 0.17273756419847222, "compactness": 0.091, "rectangularity": 0.402, "cropland_frac": 0.006, "persistent": true, "brightness_delta": -0.021}}, {"type": "Feature", "geometry": {"geodesic": false, "type": "Polygon", "coordinates": [[[30.784111863884192, 39.039140366761124], [30.78518984222515, 39.039140366761124], [30.78518984222515, 39.03967935593159], [30.78465085305467, 39.03967935593159], [30.78465085305467, 39.04129632344301], [30.78518984222515, 39.04129632344301], [30.78518984222515, 39.04183531261348], [30.784111863884192, 39.04183531261348], [30.784111863884192, 39.04237430178395], [30.783572874713713, 39.04237430178395], [30.783572874713713, 39.043452280124896], [30.78303388554326, 39.043452280124896], [30.78303388554326, 39.04453025846584], [30.784111863884192, 39.04453025846584], [30.784111863884192, 39.045608236806785], [30.78303388554326, 39.045608236806785], [30.78303388554326, 39.04668621514772], [30.784111863884192, 39.04668621514772], [30.784111863884192, 39.047225204318195], [30.783572874713713, 39.047225204318195], [30.783572874713713, 39.04776419348867], [30.784111863884192, 39.04776419348867], [30.784111863884192, 39.04830318265914], [30.783572874713713, 39.04830318265914], [30.783572874713713, 39.04776419348867], [30.782494896372782, 39.04776419348867], [30.782494896372782, 39.04830318265914], [30.78141691803185, 39.04830318265914], [30.78141691803185, 39.04884217182961], [30.780338939690893, 39.04884217182961], [30.780338939690893, 39.04830318265914], [30.779799950520413, 39.04830318265914], [30.779799950520413, 39.04776419348867], [30.779260961349962, 39.04776419348867], [30.779260961349962, 39.047225204318195], [30.779799950520413, 39.047225204318195], [30.779799950520413, 39.04668621514772], [30.779260961349962, 39.04668621514772], [30.779260961349962, 39.04614722597725], [30.778721972179483, 39.04614722597725], [30.778721972179483, 39.04506924763631], [30.777643993838524, 39.04506924763631], [30.777643993838524, 39.04453025846584], [30.776566015497593, 39.04453025846584], [30.776566015497593, 39.043452280124896], [30.777643993838524, 39.043452280124896], [30.777643993838524, 39.04237430178395], [30.779799950520413, 39.04237430178395], [30.779799950520413, 39.04129632344301], [30.777643993838524, 39.04129632344301], [30.777643993838524, 39.040757334272534], [30.778721972179483, 39.040757334272534], [30.778721972179483, 39.03967935593159], [30.779260961349962, 39.03967935593159], [30.779260961349962, 39.040757334272534], [30.779799950520413, 39.040757334272534], [30.779799950520413, 39.04129632344301], [30.780338939690893, 39.04129632344301], [30.780338939690893, 39.04183531261348], [30.781955907202303, 39.04183531261348], [30.781955907202303, 39.04129632344301], [30.78303388554326, 39.04129632344301], [30.78303388554326, 39.04183531261348], [30.783572874713713, 39.04183531261348], [30.783572874713713, 39.04129632344301], [30.784111863884192, 39.04129632344301], [30.784111863884192, 39.039140366761124]], [[30.78141691803185, 39.04614722597725], [30.78141691803185, 39.04668621514772], [30.780877928861372, 39.04668621514772], [30.780877928861372, 39.04614722597725], [30.78141691803185, 39.04614722597725]], [[30.782494896372782, 39.04614722597725], [30.782494896372782, 39.04668621514772], [30.781955907202303, 39.04668621514772], [30.781955907202303, 39.04614722597725], [30.782494896372782, 39.04614722597725]], [[30.778721972179483, 39.04399126929537], [30.778721972179483, 39.04453025846584], [30.778182983009003, 39.04453025846584], [30.778182983009003, 39.04399126929537], [30.778721972179483, 39.04399126929537]], [[30.782494896372782, 39.043452280124896], [30.782494896372782, 39.04399126929537], [30.781955907202303, 39.04399126929537], [30.781955907202303, 39.043452280124896], [30.782494896372782, 39.043452280124896]]]}, "properties": {"area_ha": 35.708469756713484, "mean_dnbr": 0.17819942363019436, "compactness": 0.115, "rectangularity": 0.444, "cropland_frac": 0.0, "persistent": true, "brightness_delta": 0.008}}]}