{"type": "FeatureCollection", "crs": {"type": "name", "properties": {"name": "urn:ogc:def:crs:OGC:1.3:CRS84"}}, "features": [{"type": "Feature", "geometry": {"geodesic": false, "type": "Polygon", "coordinates": [[[30.909157351433635, 38.12663170115251], [30.910235329774565, 38.12663170115251], [30.910235329774565, 38.127170690322984], [30.910774318945045, 38.127170690322984], [30.910774318945045, 38.12986563617534], [30.910235329774565, 38.12986563617534], [30.910235329774565, 38.13094361451628], [30.910774318945045, 38.13094361451628], [30.910774318945045, 38.13202159285723], [30.910235329774565, 38.13202159285723], [30.910235329774565, 38.1325605820277], [30.909696340604114, 38.1325605820277], [30.909696340604114, 38.13309957119817], [30.908618362263155, 38.13309957119817], [30.908618362263155, 38.133638560368645], [30.902150492217515, 38.133638560368645], [30.902150492217515, 38.131482603686756], [30.901611503047036, 38.131482603686756], [30.901611503047036, 38.13094361451628], [30.901072513876557, 38.13094361451628], [30.901072513876557, 38.13040462534581], [30.900533524706077, 38.13040462534581], [30.900533524706077, 38.129326647004866], [30.903228470558446, 38.129326647004866], [30.903228470558446, 38.1287876578344], [30.904306448899376, 38.1287876578344], [30.904306448899376, 38.12824866866393], [30.906462405581266, 38.12824866866393], [30.906462405581266, 38.12770967949346], [30.907001394751745, 38.12770967949346], [30.907001394751745, 38.127170690322984], [30.909157351433635, 38.127170690322984], [30.909157351433635, 38.12663170115251]], [[30.910235329774565, 38.131482603686756], [30.910235329774565, 38.13202159285723], [30.908618362263155, 38.13202159285723], [30.908618362263155, 38.131482603686756], [30.910235329774565, 38.131482603686756]], [[30.905923416410815, 38.13040462534581], [30.905923416410815, 38.13094361451628], [30.904845438069856, 38.13094361451628], [30.904845438069856, 38.13040462534581], [30.905923416410815, 38.13040462534581]], [[30.908618362263155, 38.13040462534581], [30.908618362263155, 38.131482603686756], [30.908079373092704, 38.131482603686756], [30.908079373092704, 38.13094361451628], [30.907540383922225, 38.13094361451628], [30.907540383922225, 38.13040462534581], [30.908618362263155, 38.13040462534581]], [[30.907001394751745, 38.12986563617534], [30.907001394751745, 38.13040462534581], [30.906462405581266, 38.13040462534581], [30.906462405581266, 38.12986563617534], [30.907001394751745, 38.12986563617534]], [[30.909157351433635, 38.12824866866393], [30.909157351433635, 38.1287876578344], [30.908618362263155, 38.1287876578344], [30.908618362263155, 38.12824866866393], [30.909157351433635, 38.12824866866393]]]}, "properties": {"area_ha": 45.48995814886533, "mean_dnbr": 0.512131210775805, "compactness": 0.228, "rectangularity": 0.654, "cropland_frac": 0.476, "persistent": true, "brightness_delta": -0.281}}]}