{"type": "FeatureCollection", "crs": {"type": "name", "properties": {"name": "urn:ogc:def:crs:OGC:1.3:CRS84"}}, "features": [{"type": "Feature", "geometry": {"geodesic": false, "type": "Polygon", "coordinates": [[[32.04696349029942, 36.60344830539945], [32.05289237117461, 36.60344830539945], [32.05289237117461, 36.60614325125181], [32.05235338200413, 36.60614325125181], [32.05235338200413, 36.60668224042228], [32.0512754036632, 36.60668224042228], [32.0512754036632, 36.60722122959275], [32.05073641449272, 36.60722122959275], [32.05073641449272, 36.607760218763225], [32.04911944698131, 36.607760218763225], [32.04911944698131, 36.60722122959275], [32.04804146864035, 36.60722122959275], [32.04804146864035, 36.60668224042228], [32.04642450112894, 36.60668224042228], [32.04642450112894, 36.60614325125181], [32.04588551195849, 36.60614325125181], [32.04588551195849, 36.60668224042228], [32.04534652278801, 36.60668224042228], [32.04534652278801, 36.605604262081336], [32.04480753361753, 36.605604262081336], [32.04480753361753, 36.60506527291086], [32.04588551195849, 36.60506527291086], [32.04588551195849, 36.60398729456992], [32.04696349029942, 36.60398729456992], [32.04696349029942, 36.60344830539945]]]}, "properties": {"area_ha": 25.086195105935037, "mean_dnbr": 0.5434037069659935, "compactness": 0.496, "rectangularity": 0.725, "cropland_frac": 0, "persistent": true, "brightness_delta": 0.03}}, {"type": "Feature", "geometry": {"geodesic": false, "type": "Polygon", "coordinates": [[[32.28465771447745, 36.27520390058218], [32.28519670364793, 36.27520390058218], [32.28519670364793, 36.27574288975265], [32.28627468198886, 36.27574288975265], [32.28627468198886, 36.27628187892312], [32.28789164950027, 36.27628187892312], [32.28789164950027, 36.27735985726407], [32.28843063867075, 36.27735985726407], [32.28843063867075, 36.27789884643454], [32.288969627841226, 36.27789884643454], [32.288969627841226, 36.278437835605004], [32.287352660329816, 36.278437835605004], [32.287352660329816, 36.27897682477548], [32.28627468198886, 36.27897682477548], [32.28627468198886, 36.27951581394595], [32.288969627841226, 36.27951581394595], [32.288969627841226, 36.28005480311642], [32.28950861701168, 36.28005480311642], [32.28950861701168, 36.28059379228689], [32.290586595352636, 36.28059379228689], [32.290586595352636, 36.281132781457366], [32.291125584523115, 36.281132781457366], [32.291125584523115, 36.28274974896878], [32.291664573693566, 36.28274974896878], [32.291664573693566, 36.284905705650665], [32.291125584523115, 36.284905705650665], [32.291125584523115, 36.2843667164802], [32.28950861701168, 36.2843667164802], [32.28950861701168, 36.284905705650665], [32.287352660329816, 36.284905705650665], [32.287352660329816, 36.2843667164802], [32.28681367115934, 36.2843667164802], [32.28681367115934, 36.28382772730973], [32.28573569281838, 36.28382772730973], [32.28573569281838, 36.28274974896878], [32.28411872530697, 36.28274974896878], [32.28411872530697, 36.281132781457366], [32.28627468198886, 36.281132781457366], [32.28627468198886, 36.28167177062784], [32.28681367115934, 36.28167177062784], [32.28681367115934, 36.281132781457366], [32.287352660329816, 36.281132781457366], [32.287352660329816, 36.28059379228689], [32.28681367115934, 36.28059379228689], [32.28681367115934, 36.28005480311642], [32.28627468198886, 36.28005480311642], [32.28627468198886, 36.27951581394595], [32.28573569281838, 36.27951581394595], [32.28573569281838, 36.278437835605004], [32.28411872530697, 36.278437835605004], [32.28411872530697, 36.27789884643454], [32.28357973613649, 36.27789884643454], [32.28357973613649, 36.27735985726407], [32.28250175779556, 36.27735985726407], [32.28250175779556, 36.276820868093594], [32.28304074696604, 36.276820868093594], [32.28304074696604, 36.27628187892312], [32.28357973613649, 36.27628187892312], [32.28357973613649, 36.27574288975265], [32.28465771447745, 36.27574288975265], [32.28465771447745, 36.27520390058218]], [[32.291125584523115, 36.28274974896878], [32.291125584523115, 36.283288738139255], [32.290586595352636, 36.283288738139255], [32.290586595352636, 36.28382772730973], [32.290047606182156, 36.28382772730973], [32.290047606182156, 36.283288738139255], [32.28950861701168, 36.283288738139255], [32.28950861701168, 36.28274974896878], [32.291125584523115, 36.28274974896878]]]}, "properties": {"area_ha": 38.511220706734484, "mean_dnbr": 0.44354941846341617, "compactness": 0.153, "rectangularity": 0.49, "cropland_frac": 0, "persistent": true, "brightness_delta": -0.058}}, {"type": "Feature", "geometry": {"geodesic": false, "type": "Polygon", "coordinates": [[[32.88024074784869, 36.078472853360005], [32.88293569370106, 36.078472853360005], [32.88293569370106, 36.07901184253048], [32.88239670453058, 36.07901184253048], [32.88239670453058, 36.08062881004189], [32.88293569370106, 36.08062881004189], [32.88293569370106, 36.08170678838283], [32.88131872618962, 36.08170678838283], [32.88131872618962, 36.08116779921236], [32.8818577153601, 36.08116779921236], [32.8818577153601, 36.08062881004189], [32.88077973701917, 36.08062881004189], [32.88077973701917, 36.08170678838283], [32.88024074784869, 36.08170678838283], [32.88024074784869, 36.08116779921236], [32.87970175867821, 36.08116779921236], [32.87970175867821, 36.08062881004189], [32.88077973701917, 36.08062881004189], [32.88077973701917, 36.07955083170094], [32.88024074784869, 36.07955083170094], [32.88024074784869, 36.078472853360005]]]}, "properties": {"area_ha": 6.676893047504326, "mean_dnbr": 0.28152393104753787, "compactness": 0.25, "rectangularity": 0.639, "cropland_frac": 0.285, "persistent": true, "brightness_delta": 0.023}}]}