{"type": "FeatureCollection", "crs": {"type": "name", "properties": {"name": "urn:ogc:def:crs:OGC:1.3:CRS84"}}, "features": [{"type": "Feature", "geometry": {"geodesic": false, "type": "Polygon", "coordinates": [[[32.42371692045916, 36.553861301716054], [32.42533388797057, 36.553861301716054], [32.42533388797057, 36.554939280057], [32.42479489880009, 36.554939280057], [32.42479489880009, 36.55547826922747], [32.42533388797057, 36.55547826922747], [32.42533388797057, 36.557634225909354], [32.42479489880009, 36.557634225909354], [32.42479489880009, 36.558173215079826], [32.42533388797057, 36.558173215079826], [32.42533388797057, 36.55925119342077], [32.425872877141046, 36.55925119342077], [32.425872877141046, 36.56086816093219], [32.42533388797057, 36.56086816093219], [32.42533388797057, 36.56356310678454], [32.42425590962961, 36.56356310678454], [32.42425590962961, 36.564102095955015], [32.42479489880009, 36.564102095955015], [32.42479489880009, 36.56464108512549], [32.42425590962961, 36.56464108512549], [32.42425590962961, 36.56518007429596], [32.42371692045916, 36.56518007429596], [32.42371692045916, 36.56571906346643], [32.4226389421182, 36.56571906346643], [32.4226389421182, 36.566797041807376], [32.42156096377727, 36.566797041807376], [32.42156096377727, 36.566258052636904], [32.42102197460679, 36.566258052636904], [32.42102197460679, 36.566797041807376], [32.41940500709538, 36.566797041807376], [32.41940500709538, 36.56571906346643], [32.41778803958397, 36.56571906346643], [32.41778803958397, 36.56464108512549], [32.4188660179249, 36.56464108512549], [32.4188660179249, 36.564102095955015], [32.42048298543631, 36.564102095955015], [32.42048298543631, 36.56302411761407], [32.42156096377727, 36.56302411761407], [32.42156096377727, 36.5624851284436], [32.4226389421182, 36.5624851284436], [32.4226389421182, 36.56086816093219], [32.42209995294772, 36.56086816093219], [32.42209995294772, 36.55925119342077], [32.4226389421182, 36.55925119342077], [32.4226389421182, 36.56086816093219], [32.42317793128868, 36.56086816093219], [32.42317793128868, 36.5587122042503], [32.42371692045916, 36.5587122042503], [32.42371692045916, 36.558173215079826], [32.42425590962961, 36.558173215079826], [32.42425590962961, 36.55709523673888], [32.42371692045916, 36.55709523673888], [32.42371692045916, 36.55655624756841], [32.4226389421182, 36.55655624756841], [32.4226389421182, 36.55547826922747], [32.42317793128868, 36.55547826922747], [32.42317793128868, 36.55601725839794], [32.42425590962961, 36.55601725839794], [32.42425590962961, 36.554939280057], [32.42479489880009, 36.554939280057], [32.42479489880009, 36.55440029088653], [32.42371692045916, 36.55440029088653], [32.42371692045916, 36.554939280057], [32.42317793128868, 36.554939280057], [32.42317793128868, 36.55440029088653], [32.42371692045916, 36.55440029088653], [32.42371692045916, 36.553861301716054]]]}, "properties": {"area_ha": 36.92937351189565, "mean_dnbr": 0.30794660250573386, "compactness": 0.129, "rectangularity": 0.418, "cropland_frac": 0, "persistent": true, "brightness_delta": -0.216}}, {"type": "Feature", "geometry": {"geodesic": false, "type": "Polygon", "coordinates": [[[32.51911800363263, 36.24394252869482], [32.52127396031452, 36.24394252869482], [32.52127396031452, 36.24448151786529], [32.521812949484996, 36.24448151786529], [32.521812949484996, 36.24502050703576], [32.52127396031452, 36.24502050703576], [32.52127396031452, 36.24555949620623], [32.521812949484996, 36.24555949620623], [32.521812949484996, 36.246098485376706], [32.522351938655476, 36.246098485376706], [32.522351938655476, 36.24555949620623], [32.522890927825955, 36.24555949620623], [32.522890927825955, 36.246098485376706], [32.523429916996406, 36.246098485376706], [32.523429916996406, 36.248254442058595], [32.522890927825955, 36.248254442058595], [32.522890927825955, 36.24933242039953], [32.522351938655476, 36.24933242039953], [32.522351938655476, 36.249871409570005], [32.52127396031452, 36.249871409570005], [32.52127396031452, 36.25041039874048], [32.51642305778029, 36.25041039874048], [32.51642305778029, 36.24771545288812], [32.516962046950766, 36.24771545288812], [32.516962046950766, 36.24717646371765], [32.5180400252917, 36.24717646371765], [32.5180400252917, 36.24663747454718], [32.51965699280311, 36.24663747454718], [32.51965699280311, 36.246098485376706], [32.520195981973586, 36.246098485376706], [32.520195981973586, 36.24555949620623], [32.51911800363263, 36.24555949620623], [32.51911800363263, 36.24502050703576], [32.518579014462176, 36.24502050703576], [32.518579014462176, 36.24448151786529], [32.51911800363263, 36.24448151786529], [32.51911800363263, 36.24394252869482]], [[32.51911800363263, 36.248254442058595], [32.51911800363263, 36.24933242039953], [32.5180400252917, 36.24933242039953], [32.5180400252917, 36.248254442058595], [32.51911800363263, 36.248254442058595]]]}, "properties": {"area_ha": 28.968059365620576, "mean_dnbr": 0.4414178232772646, "compactness": 0.276, "rectangularity": 0.641, "cropland_frac": 0, "persistent": true, "brightness_delta": -0.101}}, {"type": "Feature", "geometry": {"geodesic": false, "type": "Polygon", "coordinates": [[[32.523968906166886, 36.23046779943302], [32.525046884507816, 36.23046779943302], [32.525046884507816, 36.231006788603494], [32.525585873678295, 36.231006788603494], [32.525585873678295, 36.23154577777397], [32.526663852019254, 36.23154577777397], [32.526663852019254, 36.23208476694444], [32.527202841189705, 36.23208476694444], [32.527202841189705, 36.231006788603494], [32.528280819530664, 36.231006788603494], [32.528280819530664, 36.23208476694444], [32.527741830360185, 36.23208476694444], [32.527741830360185, 36.23262375611491], [32.526124862848775, 36.23262375611491], [32.526124862848775, 36.233701734455856], [32.525585873678295, 36.233701734455856], [32.525585873678295, 36.23531870196727], [32.526124862848775, 36.23531870196727], [32.526124862848775, 36.235857691137745], [32.526663852019254, 36.235857691137745], [32.526663852019254, 36.23639668030821], [32.528819808701144, 36.23639668030821], [32.528819808701144, 36.239630615331045], [32.528280819530664, 36.239630615331045], [32.528280819530664, 36.23909162616057], [32.527741830360185, 36.23909162616057], [32.527741830360185, 36.239630615331045], [32.525046884507816, 36.239630615331045], [32.525046884507816, 36.23909162616057], [32.524507895337365, 36.23909162616057], [32.524507895337365, 36.239630615331045], [32.523429916996406, 36.239630615331045], [32.523429916996406, 36.24070859367199], [32.522890927825955, 36.24070859367199], [32.522890927825955, 36.24124758284246], [32.52127396031452, 36.24124758284246], [32.52127396031452, 36.241786572012934], [32.520734971144066, 36.241786572012934], [32.520734971144066, 36.239630615331045], [32.52127396031452, 36.239630615331045], [32.52127396031452, 36.23909162616057], [32.520734971144066, 36.23909162616057], [32.520734971144066, 36.2385526369901], [32.518579014462176, 36.2385526369901], [32.518579014462176, 36.23801364781963], [32.5180400252917, 36.23801364781963], [32.5180400252917, 36.23639668030821], [32.51750103612122, 36.23639668030821], [32.51750103612122, 36.235857691137745], [32.5180400252917, 36.235857691137745], [32.5180400252917, 36.23639668030821], [32.518579014462176, 36.23639668030821], [32.518579014462176, 36.23693566947868], [32.51911800363263, 36.23693566947868], [32.51911800363263, 36.23639668030821], [32.51965699280311, 36.23639668030821], [32.51965699280311, 36.235857691137745], [32.518579014462176, 36.235857691137745], [32.518579014462176, 36.2347797127968], [32.51911800363263, 36.2347797127968], [32.51911800363263, 36.23531870196727], [32.51965699280311, 36.23531870196727], [32.51965699280311, 36.235857691137745], [32.520195981973586, 36.235857691137745], [32.520195981973586, 36.23639668030821], [32.52127396031452, 36.23639668030821], [32.52127396031452, 36.23693566947868], [32.522351938655476, 36.23693566947868], [32.522351938655476, 36.23639668030821], [32.522890927825955, 36.23639668030821], [32.522890927825955, 36.235857691137745], [32.523429916996406, 36.235857691137745], [32.523429916996406, 36.2347797127968], [32.523968906166886, 36.2347797127968], [32.523968906166886, 36.233701734455856], [32.525046884507816, 36.233701734455856], [32.525046884507816, 36.23262375611491], [32.524507895337365, 36.23262375611491], [32.524507895337365, 36.23154577777397], [32.523968906166886, 36.23154577777397], [32.523968906166886, 36.23046779943302]], [[32.521812949484996, 36.2385526369901], [32.521812949484996, 36.23909162616057], [32.52127396031452, 36.23909162616057], [32.52127396031452, 36.2385526369901], [32.521812949484996, 36.2385526369901]]]}, "properties": {"area_ha": 48.38323633011093, "mean_dnbr": 0.38436422785009106, "compactness": 0.127, "rectangularity": 0.389, "cropland_frac": 0, "persistent": true, "brightness_delta": -0.142}}, {"type": "Feature", "geometry": {"geodesic": false, "type": "Polygon", "coordinates": [[[32.522890927825955, 36.20405733007991], [32.525046884507816, 36.20405733007991], [32.525046884507816, 36.204596319250385], [32.526124862848775, 36.204596319250385], [32.526124862848775, 36.20513530842086], [32.526663852019254, 36.20513530842086], [32.526663852019254, 36.20567429759133], [32.527202841189705, 36.20567429759133], [32.527202841189705, 36.20675227593227], [32.528280819530664, 36.20675227593227], [32.528280819530664, 36.20783025427321], [32.526663852019254, 36.20783025427321], [32.526663852019254, 36.20890823261416], [32.526124862848775, 36.20890823261416], [32.526124862848775, 36.2099862109551], [32.523968906166886, 36.2099862109551], [32.523968906166886, 36.21052520012557], [32.523429916996406, 36.21052520012557], [32.523429916996406, 36.211064189296046], [32.523968906166886, 36.211064189296046], [32.523968906166886, 36.21214216763698], [32.524507895337365, 36.21214216763698], [32.524507895337365, 36.211064189296046], [32.525585873678295, 36.211064189296046], [32.525585873678295, 36.21160317846652], [32.526663852019254, 36.21160317846652], [32.526663852019254, 36.21052520012557], [32.528280819530664, 36.21052520012557], [32.528280819530664, 36.2099862109551], [32.527741830360185, 36.2099862109551], [32.527741830360185, 36.20944722178463], [32.528819808701144, 36.20944722178463], [32.528819808701144, 36.20890823261416], [32.527741830360185, 36.20890823261416], [32.527741830360185, 36.208369243443684], [32.529897787042074, 36.208369243443684], [32.529897787042074, 36.20890823261416], [32.530436776212554, 36.20890823261416], [32.530436776212554, 36.20783025427321], [32.532053743723964, 36.20783025427321], [32.532053743723964, 36.208369243443684], [32.53259273289444, 36.208369243443684], [32.53259273289444, 36.20890823261416], [32.533670711235374, 36.20890823261416], [32.533670711235374, 36.208369243443684], [32.53420970040585, 36.208369243443684], [32.53420970040585, 36.20890823261416], [32.53474868957633, 36.20890823261416], [32.53474868957633, 36.2099862109551], [32.533670711235374, 36.2099862109551], [32.533670711235374, 36.21052520012557], [32.533131722064894, 36.21052520012557], [32.533131722064894, 36.21214216763698], [32.532053743723964, 36.21214216763698], [32.532053743723964, 36.212681156807456], [32.53259273289444, 36.212681156807456], [32.53259273289444, 36.21322014597793], [32.531514754553484, 36.21322014597793], [32.531514754553484, 36.21214216763698], [32.530436776212554, 36.21214216763698], [32.530436776212554, 36.21322014597793], [32.529358797871595, 36.21322014597793], [32.529358797871595, 36.21160317846652], [32.529897787042074, 36.21160317846652], [32.529897787042074, 36.211064189296046], [32.527741830360185, 36.211064189296046], [32.527741830360185, 36.21214216763698], [32.526663852019254, 36.21214216763698], [32.526663852019254, 36.21322014597793], [32.527202841189705, 36.21322014597793], [32.527202841189705, 36.2137591351484], [32.528280819530664, 36.2137591351484], [32.528280819530664, 36.21429812431887], [32.529897787042074, 36.21429812431887], [32.529897787042074, 36.214837113489345], [32.529358797871595, 36.214837113489345], [32.529358797871595, 36.21537610265982], [32.532053743723964, 36.21537610265982], [32.532053743723964, 36.214837113489345], [32.53259273289444, 36.214837113489345], [32.53259273289444, 36.21429812431887], [32.533131722064894, 36.21429812431887], [32.533131722064894, 36.21537610265982], [32.533670711235374, 36.21537610265982], [32.533670711235374, 36.21591509183029], [32.53474868957633, 36.21591509183029], [32.53474868957633, 36.21537610265982], [32.53636565708774, 36.21537610265982], [32.53636565708774, 36.2137591351484], [32.53690464625819, 36.2137591351484], [32.53690464625819, 36.21429812431887], [32.53798262459915, 36.21429812431887], [32.53798262459915, 36.21322014597793], [32.53906060294008, 36.21322014597793], [32.53906060294008, 36.21214216763698], [32.54013858128104, 36.21214216763698], [32.54013858128104, 36.21322014597793], [32.53959959211056, 36.21322014597793], [32.53959959211056, 36.21429812431887], [32.54067757045152, 36.21429812431887], [32.54067757045152, 36.21537610265982], [32.54175554879245, 36.21537610265982], [32.54175554879245, 36.21591509183029], [32.54229453796293, 36.21591509183029], [32.54229453796293, 36.21645408100076], [32.54067757045152, 36.21645408100076], [32.54067757045152, 36.216993070171235], [32.53959959211056, 36.216993070171235], [32.53959959211056, 36.21645408100076], [32.53906060294008, 36.21645408100076], [32.53906060294008, 36.21591509183029], [32.53959959211056, 36.21591509183029], [32.53959959211056, 36.21429812431887], [32.53798262459915, 36.21429812431887], [32.53798262459915, 36.21537610265982], [32.53744363542867, 36.21537610265982], [32.53744363542867, 36.21645408100076], [32.53690464625819, 36.21645408100076], [32.53690464625819, 36.216993070171235], [32.53528767874678, 36.216993070171235], [32.53528767874678, 36.21753205934171], [32.53474868957633, 36.21753205934171], [32.53474868957633, 36.21914902685312], [32.53420970040585, 36.21914902685312], [32.53420970040585, 36.221304983535006], [32.533670711235374, 36.221304983535006], [32.533670711235374, 36.220765994364534], [32.532053743723964, 36.220765994364534], [32.532053743723964, 36.22022700519406], [32.531514754553484, 36.22022700519406], [32.531514754553484, 36.21968801602359], [32.526663852019254, 36.21968801602359], [32.526663852019254, 36.21914902685312], [32.524507895337365, 36.21914902685312], [32.524507895337365, 36.21968801602359], [32.521812949484996, 36.21968801602359], [32.521812949484996, 36.220765994364534], [32.520734971144066, 36.220765994364534], [32.520734971144066, 36.221304983535006], [32.520195981973586, 36.221304983535006], [32.520195981973586, 36.22184397270548], [32.518579014462176, 36.22184397270548], [32.518579014462176, 36.220765994364534], [32.51750103612122, 36.220765994364534], [32.51750103612122, 36.22184397270548], [32.516962046950766, 36.22184397270548], [32.516962046950766, 36.221304983535006], [32.51318912275744, 36.221304983535006], [32.51318912275744, 36.22184397270548], [32.51103316607558, 36.22184397270548], [32.51103316607558, 36.220765994364534], [32.50941619856414, 36.220765994364534], [32.50941619856414, 36.221304983535006], [32.50887720939369, 36.221304983535006], [32.50887720939369, 36.220765994364534], [32.5067212527118, 36.220765994364534], [32.5067212527118, 36.22022700519406], [32.50618226354132, 36.22022700519406], [32.50618226354132, 36.21968801602359], [32.50510428520039, 36.21968801602359], [32.50510428520039, 36.21914902685312], [32.50456529602991, 36.21914902685312], [32.50456529602991, 36.218610037682645], [32.50402630685943, 36.218610037682645], [32.50402630685943, 36.216993070171235], [32.5029483285185, 36.216993070171235], [32.5029483285185, 36.21591509183029], [32.50240933934802, 36.21591509183029], [32.50240933934802, 36.21537610265982], [32.5029483285185, 36.21537610265982], [32.5029483285185, 36.214837113489345], [32.50456529602991, 36.214837113489345], [32.50456529602991, 36.21429812431887], [32.50618226354132, 36.21429812431887], [32.50618226354132, 36.214837113489345], [32.5067212527118, 36.214837113489345], [32.5067212527118, 36.21429812431887], [32.50833822022321, 36.21429812431887], [32.50833822022321, 36.214837113489345], [32.50887720939369, 36.214837113489345], [32.50887720939369, 36.21537610265982], [32.51318912275744, 36.21537610265982], [32.51318912275744, 36.214837113489345], [32.51480609026888, 36.214837113489345], [32.51480609026888, 36.21429812431887], [32.51750103612122, 36.21429812431887], [32.51750103612122, 36.2137591351484], [32.518579014462176, 36.2137591351484], [32.518579014462176, 36.21322014597793], [32.51965699280311, 36.21322014597793], [32.51965699280311, 36.212681156807456], [32.520195981973586, 36.212681156807456], [32.520195981973586, 36.21214216763698], [32.520734971144066, 36.21214216763698], [32.520734971144066, 36.211064189296046], [32.52127396031452, 36.211064189296046], [32.52127396031452, 36.206213286761795], [32.521812949484996, 36.206213286761795], [32.521812949484996, 36.20567429759133], [32.522351938655476, 36.20567429759133], [32.522351938655476, 36.204596319250385], [32.522890927825955, 36.204596319250385], [32.522890927825955, 36.20405733007991]], [[32.51750103612122, 36.22022700519406], [32.51750103612122, 36.220765994364534], [32.516962046950766, 36.220765994364534], [32.516962046950766, 36.22022700519406], [32.51750103612122, 36.22022700519406]], [[32.530436776212554, 36.21807104851218], [32.530436776212554, 36.218610037682645], [32.529358797871595, 36.218610037682645], [32.529358797871595, 36.21914902685312], [32.527202841189705, 36.21914902685312], [32.527202841189705, 36.218610037682645], [32.528819808701144, 36.218610037682645], [32.528819808701144, 36.21807104851218], [32.530436776212554, 36.21807104851218]], [[32.53420970040585, 36.21807104851218], [32.53420970040585, 36.218610037682645], [32.533670711235374, 36.218610037682645], [32.533670711235374, 36.21807104851218], [32.53420970040585, 36.21807104851218]], [[32.51318912275744, 36.21753205934171], [32.51318912275744, 36.218610037682645], [32.51265013358699, 36.218610037682645], [32.51265013358699, 36.21753205934171], [32.51318912275744, 36.21753205934171]], [[32.51911800363263, 36.21753205934171], [32.51911800363263, 36.21807104851218], [32.51965699280311, 36.21807104851218], [32.51965699280311, 36.218610037682645], [32.51911800363263, 36.218610037682645], [32.51911800363263, 36.21914902685312], [32.51750103612122, 36.21914902685312], [32.51750103612122, 36.21968801602359], [32.51588406860981, 36.21968801602359], [32.51588406860981, 36.220765994364534], [32.51480609026888, 36.220765994364534], [32.51480609026888, 36.22022700519406], [32.51265013358699, 36.22022700519406], [32.51265013358699, 36.220765994364534], [32.51157215524603, 36.220765994364534], [32.51157215524603, 36.218610037682645], [32.51265013358699, 36.218610037682645], [32.51265013358699, 36.21968801602359], [32.51372811192792, 36.21968801602359], [32.51372811192792, 36.218610037682645], [32.51534507943933, 36.218610037682645], [32.51534507943933, 36.21914902685312], [32.51642305778029, 36.21914902685312], [32.51642305778029, 36.21807104851218], [32.51750103612122, 36.21807104851218], [32.51750103612122, 36.21753205934171], [32.51911800363263, 36.21753205934171]], [[32.523968906166886, 36.21753205934171], [32.523968906166886, 36.21807104851218], [32.523429916996406, 36.21807104851218], [32.523429916996406, 36.21753205934171], [32.523968906166886, 36.21753205934171]], [[32.520734971144066, 36.21645408100076], [32.520734971144066, 36.216993070171235], [32.52127396031452, 36.216993070171235], [32.52127396031452, 36.21753205934171], [32.521812949484996, 36.21753205934171], [32.521812949484996, 36.21807104851218], [32.520734971144066, 36.21807104851218], [32.520734971144066, 36.218610037682645], [32.520195981973586, 36.218610037682645], [32.520195981973586, 36.21645408100076], [32.520734971144066, 36.21645408100076]], [[32.523968906166886, 36.214837113489345], [32.523968906166886, 36.21537610265982], [32.524507895337365, 36.21537610265982], [32.524507895337365, 36.21591509183029], [32.523968906166886, 36.21591509183029], [32.523968906166886, 36.21645408100076], [32.523429916996406, 36.21645408100076], [32.523429916996406, 36.216993070171235], [32.522890927825955, 36.216993070171235], [32.522890927825955, 36.21753205934171], [32.521812949484996, 36.21753205934171], [32.521812949484996, 36.216993070171235], [32.52127396031452, 36.216993070171235], [32.52127396031452, 36.21645408100076], [32.522890927825955, 36.21645408100076], [32.522890927825955, 36.214837113489345], [32.523968906166886, 36.214837113489345]], [[32.527741830360185, 36.214837113489345], [32.527741830360185, 36.21537610265982], [32.527202841189705, 36.21537610265982], [32.527202841189705, 36.214837113489345], [32.527741830360185, 36.214837113489345]], [[32.54067757045152, 36.21537610265982], [32.54067757045152, 36.21591509183029], [32.54013858128104, 36.21591509183029], [32.54013858128104, 36.21537610265982], [32.54067757045152, 36.21537610265982]], [[32.526124862848775, 36.21429812431887], [32.526124862848775, 36.214837113489345], [32.525585873678295, 36.214837113489345], [32.525585873678295, 36.21537610265982], [32.525046884507816, 36.21537610265982], [32.525046884507816, 36.21429812431887], [32.526124862848775, 36.21429812431887]], [[32.524507895337365, 36.21322014597793], [32.524507895337365, 36.214837113489345], [32.523968906166886, 36.214837113489345], [32.523968906166886, 36.21429812431887], [32.522890927825955, 36.21429812431887], [32.522890927825955, 36.2137591351484], [32.523968906166886, 36.2137591351484], [32.523968906166886, 36.21322014597793], [32.524507895337365, 36.21322014597793]], [[32.530436776212554, 36.21160317846652], [32.530436776212554, 36.21214216763698], [32.529897787042074, 36.21214216763698], [32.529897787042074, 36.21160317846652], [32.530436776212554, 36.21160317846652]], [[32.530436776212554, 36.2099862109551], [32.530436776212554, 36.21052520012557], [32.529897787042074, 36.21052520012557], [32.529897787042074, 36.2099862109551], [32.530436776212554, 36.2099862109551]], [[32.529358797871595, 36.20944722178463], [32.529358797871595, 36.2099862109551], [32.528819808701144, 36.2099862109551], [32.528819808701144, 36.20944722178463], [32.529358797871595, 36.20944722178463]], [[32.530975765383005, 36.20890823261416], [32.530975765383005, 36.20944722178463], [32.531514754553484, 36.20944722178463], [32.531514754553484, 36.2099862109551], [32.53259273289444, 36.2099862109551], [32.53259273289444, 36.21052520012557], [32.532053743723964, 36.21052520012557], [32.532053743723964, 36.211064189296046], [32.53259273289444, 36.211064189296046], [32.53259273289444, 36.21160317846652], [32.531514754553484, 36.21160317846652], [32.531514754553484, 36.211064189296046], [32.530975765383005, 36.211064189296046], [32.530975765383005, 36.2099862109551], [32.530436776212554, 36.2099862109551], [32.530436776212554, 36.20890823261416], [32.530975765383005, 36.20890823261416]], [[32.525585873678295, 36.20675227593227], [32.525585873678295, 36.20729126510274], [32.525046884507816, 36.20729126510274], [32.525046884507816, 36.20675227593227], [32.525585873678295, 36.20675227593227]]]}, "properties": {"area_ha": 246.0408892259438, "mean_dnbr": 0.3437939481356825, "compactness": 0.036, "rectangularity": 0.369, "cropland_frac": 0, "persistent": true, "brightness_delta": -0.099}}]}