{"type": "FeatureCollection", "crs": {"type": "name", "properties": {"name": "urn:ogc:def:crs:OGC:1.3:CRS84"}}, "features": [{"type": "Feature", "geometry": {"geodesic": false, "type": "Polygon", "coordinates": [[[32.51911800363263, 36.24394252869482], [32.52127396031452, 36.24394252869482], [32.52127396031452, 36.24448151786529], [32.521812949484996, 36.24448151786529], [32.521812949484996, 36.24502050703576], [32.52127396031452, 36.24502050703576], [32.52127396031452, 36.24555949620623], [32.522890927825955, 36.24555949620623], [32.522890927825955, 36.246098485376706], [32.523429916996406, 36.246098485376706], [32.523429916996406, 36.24663747454718], [32.523968906166886, 36.24663747454718], [32.523968906166886, 36.24717646371765], [32.523429916996406, 36.24717646371765], [32.523429916996406, 36.248254442058595], [32.522890927825955, 36.248254442058595], [32.522890927825955, 36.24933242039953], [32.522351938655476, 36.24933242039953], [32.522351938655476, 36.249871409570005], [32.52127396031452, 36.249871409570005], [32.52127396031452, 36.25041039874048], [32.520734971144066, 36.25041039874048], [32.520734971144066, 36.25094938791095], [32.520195981973586, 36.25094938791095], [32.520195981973586, 36.25041039874048], [32.51642305778029, 36.25041039874048], [32.51642305778029, 36.24771545288812], [32.516962046950766, 36.24771545288812], [32.516962046950766, 36.24717646371765], [32.5180400252917, 36.24717646371765], [32.5180400252917, 36.24663747454718], [32.51911800363263, 36.24663747454718], [32.51911800363263, 36.246098485376706], [32.520195981973586, 36.246098485376706], [32.520195981973586, 36.24555949620623], [32.51911800363263, 36.24555949620623], [32.51911800363263, 36.24502050703576], [32.518579014462176, 36.24502050703576], [32.518579014462176, 36.24448151786529], [32.51911800363263, 36.24448151786529], [32.51911800363263, 36.24394252869482]], [[32.51911800363263, 36.248254442058595], [32.51911800363263, 36.24933242039953], [32.518579014462176, 36.24933242039953], [32.518579014462176, 36.24879343122906], [32.5180400252917, 36.24879343122906], [32.5180400252917, 36.248254442058595], [32.51911800363263, 36.248254442058595]]]}, "properties": {"area_ha": 30.416415227865063, "mean_dnbr": 0.44564736039824515, "compactness": 0.275, "rectangularity": 0.608, "cropland_frac": 0, "persistent": true, "brightness_delta": -0.099}}, {"type": "Feature", "geometry": {"geodesic": false, "type": "Polygon", "coordinates": [[[32.527202841189705, 36.211064189296046], [32.527741830360185, 36.211064189296046], [32.527741830360185, 36.21160317846652], [32.527202841189705, 36.21160317846652], [32.527202841189705, 36.2137591351484], [32.528280819530664, 36.2137591351484], [32.528280819530664, 36.21429812431887], [32.527741830360185, 36.21429812431887], [32.527741830360185, 36.214837113489345], [32.528280819530664, 36.214837113489345], [32.528280819530664, 36.21537610265982], [32.526663852019254, 36.21537610265982], [32.526663852019254, 36.21591509183029], [32.527202841189705, 36.21591509183029], [32.527202841189705, 36.21645408100076], [32.527741830360185, 36.21645408100076], [32.527741830360185, 36.21753205934171], [32.528280819530664, 36.21753205934171], [32.528280819530664, 36.216993070171235], [32.528819808701144, 36.216993070171235], [32.528819808701144, 36.21753205934171], [32.528280819530664, 36.21753205934171], [32.528280819530664, 36.218610037682645], [32.527741830360185, 36.218610037682645], [32.527741830360185, 36.21968801602359], [32.529358797871595, 36.21968801602359], [32.529358797871595, 36.22184397270548], [32.528819808701144, 36.22184397270548], [32.528819808701144, 36.22292195104642], [32.529358797871595, 36.22292195104642], [32.529358797871595, 36.22453891855783], [32.529897787042074, 36.22453891855783], [32.529897787042074, 36.22615588606925], [32.529358797871595, 36.22615588606925], [32.529358797871595, 36.22777285358067], [32.528819808701144, 36.22777285358067], [32.528819808701144, 36.22669487523972], [32.528280819530664, 36.22669487523972], [32.528280819530664, 36.22615588606925], [32.527741830360185, 36.22615588606925], [32.527741830360185, 36.227233864410195], [32.528280819530664, 36.227233864410195], [32.528280819530664, 36.22831184275114], [32.528819808701144, 36.22831184275114], [32.528819808701144, 36.229389821092084], [32.529358797871595, 36.229389821092084], [32.529358797871595, 36.22831184275114], [32.529897787042074, 36.22831184275114], [32.529897787042074, 36.229389821092084], [32.530436776212554, 36.229389821092084], [32.530436776212554, 36.22885083192161], [32.530975765383005, 36.22885083192161], [32.530975765383005, 36.22831184275114], [32.532053743723964, 36.22831184275114], [32.532053743723964, 36.22885083192161], [32.531514754553484, 36.22885083192161], [32.531514754553484, 36.23046779943302], [32.530436776212554, 36.23046779943302], [32.530436776212554, 36.23154577777397], [32.531514754553484, 36.23154577777397], [32.531514754553484, 36.23208476694444], [32.532053743723964, 36.23208476694444], [32.532053743723964, 36.23262375611491], [32.531514754553484, 36.23262375611491], [32.531514754553484, 36.235857691137745], [32.530436776212554, 36.235857691137745], [32.530436776212554, 36.23639668030821], [32.529358797871595, 36.23639668030821], [32.529358797871595, 36.23693566947868], [32.528819808701144, 36.23693566947868], [32.528819808701144, 36.239630615331045], [32.528280819530664, 36.239630615331045], [32.528280819530664, 36.23909162616057], [32.527741830360185, 36.23909162616057], [32.527741830360185, 36.239630615331045], [32.526663852019254, 36.239630615331045], [32.526663852019254, 36.23909162616057], [32.523968906166886, 36.23909162616057], [32.523968906166886, 36.239630615331045], [32.523429916996406, 36.239630615331045], [32.523429916996406, 36.24070859367199], [32.522890927825955, 36.24070859367199], [32.522890927825955, 36.24124758284246], [32.52127396031452, 36.24124758284246], [32.52127396031452, 36.241786572012934], [32.520734971144066, 36.241786572012934], [32.520734971144066, 36.239630615331045], [32.52127396031452, 36.239630615331045], [32.52127396031452, 36.23909162616057], [32.520734971144066, 36.23909162616057], [32.520734971144066, 36.2385526369901], [32.520195981973586, 36.2385526369901], [32.520195981973586, 36.23801364781963], [32.51911800363263, 36.23801364781963], [32.51911800363263, 36.237474658649155], [32.518579014462176, 36.237474658649155], [32.518579014462176, 36.23801364781963], [32.5180400252917, 36.23801364781963], [32.5180400252917, 36.23639668030821], [32.518579014462176, 36.23639668030821], [32.518579014462176, 36.2347797127968], [32.51911800363263, 36.2347797127968], [32.51911800363263, 36.23531870196727], [32.51965699280311, 36.23531870196727], [32.51965699280311, 36.23424072362633], [32.520195981973586, 36.23424072362633], [32.520195981973586, 36.233701734455856], [32.518579014462176, 36.233701734455856], [32.518579014462176, 36.23262375611491], [32.5180400252917, 36.23262375611491], [32.5180400252917, 36.233162745285384], [32.51750103612122, 36.233162745285384], [32.51750103612122, 36.23262375611491], [32.516962046950766, 36.23262375611491], [32.516962046950766, 36.23154577777397], [32.51642305778029, 36.23154577777397], [32.51642305778029, 36.22992881026256], [32.51480609026888, 36.22992881026256], [32.51480609026888, 36.229389821092084], [32.5142671010984, 36.229389821092084], [32.5142671010984, 36.22885083192161], [32.51534507943933, 36.22885083192161], [32.51534507943933, 36.22831184275114], [32.51480609026888, 36.22831184275114], [32.51480609026888, 36.22777285358067], [32.5142671010984, 36.22777285358067], [32.5142671010984, 36.22831184275114], [32.51372811192792, 36.22831184275114], [32.51372811192792, 36.22885083192161], [32.51318912275744, 36.22885083192161], [32.51318912275744, 36.22831184275114], [32.51372811192792, 36.22831184275114], [32.51372811192792, 36.22777285358067], [32.51318912275744, 36.22777285358067], [32.51318912275744, 36.22615588606925], [32.5142671010984, 36.22615588606925], [32.5142671010984, 36.227233864410195], [32.51534507943933, 36.227233864410195], [32.51534507943933, 36.22615588606925], [32.51588406860981, 36.22615588606925], [32.51588406860981, 36.22561689689878], [32.51480609026888, 36.22561689689878], [32.51480609026888, 36.225077907728306], [32.51750103612122, 36.225077907728306], [32.51750103612122, 36.22561689689878], [32.5180400252917, 36.22561689689878], [32.5180400252917, 36.223460940216896], [32.51965699280311, 36.223460940216896], [32.51965699280311, 36.22399992938737], [32.520195981973586, 36.22399992938737], [32.520195981973586, 36.22292195104642], [32.51965699280311, 36.22292195104642], [32.51965699280311, 36.22184397270548], [32.51911800363263, 36.22184397270548], [32.51911800363263, 36.22022700519406], [32.518579014462176, 36.22022700519406], [32.518579014462176, 36.21968801602359], [32.5180400252917, 36.21968801602359], [32.5180400252917, 36.22022700519406], [32.51750103612122, 36.22022700519406], [32.51750103612122, 36.21914902685312], [32.51911800363263, 36.21914902685312], [32.51911800363263, 36.218610037682645], [32.520734971144066, 36.218610037682645], [32.520734971144066, 36.21807104851218], [32.521812949484996, 36.21807104851218], [32.521812949484996, 36.216993070171235], [32.522351938655476, 36.216993070171235], [32.522351938655476, 36.21753205934171], [32.522890927825955, 36.21753205934171], [32.522890927825955, 36.216993070171235], [32.523429916996406, 36.216993070171235], [32.523429916996406, 36.21645408100076], [32.523968906166886, 36.21645408100076], [32.523968906166886, 36.21591509183029], [32.524507895337365, 36.21591509183029], [32.524507895337365, 36.21537610265982], [32.523429916996406, 36.21537610265982], [32.523429916996406, 36.214837113489345], [32.522890927825955, 36.214837113489345], [32.522890927825955, 36.21645408100076], [32.51911800363263, 36.21645408100076], [32.51911800363263, 36.216993070171235], [32.518579014462176, 36.216993070171235], [32.518579014462176, 36.21591509183029], [32.51911800363263, 36.21591509183029], [32.51911800363263, 36.21537610265982], [32.518579014462176, 36.21537610265982], [32.518579014462176, 36.214837113489345], [32.51750103612122, 36.214837113489345], [32.51750103612122, 36.21429812431887], [32.518579014462176, 36.21429812431887], [32.518579014462176, 36.2137591351484], [32.51750103612122, 36.2137591351484], [32.51750103612122, 36.21322014597793], [32.5180400252917, 36.21322014597793], [32.5180400252917, 36.212681156807456], [32.52127396031452, 36.212681156807456], [32.52127396031452, 36.21322014597793], [32.522890927825955, 36.21322014597793], [32.522890927825955, 36.21429812431887], [32.523968906166886, 36.21429812431887], [32.523968906166886, 36.214837113489345], [32.525046884507816, 36.214837113489345], [32.525046884507816, 36.21537610265982], [32.526124862848775, 36.21537610265982], [32.526124862848775, 36.21429812431887], [32.524507895337365, 36.21429812431887], [32.524507895337365, 36.21214216763698], [32.523968906166886, 36.21214216763698], [32.523968906166886, 36.21160317846652], [32.524507895337365, 36.21160317846652], [32.524507895337365, 36.21214216763698], [32.526663852019254, 36.21214216763698], [32.526663852019254, 36.21160317846652], [32.527202841189705, 36.21160317846652], [32.527202841189705, 36.211064189296046]], [[32.527202841189705, 36.2385526369901], [32.527202841189705, 36.23909162616057], [32.526663852019254, 36.23909162616057], [32.526663852019254, 36.2385526369901], [32.527202841189705, 36.2385526369901]], [[32.51965699280311, 36.235857691137745], [32.51965699280311, 36.23693566947868], [32.51911800363263, 36.23693566947868], [32.51911800363263, 36.235857691137745], [32.51965699280311, 36.235857691137745]], [[32.51911800363263, 36.23154577777397], [32.51911800363263, 36.23262375611491], [32.518579014462176, 36.23262375611491], [32.518579014462176, 36.23154577777397], [32.51911800363263, 36.23154577777397]], [[32.52127396031452, 36.23154577777397], [32.52127396031452, 36.23208476694444], [32.51965699280311, 36.23208476694444], [32.51965699280311, 36.23154577777397], [32.52127396031452, 36.23154577777397]], [[32.530436776212554, 36.23154577777397], [32.530436776212554, 36.23208476694444], [32.531514754553484, 36.23208476694444], [32.531514754553484, 36.23262375611491], [32.529897787042074, 36.23262375611491], [32.529897787042074, 36.23208476694444], [32.528819808701144, 36.23208476694444], [32.528819808701144, 36.23154577777397], [32.530436776212554, 36.23154577777397]], [[32.518579014462176, 36.22992881026256], [32.518579014462176, 36.23154577777397], [32.51750103612122, 36.23154577777397], [32.51750103612122, 36.231006788603494], [32.516962046950766, 36.231006788603494], [32.516962046950766, 36.22992881026256], [32.518579014462176, 36.22992881026256]], [[32.520195981973586, 36.229389821092084], [32.520195981973586, 36.23046779943302], [32.51965699280311, 36.23046779943302], [32.51965699280311, 36.22992881026256], [32.51911800363263, 36.22992881026256], [32.51911800363263, 36.229389821092084], [32.520195981973586, 36.229389821092084]], [[32.5142671010984, 36.227233864410195], [32.5142671010984, 36.22777285358067], [32.51372811192792, 36.22777285358067], [32.51372811192792, 36.227233864410195], [32.5142671010984, 36.227233864410195]], [[32.51588406860981, 36.227233864410195], [32.51588406860981, 36.22777285358067], [32.51534507943933, 36.22777285358067], [32.51534507943933, 36.227233864410195], [32.51588406860981, 36.227233864410195]], [[32.526124862848775, 36.227233864410195], [32.526124862848775, 36.22777285358067], [32.526663852019254, 36.22777285358067], [32.526663852019254, 36.22885083192161], [32.527202841189705, 36.22885083192161], [32.527202841189705, 36.229389821092084], [32.526663852019254, 36.229389821092084], [32.526663852019254, 36.22992881026256], [32.527741830360185, 36.22992881026256], [32.527741830360185, 36.229389821092084], [32.528280819530664, 36.229389821092084], [32.528280819530664, 36.22992881026256], [32.528819808701144, 36.22992881026256], [32.528819808701144, 36.23046779943302], [32.528280819530664, 36.23046779943302], [32.528280819530664, 36.231006788603494], [32.527741830360185, 36.231006788603494], [32.527741830360185, 36.23046779943302], [32.523968906166886, 36.23046779943302], [32.523968906166886, 36.22777285358067], [32.524507895337365, 36.22777285358067], [32.524507895337365, 36.227233864410195], [32.526124862848775, 36.227233864410195]], [[32.523968906166886, 36.22669487523972], [32.523968906166886, 36.227233864410195], [32.523429916996406, 36.227233864410195], [32.523429916996406, 36.22669487523972], [32.523968906166886, 36.22669487523972]], [[32.523968906166886, 36.22561689689878], [32.523968906166886, 36.22615588606925], [32.523429916996406, 36.22615588606925], [32.523429916996406, 36.22561689689878], [32.523968906166886, 36.22561689689878]], [[32.51911800363263, 36.225077907728306], [32.51911800363263, 36.22561689689878], [32.518579014462176, 36.22561689689878], [32.518579014462176, 36.225077907728306], [32.51911800363263, 36.225077907728306]], [[32.527202841189705, 36.223460940216896], [32.527202841189705, 36.22399992938737], [32.528280819530664, 36.22399992938737], [32.528280819530664, 36.22453891855783], [32.526663852019254, 36.22453891855783], [32.526663852019254, 36.223460940216896], [32.527202841189705, 36.223460940216896]], [[32.524507895337365, 36.21753205934171], [32.524507895337365, 36.21807104851218], [32.525046884507816, 36.21807104851218], [32.525046884507816, 36.218610037682645], [32.523429916996406, 36.218610037682645], [32.523429916996406, 36.21807104851218], [32.523968906166886, 36.21807104851218], [32.523968906166886, 36.21753205934171], [32.524507895337365, 36.21753205934171]], [[32.522351938655476, 36.214837113489345], [32.522351938655476, 36.21537610265982], [32.521812949484996, 36.21537610265982], [32.521812949484996, 36.214837113489345], [32.522351938655476, 36.214837113489345]], [[32.521812949484996, 36.2137591351484], [32.521812949484996, 36.21429812431887], [32.52127396031452, 36.21429812431887], [32.52127396031452, 36.2137591351484], [32.521812949484996, 36.2137591351484]], [[32.52127396031452, 36.21322014597793], [32.52127396031452, 36.2137591351484], [32.520734971144066, 36.2137591351484], [32.520734971144066, 36.214837113489345], [32.52127396031452, 36.214837113489345], [32.52127396031452, 36.21537610265982], [32.520195981973586, 36.21537610265982], [32.520195981973586, 36.214837113489345], [32.51965699280311, 36.214837113489345], [32.51965699280311, 36.2137591351484], [32.520195981973586, 36.2137591351484], [32.520195981973586, 36.21322014597793], [32.52127396031452, 36.21322014597793]]]}, "properties": {"area_ha": 276.7164917410398, "mean_dnbr": 0.4129755850684679, "compactness": 0.047, "rectangularity": 0.511, "cropland_frac": 0, "persistent": true, "brightness_delta": -0.117}}]}