{"type": "FeatureCollection", "crs": {"type": "name", "properties": {"name": "urn:ogc:def:crs:OGC:1.3:CRS84"}}, "features": [{"type": "Feature", "geometry": {"geodesic": false, "type": "Polygon", "coordinates": [[[32.28465771447745, 36.27520390058218], [32.28519670364793, 36.27520390058218], [32.28519670364793, 36.27574288975265], [32.28681367115934, 36.27574288975265], [32.28681367115934, 36.27628187892312], [32.28789164950027, 36.27628187892312], [32.28789164950027, 36.27735985726407], [32.28843063867075, 36.27735985726407], [32.28843063867075, 36.278437835605004], [32.287352660329816, 36.278437835605004], [32.287352660329816, 36.27897682477548], [32.28627468198886, 36.27897682477548], [32.28627468198886, 36.27951581394595], [32.288969627841226, 36.27951581394595], [32.288969627841226, 36.28005480311642], [32.290047606182156, 36.28005480311642], [32.290047606182156, 36.28059379228689], [32.290586595352636, 36.28059379228689], [32.290586595352636, 36.281132781457366], [32.291125584523115, 36.281132781457366], [32.291125584523115, 36.28274974896878], [32.291664573693566, 36.28274974896878], [32.291664573693566, 36.284905705650665], [32.291125584523115, 36.284905705650665], [32.291125584523115, 36.2843667164802], [32.28950861701168, 36.2843667164802], [32.28950861701168, 36.284905705650665], [32.28681367115934, 36.284905705650665], [32.28681367115934, 36.2843667164802], [32.28627468198886, 36.2843667164802], [32.28627468198886, 36.28382772730973], [32.28573569281838, 36.28382772730973], [32.28573569281838, 36.28274974896878], [32.28411872530697, 36.28274974896878], [32.28411872530697, 36.281132781457366], [32.28627468198886, 36.281132781457366], [32.28627468198886, 36.28167177062784], [32.28681367115934, 36.28167177062784], [32.28681367115934, 36.281132781457366], [32.287352660329816, 36.281132781457366], [32.287352660329816, 36.28059379228689], [32.28627468198886, 36.28059379228689], [32.28627468198886, 36.27951581394595], [32.28573569281838, 36.27951581394595], [32.28573569281838, 36.278437835605004], [32.28411872530697, 36.278437835605004], [32.28411872530697, 36.27789884643454], [32.28357973613649, 36.27789884643454], [32.28357973613649, 36.27735985726407], [32.28250175779556, 36.27735985726407], [32.28250175779556, 36.276820868093594], [32.28304074696604, 36.276820868093594], [32.28304074696604, 36.27628187892312], [32.28357973613649, 36.27628187892312], [32.28357973613649, 36.27574288975265], [32.28465771447745, 36.27574288975265], [32.28465771447745, 36.27520390058218]], [[32.290586595352636, 36.28274974896878], [32.290586595352636, 36.28382772730973], [32.290047606182156, 36.28382772730973], [32.290047606182156, 36.28274974896878], [32.290586595352636, 36.28274974896878]]]}, "properties": {"area_ha": 40.24853404683808, "mean_dnbr": 0.4654526117604026, "compactness": 0.177, "rectangularity": 0.512, "cropland_frac": 0, "persistent": true, "brightness_delta": -0.064}}, {"type": "Feature", "geometry": {"geodesic": false, "type": "Polygon", "coordinates": [[[32.571938942338875, 36.921990905148235], [32.573016920679805, 36.921990905148235], [32.573016920679805, 36.92306888348918], [32.573555909850285, 36.92306888348918], [32.573555909850285, 36.92468585100059], [32.574094899020764, 36.92468585100059], [32.574094899020764, 36.92684180768248], [32.573555909850285, 36.92684180768248], [32.573555909850285, 36.928458775193896], [32.573016920679805, 36.928458775193896], [32.573016920679805, 36.92791978602342], [32.572477931509326, 36.92791978602342], [32.572477931509326, 36.92684180768248], [32.571938942338875, 36.92684180768248], [32.571938942338875, 36.926302818512006], [32.570860963997916, 36.926302818512006], [32.570860963997916, 36.92522484017106], [32.571399953168395, 36.92522484017106], [32.571399953168395, 36.92414686183012], [32.571938942338875, 36.92414686183012], [32.571938942338875, 36.923607872659645], [32.572477931509326, 36.923607872659645], [32.572477931509326, 36.92252989431871], [32.571938942338875, 36.92252989431871], [32.571938942338875, 36.921990905148235]], [[32.571938942338875, 36.92522484017106], [32.571938942338875, 36.925763829341534], [32.571399953168395, 36.925763829341534], [32.571399953168395, 36.92522484017106], [32.571938942338875, 36.92522484017106]]]}, "properties": {"area_ha": 10.624475375587156, "mean_dnbr": 0.8559301046584916, "compactness": 0.247, "rectangularity": 0.514, "cropland_frac": 0, "persistent": true, "brightness_delta": -0.324}}, {"type": "Feature", "geometry": {"geodesic": false, "type": "Polygon", "coordinates": [[[32.58325771491877, 36.90420426252267], [32.58379670408925, 36.90420426252267], [32.58379670408925, 36.90851617588644], [32.58325771491877, 36.90851617588644], [32.58325771491877, 36.90905516505691], [32.58217973657784, 36.90905516505691], [32.58217973657784, 36.909594154227385], [32.58271872574829, 36.909594154227385], [32.58271872574829, 36.91013314339786], [32.58164074740736, 36.91013314339786], [32.58164074740736, 36.91067213256833], [32.58110175823688, 36.91067213256833], [32.58110175823688, 36.91013314339786], [32.58164074740736, 36.91013314339786], [32.58164074740736, 36.90851617588644], [32.58110175823688, 36.90851617588644], [32.58110175823688, 36.90797718671597], [32.58164074740736, 36.90797718671597], [32.58164074740736, 36.90689920837502], [32.58110175823688, 36.90689920837502], [32.58110175823688, 36.90636021920455], [32.58217973657784, 36.90636021920455], [32.58217973657784, 36.90528224086361], [32.58271872574829, 36.90528224086361], [32.58271872574829, 36.90474325169314], [32.58325771491877, 36.90474325169314], [32.58325771491877, 36.90420426252267]]]}, "properties": {"area_ha": 9.765331874575898, "mean_dnbr": 0.9696468530009655, "compactness": 0.252, "rectangularity": 0.567, "cropland_frac": 0.009, "persistent": true, "brightness_delta": -0.471}}, {"type": "Feature", "geometry": {"geodesic": false, "type": "Polygon", "coordinates": [[[32.59295951998726, 36.90474325169314], [32.59403749832822, 36.90474325169314], [32.59403749832822, 36.90582123003408], [32.59565446583963, 36.90582123003408], [32.59565446583963, 36.90689920837502], [32.59511547666915, 36.90689920837502], [32.59511547666915, 36.907438197545495], [32.59619345501011, 36.907438197545495], [32.59619345501011, 36.90797718671597], [32.59511547666915, 36.90797718671597], [32.59511547666915, 36.90851617588644], [32.59457648749867, 36.90851617588644], [32.59457648749867, 36.90797718671597], [32.59403749832822, 36.90797718671597], [32.59403749832822, 36.90905516505691], [32.59349850915774, 36.90905516505691], [32.59349850915774, 36.909594154227385], [32.59242053081678, 36.909594154227385], [32.59242053081678, 36.91067213256833], [32.59295951998726, 36.91067213256833], [32.59295951998726, 36.9112111217388], [32.59242053081678, 36.9112111217388], [32.59242053081678, 36.91067213256833], [32.59134255247585, 36.91067213256833], [32.59134255247585, 36.9112111217388], [32.59188154164633, 36.9112111217388], [32.59188154164633, 36.91175011090927], [32.59134255247585, 36.91175011090927], [32.59134255247585, 36.91228910007974], [32.59080356330537, 36.91228910007974], [32.59080356330537, 36.913367078420684], [32.59026457413492, 36.913367078420684], [32.59026457413492, 36.91390606759116], [32.58918659579396, 36.91390606759116], [32.58918659579396, 36.91444505676163], [32.58756962828255, 36.91444505676163], [32.58756962828255, 36.91390606759116], [32.58810861745303, 36.91390606759116], [32.58810861745303, 36.913367078420684], [32.58703063911207, 36.913367078420684], [32.58703063911207, 36.9149840459321], [32.58756962828255, 36.9149840459321], [32.58756962828255, 36.915523035102574], [32.58703063911207, 36.915523035102574], [32.58703063911207, 36.91660101344352], [32.58649164994159, 36.91660101344352], [32.58649164994159, 36.91714000261399], [32.58595266077114, 36.91714000261399], [32.58595266077114, 36.91660101344352], [32.58541367160066, 36.91660101344352], [32.58541367160066, 36.91714000261399], [32.58487468243018, 36.91714000261399], [32.58487468243018, 36.91660101344352], [32.5843356932597, 36.91660101344352], [32.5843356932597, 36.91714000261399], [32.58379670408925, 36.91714000261399], [32.58379670408925, 36.91821798095493], [32.58541367160066, 36.91821798095493], [32.58541367160066, 36.9187569701254], [32.58325771491877, 36.9187569701254], [32.58325771491877, 36.91821798095493], [32.58271872574829, 36.91821798095493], [32.58271872574829, 36.9187569701254], [32.58217973657784, 36.9187569701254], [32.58217973657784, 36.919834948466345], [32.58164074740736, 36.919834948466345], [32.58164074740736, 36.9187569701254], [32.58110175823688, 36.9187569701254], [32.58110175823688, 36.919834948466345], [32.580562769066404, 36.919834948466345], [32.580562769066404, 36.92037393763682], [32.58002377989595, 36.92037393763682], [32.58002377989595, 36.92091292680729], [32.580562769066404, 36.92091292680729], [32.580562769066404, 36.92145191597776], [32.58002377989595, 36.92145191597776], [32.58002377989595, 36.92306888348918], [32.578945801554994, 36.92306888348918], [32.578945801554994, 36.92414686183012], [32.577328834043584, 36.92414686183012], [32.577328834043584, 36.92306888348918], [32.57786782321406, 36.92306888348918], [32.57786782321406, 36.921990905148235], [32.577328834043584, 36.921990905148235], [32.577328834043584, 36.92252989431871], [32.576789844873105, 36.92252989431871], [32.576789844873105, 36.92145191597776], [32.577328834043584, 36.92145191597776], [32.577328834043584, 36.92091292680729], [32.576789844873105, 36.92091292680729], [32.576789844873105, 36.92037393763682], [32.576250855702654, 36.92037393763682], [32.576250855702654, 36.919834948466345], [32.575172877361695, 36.919834948466345], [32.575172877361695, 36.92091292680729], [32.573555909850285, 36.92091292680729], [32.573555909850285, 36.92037393763682], [32.573016920679805, 36.92037393763682], [32.573016920679805, 36.92091292680729], [32.571399953168395, 36.92091292680729], [32.571399953168395, 36.92037393763682], [32.570321974827465, 36.92037393763682], [32.570321974827465, 36.919834948466345], [32.569782985656985, 36.919834948466345], [32.569782985656985, 36.91929595929587], [32.570321974827465, 36.91929595929587], [32.570321974827465, 36.9187569701254], [32.570860963997916, 36.9187569701254], [32.570860963997916, 36.91821798095493], [32.570321974827465, 36.91821798095493], [32.570321974827465, 36.917678991784456], [32.570860963997916, 36.917678991784456], [32.570860963997916, 36.91714000261399], [32.571399953168395, 36.91714000261399], [32.571399953168395, 36.91660101344352], [32.571938942338875, 36.91660101344352], [32.571938942338875, 36.915523035102574], [32.574633888191215, 36.915523035102574], [32.574633888191215, 36.9149840459321], [32.574094899020764, 36.9149840459321], [32.574094899020764, 36.91444505676163], [32.575172877361695, 36.91444505676163], [32.575172877361695, 36.91390606759116], [32.574633888191215, 36.91390606759116], [32.574633888191215, 36.913367078420684], [32.576250855702654, 36.913367078420684], [32.576250855702654, 36.91390606759116], [32.576789844873105, 36.91390606759116], [32.576789844873105, 36.91444505676163], [32.576250855702654, 36.91444505676163], [32.576250855702654, 36.9149840459321], [32.575711866532174, 36.9149840459321], [32.575711866532174, 36.915523035102574], [32.575172877361695, 36.915523035102574], [32.575172877361695, 36.916062024273046], [32.574633888191215, 36.916062024273046], [32.574633888191215, 36.91714000261399], [32.574094899020764, 36.91714000261399], [32.574094899020764, 36.917678991784456], [32.574633888191215, 36.917678991784456], [32.574633888191215, 36.9187569701254], [32.575172877361695, 36.9187569701254], [32.575172877361695, 36.91821798095493], [32.575711866532174, 36.91821798095493], [32.575711866532174, 36.9187569701254], [32.576789844873105, 36.9187569701254], [32.576789844873105, 36.91929595929587], [32.578406812384515, 36.91929595929587], [32.578406812384515, 36.9187569701254], [32.58002377989595, 36.9187569701254], [32.58002377989595, 36.917678991784456], [32.580562769066404, 36.917678991784456], [32.580562769066404, 36.91821798095493], [32.58217973657784, 36.91821798095493], [32.58217973657784, 36.91660101344352], [32.58325771491877, 36.91660101344352], [32.58325771491877, 36.916062024273046], [32.58379670408925, 36.916062024273046], [32.58379670408925, 36.915523035102574], [32.58325771491877, 36.915523035102574], [32.58325771491877, 36.9149840459321], [32.58379670408925, 36.9149840459321], [32.58379670408925, 36.913367078420684], [32.58487468243018, 36.913367078420684], [32.58487468243018, 36.91175011090927], [32.58595266077114, 36.91175011090927], [32.58595266077114, 36.91282808925021], [32.58649164994159, 36.91282808925021], [32.58649164994159, 36.91228910007974], [32.58703063911207, 36.91228910007974], [32.58703063911207, 36.91175011090927], [32.58649164994159, 36.91175011090927], [32.58649164994159, 36.9112111217388], [32.58703063911207, 36.9112111217388], [32.58703063911207, 36.91175011090927], [32.58810861745303, 36.91175011090927], [32.58810861745303, 36.9112111217388], [32.58864760662348, 36.9112111217388], [32.58864760662348, 36.91175011090927], [32.58918659579396, 36.91175011090927], [32.58918659579396, 36.9112111217388], [32.58972558496444, 36.9112111217388], [32.58972558496444, 36.91067213256833], [32.59026457413492, 36.91067213256833], [32.59026457413492, 36.90797718671597], [32.59080356330537, 36.90797718671597], [32.59080356330537, 36.90636021920455], [32.59134255247585, 36.90636021920455], [32.59134255247585, 36.90582123003408], [32.59242053081678, 36.90582123003408], [32.59242053081678, 36.90528224086361], [32.59295951998726, 36.90528224086361], [32.59295951998726, 36.90474325169314]], [[32.578945801554994, 36.921990905148235], [32.578945801554994, 36.92252989431871], [32.578406812384515, 36.92252989431871], [32.578406812384515, 36.921990905148235], [32.578945801554994, 36.921990905148235]], [[32.578406812384515, 36.92037393763682], [32.578406812384515, 36.921990905148235], [32.57786782321406, 36.921990905148235], [32.57786782321406, 36.92037393763682], [32.578406812384515, 36.92037393763682]], [[32.573555909850285, 36.917678991784456], [32.573555909850285, 36.91821798095493], [32.573016920679805, 36.91821798095493], [32.573016920679805, 36.917678991784456], [32.573555909850285, 36.917678991784456]], [[32.575711866532174, 36.91444505676163], [32.575711866532174, 36.9149840459321], [32.575172877361695, 36.9149840459321], [32.575172877361695, 36.91444505676163], [32.575711866532174, 36.91444505676163]], [[32.576250855702654, 36.91390606759116], [32.576250855702654, 36.91444505676163], [32.575711866532174, 36.91444505676163], [32.575711866532174, 36.91390606759116], [32.576250855702654, 36.91390606759116]], [[32.59026457413492, 36.91228910007974], [32.59026457413492, 36.913367078420684], [32.58810861745303, 36.913367078420684], [32.58810861745303, 36.91228910007974], [32.59026457413492, 36.91228910007974]], [[32.59080356330537, 36.91175011090927], [32.59080356330537, 36.91228910007974], [32.59026457413492, 36.91228910007974], [32.59026457413492, 36.91175011090927], [32.59080356330537, 36.91175011090927]], [[32.59134255247585, 36.90905516505691], [32.59134255247585, 36.909594154227385], [32.59080356330537, 36.909594154227385], [32.59080356330537, 36.90905516505691], [32.59134255247585, 36.90905516505691]]]}, "properties": {"area_ha": 88.74053167580593, "mean_dnbr": 0.7194841827172915, "compactness": 0.039, "rectangularity": 0.292, "cropland_frac": 0.059, "persistent": true, "brightness_delta": -0.359}}, {"type": "Feature", "geometry": {"geodesic": false, "type": "Polygon", "coordinates": [[[32.60427829256716, 36.89881437081795], [32.60535627090812, 36.89881437081795], [32.60535627090812, 36.899353359988424], [32.60481728173764, 36.899353359988424], [32.60481728173764, 36.89989234915889], [32.60535627090812, 36.89989234915889], [32.60535627090812, 36.90043133832936], [32.60697323841953, 36.90043133832936], [32.60697323841953, 36.900970327499834], [32.60643424924905, 36.900970327499834], [32.60643424924905, 36.90204830584078], [32.6058952600786, 36.90204830584078], [32.6058952600786, 36.903665273352196], [32.60697323841953, 36.903665273352196], [32.60697323841953, 36.90420426252267], [32.6058952600786, 36.90420426252267], [32.6058952600786, 36.903665273352196], [32.60427829256716, 36.903665273352196], [32.60427829256716, 36.90420426252267], [32.60320031422623, 36.90420426252267], [32.60320031422623, 36.903665273352196], [32.60373930339671, 36.903665273352196], [32.60373930339671, 36.903126284181724], [32.60320031422623, 36.903126284181724], [32.60320031422623, 36.90258729501125], [32.60373930339671, 36.90258729501125], [32.60373930339671, 36.90043133832936], [32.60320031422623, 36.90043133832936], [32.60320031422623, 36.89989234915889], [32.60373930339671, 36.89989234915889], [32.60373930339671, 36.899353359988424], [32.60427829256716, 36.899353359988424], [32.60427829256716, 36.89881437081795]], [[32.60427829256716, 36.90258729501125], [32.60427829256716, 36.903126284181724], [32.60373930339671, 36.903126284181724], [32.60373930339671, 36.90258729501125], [32.60427829256716, 36.90258729501125]], [[32.60535627090812, 36.90258729501125], [32.60535627090812, 36.903126284181724], [32.60481728173764, 36.903126284181724], [32.60481728173764, 36.90258729501125], [32.60535627090812, 36.90258729501125]], [[32.60481728173764, 36.90204830584078], [32.60481728173764, 36.90258729501125], [32.60427829256716, 36.90258729501125], [32.60427829256716, 36.90204830584078], [32.60481728173764, 36.90204830584078]]]}, "properties": {"area_ha": 10.915007723276007, "mean_dnbr": 0.9074909780535408, "compactness": 0.141, "rectangularity": 0.543, "cropland_frac": 0, "persistent": true, "brightness_delta": -0.427}}, {"type": "Feature", "geometry": {"geodesic": false, "type": "Polygon", "coordinates": [[[32.617214032658495, 36.88911256574946], [32.617753021828975, 36.88911256574946], [32.617753021828975, 36.890729533260874], [32.617214032658495, 36.890729533260874], [32.617214032658495, 36.89288548994276], [32.616675043488016, 36.89288548994276], [32.616675043488016, 36.8939634682837], [32.615597065147085, 36.8939634682837], [32.615597065147085, 36.89450245745417], [32.613441108465196, 36.89450245745417], [32.613441108465196, 36.895041446624646], [32.612902119294716, 36.895041446624646], [32.612902119294716, 36.89558043579512], [32.61236313012424, 36.89558043579512], [32.61236313012424, 36.89611942496559], [32.612902119294716, 36.89611942496559], [32.612902119294716, 36.89665841413606], [32.61236313012424, 36.89665841413606], [32.61236313012424, 36.89881437081795], [32.613441108465196, 36.89881437081795], [32.613441108465196, 36.89827538164748], [32.615058075976606, 36.89827538164748], [32.615058075976606, 36.89773639247701], [32.616136054317536, 36.89773639247701], [32.616136054317536, 36.89827538164748], [32.617753021828975, 36.89827538164748], [32.617753021828975, 36.899353359988424], [32.620447967681315, 36.899353359988424], [32.620447967681315, 36.89989234915889], [32.618292010999426, 36.89989234915889], [32.618292010999426, 36.90043133832936], [32.617214032658495, 36.90043133832936], [32.617214032658495, 36.900970327499834], [32.616675043488016, 36.900970327499834], [32.616675043488016, 36.90043133832936], [32.61236313012424, 36.90043133832936], [32.61236313012424, 36.900970327499834], [32.611824140953786, 36.900970327499834], [32.611824140953786, 36.90043133832936], [32.60912919510142, 36.90043133832936], [32.60912919510142, 36.900970327499834], [32.60859020593094, 36.900970327499834], [32.60859020593094, 36.90043133832936], [32.60751222759001, 36.90043133832936], [32.60751222759001, 36.89989234915889], [32.60805121676049, 36.89989234915889], [32.60805121676049, 36.89827538164748], [32.61020717344235, 36.89827538164748], [32.61020717344235, 36.89773639247701], [32.61074616261283, 36.89773639247701], [32.61074616261283, 36.89611942496559], [32.61020717344235, 36.89611942496559], [32.61020717344235, 36.895041446624646], [32.611285151783306, 36.895041446624646], [32.611285151783306, 36.89450245745417], [32.611824140953786, 36.89450245745417], [32.611824140953786, 36.8939634682837], [32.614519086806126, 36.8939634682837], [32.614519086806126, 36.89342447911323], [32.615058075976606, 36.89342447911323], [32.615058075976606, 36.89288548994276], [32.615597065147085, 36.89288548994276], [32.615597065147085, 36.89180751160182], [32.616136054317536, 36.89180751160182], [32.616136054317536, 36.890729533260874], [32.616675043488016, 36.890729533260874], [32.616675043488016, 36.8901905440904], [32.617214032658495, 36.8901905440904], [32.617214032658495, 36.88911256574946]]]}, "properties": {"area_ha": 39.35369478388087, "mean_dnbr": 1.0184757682979784, "compactness": 0.115, "rectangularity": 0.265, "cropland_frac": 0.026, "persistent": true, "brightness_delta": -0.381}}]}