{"type": "FeatureCollection", "crs": {"type": "name", "properties": {"name": "urn:ogc:def:crs:OGC:1.3:CRS84"}}, "features": [{"type": "Feature", "geometry": {"geodesic": false, "type": "Polygon", "coordinates": [[[32.253396342590094, 36.31994000173133], [32.254474320931024, 36.31994000173133], [32.254474320931024, 36.320478990901805], [32.25555229927198, 36.320478990901805], [32.25555229927198, 36.32101798007227], [32.25824724512432, 36.32101798007227], [32.25824724512432, 36.322095958413215], [32.25770825595387, 36.322095958413215], [32.25770825595387, 36.32371292592463], [32.25716926678339, 36.32371292592463], [32.25716926678339, 36.32317393675416], [32.25555229927198, 36.32317393675416], [32.25555229927198, 36.324251915095104], [32.254474320931024, 36.324251915095104], [32.254474320931024, 36.324790904265576], [32.2550133101015, 36.324790904265576], [32.2550133101015, 36.32532989343605], [32.25555229927198, 36.32532989343605], [32.25555229927198, 36.32640787177699], [32.254474320931024, 36.32640787177699], [32.254474320931024, 36.32586888260652], [32.2550133101015, 36.32586888260652], [32.2550133101015, 36.32532989343605], [32.250162407567245, 36.32532989343605], [32.250162407567245, 36.32371292592463], [32.250701396737725, 36.32371292592463], [32.250701396737725, 36.322095958413215], [32.251240385908204, 36.322095958413215], [32.251240385908204, 36.32155696924274], [32.252857353419614, 36.32155696924274], [32.252857353419614, 36.320478990901805], [32.253396342590094, 36.320478990901805], [32.253396342590094, 36.31994000173133]], [[32.25555229927198, 36.32101798007227], [32.25555229927198, 36.32155696924274], [32.2550133101015, 36.32155696924274], [32.2550133101015, 36.32101798007227], [32.25555229927198, 36.32101798007227]]]}, "properties": {"area_ha": 27.49312448651807, "mean_dnbr": 0.31552565842720864, "compactness": 0.28, "rectangularity": 0.613, "cropland_frac": 0, "persistent": null, "brightness_delta": 0.046}}, {"type": "Feature", "geometry": {"geodesic": false, "type": "Polygon", "coordinates": [[[32.28681367115934, 36.27951581394595], [32.288969627841226, 36.27951581394595], [32.288969627841226, 36.28005480311642], [32.28950861701168, 36.28005480311642], [32.28950861701168, 36.28059379228689], [32.290586595352636, 36.28059379228689], [32.290586595352636, 36.281132781457366], [32.291125584523115, 36.281132781457366], [32.291125584523115, 36.28274974896878], [32.291664573693566, 36.28274974896878], [32.291664573693566, 36.284905705650665], [32.291125584523115, 36.284905705650665], [32.291125584523115, 36.2843667164802], [32.28950861701168, 36.2843667164802], [32.28950861701168, 36.284905705650665], [32.287352660329816, 36.284905705650665], [32.287352660329816, 36.2843667164802], [32.28681367115934, 36.2843667164802], [32.28681367115934, 36.28382772730973], [32.28627468198886, 36.28382772730973], [32.28627468198886, 36.28274974896878], [32.28465771447745, 36.28274974896878], [32.28465771447745, 36.28221075979831], [32.28411872530697, 36.28221075979831], [32.28411872530697, 36.28167177062784], [32.28465771447745, 36.28167177062784], [32.28465771447745, 36.281132781457366], [32.28627468198886, 36.281132781457366], [32.28627468198886, 36.28167177062784], [32.287352660329816, 36.28167177062784], [32.287352660329816, 36.28059379228689], [32.28681367115934, 36.28059379228689], [32.28681367115934, 36.27951581394595]], [[32.291125584523115, 36.28274974896878], [32.291125584523115, 36.28382772730973], [32.290047606182156, 36.28382772730973], [32.290047606182156, 36.283288738139255], [32.28950861701168, 36.283288738139255], [32.28950861701168, 36.28274974896878], [32.291125584523115, 36.28274974896878]]]}, "properties": {"area_ha": 22.874566371393907, "mean_dnbr": 0.4668183413928739, "compactness": 0.246, "rectangularity": 0.567, "cropland_frac": 0, "persistent": null, "brightness_delta": -0.019}}, {"type": "Feature", "geometry": {"geodesic": false, "type": "Polygon", "coordinates": [[[32.667340025512374, 36.08332375589425], [32.667879014682825, 36.08332375589425], [32.667879014682825, 36.08386274506472], [32.668418003853304, 36.08386274506472], [32.668418003853304, 36.08440173423519], [32.668956993023784, 36.08440173423519], [32.668956993023784, 36.084940723405666], [32.669495982194235, 36.084940723405666], [32.669495982194235, 36.0860187017466], [32.670034971364714, 36.0860187017466], [32.670034971364714, 36.086557690917076], [32.669495982194235, 36.086557690917076], [32.669495982194235, 36.08763566925802], [32.668418003853304, 36.08763566925802], [32.668418003853304, 36.08817465842849], [32.668956993023784, 36.08817465842849], [32.668956993023784, 36.08979162593991], [32.669495982194235, 36.08979162593991], [32.669495982194235, 36.09033061511038], [32.670034971364714, 36.09033061511038], [32.670034971364714, 36.090869604280854], [32.670573960535194, 36.090869604280854], [32.670573960535194, 36.09140859345133], [32.668418003853304, 36.09140859345133], [32.668418003853304, 36.09194758262179], [32.667879014682825, 36.09194758262179], [32.667879014682825, 36.09140859345133], [32.666801036341894, 36.09140859345133], [32.666801036341894, 36.090869604280854], [32.667340025512374, 36.090869604280854], [32.667340025512374, 36.09033061511038], [32.665723058000935, 36.09033061511038], [32.665723058000935, 36.08925263676944], [32.665184068830484, 36.08925263676944], [32.665184068830484, 36.09033061511038], [32.664645079660005, 36.09033061511038], [32.664645079660005, 36.08979162593991], [32.664106090489526, 36.08979162593991], [32.664106090489526, 36.09033061511038], [32.661411144637185, 36.09033061511038], [32.661411144637185, 36.090869604280854], [32.660872155466706, 36.090869604280854], [32.660872155466706, 36.09140859345133], [32.660333166296226, 36.09140859345133], [32.660333166296226, 36.092486571792264], [32.65979417712575, 36.092486571792264], [32.65979417712575, 36.09356455013321], [32.658716198784816, 36.09356455013321], [32.658716198784816, 36.09410353930368], [32.65817720961434, 36.09410353930368], [32.65817720961434, 36.094642528474154], [32.65763822044386, 36.094642528474154], [32.65763822044386, 36.0957205068151], [32.65602125293245, 36.0957205068151], [32.65602125293245, 36.094642528474154], [32.65656024210293, 36.094642528474154], [32.65656024210293, 36.09410353930368], [32.657099231273406, 36.09410353930368], [32.657099231273406, 36.09356455013321], [32.65763822044386, 36.09356455013321], [32.65763822044386, 36.092486571792264], [32.65817720961434, 36.092486571792264], [32.65817720961434, 36.09140859345133], [32.65763822044386, 36.09140859345133], [32.65763822044386, 36.09033061511038], [32.65817720961434, 36.09033061511038], [32.65817720961434, 36.08979162593991], [32.65763822044386, 36.08979162593991], [32.65763822044386, 36.08925263676944], [32.658716198784816, 36.08925263676944], [32.658716198784816, 36.09033061511038], [32.65979417712575, 36.09033061511038], [32.65979417712575, 36.08979162593991], [32.660333166296226, 36.08979162593991], [32.660333166296226, 36.08925263676944], [32.65979417712575, 36.08925263676944], [32.65979417712575, 36.08817465842849], [32.660333166296226, 36.08817465842849], [32.660333166296226, 36.08763566925802], [32.661411144637185, 36.08763566925802], [32.661411144637185, 36.08709668008755], [32.65979417712575, 36.08709668008755], [32.65979417712575, 36.08763566925802], [32.659255187955296, 36.08763566925802], [32.659255187955296, 36.0860187017466], [32.65979417712575, 36.0860187017466], [32.65979417712575, 36.08547971257614], [32.660333166296226, 36.08547971257614], [32.660333166296226, 36.084940723405666], [32.661950133807636, 36.084940723405666], [32.661950133807636, 36.08547971257614], [32.662489122978116, 36.08547971257614], [32.662489122978116, 36.0860187017466], [32.661950133807636, 36.0860187017466], [32.661950133807636, 36.08547971257614], [32.661411144637185, 36.08547971257614], [32.661411144637185, 36.0860187017466], [32.660872155466706, 36.0860187017466], [32.660872155466706, 36.08547971257614], [32.660333166296226, 36.08547971257614], [32.660333166296226, 36.0860187017466], [32.65979417712575, 36.0860187017466], [32.65979417712575, 36.086557690917076], [32.661950133807636, 36.086557690917076], [32.661950133807636, 36.08709668008755], [32.664645079660005, 36.08709668008755], [32.664645079660005, 36.08817465842849], [32.666801036341894, 36.08817465842849], [32.666801036341894, 36.088713647598965], [32.667340025512374, 36.088713647598965], [32.667340025512374, 36.08925263676944], [32.667879014682825, 36.08925263676944], [32.667879014682825, 36.08817465842849], [32.667340025512374, 36.08817465842849], [32.667340025512374, 36.08709668008755], [32.666801036341894, 36.08709668008755], [32.666801036341894, 36.0860187017466], [32.665184068830484, 36.0860187017466], [32.665184068830484, 36.084940723405666], [32.664645079660005, 36.084940723405666], [32.664645079660005, 36.08440173423519], [32.664106090489526, 36.08440173423519], [32.664106090489526, 36.08386274506472], [32.665184068830484, 36.08386274506472], [32.665184068830484, 36.08332375589425], [32.666262047171415, 36.08332375589425], [32.666262047171415, 36.08386274506472], [32.665184068830484, 36.08386274506472], [32.665184068830484, 36.084940723405666], [32.667340025512374, 36.084940723405666], [32.667340025512374, 36.08332375589425]], [[32.664645079660005, 36.088713647598965], [32.664645079660005, 36.08925263676944], [32.664106090489526, 36.08925263676944], [32.664106090489526, 36.088713647598965], [32.664645079660005, 36.088713647598965]], [[32.663567101319046, 36.08763566925802], [32.663567101319046, 36.08817465842849], [32.663028112148595, 36.08817465842849], [32.663028112148595, 36.08763566925802], [32.663567101319046, 36.08763566925802]]]}, "properties": {"area_ha": 54.5702240504521, "mean_dnbr": 0.25710431601240613, "compactness": 0.058, "rectangularity": 0.341, "cropland_frac": 0, "persistent": null, "brightness_delta": 0.046}}]}