{"type": "FeatureCollection", "crs": {"type": "name", "properties": {"name": "urn:ogc:def:crs:OGC:1.3:CRS84"}}, "features": [{"type": "Feature", "geometry": {"geodesic": false, "type": "Polygon", "coordinates": [[[32.69321150569499, 37.939063469828355], [32.70345229993396, 37.939063469828355], [32.70345229993396, 37.93960245899883], [32.704530278274916, 37.93960245899883], [32.704530278274916, 37.9401414481693], [32.70399128910444, 37.9401414481693], [32.70399128910444, 37.941219426510244], [32.70075735408162, 37.941219426510244], [32.70075735408162, 37.94175841568072], [32.70345229993396, 37.94175841568072], [32.70345229993396, 37.942836394021654], [32.702913310763506, 37.942836394021654], [32.702913310763506, 37.9439143723626], [32.69752341905877, 37.9439143723626], [32.69752341905877, 37.945531339874016], [32.69698442988832, 37.945531339874016], [32.69698442988832, 37.94714830738543], [32.69375049486547, 37.94714830738543], [32.69375049486547, 37.94660931821496], [32.69644544071784, 37.94660931821496], [32.69644544071784, 37.94607032904449], [32.69536746237688, 37.94607032904449], [32.69536746237688, 37.945531339874016], [32.69698442988832, 37.945531339874016], [32.69698442988832, 37.944992350703544], [32.69375049486547, 37.944992350703544], [32.69375049486547, 37.94445336153307], [32.69428948403595, 37.94445336153307], [32.69428948403595, 37.9439143723626], [32.69752341905877, 37.9439143723626], [32.69752341905877, 37.9401414481693], [32.69482847320643, 37.9401414481693], [32.69482847320643, 37.93960245899883], [32.69428948403595, 37.93960245899883], [32.69428948403595, 37.9401414481693], [32.69321150569499, 37.9401414481693], [32.69321150569499, 37.939063469828355]]]}, "properties": {"area_ha": 38.24140293610445, "mean_dnbr": 0.16899744760435595, "compactness": 0.143, "rectangularity": 0.429, "cropland_frac": 0.147, "persistent": true, "brightness_delta": -0.01}}]}