{"type": "FeatureCollection", "crs": {"type": "name", "properties": {"name": "urn:ogc:def:crs:OGC:1.3:CRS84"}}, "features": [{"type": "Feature", "geometry": {"geodesic": false, "type": "Polygon", "coordinates": [[[32.42479489880009, 36.55332231254558], [32.42533388797057, 36.55332231254558], [32.42533388797057, 36.557634225909354], [32.42479489880009, 36.557634225909354], [32.42479489880009, 36.558173215079826], [32.42533388797057, 36.558173215079826], [32.42533388797057, 36.55925119342077], [32.425872877141046, 36.55925119342077], [32.425872877141046, 36.56086816093219], [32.42533388797057, 36.56086816093219], [32.42533388797057, 36.56356310678454], [32.42425590962961, 36.56356310678454], [32.42425590962961, 36.56518007429596], [32.42371692045916, 36.56518007429596], [32.42371692045916, 36.56571906346643], [32.4226389421182, 36.56571906346643], [32.4226389421182, 36.566797041807376], [32.42156096377727, 36.566797041807376], [32.42156096377727, 36.566258052636904], [32.42102197460679, 36.566258052636904], [32.42102197460679, 36.566797041807376], [32.41940500709538, 36.566797041807376], [32.41940500709538, 36.56571906346643], [32.41778803958397, 36.56571906346643], [32.41778803958397, 36.56464108512549], [32.4188660179249, 36.56464108512549], [32.4188660179249, 36.564102095955015], [32.41994399626586, 36.564102095955015], [32.41994399626586, 36.56356310678454], [32.42048298543631, 36.56356310678454], [32.42048298543631, 36.5624851284436], [32.4226389421182, 36.5624851284436], [32.4226389421182, 36.56140715010266], [32.42156096377727, 36.56140715010266], [32.42156096377727, 36.560329171761715], [32.42209995294772, 36.560329171761715], [32.42209995294772, 36.55925119342077], [32.4226389421182, 36.55925119342077], [32.4226389421182, 36.5587122042503], [32.42317793128868, 36.5587122042503], [32.42317793128868, 36.558173215079826], [32.4226389421182, 36.558173215079826], [32.4226389421182, 36.55547826922747], [32.42371692045916, 36.55547826922747], [32.42371692045916, 36.554939280057], [32.42317793128868, 36.554939280057], [32.42317793128868, 36.55440029088653], [32.42371692045916, 36.55440029088653], [32.42371692045916, 36.553861301716054], [32.42479489880009, 36.553861301716054], [32.42479489880009, 36.55332231254558]], [[32.42479489880009, 36.55440029088653], [32.42479489880009, 36.554939280057], [32.42425590962961, 36.554939280057], [32.42425590962961, 36.55440029088653], [32.42479489880009, 36.55440029088653]]]}, "properties": {"area_ha": 43.853969616664, "mean_dnbr": 0.2938611742945693, "compactness": 0.199, "rectangularity": 0.482, "cropland_frac": 0, "persistent": true, "brightness_delta": -0.206}}, {"type": "Feature", "geometry": {"geodesic": false, "type": "Polygon", "coordinates": [[[32.520195981973586, 36.243403539524344], [32.520734971144066, 36.243403539524344], [32.520734971144066, 36.24394252869482], [32.52127396031452, 36.24394252869482], [32.52127396031452, 36.24448151786529], [32.521812949484996, 36.24448151786529], [32.521812949484996, 36.24555949620623], [32.522890927825955, 36.24555949620623], [32.522890927825955, 36.246098485376706], [32.523429916996406, 36.246098485376706], [32.523429916996406, 36.248254442058595], [32.522890927825955, 36.248254442058595], [32.522890927825955, 36.24933242039953], [32.522351938655476, 36.24933242039953], [32.522351938655476, 36.249871409570005], [32.521812949484996, 36.249871409570005], [32.521812949484996, 36.25041039874048], [32.51642305778029, 36.25041039874048], [32.51642305778029, 36.24771545288812], [32.516962046950766, 36.24771545288812], [32.516962046950766, 36.24717646371765], [32.5180400252917, 36.24717646371765], [32.5180400252917, 36.24663747454718], [32.51911800363263, 36.24663747454718], [32.51911800363263, 36.246098485376706], [32.520195981973586, 36.246098485376706], [32.520195981973586, 36.24555949620623], [32.51911800363263, 36.24555949620623], [32.51911800363263, 36.24502050703576], [32.518579014462176, 36.24502050703576], [32.518579014462176, 36.24448151786529], [32.51911800363263, 36.24448151786529], [32.51911800363263, 36.24394252869482], [32.520195981973586, 36.24394252869482], [32.520195981973586, 36.243403539524344]], [[32.51911800363263, 36.248254442058595], [32.51911800363263, 36.24933242039953], [32.518579014462176, 36.24933242039953], [32.518579014462176, 36.248254442058595], [32.51911800363263, 36.248254442058595]]]}, "properties": {"area_ha": 30.995872159659793, "mean_dnbr": 0.42644799163063185, "compactness": 0.329, "rectangularity": 0.633, "cropland_frac": 0, "persistent": true, "brightness_delta": -0.103}}, {"type": "Feature", "geometry": {"geodesic": false, "type": "Polygon", "coordinates": [[[32.525046884507816, 36.21214216763698], [32.527202841189705, 36.21214216763698], [32.527202841189705, 36.2137591351484], [32.528280819530664, 36.2137591351484], [32.528280819530664, 36.21429812431887], [32.527741830360185, 36.21429812431887], [32.527741830360185, 36.21537610265982], [32.526663852019254, 36.21537610265982], [32.526663852019254, 36.21591509183029], [32.527202841189705, 36.21591509183029], [32.527202841189705, 36.21645408100076], [32.528280819530664, 36.21645408100076], [32.528280819530664, 36.216993070171235], [32.528819808701144, 36.216993070171235], [32.528819808701144, 36.21753205934171], [32.528280819530664, 36.21753205934171], [32.528280819530664, 36.218610037682645], [32.527741830360185, 36.218610037682645], [32.527741830360185, 36.21968801602359], [32.529358797871595, 36.21968801602359], [32.529358797871595, 36.22453891855783], [32.529897787042074, 36.22453891855783], [32.529897787042074, 36.22669487523972], [32.531514754553484, 36.22669487523972], [32.531514754553484, 36.22777285358067], [32.530436776212554, 36.22777285358067], [32.530436776212554, 36.227233864410195], [32.529358797871595, 36.227233864410195], [32.529358797871595, 36.22831184275114], [32.532053743723964, 36.22831184275114], [32.532053743723964, 36.22777285358067], [32.53259273289444, 36.22777285358067], [32.53259273289444, 36.22831184275114], [32.532053743723964, 36.22831184275114], [32.532053743723964, 36.22885083192161], [32.531514754553484, 36.22885083192161], [32.531514754553484, 36.22992881026256], [32.532053743723964, 36.22992881026256], [32.532053743723964, 36.23046779943302], [32.531514754553484, 36.23046779943302], [32.531514754553484, 36.231006788603494], [32.530436776212554, 36.231006788603494], [32.530436776212554, 36.23154577777397], [32.531514754553484, 36.23154577777397], [32.531514754553484, 36.23208476694444], [32.532053743723964, 36.23208476694444], [32.532053743723964, 36.23262375611491], [32.531514754553484, 36.23262375611491], [32.531514754553484, 36.235857691137745], [32.530436776212554, 36.235857691137745], [32.530436776212554, 36.23639668030821], [32.529897787042074, 36.23639668030821], [32.529897787042074, 36.235857691137745], [32.529358797871595, 36.235857691137745], [32.529358797871595, 36.23693566947868], [32.529897787042074, 36.23693566947868], [32.529897787042074, 36.23801364781963], [32.529358797871595, 36.23801364781963], [32.529358797871595, 36.23693566947868], [32.528819808701144, 36.23693566947868], [32.528819808701144, 36.239630615331045], [32.528280819530664, 36.239630615331045], [32.528280819530664, 36.23909162616057], [32.527741830360185, 36.23909162616057], [32.527741830360185, 36.239630615331045], [32.526663852019254, 36.239630615331045], [32.526663852019254, 36.23909162616057], [32.525585873678295, 36.23909162616057], [32.525585873678295, 36.239630615331045], [32.525046884507816, 36.239630615331045], [32.525046884507816, 36.23909162616057], [32.524507895337365, 36.23909162616057], [32.524507895337365, 36.239630615331045], [32.523429916996406, 36.239630615331045], [32.523429916996406, 36.24070859367199], [32.522890927825955, 36.24070859367199], [32.522890927825955, 36.24124758284246], [32.522351938655476, 36.24124758284246], [32.522351938655476, 36.241786572012934], [32.521812949484996, 36.241786572012934], [32.521812949484996, 36.24124758284246], [32.52127396031452, 36.24124758284246], [32.52127396031452, 36.241786572012934], [32.520734971144066, 36.241786572012934], [32.520734971144066, 36.239630615331045], [32.52127396031452, 36.239630615331045], [32.52127396031452, 36.23909162616057], [32.520734971144066, 36.23909162616057], [32.520734971144066, 36.2385526369901], [32.520195981973586, 36.2385526369901], [32.520195981973586, 36.23801364781963], [32.51911800363263, 36.23801364781963], [32.51911800363263, 36.237474658649155], [32.518579014462176, 36.237474658649155], [32.518579014462176, 36.23801364781963], [32.5180400252917, 36.23801364781963], [32.5180400252917, 36.23639668030821], [32.518579014462176, 36.23639668030821], [32.518579014462176, 36.2347797127968], [32.51911800363263, 36.2347797127968], [32.51911800363263, 36.23531870196727], [32.51965699280311, 36.23531870196727], [32.51965699280311, 36.23424072362633], [32.520195981973586, 36.23424072362633], [32.520195981973586, 36.233162745285384], [32.51965699280311, 36.233162745285384], [32.51965699280311, 36.233701734455856], [32.518579014462176, 36.233701734455856], [32.518579014462176, 36.233162745285384], [32.51911800363263, 36.233162745285384], [32.51911800363263, 36.23154577777397], [32.518579014462176, 36.23154577777397], [32.518579014462176, 36.22992881026256], [32.516962046950766, 36.22992881026256], [32.516962046950766, 36.23154577777397], [32.5180400252917, 36.23154577777397], [32.5180400252917, 36.23208476694444], [32.518579014462176, 36.23208476694444], [32.518579014462176, 36.23262375611491], [32.5180400252917, 36.23262375611491], [32.5180400252917, 36.233162745285384], [32.51750103612122, 36.233162745285384], [32.51750103612122, 36.23262375611491], [32.516962046950766, 36.23262375611491], [32.516962046950766, 36.23154577777397], [32.51642305778029, 36.23154577777397], [32.51642305778029, 36.22992881026256], [32.51534507943933, 36.22992881026256], [32.51534507943933, 36.229389821092084], [32.5142671010984, 36.229389821092084], [32.5142671010984, 36.22885083192161], [32.51534507943933, 36.22885083192161], [32.51534507943933, 36.22831184275114], [32.51480609026888, 36.22831184275114], [32.51480609026888, 36.227233864410195], [32.51318912275744, 36.227233864410195], [32.51318912275744, 36.22615588606925], [32.5142671010984, 36.22615588606925], [32.5142671010984, 36.22669487523972], [32.51480609026888, 36.22669487523972], [32.51480609026888, 36.227233864410195], [32.51534507943933, 36.227233864410195], [32.51534507943933, 36.22615588606925], [32.51480609026888, 36.22615588606925], [32.51480609026888, 36.225077907728306], [32.51750103612122, 36.225077907728306], [32.51750103612122, 36.22561689689878], [32.5180400252917, 36.22561689689878], [32.5180400252917, 36.22453891855783], [32.51750103612122, 36.22453891855783], [32.51750103612122, 36.22399992938737], [32.5180400252917, 36.22399992938737], [32.5180400252917, 36.223460940216896], [32.518579014462176, 36.223460940216896], [32.518579014462176, 36.22292195104642], [32.5180400252917, 36.22292195104642], [32.5180400252917, 36.22238296187595], [32.518579014462176, 36.22238296187595], [32.518579014462176, 36.22184397270548], [32.5180400252917, 36.22184397270548], [32.5180400252917, 36.221304983535006], [32.518579014462176, 36.221304983535006], [32.518579014462176, 36.220765994364534], [32.51911800363263, 36.220765994364534], [32.51911800363263, 36.22022700519406], [32.518579014462176, 36.22022700519406], [32.518579014462176, 36.21968801602359], [32.5180400252917, 36.21968801602359], [32.5180400252917, 36.22022700519406], [32.51750103612122, 36.22022700519406], [32.51750103612122, 36.21914902685312], [32.51911800363263, 36.21914902685312], [32.51911800363263, 36.218610037682645], [32.520734971144066, 36.218610037682645], [32.520734971144066, 36.21807104851218], [32.521812949484996, 36.21807104851218], [32.521812949484996, 36.21753205934171], [32.52127396031452, 36.21753205934171], [32.52127396031452, 36.216993070171235], [32.522351938655476, 36.216993070171235], [32.522351938655476, 36.21753205934171], [32.522890927825955, 36.21753205934171], [32.522890927825955, 36.216993070171235], [32.523429916996406, 36.216993070171235], [32.523429916996406, 36.21645408100076], [32.523968906166886, 36.21645408100076], [32.523968906166886, 36.21591509183029], [32.524507895337365, 36.21591509183029], [32.524507895337365, 36.21537610265982], [32.522890927825955, 36.21537610265982], [32.522890927825955, 36.21645408100076], [32.51911800363263, 36.21645408100076], [32.51911800363263, 36.21753205934171], [32.518579014462176, 36.21753205934171], [32.518579014462176, 36.21645408100076], [32.51911800363263, 36.21645408100076], [32.51911800363263, 36.21537610265982], [32.5180400252917, 36.21537610265982], [32.5180400252917, 36.214837113489345], [32.520195981973586, 36.214837113489345], [32.520195981973586, 36.21537610265982], [32.52127396031452, 36.21537610265982], [32.52127396031452, 36.214837113489345], [32.520734971144066, 36.214837113489345], [32.520734971144066, 36.2137591351484], [32.52127396031452, 36.2137591351484], [32.52127396031452, 36.21322014597793], [32.520195981973586, 36.21322014597793], [32.520195981973586, 36.2137591351484], [32.51965699280311, 36.2137591351484], [32.51965699280311, 36.21429812431887], [32.518579014462176, 36.21429812431887], [32.518579014462176, 36.2137591351484], [32.5180400252917, 36.2137591351484], [32.5180400252917, 36.212681156807456], [32.518579014462176, 36.212681156807456], [32.518579014462176, 36.21322014597793], [32.51911800363263, 36.21322014597793], [32.51911800363263, 36.212681156807456], [32.52127396031452, 36.212681156807456], [32.52127396031452, 36.21322014597793], [32.522890927825955, 36.21322014597793], [32.522890927825955, 36.21429812431887], [32.523968906166886, 36.21429812431887], [32.523968906166886, 36.214837113489345], [32.524507895337365, 36.214837113489345], [32.524507895337365, 36.21537610265982], [32.526124862848775, 36.21537610265982], [32.526124862848775, 36.214837113489345], [32.525585873678295, 36.214837113489345], [32.525585873678295, 36.21429812431887], [32.524507895337365, 36.21429812431887], [32.524507895337365, 36.212681156807456], [32.525046884507816, 36.212681156807456], [32.525046884507816, 36.21214216763698]], [[32.527202841189705, 36.2385526369901], [32.527202841189705, 36.23909162616057], [32.526663852019254, 36.23909162616057], [32.526663852019254, 36.2385526369901], [32.527202841189705, 36.2385526369901]], [[32.51965699280311, 36.235857691137745], [32.51965699280311, 36.23693566947868], [32.51911800363263, 36.23693566947868], [32.51911800363263, 36.235857691137745], [32.51965699280311, 36.235857691137745]], [[32.530975765383005, 36.23208476694444], [32.530975765383005, 36.23262375611491], [32.529897787042074, 36.23262375611491], [32.529897787042074, 36.23208476694444], [32.530975765383005, 36.23208476694444]], [[32.529897787042074, 36.23154577777397], [32.529897787042074, 36.23208476694444], [32.529358797871595, 36.23208476694444], [32.529358797871595, 36.23154577777397], [32.529897787042074, 36.23154577777397]], [[32.527741830360185, 36.22992881026256], [32.527741830360185, 36.23046779943302], [32.527202841189705, 36.23046779943302], [32.527202841189705, 36.22992881026256], [32.527741830360185, 36.22992881026256]], [[32.528819808701144, 36.22992881026256], [32.528819808701144, 36.23046779943302], [32.528280819530664, 36.23046779943302], [32.528280819530664, 36.22992881026256], [32.528819808701144, 36.22992881026256]], [[32.520195981973586, 36.229389821092084], [32.520195981973586, 36.23154577777397], [32.52127396031452, 36.23154577777397], [32.52127396031452, 36.23262375611491], [32.520734971144066, 36.23262375611491], [32.520734971144066, 36.23208476694444], [32.51965699280311, 36.23208476694444], [32.51965699280311, 36.23046779943302], [32.51911800363263, 36.23046779943302], [32.51911800363263, 36.229389821092084], [32.520195981973586, 36.229389821092084]], [[32.529358797871595, 36.22885083192161], [32.529358797871595, 36.229389821092084], [32.528819808701144, 36.229389821092084], [32.528819808701144, 36.22885083192161], [32.529358797871595, 36.22885083192161]], [[32.520195981973586, 36.22777285358067], [32.520195981973586, 36.22831184275114], [32.51965699280311, 36.22831184275114], [32.51965699280311, 36.22777285358067], [32.520195981973586, 36.22777285358067]], [[32.526663852019254, 36.22777285358067], [32.526663852019254, 36.22885083192161], [32.527202841189705, 36.22885083192161], [32.527202841189705, 36.229389821092084], [32.526663852019254, 36.229389821092084], [32.526663852019254, 36.23046779943302], [32.523968906166886, 36.23046779943302], [32.523968906166886, 36.22831184275114], [32.525046884507816, 36.22831184275114], [32.525046884507816, 36.22777285358067], [32.526663852019254, 36.22777285358067]], [[32.527202841189705, 36.227233864410195], [32.527202841189705, 36.22777285358067], [32.526663852019254, 36.22777285358067], [32.526663852019254, 36.227233864410195], [32.527202841189705, 36.227233864410195]], [[32.523968906166886, 36.22669487523972], [32.523968906166886, 36.227233864410195], [32.523429916996406, 36.227233864410195], [32.523429916996406, 36.22669487523972], [32.523968906166886, 36.22669487523972]], [[32.528280819530664, 36.22615588606925], [32.528280819530664, 36.22669487523972], [32.528819808701144, 36.22669487523972], [32.528819808701144, 36.22831184275114], [32.528280819530664, 36.22831184275114], [32.528280819530664, 36.227233864410195], [32.527741830360185, 36.227233864410195], [32.527741830360185, 36.22615588606925], [32.528280819530664, 36.22615588606925]], [[32.528280819530664, 36.22399992938737], [32.528280819530664, 36.22453891855783], [32.527741830360185, 36.22453891855783], [32.527741830360185, 36.22399992938737], [32.528280819530664, 36.22399992938737]], [[32.527202841189705, 36.223460940216896], [32.527202841189705, 36.22453891855783], [32.526663852019254, 36.22453891855783], [32.526663852019254, 36.223460940216896], [32.527202841189705, 36.223460940216896]], [[32.520195981973586, 36.22292195104642], [32.520195981973586, 36.223460940216896], [32.51911800363263, 36.223460940216896], [32.51911800363263, 36.22292195104642], [32.520195981973586, 36.22292195104642]], [[32.51965699280311, 36.22184397270548], [32.51965699280311, 36.22238296187595], [32.51911800363263, 36.22238296187595], [32.51911800363263, 36.22184397270548], [32.51965699280311, 36.22184397270548]], [[32.524507895337365, 36.21753205934171], [32.524507895337365, 36.21807104851218], [32.523429916996406, 36.21807104851218], [32.523429916996406, 36.21753205934171], [32.524507895337365, 36.21753205934171]], [[32.522351938655476, 36.214837113489345], [32.522351938655476, 36.21537610265982], [32.521812949484996, 36.21537610265982], [32.521812949484996, 36.214837113489345], [32.522351938655476, 36.214837113489345]]]}, "properties": {"area_ha": 286.2782350184466, "mean_dnbr": 0.40923116416062694, "compactness": 0.05, "rectangularity": 0.529, "cropland_frac": 0, "persistent": true, "brightness_delta": -0.189}}]}