{"type": "FeatureCollection", "crs": {"type": "name", "properties": {"name": "urn:ogc:def:crs:OGC:1.3:CRS84"}}, "features": [{"type": "Feature", "geometry": {"geodesic": false, "type": "Polygon", "coordinates": [[[33.48929851048172, 38.54111437324526], [33.49091547799313, 38.54111437324526], [33.49091547799313, 38.54165336241573], [33.491993456334086, 38.54165336241573], [33.491993456334086, 38.54327032992715], [33.49145446716361, 38.54327032992715], [33.49145446716361, 38.54434830826809], [33.491993456334086, 38.54434830826809], [33.491993456334086, 38.544887297438564], [33.490376488822676, 38.544887297438564], [33.490376488822676, 38.54542628660903], [33.48929851048172, 38.54542628660903], [33.48929851048172, 38.54758224329092], [33.48875952131124, 38.54758224329092], [33.48875952131124, 38.54866022163186], [33.48768154297031, 38.54866022163186], [33.48768154297031, 38.54973819997281], [33.48660356462938, 38.54973819997281], [33.48660356462938, 38.55027718914328], [33.48498659711794, 38.55027718914328], [33.48498659711794, 38.54973819997281], [33.48390861877701, 38.54973819997281], [33.48390861877701, 38.54866022163186], [33.48444760794749, 38.54866022163186], [33.48444760794749, 38.54758224329092], [33.4860645754589, 38.54758224329092], [33.4860645754589, 38.54434830826809], [33.48498659711794, 38.54434830826809], [33.48498659711794, 38.54380931909762], [33.48552558628842, 38.54380931909762], [33.48552558628842, 38.54327032992715], [33.4860645754589, 38.54327032992715], [33.4860645754589, 38.542731340756674], [33.48660356462938, 38.542731340756674], [33.48660356462938, 38.5421923515862], [33.48768154297031, 38.5421923515862], [33.48768154297031, 38.54327032992715], [33.48822053214079, 38.54327032992715], [33.48822053214079, 38.54380931909762], [33.48875952131124, 38.54380931909762], [33.48875952131124, 38.54327032992715], [33.48929851048172, 38.54327032992715], [33.48929851048172, 38.54111437324526]], [[33.4860645754589, 38.549199210802335], [33.4860645754589, 38.54973819997281], [33.48552558628842, 38.54973819997281], [33.48552558628842, 38.549199210802335], [33.4860645754589, 38.549199210802335]]]}, "properties": {"area_ha": 33.7117847514479, "mean_dnbr": 0.1719724428644711, "compactness": 0.229, "rectangularity": 0.517, "cropland_frac": 0, "persistent": true, "brightness_delta": -0.044}}, {"type": "Feature", "geometry": {"geodesic": false, "type": "Polygon", "coordinates": [[[33.55451620010879, 38.662925925771866], [33.55721114596116, 38.662925925771866], [33.55721114596116, 38.66346491494234], [33.55882811347257, 38.66346491494234], [33.55882811347257, 38.66400390411281], [33.55936710264305, 38.66400390411281], [33.55936710264305, 38.66939379581753], [33.55990609181353, 38.66939379581753], [33.55990609181353, 38.671549752499416], [33.56044508098398, 38.671549752499416], [33.56044508098398, 38.673166720010826], [33.56098407015446, 38.673166720010826], [33.56098407015446, 38.6737057091813], [33.56421800517728, 38.6737057091813], [33.56421800517728, 38.672627730840354], [33.56529598351824, 38.672627730840354], [33.56529598351824, 38.673166720010826], [33.56691295102965, 38.673166720010826], [33.56691295102965, 38.672627730840354], [33.56745194020013, 38.672627730840354], [33.56745194020013, 38.67208874166988], [33.56852991854106, 38.67208874166988], [33.56852991854106, 38.671549752499416], [33.56906890771154, 38.671549752499416], [33.56906890771154, 38.67047177415847], [33.57014688605247, 38.67047177415847], [33.57014688605247, 38.671549752499416], [33.56960789688202, 38.671549752499416], [33.56960789688202, 38.67208874166988], [33.56906890771154, 38.67208874166988], [33.56906890771154, 38.67424469835177], [33.56960789688202, 38.67424469835177], [33.56960789688202, 38.675322676692716], [33.57014688605247, 38.675322676692716], [33.57014688605247, 38.67586166586319], [33.56960789688202, 38.67586166586319], [33.56960789688202, 38.67640065503366], [33.56906890771154, 38.67640065503366], [33.56906890771154, 38.67693964420413], [33.56852991854106, 38.67693964420413], [33.56852991854106, 38.677478633374605], [33.56799092937058, 38.677478633374605], [33.56799092937058, 38.67801762254507], [33.56745194020013, 38.67801762254507], [33.56745194020013, 38.67855661171554], [33.56583497268872, 38.67855661171554], [33.56583497268872, 38.67801762254507], [33.56529598351824, 38.67801762254507], [33.56529598351824, 38.67963459005649], [33.56583497268872, 38.67963459005649], [33.56583497268872, 38.68071256839743], [33.56529598351824, 38.68071256839743], [33.56529598351824, 38.681251557567904], [33.56475699434776, 38.681251557567904], [33.56475699434776, 38.68071256839743], [33.56367901600683, 38.68071256839743], [33.56367901600683, 38.68017357922696], [33.56206204849539, 38.68017357922696], [33.56206204849539, 38.67963459005649], [33.56260103766587, 38.67963459005649], [33.56260103766587, 38.679095600886015], [33.56152305932494, 38.679095600886015], [33.56152305932494, 38.677478633374605], [33.56098407015446, 38.677478633374605], [33.56098407015446, 38.67693964420413], [33.55882811347257, 38.67693964420413], [33.55882811347257, 38.67640065503366], [33.56044508098398, 38.67640065503366], [33.56044508098398, 38.67586166586319], [33.56098407015446, 38.67586166586319], [33.56098407015446, 38.67424469835177], [33.56044508098398, 38.67424469835177], [33.56044508098398, 38.6737057091813], [33.55990609181353, 38.6737057091813], [33.55990609181353, 38.673166720010826], [33.55936710264305, 38.673166720010826], [33.55936710264305, 38.672627730840354], [33.55828912430209, 38.672627730840354], [33.55828912430209, 38.673166720010826], [33.55775013513164, 38.673166720010826], [33.55775013513164, 38.6737057091813], [33.55667215679068, 38.6737057091813], [33.55667215679068, 38.673166720010826], [33.55559417844975, 38.673166720010826], [33.55559417844975, 38.672627730840354], [33.5561331676202, 38.672627730840354], [33.5561331676202, 38.671549752499416], [33.55775013513164, 38.671549752499416], [33.55775013513164, 38.67047177415847], [33.55828912430209, 38.67047177415847], [33.55828912430209, 38.66939379581753], [33.55882811347257, 38.66939379581753], [33.55882811347257, 38.66831581747658], [33.55828912430209, 38.66831581747658], [33.55828912430209, 38.66777682830611], [33.55882811347257, 38.66777682830611], [33.55882811347257, 38.66562087162423], [33.55828912430209, 38.66562087162423], [33.55828912430209, 38.665081882453755], [33.55505518927927, 38.665081882453755], [33.55505518927927, 38.66562087162423], [33.55451620010879, 38.66562087162423], [33.55451620010879, 38.666698849965165], [33.55397721093834, 38.666698849965165], [33.55397721093834, 38.66615986079469], [33.552360243426904, 38.66615986079469], [33.552360243426904, 38.66454289328328], [33.55289923259738, 38.66454289328328], [33.55289923259738, 38.66400390411281], [33.55397721093834, 38.66400390411281], [33.55397721093834, 38.66346491494234], [33.55451620010879, 38.66346491494234], [33.55451620010879, 38.662925925771866]], [[33.56367901600683, 38.679095600886015], [33.56367901600683, 38.67963459005649], [33.56314002683635, 38.67963459005649], [33.56314002683635, 38.679095600886015], [33.56367901600683, 38.679095600886015]], [[33.55721114596116, 38.672627730840354], [33.55721114596116, 38.673166720010826], [33.55667215679068, 38.673166720010826], [33.55667215679068, 38.672627730840354], [33.55721114596116, 38.672627730840354]]]}, "properties": {"area_ha": 79.36240911137425, "mean_dnbr": 0.17106936708453568, "compactness": 0.09, "rectangularity": 0.304, "cropland_frac": 0, "persistent": true, "brightness_delta": 0.024}}, {"type": "Feature", "geometry": {"geodesic": false, "type": "Polygon", "coordinates": [[[33.57445879941625, 38.698499211023], [33.57607576692766, 38.698499211023], [33.57607576692766, 38.69903820019347], [33.57661475609814, 38.69903820019347], [33.57661475609814, 38.70173314604583], [33.57553677775721, 38.70173314604583], [33.57553677775721, 38.7022721352163], [33.57607576692766, 38.7022721352163], [33.57607576692766, 38.70281112438677], [33.57553677775721, 38.70281112438677], [33.57553677775721, 38.7022721352163], [33.57499778858673, 38.7022721352163], [33.57499778858673, 38.70281112438677], [33.57230284273436, 38.70281112438677], [33.57230284273436, 38.706045059409604], [33.57445879941625, 38.706045059409604], [33.57445879941625, 38.70712303775055], [33.57230284273436, 38.70712303775055], [33.57230284273436, 38.706584048580076], [33.57176385356391, 38.706584048580076], [33.57176385356391, 38.70550607023913], [33.57122486439343, 38.70550607023913], [33.57122486439343, 38.70496708106866], [33.57068587522295, 38.70496708106866], [33.57068587522295, 38.703889102727715], [33.57122486439343, 38.703889102727715], [33.57122486439343, 38.70335011355724], [33.57176385356391, 38.70335011355724], [33.57176385356391, 38.70281112438677], [33.56960789688202, 38.70281112438677], [33.56960789688202, 38.70173314604583], [33.57068587522295, 38.70173314604583], [33.57068587522295, 38.70065516770489], [33.57122486439343, 38.70065516770489], [33.57122486439343, 38.700116178534415], [33.57230284273436, 38.700116178534415], [33.57230284273436, 38.69957718936394], [33.57338082107532, 38.69957718936394], [33.57338082107532, 38.69903820019347], [33.57445879941625, 38.69903820019347], [33.57445879941625, 38.698499211023]]]}, "properties": {"area_ha": 25.789395995018953, "mean_dnbr": 0.1699105300447267, "compactness": 0.212, "rectangularity": 0.442, "cropland_frac": 0, "persistent": true, "brightness_delta": 0.036}}]}