{"type": "FeatureCollection", "crs": {"type": "name", "properties": {"name": "urn:ogc:def:crs:OGC:1.3:CRS84"}}, "features": [{"type": "Feature", "geometry": {"geodesic": false, "type": "Polygon", "coordinates": [[[33.34592739113626, 38.52925661149488], [33.34646638030671, 38.52925661149488], [33.34646638030671, 38.5308735790063], [33.34700536947719, 38.5308735790063], [33.34700536947719, 38.53141256817677], [33.34646638030671, 38.53141256817677], [33.34646638030671, 38.53195155734724], [33.34754435864767, 38.53195155734724], [33.34754435864767, 38.533029535688186], [33.34700536947719, 38.533029535688186], [33.34700536947719, 38.534646503199596], [33.34754435864767, 38.534646503199596], [33.34754435864767, 38.53518549237007], [33.3486223369886, 38.53518549237007], [33.3486223369886, 38.533029535688186], [33.34916132615908, 38.533029535688186], [33.34916132615908, 38.53141256817677], [33.34970031532956, 38.53141256817677], [33.34970031532956, 38.532490546517714], [33.35023930450001, 38.532490546517714], [33.35023930450001, 38.53356852485865], [33.34970031532956, 38.53356852485865], [33.34970031532956, 38.53734144905196], [33.34754435864767, 38.53734144905196], [33.34754435864767, 38.5384194273929], [33.34700536947719, 38.5384194273929], [33.34700536947719, 38.53734144905196], [33.34646638030671, 38.53734144905196], [33.34646638030671, 38.536802459881486], [33.34592739113626, 38.536802459881486], [33.34592739113626, 38.53734144905196], [33.3448494127953, 38.53734144905196], [33.3448494127953, 38.538958416563375], [33.34431042362482, 38.538958416563375], [33.34431042362482, 38.53734144905196], [33.3448494127953, 38.53734144905196], [33.3448494127953, 38.536802459881486], [33.34377143445437, 38.536802459881486], [33.34377143445437, 38.53572448154054], [33.341076488602, 38.53572448154054], [33.341076488602, 38.53356852485865], [33.34269345611341, 38.53356852485865], [33.34269345611341, 38.534646503199596], [33.34323244528389, 38.534646503199596], [33.34323244528389, 38.534107514029124], [33.34377143445437, 38.534107514029124], [33.34377143445437, 38.53356852485865], [33.34431042362482, 38.53356852485865], [33.34431042362482, 38.533029535688186], [33.3448494127953, 38.533029535688186], [33.3448494127953, 38.532490546517714], [33.34431042362482, 38.532490546517714], [33.34431042362482, 38.53195155734724], [33.34323244528389, 38.53195155734724], [33.34323244528389, 38.53141256817677], [33.34431042362482, 38.53141256817677], [33.34431042362482, 38.5308735790063], [33.3448494127953, 38.5308735790063], [33.3448494127953, 38.530334589835824], [33.34538840196578, 38.530334589835824], [33.34538840196578, 38.52979560066535], [33.34592739113626, 38.52979560066535], [33.34592739113626, 38.52925661149488]], [[33.3486223369886, 38.53626347071101], [33.3486223369886, 38.536802459881486], [33.34808334781815, 38.536802459881486], [33.34808334781815, 38.53626347071101], [33.3486223369886, 38.53626347071101]], [[33.34215446694296, 38.534107514029124], [33.34215446694296, 38.534646503199596], [33.34161547777248, 38.534646503199596], [33.34161547777248, 38.534107514029124], [33.34215446694296, 38.534107514029124]], [[33.34592739113626, 38.53195155734724], [33.34592739113626, 38.532490546517714], [33.34538840196578, 38.532490546517714], [33.34538840196578, 38.53195155734724], [33.34592739113626, 38.53195155734724]], [[33.3448494127953, 38.53141256817677], [33.3448494127953, 38.53195155734724], [33.34431042362482, 38.53195155734724], [33.34431042362482, 38.53141256817677], [33.3448494127953, 38.53141256817677]]]}, "properties": {"area_ha": 34.84090891028583, "mean_dnbr": 0.2657217287013737, "compactness": 0.1, "rectangularity": 0.435, "cropland_frac": 0, "persistent": true, "brightness_delta": -0.393}}, {"type": "Feature", "geometry": {"geodesic": false, "type": "Polygon", "coordinates": [[[33.64614435908899, 38.69688224351158], [33.64883930494136, 38.69688224351158], [33.64883930494136, 38.7022721352163], [33.64830031577088, 38.7022721352163], [33.64830031577088, 38.70442809189819], [33.6477613266004, 38.70442809189819], [33.6477613266004, 38.70712303775055], [33.64722233742992, 38.70712303775055], [33.64722233742992, 38.708201016091486], [33.64668334825947, 38.708201016091486], [33.64668334825947, 38.70927899443243], [33.64614435908899, 38.70927899443243], [33.64614435908899, 38.7098179836029], [33.64560536991851, 38.7098179836029], [33.64560536991851, 38.70927899443243], [33.64506638074806, 38.70927899443243], [33.64506638074806, 38.708201016091486], [33.64560536991851, 38.708201016091486], [33.64560536991851, 38.70550607023913], [33.64614435908899, 38.70550607023913], [33.64614435908899, 38.70496708106866], [33.64560536991851, 38.70496708106866], [33.64560536991851, 38.70442809189819], [33.64614435908899, 38.70442809189819], [33.64614435908899, 38.7022721352163], [33.64560536991851, 38.7022721352163], [33.64560536991851, 38.700116178534415], [33.64614435908899, 38.700116178534415], [33.64614435908899, 38.69957718936394], [33.64560536991851, 38.69957718936394], [33.64560536991851, 38.697960221852526], [33.64614435908899, 38.697960221852526], [33.64614435908899, 38.69688224351158]], [[33.64668334825947, 38.697960221852526], [33.64668334825947, 38.698499211023], [33.64614435908899, 38.698499211023], [33.64614435908899, 38.697960221852526], [33.64668334825947, 38.697960221852526]]]}, "properties": {"area_ha": 29.153018075712456, "mean_dnbr": 0.316551335714085, "compactness": 0.226, "rectangularity": 0.671, "cropland_frac": 0, "persistent": true, "brightness_delta": -0.072}}]}