{"type": "FeatureCollection", "crs": {"type": "name", "properties": {"name": "urn:ogc:def:crs:OGC:1.3:CRS84"}}, "features": [{"type": "Feature", "geometry": {"geodesic": false, "type": "Polygon", "coordinates": [[[33.60518118213315, 38.4812865753229], [33.60625916047408, 38.4812865753229], [33.60625916047408, 38.48236455366384], [33.6057201713036, 38.48236455366384], [33.6057201713036, 38.48398152117526], [33.60625916047408, 38.48398152117526], [33.60625916047408, 38.4850594995162], [33.60679814964456, 38.4850594995162], [33.60679814964456, 38.48559848868667], [33.6094930954969, 38.48559848868667], [33.6094930954969, 38.486676467027614], [33.61003208466738, 38.486676467027614], [33.61003208466738, 38.48775444536856], [33.60895410632645, 38.48775444536856], [33.60895410632645, 38.48613747785714], [33.60679814964456, 38.48613747785714], [33.60679814964456, 38.48775444536856], [33.6057201713036, 38.48775444536856], [33.6057201713036, 38.4888324237095], [33.60625916047408, 38.4888324237095], [33.60625916047408, 38.48991040205045], [33.60518118213315, 38.48991040205045], [33.60518118213315, 38.49044939122092], [33.6057201713036, 38.49044939122092], [33.6057201713036, 38.49098838039139], [33.60518118213315, 38.49098838039139], [33.60518118213315, 38.49044939122092], [33.60410320379219, 38.49044939122092], [33.60410320379219, 38.489371412879976], [33.60356421462171, 38.489371412879976], [33.60356421462171, 38.48775444536856], [33.60410320379219, 38.48775444536856], [33.60410320379219, 38.487215456198086], [33.60356421462171, 38.487215456198086], [33.60356421462171, 38.4850594995162], [33.60302522545126, 38.4850594995162], [33.60302522545126, 38.48452051034573], [33.60248623628078, 38.48452051034573], [33.60248623628078, 38.48398152117526], [33.6019472471103, 38.48398152117526], [33.6019472471103, 38.48344253200479], [33.60140825793985, 38.48344253200479], [33.60140825793985, 38.482903542834315], [33.60086926876937, 38.482903542834315], [33.60086926876937, 38.4812865753229], [33.60140825793985, 38.4812865753229], [33.60140825793985, 38.48182556449337], [33.60248623628078, 38.48182556449337], [33.60248623628078, 38.48398152117526], [33.60356421462171, 38.48398152117526], [33.60356421462171, 38.482903542834315], [33.60518118213315, 38.482903542834315], [33.60518118213315, 38.4812865753229]], [[33.60518118213315, 38.48775444536856], [33.60518118213315, 38.4888324237095], [33.60410320379219, 38.4888324237095], [33.60410320379219, 38.48829343453903], [33.60464219296267, 38.48829343453903], [33.60464219296267, 38.48775444536856], [33.60518118213315, 38.48775444536856]], [[33.6057201713036, 38.48398152117526], [33.6057201713036, 38.4850594995162], [33.60625916047408, 38.4850594995162], [33.60625916047408, 38.48559848868667], [33.6057201713036, 38.48559848868667], [33.6057201713036, 38.48613747785714], [33.60518118213315, 38.48613747785714], [33.60518118213315, 38.487215456198086], [33.60410320379219, 38.487215456198086], [33.60410320379219, 38.4850594995162], [33.60464219296267, 38.4850594995162], [33.60464219296267, 38.48398152117526], [33.6057201713036, 38.48398152117526]]]}, "properties": {"area_ha": 21.649692597857957, "mean_dnbr": 0.23805036471282667, "compactness": 0.062, "rectangularity": 0.298, "cropland_frac": 0, "persistent": true, "brightness_delta": 0.029}}]}