{"type": "FeatureCollection", "crs": {"type": "name", "properties": {"name": "urn:ogc:def:crs:OGC:1.3:CRS84"}}, "features": [{"type": "Feature", "geometry": {"geodesic": false, "type": "Polygon", "coordinates": [[[33.52594977407381, 35.24627357415168], [33.52702775241474, 35.24627357415168], [33.52702775241474, 35.24842953083356], [33.52756674158522, 35.24842953083356], [33.52756674158522, 35.248968520004034], [33.52702775241474, 35.248968520004034], [33.52702775241474, 35.24950750917451], [33.52648876324426, 35.24950750917451], [33.52648876324426, 35.248968520004034], [33.5243328065624, 35.248968520004034], [33.5243328065624, 35.247351552492624], [33.52541078490333, 35.247351552492624], [33.52541078490333, 35.24789054166309], [33.52594977407381, 35.24789054166309], [33.52594977407381, 35.24627357415168]], [[33.52541078490333, 35.24789054166309], [33.52541078490333, 35.24842953083356], [33.52487179573285, 35.24842953083356], [33.52487179573285, 35.24789054166309], [33.52541078490333, 35.24789054166309]], [[33.52648876324426, 35.24789054166309], [33.52648876324426, 35.24842953083356], [33.52594977407381, 35.24842953083356], [33.52594977407381, 35.24789054166309], [33.52648876324426, 35.24789054166309]]]}, "properties": {"area_ha": 5.280149630770385, "mean_dnbr": 0.18453324727177972, "compactness": 0.191, "rectangularity": 0.5, "cropland_frac": 0, "persistent": true, "brightness_delta": -0.159}}]}