{"type": "FeatureCollection", "crs": {"type": "name", "properties": {"name": "urn:ogc:def:crs:OGC:1.3:CRS84"}}, "features": [{"type": "Feature", "geometry": {"geodesic": false, "type": "Polygon", "coordinates": [[[34.12800067749069, 37.8124010147675], [34.12853966666117, 37.8124010147675], [34.12853966666117, 37.812940003937975], [34.13339056919543, 37.812940003937975], [34.13339056919543, 37.81347899310845], [34.13554652587732, 37.81347899310845], [34.13554652587732, 37.815095960619864], [34.13123461251354, 37.815095960619864], [34.13123461251354, 37.815634949790336], [34.12961764500213, 37.815634949790336], [34.12961764500213, 37.817251917301746], [34.12422775329739, 37.817251917301746], [34.12422775329739, 37.8161739389608], [34.12368876412694, 37.8161739389608], [34.12368876412694, 37.815634949790336], [34.12422775329739, 37.815634949790336], [34.12422775329739, 37.815095960619864], [34.12368876412694, 37.815095960619864], [34.12368876412694, 37.81347899310845], [34.12422775329739, 37.81347899310845], [34.12422775329739, 37.812940003937975], [34.12476674246787, 37.812940003937975], [34.12476674246787, 37.8124010147675], [34.12638370997928, 37.8124010147675], [34.12638370997928, 37.812940003937975], [34.12800067749069, 37.812940003937975], [34.12800067749069, 37.8124010147675]]]}, "properties": {"area_ha": 37.17311437595468, "mean_dnbr": 0.45446273436624035, "compactness": 0.41, "rectangularity": 0.662, "cropland_frac": 0.221, "persistent": true, "brightness_delta": -0.123}}]}