{"type": "FeatureCollection", "crs": {"type": "name", "properties": {"name": "urn:ogc:def:crs:OGC:1.3:CRS84"}}, "features": [{"type": "Feature", "geometry": {"geodesic": false, "type": "Polygon", "coordinates": [[[36.1955631354202, 35.94264758240113], [36.19610212459065, 35.94264758240113], [36.19610212459065, 35.94480353908302], [36.19718010293161, 35.94480353908302], [36.19718010293161, 35.94534252825349], [36.19771909210209, 35.94534252825349], [36.19771909210209, 35.94588151742396], [36.19825808127254, 35.94588151742396], [36.19825808127254, 35.9469594957649], [36.19879707044302, 35.9469594957649], [36.19879707044302, 35.948037474105845], [36.1993360596135, 35.948037474105845], [36.1993360596135, 35.94857646327632], [36.19987504878398, 35.94857646327632], [36.19987504878398, 35.948037474105845], [36.20095302712491, 35.948037474105845], [36.20095302712491, 35.94857646327632], [36.20256999463632, 35.94857646327632], [36.20256999463632, 35.94965444161726], [36.2031089838068, 35.94965444161726], [36.2031089838068, 35.950193430787735], [36.20418696214773, 35.950193430787735], [36.20418696214773, 35.94965444161726], [36.20472595131821, 35.94965444161726], [36.20472595131821, 35.950193430787735], [36.20580392965917, 35.950193430787735], [36.20580392965917, 35.95073241995821], [36.20634291882962, 35.95073241995821], [36.20634291882962, 35.950193430787735], [36.2068819080001, 35.950193430787735], [36.2068819080001, 35.95073241995821], [36.20634291882962, 35.95073241995821], [36.20634291882962, 35.95127140912868], [36.2068819080001, 35.95127140912868], [36.2068819080001, 35.952349387469624], [36.20742089717058, 35.952349387469624], [36.20742089717058, 35.95288837664009], [36.20418696214773, 35.95288837664009], [36.20418696214773, 35.953966354981034], [36.20364797297728, 35.953966354981034], [36.20364797297728, 35.95450534415151], [36.2031089838068, 35.95450534415151], [36.2031089838068, 35.95558332249245], [36.20256999463632, 35.95558332249245], [36.20256999463632, 35.95450534415151], [36.20203100546584, 35.95450534415151], [36.20203100546584, 35.95558332249245], [36.20041403795443, 35.95558332249245], [36.20041403795443, 35.956122311662924], [36.19825808127254, 35.956122311662924], [36.19825808127254, 35.95558332249245], [36.19771909210209, 35.95558332249245], [36.19771909210209, 35.95504433332198], [36.19825808127254, 35.95504433332198], [36.19825808127254, 35.95450534415151], [36.19718010293161, 35.95450534415151], [36.19718010293161, 35.95288837664009], [36.19664111376113, 35.95288837664009], [36.19664111376113, 35.952349387469624], [36.19610212459065, 35.952349387469624], [36.19610212459065, 35.95288837664009], [36.19502414624972, 35.95288837664009], [36.19502414624972, 35.95342736581056], [36.1955631354202, 35.95342736581056], [36.1955631354202, 35.953966354981034], [36.19502414624972, 35.953966354981034], [36.19502414624972, 35.95342736581056], [36.19448515707924, 35.95342736581056], [36.19448515707924, 35.953966354981034], [36.19340717873831, 35.953966354981034], [36.19340717873831, 35.95181039829915], [36.19286818956783, 35.95181039829915], [36.19286818956783, 35.95073241995821], [36.19125122205642, 35.95073241995821], [36.19125122205642, 35.94965444161726], [36.1917902112269, 35.94965444161726], [36.1917902112269, 35.94911545244679], [36.18909526537453, 35.94911545244679], [36.18909526537453, 35.94965444161726], [36.18963425454501, 35.94965444161726], [36.18963425454501, 35.950193430787735], [36.1880172870336, 35.950193430787735], [36.1880172870336, 35.94965444161726], [36.18747829786312, 35.94965444161726], [36.18747829786312, 35.94911545244679], [36.185322341181234, 35.94911545244679], [36.185322341181234, 35.94857646327632], [36.184783352010754, 35.94857646327632], [36.184783352010754, 35.948037474105845], [36.184244362840275, 35.948037474105845], [36.184244362840275, 35.9469594957649], [36.184783352010754, 35.9469594957649], [36.184783352010754, 35.94749848493537], [36.186400319522164, 35.94749848493537], [36.186400319522164, 35.94588151742396], [36.1880172870336, 35.94588151742396], [36.1880172870336, 35.94534252825349], [36.188556276204054, 35.94534252825349], [36.188556276204054, 35.94480353908302], [36.18909526537453, 35.94480353908302], [36.18909526537453, 35.944264549912546], [36.18963425454501, 35.944264549912546], [36.18963425454501, 35.9431865715716], [36.19017324371546, 35.9431865715716], [36.19017324371546, 35.943725560742074], [36.19125122205642, 35.943725560742074], [36.19125122205642, 35.944264549912546], [36.1917902112269, 35.944264549912546], [36.1917902112269, 35.943725560742074], [36.19502414624972, 35.943725560742074], [36.19502414624972, 35.9431865715716], [36.1955631354202, 35.9431865715716], [36.1955631354202, 35.94264758240113]], [[36.20149201629539, 35.953966354981034], [36.20149201629539, 35.95504433332198], [36.20095302712491, 35.95504433332198], [36.20095302712491, 35.953966354981034], [36.20149201629539, 35.953966354981034]], [[36.20472595131821, 35.95181039829915], [36.20472595131821, 35.952349387469624], [36.20418696214773, 35.952349387469624], [36.20418696214773, 35.95181039829915], [36.20472595131821, 35.95181039829915]], [[36.1993360596135, 35.94857646327632], [36.1993360596135, 35.94911545244679], [36.19879707044302, 35.94911545244679], [36.19879707044302, 35.94857646327632], [36.1993360596135, 35.94857646327632]], [[36.19125122205642, 35.948037474105845], [36.19125122205642, 35.94857646327632], [36.19071223288594, 35.94857646327632], [36.19071223288594, 35.948037474105845], [36.19125122205642, 35.948037474105845]], [[36.19718010293161, 35.948037474105845], [36.19718010293161, 35.94857646327632], [36.19664111376113, 35.94857646327632], [36.19664111376113, 35.948037474105845], [36.19718010293161, 35.948037474105845]], [[36.19071223288594, 35.94749848493537], [36.19071223288594, 35.948037474105845], [36.19017324371546, 35.948037474105845], [36.19017324371546, 35.94749848493537], [36.19071223288594, 35.94749848493537]], [[36.19825808127254, 35.9469594957649], [36.19825808127254, 35.948037474105845], [36.19718010293161, 35.948037474105845], [36.19718010293161, 35.9469594957649], [36.19825808127254, 35.9469594957649]], [[36.19340717873831, 35.94534252825349], [36.19340717873831, 35.94588151742396], [36.19232920039735, 35.94588151742396], [36.19232920039735, 35.94534252825349], [36.19340717873831, 35.94534252825349]], [[36.19610212459065, 35.94534252825349], [36.19610212459065, 35.94588151742396], [36.1955631354202, 35.94588151742396], [36.1955631354202, 35.94534252825349], [36.19610212459065, 35.94534252825349]], [[36.1917902112269, 35.94480353908302], [36.1917902112269, 35.94534252825349], [36.19071223288594, 35.94534252825349], [36.19071223288594, 35.94480353908302], [36.1917902112269, 35.94480353908302]], [[36.1955631354202, 35.94480353908302], [36.1955631354202, 35.94534252825349], [36.19448515707924, 35.94534252825349], [36.19448515707924, 35.94480353908302], [36.1955631354202, 35.94480353908302]], [[36.19394616790879, 35.944264549912546], [36.19394616790879, 35.94480353908302], [36.19340717873831, 35.94480353908302], [36.19340717873831, 35.944264549912546], [36.19394616790879, 35.944264549912546]]]}, "properties": {"area_ha": 128.52528375107516, "mean_dnbr": 0.5062284139723764, "compactness": 0.102, "rectangularity": 0.543, "cropland_frac": 0.002, "persistent": null, "brightness_delta": -0.029}}, {"type": "Feature", "geometry": {"geodesic": false, "type": "Polygon", "coordinates": [[[36.24568912827405, 35.38910570432668], [36.24838407412642, 35.38910570432668], [36.24838407412642, 35.390183682667626], [36.25000104163783, 35.390183682667626], [36.25000104163783, 35.39233963934951], [36.2489230632969, 35.39233963934951], [36.2489230632969, 35.39287862851998], [36.24838407412642, 35.39287862851998], [36.24838407412642, 35.39341761769045], [36.24784508495594, 35.39341761769045], [36.24784508495594, 35.393956606860925], [36.24730609578549, 35.393956606860925], [36.24730609578549, 35.39503458520187], [36.24622811744453, 35.39503458520187], [36.24622811744453, 35.3944955960314], [36.2451501391036, 35.3944955960314], [36.2451501391036, 35.39341761769045], [36.24568912827405, 35.39341761769045], [36.24568912827405, 35.39233963934951], [36.24461114993312, 35.39233963934951], [36.24461114993312, 35.39287862851998], [36.24299418242171, 35.39287862851998], [36.24299418242171, 35.39233963934951], [36.24245519325123, 35.39233963934951], [36.24245519325123, 35.39180065017904], [36.24191620408075, 35.39180065017904], [36.24191620408075, 35.39126166100857], [36.2413772149103, 35.39126166100857], [36.2413772149103, 35.3907226718381], [36.24461114993312, 35.3907226718381], [36.24461114993312, 35.390183682667626], [36.24622811744453, 35.390183682667626], [36.24622811744453, 35.389644693497154], [36.24568912827405, 35.389644693497154], [36.24568912827405, 35.38910570432668]]]}, "properties": {"area_ha": 26.060978340885114, "mean_dnbr": 0.3237004362633188, "compactness": 0.32, "rectangularity": 0.558, "cropland_frac": 0, "persistent": null, "brightness_delta": 0.027}}, {"type": "Feature", "geometry": {"geodesic": false, "type": "Polygon", "coordinates": [[[36.25754689002443, 35.28939270778942], [36.2602418358768, 35.28939270778942], [36.2602418358768, 35.28993169695988], [36.26078082504728, 35.28993169695988], [36.26078082504728, 35.290470686130355], [36.2602418358768, 35.290470686130355], [36.2602418358768, 35.2915486644713], [36.26078082504728, 35.2915486644713], [36.26078082504728, 35.29208765364177], [36.26293678172917, 35.29208765364177], [36.26293678172917, 35.292626642812245], [36.2640147600701, 35.292626642812245], [36.2640147600701, 35.29370462115319], [36.26347577089962, 35.29370462115319], [36.26347577089962, 35.295321588664606], [36.26293678172917, 35.295321588664606], [36.26293678172917, 35.296399567005544], [36.26131981421776, 35.296399567005544], [36.26131981421776, 35.296938556176016], [36.26185880338821, 35.296938556176016], [36.26185880338821, 35.29747754534649], [36.26131981421776, 35.29747754534649], [36.26131981421776, 35.29801653451696], [36.26078082504728, 35.29801653451696], [36.26078082504728, 35.29855552368743], [36.25700790085398, 35.29855552368743], [36.25700790085398, 35.299094512857906], [36.25485194417209, 35.299094512857906], [36.25485194417209, 35.30017249119885], [36.25323497666068, 35.30017249119885], [36.25323497666068, 35.29963350202838], [36.2526959874902, 35.29963350202838], [36.2526959874902, 35.29855552368743], [36.25431295500161, 35.29855552368743], [36.25431295500161, 35.29801653451696], [36.25377396583113, 35.29801653451696], [36.25377396583113, 35.296399567005544], [36.25161800914924, 35.296399567005544], [36.25161800914924, 35.29316563198272], [36.25107901997879, 35.29316563198272], [36.25107901997879, 35.292626642812245], [36.25161800914924, 35.292626642812245], [36.25161800914924, 35.2915486644713], [36.25215699831972, 35.2915486644713], [36.25215699831972, 35.290470686130355], [36.2526959874902, 35.290470686130355], [36.2526959874902, 35.28993169695988], [36.25323497666068, 35.28993169695988], [36.25323497666068, 35.2915486644713], [36.25431295500161, 35.2915486644713], [36.25431295500161, 35.28993169695988], [36.25485194417209, 35.28993169695988], [36.25485194417209, 35.28939270778942], [36.25592992251302, 35.28939270778942], [36.25592992251302, 35.28993169695988], [36.25754689002443, 35.28993169695988], [36.25754689002443, 35.28939270778942]], [[36.25539093334257, 35.296399567005544], [36.25539093334257, 35.296938556176016], [36.25485194417209, 35.296938556176016], [36.25485194417209, 35.296399567005544], [36.25539093334257, 35.296399567005544]], [[36.25539093334257, 35.29316563198272], [36.25539093334257, 35.29370462115319], [36.25485194417209, 35.29370462115319], [36.25485194417209, 35.29316563198272], [36.25539093334257, 35.29316563198272]], [[36.25754689002443, 35.29100967530083], [36.25754689002443, 35.2915486644713], [36.25808587919491, 35.2915486644713], [36.25808587919491, 35.292626642812245], [36.25700790085398, 35.292626642812245], [36.25700790085398, 35.29208765364177], [36.25592992251302, 35.29208765364177], [36.25592992251302, 35.2915486644713], [36.25539093334257, 35.2915486644713], [36.25539093334257, 35.29100967530083], [36.25754689002443, 35.29100967530083]]]}, "properties": {"area_ha": 87.07246164120679, "mean_dnbr": 0.47371225323114524, "compactness": 0.223, "rectangularity": 0.63, "cropland_frac": 0, "persistent": null, "brightness_delta": -0.04}}, {"type": "Feature", "geometry": {"geodesic": false, "type": "Polygon", "coordinates": [[[36.323842557992464, 35.23980570410602], [36.325459525503874, 35.23980570410602], [36.325459525503874, 35.24034469327649], [36.32653750384483, 35.24034469327649], [36.32653750384483, 35.24088368244696], [36.327076493015284, 35.24088368244696], [36.327076493015284, 35.24034469327649], [36.32761548218576, 35.24034469327649], [36.32761548218576, 35.24088368244696], [36.32923244969717, 35.24088368244696], [36.32923244969717, 35.241422671617435], [36.32977143886765, 35.241422671617435], [36.32977143886765, 35.2419616607879], [36.33031042803813, 35.2419616607879], [36.33031042803813, 35.243039639128845], [36.32977143886765, 35.243039639128845], [36.32977143886765, 35.2419616607879], [36.328693460526694, 35.2419616607879], [36.328693460526694, 35.24411761746979], [36.32761548218576, 35.24411761746979], [36.32761548218576, 35.24465660664026], [36.325459525503874, 35.24465660664026], [36.325459525503874, 35.24411761746979], [36.324920536333394, 35.24411761746979], [36.324920536333394, 35.24465660664026], [36.323842557992464, 35.24465660664026], [36.323842557992464, 35.24357862829932], [36.322225590481054, 35.24357862829932], [36.322225590481054, 35.24411761746979], [36.317913677117275, 35.24411761746979], [36.317913677117275, 35.24250064995837], [36.318452666287754, 35.24250064995837], [36.318452666287754, 35.2419616607879], [36.319530644628685, 35.2419616607879], [36.319530644628685, 35.241422671617435], [36.320608622969644, 35.241422671617435], [36.320608622969644, 35.24034469327649], [36.321147612140095, 35.24034469327649], [36.321147612140095, 35.23980570410602], [36.321686601310574, 35.23980570410602], [36.321686601310574, 35.24034469327649], [36.323842557992464, 35.24034469327649], [36.323842557992464, 35.23980570410602]]]}, "properties": {"area_ha": 39.603878801179135, "mean_dnbr": 0.38842149776892587, "compactness": 0.303, "rectangularity": 0.652, "cropland_frac": 0, "persistent": null, "brightness_delta": -0.073}}]}