{"type": "FeatureCollection", "crs": {"type": "name", "properties": {"name": "urn:ogc:def:crs:OGC:1.3:CRS84"}}, "features": [{"type": "Feature", "geometry": {"geodesic": false, "type": "Polygon", "coordinates": [[[36.21496674555718, 35.92378296143462], [36.21712270223907, 35.92378296143462], [36.21712270223907, 35.92432195060509], [36.217661691409546, 35.92432195060509], [36.217661691409546, 35.925399928946035], [36.21712270223907, 35.925399928946035], [36.21712270223907, 35.92593891811651], [36.219278658920956, 35.92593891811651], [36.219278658920956, 35.92647790728698], [36.21981764809141, 35.92647790728698], [36.21981764809141, 35.92701689645745], [36.22035663726189, 35.92701689645745], [36.22035663726189, 35.927555885627925], [36.21981764809141, 35.927555885627925], [36.21981764809141, 35.9280948747984], [36.219278658920956, 35.9280948747984], [36.219278658920956, 35.92863386396887], [36.21981764809141, 35.92863386396887], [36.21981764809141, 35.929172853139335], [36.219278658920956, 35.929172853139335], [36.219278658920956, 35.92971184230981], [36.21873966975048, 35.92971184230981], [36.21873966975048, 35.93025083148028], [36.21820068058, 35.93025083148028], [36.21820068058, 35.929172853139335], [36.21604472389811, 35.929172853139335], [36.21604472389811, 35.92971184230981], [36.21550573472766, 35.92971184230981], [36.21550573472766, 35.93025083148028], [36.21658371306859, 35.93025083148028], [36.21658371306859, 35.93078982065075], [36.2144277563867, 35.93078982065075], [36.2144277563867, 35.93025083148028], [36.21388876721622, 35.93025083148028], [36.21388876721622, 35.92971184230981], [36.21227179970481, 35.92971184230981], [36.21227179970481, 35.929172853139335], [36.21173281053436, 35.929172853139335], [36.21173281053436, 35.92863386396887], [36.21227179970481, 35.92863386396887], [36.21227179970481, 35.9280948747984], [36.21281078887529, 35.9280948747984], [36.21281078887529, 35.92647790728698], [36.21334977804577, 35.92647790728698], [36.21334977804577, 35.92593891811651], [36.21388876721622, 35.92593891811651], [36.21388876721622, 35.925399928946035], [36.2144277563867, 35.925399928946035], [36.2144277563867, 35.92486093977556], [36.21496674555718, 35.92486093977556], [36.21496674555718, 35.92378296143462]], [[36.21658371306859, 35.92647790728698], [36.21658371306859, 35.92701689645745], [36.21496674555718, 35.92701689645745], [36.21496674555718, 35.92647790728698], [36.21658371306859, 35.92647790728698]]]}, "properties": {"area_ha": 33.158308391733925, "mean_dnbr": 0.5409581587559116, "compactness": 0.242, "rectangularity": 0.606, "cropland_frac": 0.037, "persistent": true, "brightness_delta": -0.007}}, {"type": "Feature", "geometry": {"geodesic": false, "type": "Polygon", "coordinates": [[[36.35456494070934, 35.148177545125826], [36.35510392987982, 35.148177545125826], [36.35510392987982, 35.14925552346677], [36.35672089739123, 35.14925552346677], [36.35672089739123, 35.14979451263724], [36.357798875732186, 35.14979451263724], [36.357798875732186, 35.150333501807715], [36.35833786490264, 35.150333501807715], [36.35833786490264, 35.14979451263724], [36.35887685407312, 35.14979451263724], [36.35887685407312, 35.150333501807715], [36.359954832414076, 35.150333501807715], [36.359954832414076, 35.15141148014865], [36.36049382158453, 35.15141148014865], [36.36049382158453, 35.150333501807715], [36.361032810755006, 35.150333501807715], [36.361032810755006, 35.14979451263724], [36.361571799925485, 35.14979451263724], [36.361571799925485, 35.14925552346677], [36.362649778266416, 35.14925552346677], [36.362649778266416, 35.15087249097819], [36.364805734948305, 35.15087249097819], [36.364805734948305, 35.151950469319125], [36.365344724118785, 35.151950469319125], [36.365344724118785, 35.15464541517149], [36.366422702459715, 35.15464541517149], [36.366422702459715, 35.15518440434196], [36.368039669971154, 35.15518440434196], [36.368039669971154, 35.15572339351243], [36.368578659141605, 35.15572339351243], [36.368578659141605, 35.15518440434196], [36.369656637482564, 35.15518440434196], [36.369656637482564, 35.15572339351243], [36.37019562665304, 35.15572339351243], [36.37019562665304, 35.15464541517149], [36.370734615823494, 35.15464541517149], [36.370734615823494, 35.15734036102384], [36.37019562665304, 35.15734036102384], [36.37019562665304, 35.157879350194314], [36.369656637482564, 35.157879350194314], [36.369656637482564, 35.15734036102384], [36.369117648312084, 35.15734036102384], [36.369117648312084, 35.158418339364786], [36.37019562665304, 35.158418339364786], [36.37019562665304, 35.15949631770573], [36.372351583334904, 35.15949631770573], [36.372351583334904, 35.1600353068762], [36.37342956167586, 35.1600353068762], [36.37342956167586, 35.160574296046676], [36.37289057250538, 35.160574296046676], [36.37289057250538, 35.16111328521715], [36.372351583334904, 35.16111328521715], [36.372351583334904, 35.16165227438762], [36.366961691630195, 35.16165227438762], [36.366961691630195, 35.160574296046676], [36.365883713289264, 35.160574296046676], [36.365883713289264, 35.1600353068762], [36.365344724118785, 35.1600353068762], [36.365344724118785, 35.15949631770573], [36.364266745777854, 35.15949631770573], [36.364266745777854, 35.15895732853526], [36.363188767436895, 35.15895732853526], [36.363188767436895, 35.15734036102384], [36.362649778266416, 35.15734036102384], [36.362649778266416, 35.15518440434196], [36.362110789095965, 35.15518440434196], [36.362110789095965, 35.15464541517149], [36.361571799925485, 35.15464541517149], [36.361571799925485, 35.154106426001015], [36.36049382158453, 35.154106426001015], [36.36049382158453, 35.15356743683054], [36.357798875732186, 35.15356743683054], [36.357798875732186, 35.15464541517149], [36.35725988656171, 35.15464541517149], [36.35725988656171, 35.15518440434196], [36.356181908220776, 35.15518440434196], [36.356181908220776, 35.15464541517149], [36.3556429190503, 35.15464541517149], [36.3556429190503, 35.15518440434196], [36.35510392987982, 35.15518440434196], [36.35510392987982, 35.15464541517149], [36.35456494070934, 35.15464541517149], [36.35456494070934, 35.15356743683054], [36.35348696236841, 35.15356743683054], [36.35348696236841, 35.154106426001015], [36.35240898402745, 35.154106426001015], [36.35240898402745, 35.15356743683054], [36.351869994857, 35.15356743683054], [36.351869994857, 35.15302844766007], [36.35133100568652, 35.15302844766007], [36.35133100568652, 35.151950469319125], [36.35079201651604, 35.151950469319125], [36.35079201651604, 35.15141148014865], [36.35133100568652, 35.15141148014865], [36.35133100568652, 35.14979451263724], [36.351869994857, 35.14979451263724], [36.351869994857, 35.1487165342963], [36.35456494070934, 35.1487165342963], [36.35456494070934, 35.148177545125826]]]}, "properties": {"area_ha": 110.42332781808872, "mean_dnbr": 0.3830624828645897, "compactness": 0.168, "rectangularity": 0.49, "cropland_frac": 0.0, "persistent": true, "brightness_delta": -0.108}}]}