{"type": "FeatureCollection", "crs": {"type": "name", "properties": {"name": "urn:ogc:def:crs:OGC:1.3:CRS84"}}, "features": [{"type": "Feature", "geometry": {"geodesic": false, "type": "Polygon", "coordinates": [[[36.07590753957547, 37.655555166160234], [36.07698551791643, 37.655555166160234], [36.07698551791643, 37.65663314450118], [36.07806349625736, 37.65663314450118], [36.07806349625736, 37.65771112284212], [36.07860248542784, 37.65771112284212], [36.07860248542784, 37.658250112012595], [36.079141474598316, 37.658250112012595], [36.079141474598316, 37.65878910118307], [36.07968046376877, 37.65878910118307], [36.07968046376877, 37.662023036205895], [36.08021945293925, 37.662023036205895], [36.08021945293925, 37.66364000371731], [36.080758442109726, 37.66364000371731], [36.080758442109726, 37.665795960399194], [36.08021945293925, 37.665795960399194], [36.08021945293925, 37.66525697122872], [36.07968046376877, 37.66525697122872], [36.07968046376877, 37.66471798205826], [36.079141474598316, 37.66471798205826], [36.079141474598316, 37.664178992887784], [36.07752450708688, 37.664178992887784], [36.07752450708688, 37.66364000371731], [36.07698551791643, 37.66364000371731], [36.07698551791643, 37.66310101454684], [36.07429057206406, 37.66310101454684], [36.07429057206406, 37.662023036205895], [36.07375158289358, 37.662023036205895], [36.07375158289358, 37.66094505786495], [36.07321259372313, 37.66094505786495], [36.07321259372313, 37.66040606869448], [36.07267360455265, 37.66040606869448], [36.07267360455265, 37.659867079524005], [36.07321259372313, 37.659867079524005], [36.07321259372313, 37.65932809035353], [36.07375158289358, 37.65932809035353], [36.07375158289358, 37.65878910118307], [36.07429057206406, 37.65878910118307], [36.07429057206406, 37.658250112012595], [36.07375158289358, 37.658250112012595], [36.07375158289358, 37.65771112284212], [36.07429057206406, 37.65771112284212], [36.07429057206406, 37.65717213367165], [36.07482956123454, 37.65717213367165], [36.07482956123454, 37.65663314450118], [36.07536855040499, 37.65663314450118], [36.07536855040499, 37.656094155330706], [36.07590753957547, 37.656094155330706], [36.07590753957547, 37.655555166160234]], [[36.07536855040499, 37.66148404703542], [36.07536855040499, 37.662023036205895], [36.07429057206406, 37.662023036205895], [36.07429057206406, 37.66148404703542], [36.07536855040499, 37.66148404703542]], [[36.07536855040499, 37.659867079524005], [36.07536855040499, 37.66040606869448], [36.07429057206406, 37.66040606869448], [36.07429057206406, 37.659867079524005], [36.07536855040499, 37.659867079524005]]]}, "properties": {"area_ha": 40.37849948966259, "mean_dnbr": 0.20866880688555667, "compactness": 0.26, "rectangularity": 0.529, "cropland_frac": 0.454, "persistent": null, "brightness_delta": -0.228}}, {"type": "Feature", "geometry": {"geodesic": false, "type": "Polygon", "coordinates": [[[36.138969272520654, 37.637229534364195], [36.138969272520654, 37.63669054519372], [36.1384302833502, 37.63669054519372], [36.1384302833502, 37.63615155602325], [36.137891294179724, 37.63615155602325], [36.137891294179724, 37.63561256685278], [36.137352305009244, 37.63561256685278], [36.137352305009244, 37.635073577682306], [36.134657359156904, 37.635073577682306], [36.134657359156904, 37.63453458851184], [36.132501402475015, 37.63453458851184], [36.132501402475015, 37.633456610170896], [36.131423424134056, 37.633456610170896], [36.131423424134056, 37.63237863182995], [36.130884434963576, 37.63237863182995], [36.130884434963576, 37.630761664318534], [36.131423424134056, 37.630761664318534], [36.131423424134056, 37.63022267514806], [36.131962413304535, 37.63022267514806], [36.131962413304535, 37.62968368597759], [36.132501402475015, 37.62968368597759], [36.132501402475015, 37.62914469680712], [36.134118369986425, 37.62914469680712], [36.134118369986425, 37.62968368597759], [36.135735337497835, 37.62968368597759], [36.135735337497835, 37.62914469680712], [36.136274326668314, 37.62914469680712], [36.136274326668314, 37.62968368597759], [36.136813315838765, 37.62968368597759], [36.136813315838765, 37.63022267514806], [36.134657359156904, 37.63022267514806], [36.134657359156904, 37.631300653489006], [36.135196348327355, 37.631300653489006], [36.135196348327355, 37.63183964265948], [36.136274326668314, 37.63183964265948], [36.136274326668314, 37.63291762100042], [36.136813315838765, 37.63291762100042], [36.136813315838765, 37.63399559934137], [36.136274326668314, 37.63399559934137], [36.136274326668314, 37.63453458851184], [36.137352305009244, 37.63453458851184], [36.137352305009244, 37.63399559934137], [36.138969272520654, 37.63399559934137], [36.138969272520654, 37.633456610170896], [36.139508261691134, 37.633456610170896], [36.139508261691134, 37.63291762100042], [36.14058624003209, 37.63291762100042], [36.14058624003209, 37.63183964265948], [36.14004725086161, 37.63183964265948], [36.14004725086161, 37.630761664318534], [36.139508261691134, 37.630761664318534], [36.139508261691134, 37.62968368597759], [36.138969272520654, 37.62968368597759], [36.138969272520654, 37.62914469680712], [36.1384302833502, 37.62914469680712], [36.1384302833502, 37.62860570763665], [36.139508261691134, 37.62860570763665], [36.139508261691134, 37.62806671846618], [36.138969272520654, 37.62806671846618], [36.138969272520654, 37.626988740125235], [36.14004725086161, 37.626988740125235], [36.14004725086161, 37.62644975095476], [36.14058624003209, 37.62644975095476], [36.14058624003209, 37.62537177261382], [36.141125229202544, 37.62537177261382], [36.141125229202544, 37.624832783443345], [36.14058624003209, 37.624832783443345], [36.14058624003209, 37.62429379427287], [36.141125229202544, 37.62429379427287], [36.141125229202544, 37.624832783443345], [36.14166421837302, 37.624832783443345], [36.14166421837302, 37.62537177261382], [36.142742196713954, 37.62537177261382], [36.142742196713954, 37.62644975095476], [36.1422032075435, 37.62644975095476], [36.1422032075435, 37.62752772929571], [36.142742196713954, 37.62752772929571], [36.142742196713954, 37.62806671846618], [36.14328118588443, 37.62806671846618], [36.14328118588443, 37.62860570763665], [36.1422032075435, 37.62860570763665], [36.1422032075435, 37.630761664318534], [36.14166421837302, 37.630761664318534], [36.14166421837302, 37.63399559934137], [36.1422032075435, 37.63399559934137], [36.1422032075435, 37.63453458851184], [36.14166421837302, 37.63453458851184], [36.14166421837302, 37.635073577682306], [36.1422032075435, 37.635073577682306], [36.1422032075435, 37.63561256685278], [36.142742196713954, 37.63561256685278], [36.142742196713954, 37.63615155602325], [36.1422032075435, 37.63615155602325], [36.1422032075435, 37.63561256685278], [36.14166421837302, 37.63561256685278], [36.14166421837302, 37.63669054519372], [36.142742196713954, 37.63669054519372], [36.142742196713954, 37.63776852353467], [36.141125229202544, 37.63776852353467], [36.141125229202544, 37.63830751270514], [36.14004725086161, 37.63830751270514], [36.14004725086161, 37.63776852353467], [36.139508261691134, 37.63776852353467], [36.139508261691134, 37.637229534364195], [36.138969272520654, 37.637229534364195]], [[36.14058624003209, 37.63453458851184], [36.14058624003209, 37.635073577682306], [36.14004725086161, 37.635073577682306], [36.14004725086161, 37.63453458851184], [36.14058624003209, 37.63453458851184]], [[36.141125229202544, 37.63291762100042], [36.141125229202544, 37.63399559934137], [36.14166421837302, 37.63399559934137], [36.14166421837302, 37.63453458851184], [36.14058624003209, 37.63453458851184], [36.14058624003209, 37.63291762100042], [36.141125229202544, 37.63291762100042]], [[36.141125229202544, 37.630761664318534], [36.141125229202544, 37.631300653489006], [36.14058624003209, 37.631300653489006], [36.14058624003209, 37.630761664318534], [36.141125229202544, 37.630761664318534]], [[36.14058624003209, 37.63022267514806], [36.14058624003209, 37.630761664318534], [36.14004725086161, 37.630761664318534], [36.14004725086161, 37.63022267514806], [36.14058624003209, 37.63022267514806]], [[36.14058624003209, 37.62806671846618], [36.14058624003209, 37.62860570763665], [36.14004725086161, 37.62860570763665], [36.14004725086161, 37.62806671846618], [36.14058624003209, 37.62806671846618]], [[36.141125229202544, 37.62644975095476], [36.141125229202544, 37.626988740125235], [36.14166421837302, 37.626988740125235], [36.14166421837302, 37.62752772929571], [36.14058624003209, 37.62752772929571], [36.14058624003209, 37.62644975095476], [36.141125229202544, 37.62644975095476]]]}, "properties": {"area_ha": 57.74622195742076, "mean_dnbr": 0.21984468011811076, "compactness": 0.07, "rectangularity": 0.343, "cropland_frac": 0.176, "persistent": null, "brightness_delta": -0.193}}, {"type": "Feature", "geometry": {"geodesic": false, "type": "Polygon", "coordinates": [[[36.1686136768966, 37.64908729611457], [36.16969165523756, 37.64908729611457], [36.16969165523756, 37.649626285285045], [36.173464579430856, 37.649626285285045], [36.173464579430856, 37.65070426362599], [36.174003568601336, 37.65070426362599], [36.174003568601336, 37.65124325279646], [36.175081546942266, 37.65124325279646], [36.175081546942266, 37.65070426362599], [36.175620536112746, 37.65070426362599], [36.175620536112746, 37.65124325279646], [36.176159525283225, 37.65124325279646], [36.176159525283225, 37.65070426362599], [36.176698514453676, 37.65070426362599], [36.176698514453676, 37.65124325279646], [36.176159525283225, 37.65124325279646], [36.176159525283225, 37.65232123113741], [36.175620536112746, 37.65232123113741], [36.175620536112746, 37.65286022030788], [36.175081546942266, 37.65286022030788], [36.175081546942266, 37.65393819864882], [36.175620536112746, 37.65393819864882], [36.175620536112746, 37.655555166160234], [36.175081546942266, 37.655555166160234], [36.175081546942266, 37.65501617698976], [36.1723866010899, 37.65501617698976], [36.1723866010899, 37.655555166160234], [36.171847611919446, 37.655555166160234], [36.171847611919446, 37.65501617698976], [36.1723866010899, 37.65501617698976], [36.1723866010899, 37.65393819864882], [36.17130862274897, 37.65393819864882], [36.17130862274897, 37.653399209478344], [36.1723866010899, 37.653399209478344], [36.1723866010899, 37.65286022030788], [36.17292559026038, 37.65286022030788], [36.17292559026038, 37.651782241966934], [36.171847611919446, 37.651782241966934], [36.171847611919446, 37.65070426362599], [36.16969165523756, 37.65070426362599], [36.16969165523756, 37.65016527445552], [36.16915266606708, 37.65016527445552], [36.16915266606708, 37.65070426362599], [36.1686136768966, 37.65070426362599], [36.1686136768966, 37.65124325279646], [36.16753569855567, 37.65124325279646], [36.16753569855567, 37.65070426362599], [36.16807468772615, 37.65070426362599], [36.16807468772615, 37.649626285285045], [36.1686136768966, 37.649626285285045], [36.1686136768966, 37.64908729611457]], [[36.175620536112746, 37.651782241966934], [36.175620536112746, 37.65232123113741], [36.175081546942266, 37.65232123113741], [36.175081546942266, 37.651782241966934], [36.175620536112746, 37.651782241966934]], [[36.173464579430856, 37.65070426362599], [36.173464579430856, 37.65124325279646], [36.17292559026038, 37.65124325279646], [36.17292559026038, 37.65070426362599], [36.173464579430856, 37.65070426362599]]]}, "properties": {"area_ha": 20.475893574612588, "mean_dnbr": 0.19498464103071939, "compactness": 0.124, "rectangularity": 0.378, "cropland_frac": 0.113, "persistent": null, "brightness_delta": -0.171}}, {"type": "Feature", "geometry": {"geodesic": false, "type": "Polygon", "coordinates": [[[36.368039669971154, 37.73586455256052], [36.368578659141605, 37.73586455256052], [36.368578659141605, 37.73640354173099], [36.369117648312084, 37.73640354173099], [36.369117648312084, 37.736942530901466], [36.368578659141605, 37.736942530901466], [36.368578659141605, 37.738559498412876], [36.369117648312084, 37.738559498412876], [36.369117648312084, 37.73909848758335], [36.368578659141605, 37.73909848758335], [36.368578659141605, 37.73963747675382], [36.369656637482564, 37.73963747675382], [36.369656637482564, 37.74017646592429], [36.37019562665304, 37.74017646592429], [36.37019562665304, 37.740715455094765], [36.370734615823494, 37.740715455094765], [36.370734615823494, 37.74125444426524], [36.37289057250538, 37.74125444426524], [36.37289057250538, 37.74233242260618], [36.37342956167586, 37.74233242260618], [36.37342956167586, 37.742871411776655], [36.37289057250538, 37.742871411776655], [36.37289057250538, 37.74341040094713], [36.372351583334904, 37.74341040094713], [36.372351583334904, 37.74394939011759], [36.37181259416445, 37.74394939011759], [36.37181259416445, 37.744488379288065], [36.372351583334904, 37.744488379288065], [36.372351583334904, 37.74502736845854], [36.37127360499397, 37.74502736845854], [36.37127360499397, 37.74394939011759], [36.37181259416445, 37.74394939011759], [36.37181259416445, 37.74341040094713], [36.37127360499397, 37.74341040094713], [36.37127360499397, 37.742871411776655], [36.369656637482564, 37.742871411776655], [36.369656637482564, 37.74233242260618], [36.369117648312084, 37.74233242260618], [36.369117648312084, 37.740715455094765], [36.367500680800674, 37.740715455094765], [36.367500680800674, 37.74017646592429], [36.365883713289264, 37.74017646592429], [36.365883713289264, 37.73909848758335], [36.364266745777854, 37.73909848758335], [36.364266745777854, 37.7380205092424], [36.363188767436895, 37.7380205092424], [36.363188767436895, 37.73748152007193], [36.365344724118785, 37.73748152007193], [36.365344724118785, 37.7380205092424], [36.365883713289264, 37.7380205092424], [36.365883713289264, 37.73909848758335], [36.367500680800674, 37.73909848758335], [36.367500680800674, 37.7380205092424], [36.366422702459715, 37.7380205092424], [36.366422702459715, 37.73586455256052], [36.367500680800674, 37.73586455256052], [36.367500680800674, 37.73640354173099], [36.368039669971154, 37.73640354173099], [36.368039669971154, 37.73586455256052]]]}, "properties": {"area_ha": 22.439997434017155, "mean_dnbr": 0.2006957633851142, "compactness": 0.118, "rectangularity": 0.372, "cropland_frac": 0, "persistent": null, "brightness_delta": -0.188}}, {"type": "Feature", "geometry": {"geodesic": false, "type": "Polygon", "coordinates": [[[36.370734615823494, 37.724545779980616], [36.37289057250538, 37.724545779980616], [36.37289057250538, 37.72508476915109], [36.37342956167586, 37.72508476915109], [36.37342956167586, 37.725623758321554], [36.37289057250538, 37.725623758321554], [36.37289057250538, 37.726162747492026], [36.37396855084634, 37.726162747492026], [36.37396855084634, 37.7267017366625], [36.37450754001679, 37.7267017366625], [36.37450754001679, 37.72777971500344], [36.37558551835775, 37.72777971500344], [36.37558551835775, 37.72993567168533], [36.37612450752823, 37.72993567168533], [36.37612450752823, 37.73101365002628], [36.37504652918727, 37.73101365002628], [36.37504652918727, 37.73155263919674], [36.37396855084634, 37.73155263919674], [36.37396855084634, 37.73101365002628], [36.37450754001679, 37.73101365002628], [36.37450754001679, 37.730474660855805], [36.37342956167586, 37.730474660855805], [36.37342956167586, 37.732091628367215], [36.372351583334904, 37.732091628367215], [36.372351583334904, 37.73263061753769], [36.37181259416445, 37.73263061753769], [36.37181259416445, 37.73316960670816], [36.369656637482564, 37.73316960670816], [36.369656637482564, 37.732091628367215], [36.369117648312084, 37.732091628367215], [36.369117648312084, 37.73101365002628], [36.369656637482564, 37.73101365002628], [36.369656637482564, 37.732091628367215], [36.37127360499397, 37.732091628367215], [36.37127360499397, 37.73155263919674], [36.37181259416445, 37.73155263919674], [36.37181259416445, 37.73101365002628], [36.372351583334904, 37.73101365002628], [36.372351583334904, 37.72993567168533], [36.370734615823494, 37.72993567168533], [36.370734615823494, 37.72885769334439], [36.37127360499397, 37.72885769334439], [36.37127360499397, 37.72724072583297], [36.370734615823494, 37.72724072583297], [36.370734615823494, 37.7267017366625], [36.37127360499397, 37.7267017366625], [36.37127360499397, 37.726162747492026], [36.370734615823494, 37.726162747492026], [36.370734615823494, 37.724545779980616]], [[36.37181259416445, 37.725623758321554], [36.37181259416445, 37.726162747492026], [36.37127360499397, 37.726162747492026], [36.37127360499397, 37.725623758321554], [36.37181259416445, 37.725623758321554]], [[36.372351583334904, 37.72508476915109], [36.372351583334904, 37.725623758321554], [36.37181259416445, 37.725623758321554], [36.37181259416445, 37.72508476915109], [36.372351583334904, 37.72508476915109]]]}, "properties": {"area_ha": 26.98882815912076, "mean_dnbr": 0.19927854342674797, "compactness": 0.152, "rectangularity": 0.457, "cropland_frac": 0, "persistent": null, "brightness_delta": -0.201}}, {"type": "Feature", "geometry": {"geodesic": false, "type": "Polygon", "coordinates": [[[36.414931727802184, 37.56446599635051], [36.41547071697266, 37.56446599635051], [36.41547071697266, 37.565004985520986], [36.416548695313594, 37.565004985520986], [36.416548695313594, 37.56554397469146], [36.41870465199548, 37.56554397469146], [36.41870465199548, 37.565004985520986], [36.41924364116596, 37.565004985520986], [36.41924364116596, 37.56823892054382], [36.419782630336414, 37.56823892054382], [36.419782630336414, 37.568777909714285], [36.42032161950689, 37.568777909714285], [36.42032161950689, 37.56931689888476], [36.42086060867737, 37.56931689888476], [36.42086060867737, 37.56985588805523], [36.42139959784785, 37.56985588805523], [36.42139959784785, 37.5703948772257], [36.42086060867737, 37.5703948772257], [36.42086060867737, 37.570933866396174], [36.41924364116596, 37.570933866396174], [36.41924364116596, 37.56985588805523], [36.41870465199548, 37.56985588805523], [36.41870465199548, 37.56769993137335], [36.418165662825004, 37.56769993137335], [36.418165662825004, 37.567160942202875], [36.41762667365455, 37.567160942202875], [36.41762667365455, 37.5666219530324], [36.41547071697266, 37.5666219530324], [36.41547071697266, 37.56769993137335], [36.413853749461225, 37.56769993137335], [36.413853749461225, 37.56823892054382], [36.412775771120295, 37.56823892054382], [36.412775771120295, 37.56769993137335], [36.411158803608885, 37.56769993137335], [36.411158803608885, 37.56823892054382], [36.410619814438405, 37.56823892054382], [36.410619814438405, 37.568777909714285], [36.409002846926995, 37.568777909714285], [36.409002846926995, 37.56823892054382], [36.408463857756516, 37.56823892054382], [36.408463857756516, 37.567160942202875], [36.407924868586036, 37.567160942202875], [36.407924868586036, 37.568777909714285], [36.407385879415585, 37.568777909714285], [36.407385879415585, 37.567160942202875], [36.406846890245106, 37.567160942202875], [36.406846890245106, 37.56608296386193], [36.409002846926995, 37.56608296386193], [36.409002846926995, 37.56554397469146], [36.410080825267926, 37.56554397469146], [36.410080825267926, 37.565004985520986], [36.411158803608885, 37.565004985520986], [36.411158803608885, 37.56554397469146], [36.411697792779364, 37.56554397469146], [36.411697792779364, 37.565004985520986], [36.414931727802184, 37.565004985520986], [36.414931727802184, 37.56446599635051]]]}, "properties": {"area_ha": 33.880834228505734, "mean_dnbr": 0.22166373530526445, "compactness": 0.157, "rectangularity": 0.388, "cropland_frac": 0.437, "persistent": null, "brightness_delta": -0.111}}, {"type": "Feature", "geometry": {"geodesic": false, "type": "Polygon", "coordinates": [[[36.49362414669105, 37.3494093173323], [36.494702125032006, 37.3494093173323], [36.494702125032006, 37.349948306502775], [36.496319092543416, 37.349948306502775], [36.496319092543416, 37.351565274014185], [36.49578010337294, 37.351565274014185], [36.49578010337294, 37.35210426318466], [36.49524111420246, 37.35210426318466], [36.49524111420246, 37.35264325235513], [36.494702125032006, 37.35264325235513], [36.494702125032006, 37.353721230696074], [36.49308515752057, 37.353721230696074], [36.49308515752057, 37.3531822415256], [36.49092920083871, 37.3531822415256], [36.49092920083871, 37.353721230696074], [36.49039021166823, 37.353721230696074], [36.49039021166823, 37.3531822415256], [36.48823425498634, 37.3531822415256], [36.48823425498634, 37.353721230696074], [36.48661728747493, 37.353721230696074], [36.48661728747493, 37.3531822415256], [36.48769526581586, 37.3531822415256], [36.48769526581586, 37.35264325235513], [36.48823425498634, 37.35264325235513], [36.48823425498634, 37.35210426318466], [36.48877324415682, 37.35210426318466], [36.48877324415682, 37.35264325235513], [36.48985122249775, 37.35264325235513], [36.48985122249775, 37.35210426318466], [36.48931223332727, 37.35210426318466], [36.48931223332727, 37.35102628484372], [36.48823425498634, 37.35102628484372], [36.48823425498634, 37.35048729567325], [36.48877324415682, 37.35048729567325], [36.48877324415682, 37.349948306502775], [36.49039021166823, 37.349948306502775], [36.49039021166823, 37.3494093173323], [36.49254616835012, 37.3494093173323], [36.49254616835012, 37.349948306502775], [36.49200717917964, 37.349948306502775], [36.49200717917964, 37.35048729567325], [36.49362414669105, 37.35048729567325], [36.49362414669105, 37.3494093173323]], [[36.49578010337294, 37.35048729567325], [36.49578010337294, 37.35102628484372], [36.49524111420246, 37.35102628484372], [36.49524111420246, 37.35048729567325], [36.49578010337294, 37.35048729567325]]]}, "properties": {"area_ha": 24.841501884073352, "mean_dnbr": 0.21249868892823653, "compactness": 0.208, "rectangularity": 0.604, "cropland_frac": 0, "persistent": null, "brightness_delta": -0.21}}, {"type": "Feature", "geometry": {"geodesic": false, "type": "Polygon", "coordinates": [[[36.51518371350991, 37.354260219866546], [36.51680068102132, 37.354260219866546], [36.51680068102132, 37.35533819820749], [36.5173396701918, 37.35533819820749], [36.5173396701918, 37.35695516571891], [36.51787865936228, 37.35695516571891], [36.51787865936228, 37.356416176548436], [36.51895663770321, 37.356416176548436], [36.51895663770321, 37.35587718737796], [36.51949562687369, 37.35587718737796], [36.51949562687369, 37.356416176548436], [36.51895663770321, 37.356416176548436], [36.51895663770321, 37.35695516571891], [36.51841764853276, 37.35695516571891], [36.51841764853276, 37.35749415488938], [36.51895663770321, 37.35749415488938], [36.51895663770321, 37.358033144059846], [36.51680068102132, 37.358033144059846], [36.51680068102132, 37.35857213323032], [36.51949562687369, 37.35857213323032], [36.51949562687369, 37.35911112240079], [36.52003461604417, 37.35911112240079], [36.52003461604417, 37.35965011157126], [36.5211125943851, 37.35965011157126], [36.5211125943851, 37.360189100741735], [36.52165158355558, 37.360189100741735], [36.52165158355558, 37.36072808991221], [36.5211125943851, 37.36072808991221], [36.5211125943851, 37.36180606825315], [36.52165158355558, 37.36180606825315], [36.52165158355558, 37.362345057423624], [36.52219057272606, 37.362345057423624], [36.52219057272606, 37.3628840465941], [36.52165158355558, 37.3628840465941], [36.52165158355558, 37.363962024935034], [36.52219057272606, 37.363962024935034], [36.52219057272606, 37.36504000327598], [36.5211125943851, 37.36504000327598], [36.5211125943851, 37.36450101410551], [36.52003461604417, 37.36450101410551], [36.52003461604417, 37.3628840465941], [36.51949562687369, 37.3628840465941], [36.51949562687369, 37.36180606825315], [36.51895663770321, 37.36180606825315], [36.51895663770321, 37.36072808991221], [36.51680068102132, 37.36072808991221], [36.51680068102132, 37.360189100741735], [36.51572270268039, 37.360189100741735], [36.51572270268039, 37.35965011157126], [36.51410573516898, 37.35965011157126], [36.51410573516898, 37.35911112240079], [36.5135667459985, 37.35911112240079], [36.5135667459985, 37.35857213323032], [36.51248876765757, 37.35857213323032], [36.51248876765757, 37.358033144059846], [36.51302775682802, 37.358033144059846], [36.51302775682802, 37.35749415488938], [36.51141078931661, 37.35749415488938], [36.51141078931661, 37.358033144059846], [36.51194977848709, 37.358033144059846], [36.51194977848709, 37.35857213323032], [36.51141078931661, 37.35857213323032], [36.51141078931661, 37.35911112240079], [36.51194977848709, 37.35911112240079], [36.51194977848709, 37.35965011157126], [36.51141078931661, 37.35965011157126], [36.51141078931661, 37.360189100741735], [36.509793821805204, 37.360189100741735], [36.509793821805204, 37.35965011157126], [36.51033281097568, 37.35965011157126], [36.51033281097568, 37.35911112240079], [36.510871800146134, 37.35911112240079], [36.510871800146134, 37.35857213323032], [36.51141078931661, 37.35857213323032], [36.51141078931661, 37.358033144059846], [36.51033281097568, 37.358033144059846], [36.51033281097568, 37.35857213323032], [36.509793821805204, 37.35857213323032], [36.509793821805204, 37.35911112240079], [36.509254832634724, 37.35911112240079], [36.509254832634724, 37.35857213323032], [36.509793821805204, 37.35857213323032], [36.509793821805204, 37.358033144059846], [36.50871584346427, 37.358033144059846], [36.50871584346427, 37.35911112240079], [36.507637865123314, 37.35911112240079], [36.507637865123314, 37.358033144059846], [36.506559886782384, 37.358033144059846], [36.506559886782384, 37.35695516571891], [36.507098875952835, 37.35695516571891], [36.507098875952835, 37.356416176548436], [36.508176854293794, 37.356416176548436], [36.508176854293794, 37.35695516571891], [36.507098875952835, 37.35695516571891], [36.507098875952835, 37.35749415488938], [36.507637865123314, 37.35749415488938], [36.507637865123314, 37.358033144059846], [36.508176854293794, 37.358033144059846], [36.508176854293794, 37.35749415488938], [36.50871584346427, 37.35749415488938], [36.50871584346427, 37.356416176548436], [36.509254832634724, 37.356416176548436], [36.509254832634724, 37.35587718737796], [36.50871584346427, 37.35587718737796], [36.50871584346427, 37.35533819820749], [36.509254832634724, 37.35533819820749], [36.509254832634724, 37.35587718737796], [36.509793821805204, 37.35587718737796], [36.509793821805204, 37.356416176548436], [36.51033281097568, 37.356416176548436], [36.51033281097568, 37.35695516571891], [36.51194977848709, 37.35695516571891], [36.51194977848709, 37.356416176548436], [36.51141078931661, 37.356416176548436], [36.51141078931661, 37.35587718737796], [36.51248876765757, 37.35587718737796], [36.51248876765757, 37.35533819820749], [36.51302775682802, 37.35533819820749], [36.51302775682802, 37.35587718737796], [36.5135667459985, 37.35587718737796], [36.5135667459985, 37.356416176548436], [36.51410573516898, 37.356416176548436], [36.51410573516898, 37.35695516571891], [36.51464472433946, 37.35695516571891], [36.51464472433946, 37.35587718737796], [36.51626169185087, 37.35587718737796], [36.51626169185087, 37.35533819820749], [36.51518371350991, 37.35533819820749], [36.51518371350991, 37.354260219866546]], [[36.51572270268039, 37.35749415488938], [36.51572270268039, 37.358033144059846], [36.51626169185087, 37.358033144059846], [36.51626169185087, 37.35857213323032], [36.51464472433946, 37.35857213323032], [36.51464472433946, 37.35911112240079], [36.51410573516898, 37.35911112240079], [36.51410573516898, 37.35749415488938], [36.51572270268039, 37.35749415488938]], [[36.51033281097568, 37.35695516571891], [36.51033281097568, 37.35749415488938], [36.509793821805204, 37.35749415488938], [36.509793821805204, 37.35695516571891], [36.51033281097568, 37.35695516571891]]]}, "properties": {"area_ha": 45.11010510329407, "mean_dnbr": 0.18054930151682372, "compactness": 0.051, "rectangularity": 0.314, "cropland_frac": 0.005, "persistent": null, "brightness_delta": -0.162}}, {"type": "Feature", "geometry": {"geodesic": false, "type": "Polygon", "coordinates": [[[36.65747685451444, 37.23729956987418], [36.65801584368492, 37.23729956987418], [36.65801584368492, 37.237838559044654], [36.6585548328554, 37.237838559044654], [36.6585548328554, 37.23837754821513], [36.65963281119633, 37.23837754821513], [36.65963281119633, 37.2389165373856], [36.66017180036681, 37.2389165373856], [36.66017180036681, 37.23999451572654], [36.6623277570487, 37.23999451572654], [36.6623277570487, 37.240533504897016], [36.66178876787822, 37.240533504897016], [36.66178876787822, 37.24107249406749], [36.6623277570487, 37.24107249406749], [36.6623277570487, 37.24161148323796], [36.66178876787822, 37.24161148323796], [36.66178876787822, 37.24107249406749], [36.66071078953729, 37.24107249406749], [36.66071078953729, 37.24215047240843], [36.66017180036681, 37.24215047240843], [36.66017180036681, 37.242689461578905], [36.65963281119633, 37.242689461578905], [36.65963281119633, 37.24215047240843], [36.65909382202588, 37.24215047240843], [36.65909382202588, 37.242689461578905], [36.65801584368492, 37.242689461578905], [36.65801584368492, 37.24215047240843], [36.65747685451444, 37.24215047240843], [36.65747685451444, 37.24161148323796], [36.65693786534399, 37.24161148323796], [36.65693786534399, 37.24107249406749], [36.65639887617351, 37.24107249406749], [36.65639887617351, 37.240533504897016], [36.65532089783255, 37.240533504897016], [36.65532089783255, 37.24107249406749], [36.6547819086621, 37.24107249406749], [36.6547819086621, 37.24161148323796], [36.65424291949162, 37.24161148323796], [36.65424291949162, 37.24215047240843], [36.65370393032114, 37.24215047240843], [36.65370393032114, 37.24161148323796], [36.65424291949162, 37.24161148323796], [36.65424291949162, 37.240533504897016], [36.65316494115069, 37.240533504897016], [36.65316494115069, 37.24107249406749], [36.65262595198021, 37.24107249406749], [36.65262595198021, 37.24215047240843], [36.65316494115069, 37.24215047240843], [36.65316494115069, 37.24322845074937], [36.65370393032114, 37.24322845074937], [36.65370393032114, 37.242689461578905], [36.65424291949162, 37.242689461578905], [36.65424291949162, 37.244306429090315], [36.65370393032114, 37.244306429090315], [36.65370393032114, 37.24484541826079], [36.65262595198021, 37.24484541826079], [36.65262595198021, 37.24538440743126], [36.6510089844688, 37.24538440743126], [36.6510089844688, 37.24592339660173], [36.65046999529832, 37.24592339660173], [36.65046999529832, 37.24538440743126], [36.6510089844688, 37.24538440743126], [36.6510089844688, 37.24484541826079], [36.65262595198021, 37.24484541826079], [36.65262595198021, 37.24376743991984], [36.65316494115069, 37.24376743991984], [36.65316494115069, 37.24322845074937], [36.65262595198021, 37.24322845074937], [36.65262595198021, 37.24215047240843], [36.65208696280973, 37.24215047240843], [36.65208696280973, 37.24161148323796], [36.65046999529832, 37.24161148323796], [36.65046999529832, 37.242689461578905], [36.649931006127844, 37.242689461578905], [36.649931006127844, 37.24215047240843], [36.64885302778691, 37.24215047240843], [36.64885302778691, 37.242689461578905], [36.6472360602755, 37.242689461578905], [36.6472360602755, 37.24215047240843], [36.646697071105024, 37.24215047240843], [36.646697071105024, 37.24161148323796], [36.646158081934544, 37.24161148323796], [36.646158081934544, 37.24215047240843], [36.645619092764065, 37.24215047240843], [36.645619092764065, 37.242689461578905], [36.645080103593614, 37.242689461578905], [36.645080103593614, 37.24322845074937], [36.644541114423134, 37.24322845074937], [36.644541114423134, 37.242689461578905], [36.644002125252655, 37.242689461578905], [36.644002125252655, 37.24322845074937], [36.643463136082175, 37.24322845074937], [36.643463136082175, 37.24376743991984], [36.642924146911724, 37.24376743991984], [36.642924146911724, 37.242689461578905], [36.642385157741245, 37.242689461578905], [36.642385157741245, 37.24322845074937], [36.641846168570765, 37.24322845074937], [36.641846168570765, 37.242689461578905], [36.641307179400314, 37.242689461578905], [36.641307179400314, 37.24215047240843], [36.640229201059356, 37.24215047240843], [36.640229201059356, 37.242689461578905], [36.639690211888876, 37.242689461578905], [36.639690211888876, 37.24161148323796], [36.640768190229835, 37.24161148323796], [36.640768190229835, 37.24107249406749], [36.641307179400314, 37.24107249406749], [36.641307179400314, 37.240533504897016], [36.640768190229835, 37.240533504897016], [36.640768190229835, 37.23999451572654], [36.644541114423134, 37.23999451572654], [36.644541114423134, 37.240533504897016], [36.645080103593614, 37.240533504897016], [36.645080103593614, 37.23945552655607], [36.645619092764065, 37.23945552655607], [36.645619092764065, 37.240533504897016], [36.645080103593614, 37.240533504897016], [36.645080103593614, 37.24107249406749], [36.646158081934544, 37.24107249406749], [36.646158081934544, 37.240533504897016], [36.646697071105024, 37.240533504897016], [36.646697071105024, 37.23999451572654], [36.6472360602755, 37.23999451572654], [36.6472360602755, 37.23945552655607], [36.646697071105024, 37.23945552655607], [36.646697071105024, 37.2389165373856], [36.645619092764065, 37.2389165373856], [36.645619092764065, 37.23837754821513], [36.6472360602755, 37.23837754821513], [36.6472360602755, 37.23945552655607], [36.648314038616434, 37.23945552655607], [36.648314038616434, 37.240533504897016], [36.64885302778691, 37.240533504897016], [36.64885302778691, 37.24107249406749], [36.65046999529832, 37.24107249406749], [36.65046999529832, 37.240533504897016], [36.65262595198021, 37.240533504897016], [36.65262595198021, 37.23945552655607], [36.65316494115069, 37.23945552655607], [36.65316494115069, 37.2389165373856], [36.65262595198021, 37.2389165373856], [36.65262595198021, 37.23837754821513], [36.65585988700303, 37.23837754821513], [36.65585988700303, 37.2389165373856], [36.65639887617351, 37.2389165373856], [36.65639887617351, 37.23837754821513], [36.65693786534399, 37.23837754821513], [36.65693786534399, 37.237838559044654], [36.65747685451444, 37.237838559044654], [36.65747685451444, 37.23729956987418]], [[36.65370393032114, 37.24376743991984], [36.65370393032114, 37.244306429090315], [36.65316494115069, 37.244306429090315], [36.65316494115069, 37.24376743991984], [36.65370393032114, 37.24376743991984]], [[36.642924146911724, 37.24161148323796], [36.642924146911724, 37.24215047240843], [36.642385157741245, 37.24215047240843], [36.642385157741245, 37.24161148323796], [36.642924146911724, 37.24161148323796]], [[36.641846168570765, 37.24107249406749], [36.641846168570765, 37.24161148323796], [36.641307179400314, 37.24161148323796], [36.641307179400314, 37.24107249406749], [36.641846168570765, 37.24107249406749]], [[36.642924146911724, 37.240533504897016], [36.642924146911724, 37.24107249406749], [36.642385157741245, 37.24107249406749], [36.642385157741245, 37.240533504897016], [36.642924146911724, 37.240533504897016]], [[36.647775049445954, 37.23999451572654], [36.647775049445954, 37.240533504897016], [36.6472360602755, 37.240533504897016], [36.6472360602755, 37.23999451572654], [36.647775049445954, 37.23999451572654]], [[36.65532089783255, 37.23999451572654], [36.65532089783255, 37.240533504897016], [36.6547819086621, 37.240533504897016], [36.6547819086621, 37.23999451572654], [36.65532089783255, 37.23999451572654]], [[36.6547819086621, 37.2389165373856], [36.6547819086621, 37.23945552655607], [36.65424291949162, 37.23945552655607], [36.65424291949162, 37.2389165373856], [36.6547819086621, 37.2389165373856]], [[36.65747685451444, 37.2389165373856], [36.65747685451444, 37.23945552655607], [36.65639887617351, 37.23945552655607], [36.65639887617351, 37.2389165373856], [36.65747685451444, 37.2389165373856]]]}, "properties": {"area_ha": 54.90323566916009, "mean_dnbr": 0.17568572043208958, "compactness": 0.042, "rectangularity": 0.305, "cropland_frac": 0, "persistent": null, "brightness_delta": -0.187}}, {"type": "Feature", "geometry": {"geodesic": false, "type": "Polygon", "coordinates": [[[36.830492378235874, 37.73640354173099], [36.832109345747284, 37.73640354173099], [36.832109345747284, 37.736942530901466], [36.832648334917764, 37.736942530901466], [36.832648334917764, 37.73748152007193], [36.833726313258694, 37.73748152007193], [36.833726313258694, 37.738559498412876], [36.832109345747284, 37.738559498412876], [36.832109345747284, 37.73909848758335], [36.831570356576805, 37.73909848758335], [36.831570356576805, 37.73963747675382], [36.832109345747284, 37.73963747675382], [36.832109345747284, 37.740715455094765], [36.832648334917764, 37.740715455094765], [36.832648334917764, 37.74125444426524], [36.830492378235874, 37.74125444426524], [36.830492378235874, 37.74179343343571], [36.833726313258694, 37.74179343343571], [36.833726313258694, 37.740715455094765], [36.83318732408824, 37.740715455094765], [36.83318732408824, 37.74017646592429], [36.833726313258694, 37.74017646592429], [36.833726313258694, 37.740715455094765], [36.83426530242917, 37.740715455094765], [36.83426530242917, 37.73963747675382], [36.83588226994058, 37.73963747675382], [36.83588226994058, 37.74179343343571], [36.83696024828154, 37.74179343343571], [36.83696024828154, 37.74341040094713], [36.83749923745199, 37.74341040094713], [36.83749923745199, 37.74394939011759], [36.83803822662247, 37.74394939011759], [36.83803822662247, 37.744488379288065], [36.83965519413388, 37.744488379288065], [36.83965519413388, 37.74502736845854], [36.84019418330436, 37.74502736845854], [36.84019418330436, 37.74556635762901], [36.84073317247484, 37.74556635762901], [36.84073317247484, 37.747183325140426], [36.83965519413388, 37.747183325140426], [36.83965519413388, 37.7477223143109], [36.84019418330436, 37.7477223143109], [36.84019418330436, 37.74880029265184], [36.83857721579295, 37.74880029265184], [36.83857721579295, 37.749339281822316], [36.83911620496343, 37.749339281822316], [36.83911620496343, 37.7514952385042], [36.83965519413388, 37.7514952385042], [36.83965519413388, 37.750956249333726], [36.84073317247484, 37.750956249333726], [36.84073317247484, 37.75472917352703], [36.84019418330436, 37.75472917352703], [36.84019418330436, 37.75580715186797], [36.83965519413388, 37.75580715186797], [36.83965519413388, 37.75634614103844], [36.84019418330436, 37.75634614103844], [36.84019418330436, 37.759580076061276], [36.83965519413388, 37.759580076061276], [36.83965519413388, 37.76011906523175], [36.84019418330436, 37.76011906523175], [36.84019418330436, 37.76389198942505], [36.83911620496343, 37.76389198942505], [36.83911620496343, 37.76443097859552], [36.83803822662247, 37.76443097859552], [36.83803822662247, 37.76389198942505], [36.83749923745199, 37.76389198942505], [36.83749923745199, 37.76496996776599], [36.83857721579295, 37.76496996776599], [36.83857721579295, 37.765508956936465], [36.83911620496343, 37.765508956936465], [36.83911620496343, 37.76604794610694], [36.84019418330436, 37.76604794610694], [36.84019418330436, 37.76658693527741], [36.83965519413388, 37.76658693527741], [36.83965519413388, 37.76766491361835], [36.84019418330436, 37.76766491361835], [36.84019418330436, 37.76820390278882], [36.83965519413388, 37.76820390278882], [36.83965519413388, 37.76766491361835], [36.83911620496343, 37.76766491361835], [36.83911620496343, 37.76982087030024], [36.84019418330436, 37.76982087030024], [36.84019418330436, 37.77143783781165], [36.83965519413388, 37.77143783781165], [36.83965519413388, 37.77089884864118], [36.83911620496343, 37.77089884864118], [36.83911620496343, 37.771976826982126], [36.83857721579295, 37.771976826982126], [36.83857721579295, 37.77143783781165], [36.83696024828154, 37.77143783781165], [36.83696024828154, 37.7725158161526], [36.83857721579295, 37.7725158161526], [36.83857721579295, 37.773593794493536], [36.83911620496343, 37.773593794493536], [36.83911620496343, 37.77413278366401], [36.83965519413388, 37.77413278366401], [36.83965519413388, 37.785990545414386], [36.83911620496343, 37.785990545414386], [36.83911620496343, 37.78652953458486], [36.83965519413388, 37.78652953458486], [36.83965519413388, 37.7876075129258], [36.83911620496343, 37.7876075129258], [36.83911620496343, 37.788146502096275], [36.83857721579295, 37.788146502096275], [36.83857721579295, 37.7876075129258], [36.83803822662247, 37.7876075129258], [36.83803822662247, 37.78706852375533], [36.83749923745199, 37.78706852375533], [36.83749923745199, 37.78652953458486], [36.83696024828154, 37.78652953458486], [36.83696024828154, 37.785990545414386], [36.83749923745199, 37.785990545414386], [36.83749923745199, 37.78652953458486], [36.83803822662247, 37.78652953458486], [36.83803822662247, 37.785990545414386], [36.83857721579295, 37.785990545414386], [36.83857721579295, 37.78545155624392], [36.83642125911106, 37.78545155624392], [36.83642125911106, 37.78491256707345], [36.83588226994058, 37.78491256707345], [36.83588226994058, 37.784373577902976], [36.83426530242917, 37.784373577902976], [36.83426530242917, 37.7838345887325], [36.833726313258694, 37.7838345887325], [36.833726313258694, 37.78491256707345], [36.83318732408824, 37.78491256707345], [36.83318732408824, 37.78545155624392], [36.832109345747284, 37.78545155624392], [36.832109345747284, 37.78491256707345], [36.83318732408824, 37.78491256707345], [36.83318732408824, 37.78329559956203], [36.831570356576805, 37.78329559956203], [36.831570356576805, 37.78275661039156], [36.831031367406354, 37.78275661039156], [36.831031367406354, 37.782217621221086], [36.831570356576805, 37.782217621221086], [36.831570356576805, 37.781678632050614], [36.832109345747284, 37.781678632050614], [36.832109345747284, 37.78060065370967], [36.831031367406354, 37.78060065370967], [36.831031367406354, 37.7800616645392], [36.830492378235874, 37.7800616645392], [36.830492378235874, 37.77952267536873], [36.829953389065395, 37.77952267536873], [36.829953389065395, 37.77898368619826], [36.830492378235874, 37.77898368619826], [36.830492378235874, 37.77844469702779], [36.827258443213054, 37.77844469702779], [36.827258443213054, 37.77952267536873], [36.829414399894915, 37.77952267536873], [36.829414399894915, 37.7800616645392], [36.828875410724464, 37.7800616645392], [36.828875410724464, 37.78060065370967], [36.828336421553985, 37.78060065370967], [36.828336421553985, 37.78113964288014], [36.827797432383505, 37.78113964288014], [36.827797432383505, 37.781678632050614], [36.825641475701616, 37.781678632050614], [36.825641475701616, 37.782217621221086], [36.825102486531165, 37.782217621221086], [36.825102486531165, 37.78275661039156], [36.824563497360685, 37.78275661039156], [36.824563497360685, 37.78329559956203], [36.824024508190206, 37.78329559956203], [36.824024508190206, 37.78275661039156], [36.82348551901973, 37.78275661039156], [36.82348551901973, 37.781678632050614], [36.822946529849276, 37.781678632050614], [36.822946529849276, 37.78060065370967], [36.82186855150832, 37.78060065370967], [36.82186855150832, 37.78113964288014], [36.821329562337866, 37.78113964288014], [36.821329562337866, 37.781678632050614], [36.822407540678796, 37.781678632050614], [36.822407540678796, 37.782217621221086], [36.820790573167386, 37.782217621221086], [36.820790573167386, 37.78060065370967], [36.82186855150832, 37.78060065370967], [36.82186855150832, 37.7800616645392], [36.822407540678796, 37.7800616645392], [36.822407540678796, 37.77952267536873], [36.820790573167386, 37.77952267536873], [36.820790573167386, 37.77898368619826], [36.82025158399691, 37.77898368619826], [36.82025158399691, 37.78060065370967], [36.81971259482643, 37.78060065370967], [36.81971259482643, 37.7800616645392], [36.81755663814454, 37.7800616645392], [36.81755663814454, 37.77898368619826], [36.81701764897409, 37.77898368619826], [36.81701764897409, 37.77952267536873], [36.81647865980361, 37.77952267536873], [36.81647865980361, 37.7800616645392], [36.81432270312172, 37.7800616645392], [36.81432270312172, 37.77898368619826], [36.8148616922922, 37.77898368619826], [36.8148616922922, 37.77844469702779], [36.81378371395124, 37.77844469702779], [36.81378371395124, 37.77898368619826], [36.81270573561031, 37.77898368619826], [36.81270573561031, 37.77682772951637], [36.81216674643983, 37.77682772951637], [36.81216674643983, 37.77736671868684], [36.81162775726935, 37.77736671868684], [36.81162775726935, 37.77898368619826], [36.81054977892842, 37.77898368619826], [36.81054977892842, 37.77844469702779], [36.8073158439056, 37.77844469702779], [36.8073158439056, 37.77682772951637], [36.80677685473512, 37.77682772951637], [36.80677685473512, 37.77736671868684], [36.80623786556464, 37.77736671868684], [36.80623786556464, 37.77682772951637], [36.80569887639416, 37.77682772951637], [36.80569887639416, 37.7762887403459], [36.80623786556464, 37.7762887403459], [36.80623786556464, 37.775749751175425], [36.80515988722371, 37.775749751175425], [36.80515988722371, 37.773593794493536], [36.80569887639416, 37.773593794493536], [36.80569887639416, 37.77305480532307], [36.80623786556464, 37.77305480532307], [36.80623786556464, 37.7725158161526], [36.80677685473512, 37.7725158161526], [36.80677685473512, 37.77467177283448], [36.8073158439056, 37.77467177283448], [36.8073158439056, 37.77521076200495], [36.80785483307605, 37.77521076200495], [36.80785483307605, 37.7762887403459], [36.80947180058749, 37.7762887403459], [36.80947180058749, 37.77521076200495], [36.80893281141701, 37.77521076200495], [36.80893281141701, 37.77467177283448], [36.80947180058749, 37.77467177283448], [36.80947180058749, 37.773593794493536], [36.81054977892842, 37.773593794493536], [36.81054977892842, 37.77413278366401], [36.81162775726935, 37.77413278366401], [36.81162775726935, 37.773593794493536], [36.8110887680989, 37.773593794493536], [36.8110887680989, 37.77305480532307], [36.81054977892842, 37.77305480532307], [36.81054977892842, 37.771976826982126], [36.81001078975794, 37.771976826982126], [36.81001078975794, 37.7725158161526], [36.80893281141701, 37.7725158161526], [36.80893281141701, 37.77143783781165], [36.80785483307605, 37.77143783781165], [36.80785483307605, 37.77089884864118], [36.80839382224653, 37.77089884864118], [36.80839382224653, 37.77035985947071], [36.80893281141701, 37.77035985947071], [36.80893281141701, 37.76982087030024], [36.8073158439056, 37.76982087030024], [36.8073158439056, 37.76820390278882], [36.80677685473512, 37.76820390278882], [36.80677685473512, 37.76982087030024], [36.80515988722371, 37.76982087030024], [36.80515988722371, 37.769281881129764], [36.80462089805323, 37.769281881129764], [36.80462089805323, 37.76874289195929], [36.80515988722371, 37.76874289195929], [36.80515988722371, 37.76658693527741], [36.80462089805323, 37.76658693527741], [36.80462089805323, 37.765508956936465], [36.80569887639416, 37.765508956936465], [36.80569887639416, 37.76604794610694], [36.80623786556464, 37.76604794610694], [36.80623786556464, 37.765508956936465], [36.8073158439056, 37.765508956936465], [36.8073158439056, 37.76496996776599], [36.80677685473512, 37.76496996776599], [36.80677685473512, 37.76443097859552], [36.80947180058749, 37.76443097859552], [36.80947180058749, 37.76496996776599], [36.81054977892842, 37.76496996776599], [36.81054977892842, 37.76389198942505], [36.81001078975794, 37.76389198942505], [36.81001078975794, 37.763353000254575], [36.81054977892842, 37.763353000254575], [36.81054977892842, 37.7628140110841], [36.81162775726935, 37.7628140110841], [36.81162775726935, 37.763353000254575], [36.81270573561031, 37.763353000254575], [36.81270573561031, 37.7628140110841], [36.81540068146268, 37.7628140110841], [36.81540068146268, 37.76227502191363], [36.81755663814454, 37.76227502191363], [36.81755663814454, 37.76173603274316], [36.81809562731502, 37.76173603274316], [36.81809562731502, 37.76119704357269], [36.81647865980361, 37.76119704357269], [36.81647865980361, 37.76173603274316], [36.81432270312172, 37.76173603274316], [36.81432270312172, 37.76227502191363], [36.8110887680989, 37.76227502191363], [36.8110887680989, 37.76065805440222], [36.81162775726935, 37.76065805440222], [36.81162775726935, 37.76011906523175], [36.8110887680989, 37.76011906523175], [36.8110887680989, 37.759580076061276], [36.81054977892842, 37.759580076061276], [36.81054977892842, 37.76011906523175], [36.81001078975794, 37.76011906523175], [36.81001078975794, 37.76065805440222], [36.80947180058749, 37.76065805440222], [36.80947180058749, 37.759041086890804], [36.81001078975794, 37.759041086890804], [36.81001078975794, 37.75796310854986], [36.80947180058749, 37.75796310854986], [36.80947180058749, 37.75742411937939], [36.80893281141701, 37.75742411937939], [36.80893281141701, 37.756885130208914], [36.81001078975794, 37.756885130208914], [36.81001078975794, 37.75580715186797], [36.81054977892842, 37.75580715186797], [36.81054977892842, 37.755268162697504], [36.8110887680989, 37.755268162697504], [36.8110887680989, 37.75472917352703], [36.81162775726935, 37.75472917352703], [36.81162775726935, 37.75419018435656], [36.81054977892842, 37.75419018435656], [36.81054977892842, 37.75472917352703], [36.81001078975794, 37.75472917352703], [36.81001078975794, 37.75419018435656], [36.80947180058749, 37.75419018435656], [36.80947180058749, 37.75365119518609], [36.80893281141701, 37.75365119518609], [36.80893281141701, 37.75472917352703], [36.80947180058749, 37.75472917352703], [36.80947180058749, 37.755268162697504], [36.80893281141701, 37.755268162697504], [36.80893281141701, 37.75580715186797], [36.8073158439056, 37.75580715186797], [36.8073158439056, 37.756885130208914], [36.80569887639416, 37.756885130208914], [36.80569887639416, 37.75796310854986], [36.80515988722371, 37.75796310854986], [36.80515988722371, 37.75742411937939], [36.80408190888275, 37.75742411937939], [36.80408190888275, 37.75634614103844], [36.8035429197123, 37.75634614103844], [36.8035429197123, 37.75419018435656], [36.80408190888275, 37.75419018435656], [36.80408190888275, 37.75365119518609], [36.80462089805323, 37.75365119518609], [36.80462089805323, 37.75419018435656], [36.80515988722371, 37.75419018435656], [36.80515988722371, 37.75472917352703], [36.80462089805323, 37.75472917352703], [36.80462089805323, 37.75580715186797], [36.80515988722371, 37.75580715186797], [36.80515988722371, 37.755268162697504], [36.80569887639416, 37.755268162697504], [36.80569887639416, 37.75472917352703], [36.80623786556464, 37.75472917352703], [36.80623786556464, 37.75419018435656], [36.80677685473512, 37.75419018435656], [36.80677685473512, 37.75365119518609], [36.80569887639416, 37.75365119518609], [36.80569887639416, 37.753112206015615], [36.80138696303041, 37.753112206015615], [36.80138696303041, 37.75365119518609], [36.80084797385993, 37.75365119518609], [36.80084797385993, 37.753112206015615], [36.80138696303041, 37.753112206015615], [36.80138696303041, 37.75203422767467], [36.80300393054182, 37.75203422767467], [36.80300393054182, 37.7514952385042], [36.80408190888275, 37.7514952385042], [36.80408190888275, 37.75203422767467], [36.80462089805323, 37.75203422767467], [36.80462089805323, 37.7514952385042], [36.80515988722371, 37.7514952385042], [36.80515988722371, 37.74987827099278], [36.80677685473512, 37.74987827099278], [36.80677685473512, 37.75041726016325], [36.8073158439056, 37.75041726016325], [36.8073158439056, 37.750956249333726], [36.80839382224653, 37.750956249333726], [36.80839382224653, 37.75041726016325], [36.80893281141701, 37.75041726016325], [36.80893281141701, 37.74987827099278], [36.80839382224653, 37.74987827099278], [36.80839382224653, 37.74880029265184], [36.80893281141701, 37.74880029265184], [36.80893281141701, 37.74826130348137], [36.80785483307605, 37.74826130348137], [36.80785483307605, 37.74880029265184], [36.8073158439056, 37.74880029265184], [36.8073158439056, 37.74826130348137], [36.80677685473512, 37.74826130348137], [36.80677685473512, 37.7477223143109], [36.81162775726935, 37.7477223143109], [36.81162775726935, 37.74826130348137], [36.81216674643983, 37.74826130348137], [36.81216674643983, 37.74880029265184], [36.81378371395124, 37.74880029265184], [36.81378371395124, 37.749339281822316], [36.81432270312172, 37.749339281822316], [36.81432270312172, 37.74826130348137], [36.81378371395124, 37.74826130348137], [36.81378371395124, 37.7477223143109], [36.81432270312172, 37.7477223143109], [36.81432270312172, 37.747183325140426], [36.81540068146268, 37.747183325140426], [36.81540068146268, 37.746644335969954], [36.81647865980361, 37.746644335969954], [36.81647865980361, 37.74610534679948], [36.81593967063313, 37.74610534679948], [36.81593967063313, 37.74556635762901], [36.81647865980361, 37.74556635762901], [36.81647865980361, 37.74502736845854], [36.81809562731502, 37.74502736845854], [36.81809562731502, 37.744488379288065], [36.81971259482643, 37.744488379288065], [36.81971259482643, 37.74394939011759], [36.82025158399691, 37.74394939011759], [36.82025158399691, 37.74341040094713], [36.81971259482643, 37.74341040094713], [36.81971259482643, 37.742871411776655], [36.819173605655976, 37.742871411776655], [36.819173605655976, 37.74233242260618], [36.8186346164855, 37.74233242260618], [36.8186346164855, 37.74179343343571], [36.819173605655976, 37.74179343343571], [36.819173605655976, 37.74233242260618], [36.82025158399691, 37.74233242260618], [36.82025158399691, 37.742871411776655], [36.821329562337866, 37.742871411776655], [36.821329562337866, 37.74394939011759], [36.82186855150832, 37.74394939011759], [36.82186855150832, 37.74341040094713], [36.824563497360685, 37.74341040094713], [36.824563497360685, 37.74394939011759], [36.825641475701616, 37.74394939011759], [36.825641475701616, 37.74502736845854], [36.826180464872095, 37.74502736845854], [36.826180464872095, 37.74556635762901], [36.828336421553985, 37.74556635762901], [36.828336421553985, 37.74610534679948], [36.831570356576805, 37.74610534679948], [36.831570356576805, 37.74556635762901], [36.832109345747284, 37.74556635762901], [36.832109345747284, 37.74610534679948], [36.832648334917764, 37.74610534679948], [36.832648334917764, 37.74502736845854], [36.830492378235874, 37.74502736845854], [36.830492378235874, 37.74556635762901], [36.829414399894915, 37.74556635762901], [36.829414399894915, 37.74502736845854], [36.826719454042575, 37.74502736845854], [36.826719454042575, 37.742871411776655], [36.825641475701616, 37.742871411776655], [36.825641475701616, 37.740715455094765], [36.825102486531165, 37.740715455094765], [36.825102486531165, 37.74017646592429], [36.82348551901973, 37.74017646592429], [36.82348551901973, 37.740715455094765], [36.824563497360685, 37.740715455094765], [36.824563497360685, 37.74179343343571], [36.822946529849276, 37.74179343343571], [36.822946529849276, 37.74125444426524], [36.82186855150832, 37.74125444426524], [36.82186855150832, 37.73963747675382], [36.821329562337866, 37.73963747675382], [36.821329562337866, 37.738559498412876], [36.820790573167386, 37.738559498412876], [36.820790573167386, 37.73909848758335], [36.82025158399691, 37.73909848758335], [36.82025158399691, 37.738559498412876], [36.820790573167386, 37.738559498412876], [36.820790573167386, 37.7380205092424], [36.822407540678796, 37.7380205092424], [36.822407540678796, 37.73748152007193], [36.822946529849276, 37.73748152007193], [36.822946529849276, 37.7380205092424], [36.824024508190206, 37.7380205092424], [36.824024508190206, 37.738559498412876], [36.825641475701616, 37.738559498412876], [36.825641475701616, 37.73909848758335], [36.825102486531165, 37.73909848758335], [36.825102486531165, 37.74017646592429], [36.825641475701616, 37.74017646592429], [36.825641475701616, 37.73963747675382], [36.827797432383505, 37.73963747675382], [36.827797432383505, 37.7380205092424], [36.827258443213054, 37.7380205092424], [36.827258443213054, 37.736942530901466], [36.827797432383505, 37.736942530901466], [36.827797432383505, 37.73748152007193], [36.828336421553985, 37.73748152007193], [36.828336421553985, 37.7380205092424], [36.828875410724464, 37.7380205092424], [36.828875410724464, 37.738559498412876], [36.829953389065395, 37.738559498412876], [36.829953389065395, 37.7380205092424], [36.830492378235874, 37.7380205092424], [36.830492378235874, 37.738559498412876], [36.831570356576805, 37.738559498412876], [36.831570356576805, 37.7380205092424], [36.831031367406354, 37.7380205092424], [36.831031367406354, 37.736942530901466], [36.830492378235874, 37.736942530901466], [36.830492378235874, 37.73640354173099]], [[36.80623786556464, 37.75580715186797], [36.80623786556464, 37.75634614103844], [36.80569887639416, 37.75634614103844], [36.80569887639416, 37.75580715186797], [36.80623786556464, 37.75580715186797]], [[36.824563497360685, 37.781678632050614], [36.824563497360685, 37.782217621221086], [36.824024508190206, 37.782217621221086], [36.824024508190206, 37.781678632050614], [36.824563497360685, 37.781678632050614]], [[36.824563497360685, 37.7800616645392], [36.824563497360685, 37.78060065370967], [36.824024508190206, 37.78060065370967], [36.824024508190206, 37.7800616645392], [36.824563497360685, 37.7800616645392]], [[36.82348551901973, 37.77952267536873], [36.82348551901973, 37.78060065370967], [36.822946529849276, 37.78060065370967], [36.822946529849276, 37.77952267536873], [36.82348551901973, 37.77952267536873]], [[36.83749923745199, 37.78329559956203], [36.83749923745199, 37.7838345887325], [36.83696024828154, 37.7838345887325], [36.83696024828154, 37.78329559956203], [36.83749923745199, 37.78329559956203]], [[36.83642125911106, 37.78275661039156], [36.83642125911106, 37.78329559956203], [36.83480429159965, 37.78329559956203], [36.83480429159965, 37.78275661039156], [36.83642125911106, 37.78275661039156]], [[36.83803822662247, 37.782217621221086], [36.83803822662247, 37.78329559956203], [36.83749923745199, 37.78329559956203], [36.83749923745199, 37.78275661039156], [36.83696024828154, 37.78275661039156], [36.83696024828154, 37.782217621221086], [36.83803822662247, 37.782217621221086]], [[36.83696024828154, 37.781678632050614], [36.83696024828154, 37.782217621221086], [36.83642125911106, 37.782217621221086], [36.83642125911106, 37.781678632050614], [36.83696024828154, 37.781678632050614]], [[36.83911620496343, 37.7800616645392], [36.83911620496343, 37.78060065370967], [36.83803822662247, 37.78060065370967], [36.83803822662247, 37.7800616645392], [36.83911620496343, 37.7800616645392]], [[36.83749923745199, 37.77898368619826], [36.83749923745199, 37.77952267536873], [36.83803822662247, 37.77952267536873], [36.83803822662247, 37.7800616645392], [36.83696024828154, 37.7800616645392], [36.83696024828154, 37.77952267536873], [36.83588226994058, 37.77952267536873], [36.83588226994058, 37.77898368619826], [36.83749923745199, 37.77898368619826]], [[36.83857721579295, 37.77898368619826], [36.83857721579295, 37.77952267536873], [36.83803822662247, 37.77952267536873], [36.83803822662247, 37.77898368619826], [36.83857721579295, 37.77898368619826]], [[36.825102486531165, 37.77844469702779], [36.825102486531165, 37.77898368619826], [36.824563497360685, 37.77898368619826], [36.824563497360685, 37.77952267536873], [36.824024508190206, 37.77952267536873], [36.824024508190206, 37.77844469702779], [36.825102486531165, 37.77844469702779]], [[36.83642125911106, 37.777905707857315], [36.83642125911106, 37.77844469702779], [36.835343280770104, 37.77844469702779], [36.835343280770104, 37.77898368619826], [36.83480429159965, 37.77898368619826], [36.83480429159965, 37.777905707857315], [36.83642125911106, 37.777905707857315]], [[36.81054977892842, 37.77682772951637], [36.81054977892842, 37.77736671868684], [36.80947180058749, 37.77736671868684], [36.80947180058749, 37.77682772951637], [36.81054977892842, 37.77682772951637]], [[36.827258443213054, 37.77682772951637], [36.827258443213054, 37.77736671868684], [36.826719454042575, 37.77736671868684], [36.826719454042575, 37.777905707857315], [36.827258443213054, 37.777905707857315], [36.827258443213054, 37.77844469702779], [36.826180464872095, 37.77844469702779], [36.826180464872095, 37.77952267536873], [36.825641475701616, 37.77952267536873], [36.825641475701616, 37.77844469702779], [36.825102486531165, 37.77844469702779], [36.825102486531165, 37.777905707857315], [36.826180464872095, 37.777905707857315], [36.826180464872095, 37.77682772951637], [36.827258443213054, 37.77682772951637]], [[36.828336421553985, 37.77682772951637], [36.828336421553985, 37.77736671868684], [36.827797432383505, 37.77736671868684], [36.827797432383505, 37.77682772951637], [36.828336421553985, 37.77682772951637]], [[36.81324472478079, 37.7762887403459], [36.81324472478079, 37.77682772951637], [36.81270573561031, 37.77682772951637], [36.81270573561031, 37.7762887403459], [36.81324472478079, 37.7762887403459]], [[36.825102486531165, 37.7762887403459], [36.825102486531165, 37.77736671868684], [36.824563497360685, 37.77736671868684], [36.824563497360685, 37.7762887403459], [36.825102486531165, 37.7762887403459]], [[36.832109345747284, 37.7762887403459], [36.832109345747284, 37.77682772951637], [36.831570356576805, 37.77682772951637], [36.831570356576805, 37.7762887403459], [36.832109345747284, 37.7762887403459]], [[36.83642125911106, 37.7762887403459], [36.83642125911106, 37.77682772951637], [36.835343280770104, 37.77682772951637], [36.835343280770104, 37.7762887403459], [36.83642125911106, 37.7762887403459]], [[36.81054977892842, 37.77467177283448], [36.81054977892842, 37.77521076200495], [36.80947180058749, 37.77521076200495], [36.80947180058749, 37.77467177283448], [36.81054977892842, 37.77467177283448]], [[36.81593967063313, 37.77467177283448], [36.81593967063313, 37.77521076200495], [36.81647865980361, 37.77521076200495], [36.81647865980361, 37.775749751175425], [36.8148616922922, 37.775749751175425], [36.8148616922922, 37.77467177283448], [36.81593967063313, 37.77467177283448]], [[36.826719454042575, 37.77467177283448], [36.826719454042575, 37.775749751175425], [36.826180464872095, 37.775749751175425], [36.826180464872095, 37.77467177283448], [36.826719454042575, 37.77467177283448]], [[36.81755663814454, 37.77413278366401], [36.81755663814454, 37.77467177283448], [36.81701764897409, 37.77467177283448], [36.81701764897409, 37.77413278366401], [36.81755663814454, 37.77413278366401]], [[36.8186346164855, 37.77413278366401], [36.8186346164855, 37.77521076200495], [36.81809562731502, 37.77521076200495], [36.81809562731502, 37.77413278366401], [36.8186346164855, 37.77413278366401]], [[36.825641475701616, 37.77413278366401], [36.825641475701616, 37.77467177283448], [36.825102486531165, 37.77467177283448], [36.825102486531165, 37.77413278366401], [36.825641475701616, 37.77413278366401]], [[36.83426530242917, 37.77413278366401], [36.83426530242917, 37.77736671868684], [36.83480429159965, 37.77736671868684], [36.83480429159965, 37.777905707857315], [36.832648334917764, 37.777905707857315], [36.832648334917764, 37.775749751175425], [36.833726313258694, 37.775749751175425], [36.833726313258694, 37.77413278366401], [36.83426530242917, 37.77413278366401]], [[36.81378371395124, 37.773593794493536], [36.81378371395124, 37.77467177283448], [36.81324472478079, 37.77467177283448], [36.81324472478079, 37.77521076200495], [36.81378371395124, 37.77521076200495], [36.81378371395124, 37.775749751175425], [36.81270573561031, 37.775749751175425], [36.81270573561031, 37.77521076200495], [36.81216674643983, 37.77521076200495], [36.81216674643983, 37.77413278366401], [36.81270573561031, 37.77413278366401], [36.81270573561031, 37.773593794493536], [36.81378371395124, 37.773593794493536]], [[36.82186855150832, 37.773593794493536], [36.82186855150832, 37.77413278366401], [36.821329562337866, 37.77413278366401], [36.821329562337866, 37.773593794493536], [36.82186855150832, 37.773593794493536]], [[36.83857721579295, 37.773593794493536], [36.83857721579295, 37.77467177283448], [36.83803822662247, 37.77467177283448], [36.83803822662247, 37.773593794493536], [36.83857721579295, 37.773593794493536]], [[36.83749923745199, 37.77305480532307], [36.83749923745199, 37.773593794493536], [36.83696024828154, 37.773593794493536], [36.83696024828154, 37.77305480532307], [36.83749923745199, 37.77305480532307]], [[36.8148616922922, 37.7725158161526], [36.8148616922922, 37.77305480532307], [36.81432270312172, 37.77305480532307], [36.81432270312172, 37.7725158161526], [36.8148616922922, 37.7725158161526]], [[36.81809562731502, 37.7725158161526], [36.81809562731502, 37.77413278366401], [36.81755663814454, 37.77413278366401], [36.81755663814454, 37.773593794493536], [36.81647865980361, 37.773593794493536], [36.81647865980361, 37.77467177283448], [36.81593967063313, 37.77467177283448], [36.81593967063313, 37.773593794493536], [36.8148616922922, 37.773593794493536], [36.8148616922922, 37.77305480532307], [36.81593967063313, 37.77305480532307], [36.81593967063313, 37.7725158161526], [36.81809562731502, 37.7725158161526]], [[36.83696024828154, 37.7725158161526], [36.83696024828154, 37.77305480532307], [36.83642125911106, 37.77305480532307], [36.83642125911106, 37.7725158161526], [36.83696024828154, 37.7725158161526]], [[36.81593967063313, 37.771976826982126], [36.81593967063313, 37.7725158161526], [36.81540068146268, 37.7725158161526], [36.81540068146268, 37.771976826982126], [36.81593967063313, 37.771976826982126]], [[36.824563497360685, 37.771976826982126], [36.824563497360685, 37.7725158161526], [36.825102486531165, 37.7725158161526], [36.825102486531165, 37.77305480532307], [36.824024508190206, 37.77305480532307], [36.824024508190206, 37.7725158161526], [36.82348551901973, 37.7725158161526], [36.82348551901973, 37.771976826982126], [36.824563497360685, 37.771976826982126]], [[36.828336421553985, 37.771976826982126], [36.828336421553985, 37.77305480532307], [36.827797432383505, 37.77305480532307], [36.827797432383505, 37.771976826982126], [36.828336421553985, 37.771976826982126]], [[36.829953389065395, 37.77143783781165], [36.829953389065395, 37.771976826982126], [36.829414399894915, 37.771976826982126], [36.829414399894915, 37.77143783781165], [36.829953389065395, 37.77143783781165]], [[36.80947180058749, 37.77089884864118], [36.80947180058749, 37.77143783781165], [36.80893281141701, 37.77143783781165], [36.80893281141701, 37.77089884864118], [36.80947180058749, 37.77089884864118]], [[36.8148616922922, 37.77089884864118], [36.8148616922922, 37.77143783781165], [36.81432270312172, 37.77143783781165], [36.81432270312172, 37.7725158161526], [36.81324472478079, 37.7725158161526], [36.81324472478079, 37.771976826982126], [36.81270573561031, 37.771976826982126], [36.81270573561031, 37.77143783781165], [36.81324472478079, 37.77143783781165], [36.81324472478079, 37.77089884864118], [36.8148616922922, 37.77089884864118]], [[36.828875410724464, 37.77089884864118], [36.828875410724464, 37.77143783781165], [36.828336421553985, 37.77143783781165], [36.828336421553985, 37.77089884864118], [36.828875410724464, 37.77089884864118]], [[36.81540068146268, 37.77035985947071], [36.81540068146268, 37.77089884864118], [36.8148616922922, 37.77089884864118], [36.8148616922922, 37.77035985947071], [36.81540068146268, 37.77035985947071]], [[36.81971259482643, 37.77035985947071], [36.81971259482643, 37.77089884864118], [36.819173605655976, 37.77089884864118], [36.819173605655976, 37.77035985947071], [36.81971259482643, 37.77035985947071]], [[36.83857721579295, 37.77035985947071], [36.83857721579295, 37.77089884864118], [36.83803822662247, 37.77089884864118], [36.83803822662247, 37.77035985947071], [36.83857721579295, 37.77035985947071]], [[36.827797432383505, 37.76982087030024], [36.827797432383505, 37.77035985947071], [36.826719454042575, 37.77035985947071], [36.826719454042575, 37.76982087030024], [36.827797432383505, 37.76982087030024]], [[36.81216674643983, 37.769281881129764], [36.81216674643983, 37.76982087030024], [36.8110887680989, 37.76982087030024], [36.8110887680989, 37.769281881129764], [36.81216674643983, 37.769281881129764]], [[36.81647865980361, 37.769281881129764], [36.81647865980361, 37.76982087030024], [36.81593967063313, 37.76982087030024], [36.81593967063313, 37.769281881129764], [36.81647865980361, 37.769281881129764]], [[36.822946529849276, 37.769281881129764], [36.822946529849276, 37.76982087030024], [36.82348551901973, 37.76982087030024], [36.82348551901973, 37.77035985947071], [36.822946529849276, 37.77035985947071], [36.822946529849276, 37.77089884864118], [36.822407540678796, 37.77089884864118], [36.822407540678796, 37.771976826982126], [36.82186855150832, 37.771976826982126], [36.82186855150832, 37.77035985947071], [36.822407540678796, 37.77035985947071], [36.822407540678796, 37.76982087030024], [36.82186855150832, 37.76982087030024], [36.82186855150832, 37.769281881129764], [36.822946529849276, 37.769281881129764]], [[36.82025158399691, 37.76874289195929], [36.82025158399691, 37.769281881129764], [36.81971259482643, 37.769281881129764], [36.81971259482643, 37.76874289195929], [36.82025158399691, 37.76874289195929]], [[36.821329562337866, 37.76820390278882], [36.821329562337866, 37.76874289195929], [36.82186855150832, 37.76874289195929], [36.82186855150832, 37.769281881129764], [36.820790573167386, 37.769281881129764], [36.820790573167386, 37.76820390278882], [36.821329562337866, 37.76820390278882]], [[36.83857721579295, 37.76820390278882], [36.83857721579295, 37.76874289195929], [36.83803822662247, 37.76874289195929], [36.83803822662247, 37.76820390278882], [36.83857721579295, 37.76820390278882]], [[36.819173605655976, 37.76766491361835], [36.819173605655976, 37.76820390278882], [36.8186346164855, 37.76820390278882], [36.8186346164855, 37.76766491361835], [36.819173605655976, 37.76766491361835]], [[36.828336421553985, 37.76766491361835], [36.828336421553985, 37.76820390278882], [36.827797432383505, 37.76820390278882], [36.827797432383505, 37.76766491361835], [36.828336421553985, 37.76766491361835]], [[36.8110887680989, 37.76712592444788], [36.8110887680989, 37.76874289195929], [36.81054977892842, 37.76874289195929], [36.81054977892842, 37.76820390278882], [36.81001078975794, 37.76820390278882], [36.81001078975794, 37.76712592444788], [36.8110887680989, 37.76712592444788]], [[36.81378371395124, 37.76712592444788], [36.81378371395124, 37.76766491361835], [36.81270573561031, 37.76766491361835], [36.81270573561031, 37.76712592444788], [36.81378371395124, 37.76712592444788]], [[36.820790573167386, 37.76712592444788], [36.820790573167386, 37.76766491361835], [36.82025158399691, 37.76766491361835], [36.82025158399691, 37.76820390278882], [36.81971259482643, 37.76820390278882], [36.81971259482643, 37.76712592444788], [36.820790573167386, 37.76712592444788]], [[36.81701764897409, 37.76658693527741], [36.81701764897409, 37.76712592444788], [36.8186346164855, 37.76712592444788], [36.8186346164855, 37.76766491361835], [36.81809562731502, 37.76766491361835], [36.81809562731502, 37.76874289195929], [36.81755663814454, 37.76874289195929], [36.81755663814454, 37.76820390278882], [36.81647865980361, 37.76820390278882], [36.81647865980361, 37.76874289195929], [36.81593967063313, 37.76874289195929], [36.81593967063313, 37.76820390278882], [36.81540068146268, 37.76820390278882], [36.81540068146268, 37.76712592444788], [36.81647865980361, 37.76712592444788], [36.81647865980361, 37.76658693527741], [36.81701764897409, 37.76658693527741]], [[36.821329562337866, 37.76604794610694], [36.821329562337866, 37.76658693527741], [36.82025158399691, 37.76658693527741], [36.82025158399691, 37.76604794610694], [36.821329562337866, 37.76604794610694]], [[36.83857721579295, 37.76604794610694], [36.83857721579295, 37.76658693527741], [36.83803822662247, 37.76658693527741], [36.83803822662247, 37.76604794610694], [36.83857721579295, 37.76604794610694]], [[36.81755663814454, 37.765508956936465], [36.81755663814454, 37.76658693527741], [36.81701764897409, 37.76658693527741], [36.81701764897409, 37.765508956936465], [36.81755663814454, 37.765508956936465]], [[36.82025158399691, 37.765508956936465], [36.82025158399691, 37.76604794610694], [36.81971259482643, 37.76604794610694], [36.81971259482643, 37.76658693527741], [36.819173605655976, 37.76658693527741], [36.819173605655976, 37.765508956936465], [36.82025158399691, 37.765508956936465]], [[36.83803822662247, 37.765508956936465], [36.83803822662247, 37.76604794610694], [36.83749923745199, 37.76604794610694], [36.83749923745199, 37.765508956936465], [36.83803822662247, 37.765508956936465]], [[36.829953389065395, 37.76443097859552], [36.829953389065395, 37.76496996776599], [36.829414399894915, 37.76496996776599], [36.829414399894915, 37.76443097859552], [36.829953389065395, 37.76443097859552]], [[36.81432270312172, 37.763353000254575], [36.81432270312172, 37.76389198942505], [36.81324472478079, 37.76389198942505], [36.81324472478079, 37.763353000254575], [36.81432270312172, 37.763353000254575]], [[36.832109345747284, 37.76173603274316], [36.832109345747284, 37.76227502191363], [36.831570356576805, 37.76227502191363], [36.831570356576805, 37.76173603274316], [36.832109345747284, 37.76173603274316]], [[36.83749923745199, 37.76173603274316], [36.83749923745199, 37.7628140110841], [36.83696024828154, 37.7628140110841], [36.83696024828154, 37.76173603274316], [36.83749923745199, 37.76173603274316]], [[36.81378371395124, 37.76065805440222], [36.81378371395124, 37.76119704357269], [36.81270573561031, 37.76119704357269], [36.81270573561031, 37.76065805440222], [36.81378371395124, 37.76065805440222]], [[36.81216674643983, 37.759580076061276], [36.81216674643983, 37.76011906523175], [36.81162775726935, 37.76011906523175], [36.81162775726935, 37.759580076061276], [36.81216674643983, 37.759580076061276]], [[36.829953389065395, 37.759041086890804], [36.829953389065395, 37.759580076061276], [36.829414399894915, 37.759580076061276], [36.829414399894915, 37.759041086890804], [36.829953389065395, 37.759041086890804]], [[36.827797432383505, 37.75850209772033], [36.827797432383505, 37.759041086890804], [36.827258443213054, 37.759041086890804], [36.827258443213054, 37.75850209772033], [36.827797432383505, 37.75850209772033]], [[36.828875410724464, 37.75850209772033], [36.828875410724464, 37.759041086890804], [36.828336421553985, 37.759041086890804], [36.828336421553985, 37.75850209772033], [36.828875410724464, 37.75850209772033]], [[36.830492378235874, 37.75850209772033], [36.830492378235874, 37.759041086890804], [36.829953389065395, 37.759041086890804], [36.829953389065395, 37.75850209772033], [36.830492378235874, 37.75850209772033]], [[36.821329562337866, 37.75796310854986], [36.821329562337866, 37.75850209772033], [36.820790573167386, 37.75850209772033], [36.820790573167386, 37.75796310854986], [36.821329562337866, 37.75796310854986]], [[36.822946529849276, 37.75742411937939], [36.822946529849276, 37.75850209772033], [36.822407540678796, 37.75850209772033], [36.822407540678796, 37.75742411937939], [36.822946529849276, 37.75742411937939]], [[36.8110887680989, 37.756885130208914], [36.8110887680989, 37.75796310854986], [36.81162775726935, 37.75796310854986], [36.81162775726935, 37.75742411937939], [36.81216674643983, 37.75742411937939], [36.81216674643983, 37.759041086890804], [36.81054977892842, 37.759041086890804], [36.81054977892842, 37.756885130208914], [36.8110887680989, 37.756885130208914]], [[36.81378371395124, 37.756885130208914], [36.81378371395124, 37.75742411937939], [36.81270573561031, 37.75742411937939], [36.81270573561031, 37.756885130208914], [36.81378371395124, 37.756885130208914]], [[36.824024508190206, 37.756885130208914], [36.824024508190206, 37.75850209772033], [36.82348551901973, 37.75850209772033], [36.82348551901973, 37.756885130208914], [36.824024508190206, 37.756885130208914]], [[36.825102486531165, 37.756885130208914], [36.825102486531165, 37.75742411937939], [36.825641475701616, 37.75742411937939], [36.825641475701616, 37.759041086890804], [36.826719454042575, 37.759041086890804], [36.826719454042575, 37.759580076061276], [36.827258443213054, 37.759580076061276], [36.827258443213054, 37.76011906523175], [36.826719454042575, 37.76011906523175], [36.826719454042575, 37.76119704357269], [36.826180464872095, 37.76119704357269], [36.826180464872095, 37.76173603274316], [36.825641475701616, 37.76173603274316], [36.825641475701616, 37.76227502191363], [36.826180464872095, 37.76227502191363], [36.826180464872095, 37.76173603274316], [36.826719454042575, 37.76173603274316], [36.826719454042575, 37.76119704357269], [36.827258443213054, 37.76119704357269], [36.827258443213054, 37.76011906523175], [36.829953389065395, 37.76011906523175], [36.829953389065395, 37.76065805440222], [36.829414399894915, 37.76065805440222], [36.829414399894915, 37.76173603274316], [36.829953389065395, 37.76173603274316], [36.829953389065395, 37.76227502191363], [36.829414399894915, 37.76227502191363], [36.829414399894915, 37.7628140110841], [36.828875410724464, 37.7628140110841], [36.828875410724464, 37.763353000254575], [36.828336421553985, 37.763353000254575], [36.828336421553985, 37.76389198942505], [36.827797432383505, 37.76389198942505], [36.827797432383505, 37.763353000254575], [36.826180464872095, 37.763353000254575], [36.826180464872095, 37.76389198942505], [36.825102486531165, 37.76389198942505], [36.825102486531165, 37.763353000254575], [36.824024508190206, 37.763353000254575], [36.824024508190206, 37.76389198942505], [36.824563497360685, 37.76389198942505], [36.824563497360685, 37.76443097859552], [36.825641475701616, 37.76443097859552], [36.825641475701616, 37.765508956936465], [36.824563497360685, 37.765508956936465], [36.824563497360685, 37.76496996776599], [36.824024508190206, 37.76496996776599], [36.824024508190206, 37.76443097859552], [36.822946529849276, 37.76443097859552], [36.822946529849276, 37.765508956936465], [36.821329562337866, 37.765508956936465], [36.821329562337866, 37.76496996776599], [36.820790573167386, 37.76496996776599], [36.820790573167386, 37.76389198942505], [36.82186855150832, 37.76389198942505], [36.82186855150832, 37.763353000254575], [36.821329562337866, 37.763353000254575], [36.821329562337866, 37.7628140110841], [36.820790573167386, 37.7628140110841], [36.820790573167386, 37.76389198942505], [36.82025158399691, 37.76389198942505], [36.82025158399691, 37.76443097859552], [36.81971259482643, 37.76443097859552], [36.81971259482643, 37.76496996776599], [36.819173605655976, 37.76496996776599], [36.819173605655976, 37.765508956936465], [36.8186346164855, 37.765508956936465], [36.8186346164855, 37.76496996776599], [36.81593967063313, 37.76496996776599], [36.81593967063313, 37.765508956936465], [36.81432270312172, 37.765508956936465], [36.81432270312172, 37.76389198942505], [36.8148616922922, 37.76389198942505], [36.8148616922922, 37.763353000254575], [36.81540068146268, 37.763353000254575], [36.81540068146268, 37.76443097859552], [36.81593967063313, 37.76443097859552], [36.81593967063313, 37.7628140110841], [36.81701764897409, 37.7628140110841], [36.81701764897409, 37.763353000254575], [36.81755663814454, 37.763353000254575], [36.81755663814454, 37.7628140110841], [36.81809562731502, 37.7628140110841], [36.81809562731502, 37.76389198942505], [36.8186346164855, 37.76389198942505], [36.8186346164855, 37.76227502191363], [36.819173605655976, 37.76227502191363], [36.819173605655976, 37.76173603274316], [36.82025158399691, 37.76173603274316], [36.82025158399691, 37.76119704357269], [36.81971259482643, 37.76119704357269], [36.81971259482643, 37.76065805440222], [36.8186346164855, 37.76065805440222], [36.8186346164855, 37.76119704357269], [36.81809562731502, 37.76119704357269], [36.81809562731502, 37.76011906523175], [36.8186346164855, 37.76011906523175], [36.8186346164855, 37.759580076061276], [36.82025158399691, 37.759580076061276], [36.82025158399691, 37.76011906523175], [36.820790573167386, 37.76011906523175], [36.820790573167386, 37.759580076061276], [36.821329562337866, 37.759580076061276], [36.821329562337866, 37.759041086890804], [36.824563497360685, 37.759041086890804], [36.824563497360685, 37.756885130208914], [36.825102486531165, 37.756885130208914]], [[36.829953389065395, 37.756885130208914], [36.829953389065395, 37.75796310854986], [36.829414399894915, 37.75796310854986], [36.829414399894915, 37.756885130208914], [36.829953389065395, 37.756885130208914]], [[36.832109345747284, 37.756885130208914], [36.832109345747284, 37.75742411937939], [36.831570356576805, 37.75742411937939], [36.831570356576805, 37.756885130208914], [36.832109345747284, 37.756885130208914]], [[36.81378371395124, 37.755268162697504], [36.81378371395124, 37.75580715186797], [36.81324472478079, 37.75580715186797], [36.81324472478079, 37.755268162697504], [36.81378371395124, 37.755268162697504]], [[36.824563497360685, 37.755268162697504], [36.824563497360685, 37.75580715186797], [36.825102486531165, 37.75580715186797], [36.825102486531165, 37.75634614103844], [36.82348551901973, 37.75634614103844], [36.82348551901973, 37.75580715186797], [36.824024508190206, 37.75580715186797], [36.824024508190206, 37.755268162697504], [36.824563497360685, 37.755268162697504]], [[36.829953389065395, 37.755268162697504], [36.829953389065395, 37.75580715186797], [36.829414399894915, 37.75580715186797], [36.829414399894915, 37.755268162697504], [36.829953389065395, 37.755268162697504]], [[36.81216674643983, 37.75472917352703], [36.81216674643983, 37.755268162697504], [36.81162775726935, 37.755268162697504], [36.81162775726935, 37.75472917352703], [36.81216674643983, 37.75472917352703]], [[36.81647865980361, 37.75419018435656], [36.81647865980361, 37.755268162697504], [36.81593967063313, 37.755268162697504], [36.81593967063313, 37.75419018435656], [36.81647865980361, 37.75419018435656]], [[36.81809562731502, 37.75419018435656], [36.81809562731502, 37.75472917352703], [36.81755663814454, 37.75472917352703], [36.81755663814454, 37.75419018435656], [36.81809562731502, 37.75419018435656]], [[36.80839382224653, 37.75365119518609], [36.80839382224653, 37.75472917352703], [36.80785483307605, 37.75472917352703], [36.80785483307605, 37.75365119518609], [36.80839382224653, 37.75365119518609]], [[36.81540068146268, 37.75365119518609], [36.81540068146268, 37.75419018435656], [36.8148616922922, 37.75419018435656], [36.8148616922922, 37.75365119518609], [36.81540068146268, 37.75365119518609]], [[36.822407540678796, 37.75365119518609], [36.822407540678796, 37.75419018435656], [36.82186855150832, 37.75419018435656], [36.82186855150832, 37.75365119518609], [36.822407540678796, 37.75365119518609]], [[36.824024508190206, 37.75365119518609], [36.824024508190206, 37.75419018435656], [36.82348551901973, 37.75419018435656], [36.82348551901973, 37.75365119518609], [36.824024508190206, 37.75365119518609]], [[36.831570356576805, 37.75365119518609], [36.831570356576805, 37.75419018435656], [36.832109345747284, 37.75419018435656], [36.832109345747284, 37.75472917352703], [36.831031367406354, 37.75472917352703], [36.831031367406354, 37.75365119518609], [36.831570356576805, 37.75365119518609]], [[36.84019418330436, 37.75365119518609], [36.84019418330436, 37.75472917352703], [36.83749923745199, 37.75472917352703], [36.83749923745199, 37.75419018435656], [36.83965519413388, 37.75419018435656], [36.83965519413388, 37.75365119518609], [36.84019418330436, 37.75365119518609]], [[36.81054977892842, 37.75257321684514], [36.81054977892842, 37.75419018435656], [36.81001078975794, 37.75419018435656], [36.81001078975794, 37.75257321684514], [36.81054977892842, 37.75257321684514]], [[36.80677685473512, 37.75203422767467], [36.80677685473512, 37.75257321684514], [36.80623786556464, 37.75257321684514], [36.80623786556464, 37.75203422767467], [36.80677685473512, 37.75203422767467]], [[36.829414399894915, 37.75203422767467], [36.829414399894915, 37.75257321684514], [36.828875410724464, 37.75257321684514], [36.828875410724464, 37.75203422767467], [36.829414399894915, 37.75203422767467]], [[36.831031367406354, 37.75203422767467], [36.831031367406354, 37.75257321684514], [36.830492378235874, 37.75257321684514], [36.830492378235874, 37.75203422767467], [36.831031367406354, 37.75203422767467]], [[36.83965519413388, 37.75203422767467], [36.83965519413388, 37.753112206015615], [36.83911620496343, 37.753112206015615], [36.83911620496343, 37.75203422767467], [36.83965519413388, 37.75203422767467]], [[36.80893281141701, 37.7514952385042], [36.80893281141701, 37.75203422767467], [36.80839382224653, 37.75203422767467], [36.80839382224653, 37.7514952385042], [36.80893281141701, 37.7514952385042]], [[36.81162775726935, 37.7514952385042], [36.81162775726935, 37.75203422767467], [36.81216674643983, 37.75203422767467], [36.81216674643983, 37.75257321684514], [36.81162775726935, 37.75257321684514], [36.81162775726935, 37.753112206015615], [36.8110887680989, 37.753112206015615], [36.8110887680989, 37.75257321684514], [36.81054977892842, 37.75257321684514], [36.81054977892842, 37.75203422767467], [36.81001078975794, 37.75203422767467], [36.81001078975794, 37.7514952385042], [36.81162775726935, 37.7514952385042]], [[36.81001078975794, 37.750956249333726], [36.81001078975794, 37.7514952385042], [36.80893281141701, 37.7514952385042], [36.80893281141701, 37.750956249333726], [36.81001078975794, 37.750956249333726]], [[36.81647865980361, 37.750956249333726], [36.81647865980361, 37.7514952385042], [36.81593967063313, 37.7514952385042], [36.81593967063313, 37.750956249333726], [36.81647865980361, 37.750956249333726]], [[36.82025158399691, 37.750956249333726], [36.82025158399691, 37.7514952385042], [36.819173605655976, 37.7514952385042], [36.819173605655976, 37.75203422767467], [36.82186855150832, 37.75203422767467], [36.82186855150832, 37.75257321684514], [36.81971259482643, 37.75257321684514], [36.81971259482643, 37.753112206015615], [36.81809562731502, 37.753112206015615], [36.81809562731502, 37.75257321684514], [36.81647865980361, 37.75257321684514], [36.81647865980361, 37.753112206015615], [36.8148616922922, 37.753112206015615], [36.8148616922922, 37.75365119518609], [36.81378371395124, 37.75365119518609], [36.81378371395124, 37.753112206015615], [36.81324472478079, 37.753112206015615], [36.81324472478079, 37.75472917352703], [36.81270573561031, 37.75472917352703], [36.81270573561031, 37.75419018435656], [36.81216674643983, 37.75419018435656], [36.81216674643983, 37.75365119518609], [36.81270573561031, 37.75365119518609], [36.81270573561031, 37.753112206015615], [36.81216674643983, 37.753112206015615], [36.81216674643983, 37.75257321684514], [36.81270573561031, 37.75257321684514], [36.81270573561031, 37.750956249333726], [36.81324472478079, 37.750956249333726], [36.81324472478079, 37.75203422767467], [36.81378371395124, 37.75203422767467], [36.81378371395124, 37.7514952385042], [36.81432270312172, 37.7514952385042], [36.81432270312172, 37.75257321684514], [36.8148616922922, 37.75257321684514], [36.8148616922922, 37.75203422767467], [36.81809562731502, 37.75203422767467], [36.81809562731502, 37.7514952385042], [36.8186346164855, 37.7514952385042], [36.8186346164855, 37.750956249333726], [36.82025158399691, 37.750956249333726]], [[36.80677685473512, 37.75041726016325], [36.80677685473512, 37.750956249333726], [36.80623786556464, 37.750956249333726], [36.80623786556464, 37.75041726016325], [36.80677685473512, 37.75041726016325]], [[36.827258443213054, 37.75041726016325], [36.827258443213054, 37.750956249333726], [36.826180464872095, 37.750956249333726], [36.826180464872095, 37.75041726016325], [36.827258443213054, 37.75041726016325]], [[36.821329562337866, 37.74987827099278], [36.821329562337866, 37.750956249333726], [36.82025158399691, 37.750956249333726], [36.82025158399691, 37.75041726016325], [36.820790573167386, 37.75041726016325], [36.820790573167386, 37.74987827099278], [36.821329562337866, 37.74987827099278]], [[36.825102486531165, 37.74987827099278], [36.825102486531165, 37.7514952385042], [36.824563497360685, 37.7514952385042], [36.824563497360685, 37.750956249333726], [36.824024508190206, 37.750956249333726], [36.824024508190206, 37.7514952385042], [36.82348551901973, 37.7514952385042], [36.82348551901973, 37.750956249333726], [36.822946529849276, 37.750956249333726], [36.822946529849276, 37.75041726016325], [36.824563497360685, 37.75041726016325], [36.824563497360685, 37.74987827099278], [36.825102486531165, 37.74987827099278]], [[36.8186346164855, 37.749339281822316], [36.8186346164855, 37.74987827099278], [36.819173605655976, 37.74987827099278], [36.819173605655976, 37.75041726016325], [36.8186346164855, 37.75041726016325], [36.8186346164855, 37.750956249333726], [36.81701764897409, 37.750956249333726], [36.81701764897409, 37.75041726016325], [36.81755663814454, 37.75041726016325], [36.81755663814454, 37.74987827099278], [36.81809562731502, 37.74987827099278], [36.81809562731502, 37.749339281822316], [36.8186346164855, 37.749339281822316]], [[36.822407540678796, 37.749339281822316], [36.822407540678796, 37.74987827099278], [36.82186855150832, 37.74987827099278], [36.82186855150832, 37.749339281822316], [36.822407540678796, 37.749339281822316]], [[36.81809562731502, 37.74880029265184], [36.81809562731502, 37.749339281822316], [36.81755663814454, 37.749339281822316], [36.81755663814454, 37.74880029265184], [36.81809562731502, 37.74880029265184]], [[36.81971259482643, 37.7477223143109], [36.81971259482643, 37.74826130348137], [36.82025158399691, 37.74826130348137], [36.82025158399691, 37.74880029265184], [36.820790573167386, 37.74880029265184], [36.820790573167386, 37.74826130348137], [36.82186855150832, 37.74826130348137], [36.82186855150832, 37.74880029265184], [36.821329562337866, 37.74880029265184], [36.821329562337866, 37.749339281822316], [36.820790573167386, 37.749339281822316], [36.820790573167386, 37.74987827099278], [36.819173605655976, 37.74987827099278], [36.819173605655976, 37.749339281822316], [36.8186346164855, 37.749339281822316], [36.8186346164855, 37.74826130348137], [36.81809562731502, 37.74826130348137], [36.81809562731502, 37.7477223143109], [36.81971259482643, 37.7477223143109]], [[36.820790573167386, 37.7477223143109], [36.820790573167386, 37.74826130348137], [36.82025158399691, 37.74826130348137], [36.82025158399691, 37.7477223143109], [36.820790573167386, 37.7477223143109]], [[36.83803822662247, 37.7477223143109], [36.83803822662247, 37.74826130348137], [36.83857721579295, 37.74826130348137], [36.83857721579295, 37.74880029265184], [36.83749923745199, 37.74880029265184], [36.83749923745199, 37.7477223143109], [36.83803822662247, 37.7477223143109]], [[36.81755663814454, 37.747183325140426], [36.81755663814454, 37.7477223143109], [36.81701764897409, 37.7477223143109], [36.81701764897409, 37.747183325140426], [36.81755663814454, 37.747183325140426]], [[36.82348551901973, 37.747183325140426], [36.82348551901973, 37.74826130348137], [36.822946529849276, 37.74826130348137], [36.822946529849276, 37.74880029265184], [36.822407540678796, 37.74880029265184], [36.822407540678796, 37.74826130348137], [36.82186855150832, 37.74826130348137], [36.82186855150832, 37.7477223143109], [36.822407540678796, 37.7477223143109], [36.822407540678796, 37.747183325140426], [36.82348551901973, 37.747183325140426]], [[36.824563497360685, 37.746644335969954], [36.824563497360685, 37.747183325140426], [36.825102486531165, 37.747183325140426], [36.825102486531165, 37.7477223143109], [36.825641475701616, 37.7477223143109], [36.825641475701616, 37.74826130348137], [36.826180464872095, 37.74826130348137], [36.826180464872095, 37.74880029265184], [36.826719454042575, 37.74880029265184], [36.826719454042575, 37.749339281822316], [36.825102486531165, 37.749339281822316], [36.825102486531165, 37.74826130348137], [36.824024508190206, 37.74826130348137], [36.824024508190206, 37.746644335969954], [36.824563497360685, 37.746644335969954]], [[36.825641475701616, 37.746644335969954], [36.825641475701616, 37.747183325140426], [36.825102486531165, 37.747183325140426], [36.825102486531165, 37.746644335969954], [36.825641475701616, 37.746644335969954]], [[36.83965519413388, 37.746644335969954], [36.83965519413388, 37.747183325140426], [36.83911620496343, 37.747183325140426], [36.83911620496343, 37.746644335969954], [36.83965519413388, 37.746644335969954]], [[36.81755663814454, 37.74610534679948], [36.81755663814454, 37.746644335969954], [36.81701764897409, 37.746644335969954], [36.81701764897409, 37.74610534679948], [36.81755663814454, 37.74610534679948]], [[36.820790573167386, 37.74610534679948], [36.820790573167386, 37.746644335969954], [36.82025158399691, 37.746644335969954], [36.82025158399691, 37.7477223143109], [36.81971259482643, 37.7477223143109], [36.81971259482643, 37.74610534679948], [36.820790573167386, 37.74610534679948]], [[36.822407540678796, 37.74556635762901], [36.822407540678796, 37.747183325140426], [36.82186855150832, 37.747183325140426], [36.82186855150832, 37.74556635762901], [36.822407540678796, 37.74556635762901]], [[36.825102486531165, 37.74556635762901], [36.825102486531165, 37.74610534679948], [36.824563497360685, 37.74610534679948], [36.824563497360685, 37.74556635762901], [36.825102486531165, 37.74556635762901]], [[36.826180464872095, 37.74556635762901], [36.826180464872095, 37.746644335969954], [36.825641475701616, 37.746644335969954], [36.825641475701616, 37.74556635762901], [36.826180464872095, 37.74556635762901]], [[36.82186855150832, 37.74502736845854], [36.82186855150832, 37.74556635762901], [36.821329562337866, 37.74556635762901], [36.821329562337866, 37.74502736845854], [36.82186855150832, 37.74502736845854]], [[36.830492378235874, 37.744488379288065], [36.830492378235874, 37.74502736845854], [36.829414399894915, 37.74502736845854], [36.829414399894915, 37.744488379288065], [36.830492378235874, 37.744488379288065]], [[36.824024508190206, 37.74394939011759], [36.824024508190206, 37.744488379288065], [36.825102486531165, 37.744488379288065], [36.825102486531165, 37.74502736845854], [36.824024508190206, 37.74502736845854], [36.824024508190206, 37.74556635762901], [36.82348551901973, 37.74556635762901], [36.82348551901973, 37.746644335969954], [36.822946529849276, 37.746644335969954], [36.822946529849276, 37.74502736845854], [36.82186855150832, 37.74502736845854], [36.82186855150832, 37.744488379288065], [36.82348551901973, 37.744488379288065], [36.82348551901973, 37.74394939011759], [36.824024508190206, 37.74394939011759]], [[36.827797432383505, 37.74341040094713], [36.827797432383505, 37.74394939011759], [36.827258443213054, 37.74394939011759], [36.827258443213054, 37.74341040094713], [36.827797432383505, 37.74341040094713]], [[36.832109345747284, 37.74341040094713], [36.832109345747284, 37.74394939011759], [36.831570356576805, 37.74394939011759], [36.831570356576805, 37.74341040094713], [36.832109345747284, 37.74341040094713]], [[36.828875410724464, 37.742871411776655], [36.828875410724464, 37.74341040094713], [36.828336421553985, 37.74341040094713], [36.828336421553985, 37.742871411776655], [36.828875410724464, 37.742871411776655]], [[36.832109345747284, 37.74233242260618], [36.832109345747284, 37.742871411776655], [36.831031367406354, 37.742871411776655], [36.831031367406354, 37.74233242260618], [36.832109345747284, 37.74233242260618]], [[36.827797432383505, 37.740715455094765], [36.827797432383505, 37.74125444426524], [36.827258443213054, 37.74125444426524], [36.827258443213054, 37.740715455094765], [36.827797432383505, 37.740715455094765]], [[36.828875410724464, 37.740715455094765], [36.828875410724464, 37.74125444426524], [36.828336421553985, 37.74125444426524], [36.828336421553985, 37.740715455094765], [36.828875410724464, 37.740715455094765]]]}, "properties": {"area_ha": 1021.9948659824794, "mean_dnbr": 0.29873894976590903, "compactness": 0.012, "rectangularity": 0.508, "cropland_frac": 0.007, "persistent": null, "brightness_delta": -0.15}}]}