{"type": "FeatureCollection", "crs": {"type": "name", "properties": {"name": "urn:ogc:def:crs:OGC:1.3:CRS84"}}, "features": [{"type": "Feature", "geometry": {"geodesic": false, "type": "Polygon", "coordinates": [[[36.000449055709424, 37.61728693505674], [36.000988044879904, 37.61728693505674], [36.000988044879904, 37.61944289173863], [36.00206602322086, 37.61944289173863], [36.00206602322086, 37.61890390256816], [36.002605012391314, 37.61890390256816], [36.002605012391314, 37.618364913397684], [36.00368299073227, 37.618364913397684], [36.00368299073227, 37.61890390256816], [36.004221979902724, 37.61890390256816], [36.004221979902724, 37.61944289173863], [36.00368299073227, 37.61944289173863], [36.00368299073227, 37.6199818809091], [36.00314400156179, 37.6199818809091], [36.00314400156179, 37.620520870079574], [36.000988044879904, 37.620520870079574], [36.000988044879904, 37.621059859250046], [36.00152703405038, 37.621059859250046], [36.00152703405038, 37.62159884842052], [36.002605012391314, 37.62159884842052], [36.002605012391314, 37.62321581593193], [36.00314400156179, 37.62321581593193], [36.00314400156179, 37.62267682676146], [36.00368299073227, 37.62267682676146], [36.00368299073227, 37.62213783759099], [36.0047609690732, 37.62213783759099], [36.0047609690732, 37.62267682676146], [36.00368299073227, 37.62267682676146], [36.00368299073227, 37.62321581593193], [36.00314400156179, 37.62321581593193], [36.00314400156179, 37.6237548051024], [36.00368299073227, 37.6237548051024], [36.00368299073227, 37.62429379427287], [36.00314400156179, 37.62429379427287], [36.00314400156179, 37.624832783443345], [36.002605012391314, 37.624832783443345], [36.002605012391314, 37.62537177261382], [36.00206602322086, 37.62537177261382], [36.00206602322086, 37.62591076178429], [36.00152703405038, 37.62591076178429], [36.00152703405038, 37.62644975095476], [36.000449055709424, 37.62644975095476], [36.000449055709424, 37.626988740125235], [35.999371077368494, 37.626988740125235], [35.999371077368494, 37.62806671846618], [35.998832088198014, 37.62806671846618], [35.998832088198014, 37.62914469680712], [35.999371077368494, 37.62914469680712], [35.999371077368494, 37.62968368597759], [36.00152703405038, 37.62968368597759], [36.00152703405038, 37.63237863182995], [36.000988044879904, 37.63237863182995], [36.000988044879904, 37.63291762100042], [35.999371077368494, 37.63291762100042], [35.999371077368494, 37.633456610170896], [35.996137142345674, 37.633456610170896], [35.996137142345674, 37.63291762100042], [35.997215120686604, 37.63291762100042], [35.997215120686604, 37.63237863182995], [35.998832088198014, 37.63237863182995], [35.998832088198014, 37.631300653489006], [35.999371077368494, 37.631300653489006], [35.999371077368494, 37.62968368597759], [35.998832088198014, 37.62968368597759], [35.998832088198014, 37.62914469680712], [35.997754109857084, 37.62914469680712], [35.997754109857084, 37.62860570763665], [35.997215120686604, 37.62860570763665], [35.997215120686604, 37.62806671846618], [35.996137142345674, 37.62806671846618], [35.996137142345674, 37.62752772929571], [35.994520174834236, 37.62752772929571], [35.994520174834236, 37.624832783443345], [35.995059164004715, 37.624832783443345], [35.995059164004715, 37.62267682676146], [35.996676131516125, 37.62267682676146], [35.996676131516125, 37.62321581593193], [35.997215120686604, 37.62321581593193], [35.997215120686604, 37.62213783759099], [35.997754109857084, 37.62213783759099], [35.997754109857084, 37.62267682676146], [35.998293099027535, 37.62267682676146], [35.998293099027535, 37.62159884842052], [35.996676131516125, 37.62159884842052], [35.996676131516125, 37.621059859250046], [35.997215120686604, 37.621059859250046], [35.997215120686604, 37.61944289173863], [35.998293099027535, 37.61944289173863], [35.998293099027535, 37.61890390256816], [35.998832088198014, 37.61890390256816], [35.998832088198014, 37.61944289173863], [35.99991006653897, 37.61944289173863], [35.99991006653897, 37.620520870079574], [36.000988044879904, 37.620520870079574], [36.000988044879904, 37.61944289173863], [36.000449055709424, 37.61944289173863], [36.000449055709424, 37.61890390256816], [35.99991006653897, 37.61890390256816], [35.99991006653897, 37.618364913397684], [36.000449055709424, 37.618364913397684], [36.000449055709424, 37.61728693505674]], [[35.998293099027535, 37.62644975095476], [35.998293099027535, 37.626988740125235], [35.997754109857084, 37.626988740125235], [35.997754109857084, 37.62752772929571], [35.997215120686604, 37.62752772929571], [35.997215120686604, 37.62644975095476], [35.998293099027535, 37.62644975095476]], [[35.995598153175195, 37.624832783443345], [35.995598153175195, 37.62537177261382], [35.995059164004715, 37.62537177261382], [35.995059164004715, 37.624832783443345], [35.995598153175195, 37.624832783443345]], [[35.996137142345674, 37.62321581593193], [35.996137142345674, 37.6237548051024], [35.997215120686604, 37.6237548051024], [35.997215120686604, 37.62429379427287], [35.995598153175195, 37.62429379427287], [35.995598153175195, 37.62321581593193], [35.996137142345674, 37.62321581593193]], [[36.00152703405038, 37.62213783759099], [36.00152703405038, 37.62267682676146], [36.000988044879904, 37.62267682676146], [36.000988044879904, 37.62213783759099], [36.00152703405038, 37.62213783759099]], [[35.998832088198014, 37.621059859250046], [35.998832088198014, 37.62159884842052], [35.998293099027535, 37.62159884842052], [35.998293099027535, 37.621059859250046], [35.998832088198014, 37.621059859250046]], [[36.000988044879904, 37.621059859250046], [36.000988044879904, 37.62159884842052], [36.000449055709424, 37.62159884842052], [36.000449055709424, 37.621059859250046], [36.000988044879904, 37.621059859250046]], [[36.00314400156179, 37.61944289173863], [36.00314400156179, 37.6199818809091], [36.002605012391314, 37.6199818809091], [36.002605012391314, 37.61944289173863], [36.00314400156179, 37.61944289173863]]]}, "properties": {"area_ha": 63.44160078307708, "mean_dnbr": 0.3511608757441255, "compactness": 0.07, "rectangularity": 0.416, "cropland_frac": 0.414, "persistent": true, "brightness_delta": 0.004}}, {"type": "Feature", "geometry": {"geodesic": false, "type": "Polygon", "coordinates": [[[36.000988044879904, 37.60327321662448], [36.002605012391314, 37.60327321662448], [36.002605012391314, 37.60542917330636], [36.00368299073227, 37.60542917330636], [36.00368299073227, 37.605968162476834], [36.004221979902724, 37.605968162476834], [36.004221979902724, 37.60650715164731], [36.0047609690732, 37.60650715164731], [36.0047609690732, 37.60542917330636], [36.00529995824368, 37.60542917330636], [36.00529995824368, 37.60650715164731], [36.00583894741416, 37.60650715164731], [36.00583894741416, 37.608124119158724], [36.00529995824368, 37.608124119158724], [36.00529995824368, 37.608663108329196], [36.0047609690732, 37.608663108329196], [36.0047609690732, 37.608124119158724], [36.004221979902724, 37.608124119158724], [36.004221979902724, 37.608663108329196], [36.00314400156179, 37.608663108329196], [36.00314400156179, 37.608124119158724], [36.002605012391314, 37.608124119158724], [36.002605012391314, 37.60920209749967], [36.00314400156179, 37.60920209749967], [36.00314400156179, 37.61028007584061], [36.00368299073227, 37.61028007584061], [36.00368299073227, 37.61081906501108], [36.00314400156179, 37.61081906501108], [36.00314400156179, 37.61189704335202], [36.002605012391314, 37.61189704335202], [36.002605012391314, 37.61135805418155], [36.00206602322086, 37.61135805418155], [36.00206602322086, 37.612436032522496], [36.00152703405038, 37.612436032522496], [36.00152703405038, 37.61297502169297], [36.002605012391314, 37.61297502169297], [36.002605012391314, 37.612436032522496], [36.004221979902724, 37.612436032522496], [36.004221979902724, 37.61297502169297], [36.00368299073227, 37.61297502169297], [36.00368299073227, 37.61405300003391], [36.00314400156179, 37.61405300003391], [36.00314400156179, 37.614591989204385], [36.00206602322086, 37.614591989204385], [36.00206602322086, 37.61513097837486], [36.000988044879904, 37.61513097837486], [36.000988044879904, 37.61566996754533], [35.99991006653897, 37.61566996754533], [35.99991006653897, 37.6162089567158], [35.999371077368494, 37.6162089567158], [35.999371077368494, 37.616747945886274], [35.998832088198014, 37.616747945886274], [35.998832088198014, 37.6162089567158], [35.998293099027535, 37.6162089567158], [35.998293099027535, 37.61566996754533], [35.997215120686604, 37.61566996754533], [35.997215120686604, 37.614591989204385], [35.998293099027535, 37.614591989204385], [35.998293099027535, 37.61405300003391], [36.000988044879904, 37.61405300003391], [36.000988044879904, 37.61351401086344], [36.00152703405038, 37.61351401086344], [36.00152703405038, 37.61297502169297], [36.000988044879904, 37.61297502169297], [36.000988044879904, 37.61135805418155], [35.99991006653897, 37.61135805418155], [35.99991006653897, 37.61189704335202], [36.000449055709424, 37.61189704335202], [36.000449055709424, 37.61351401086344], [35.99991006653897, 37.61351401086344], [35.99991006653897, 37.61297502169297], [35.999371077368494, 37.61297502169297], [35.999371077368494, 37.61351401086344], [35.997754109857084, 37.61351401086344], [35.997754109857084, 37.61189704335202], [35.998293099027535, 37.61189704335202], [35.998293099027535, 37.61028007584061], [35.997754109857084, 37.61028007584061], [35.997754109857084, 37.608124119158724], [35.998293099027535, 37.608124119158724], [35.998293099027535, 37.60758512998825], [35.998832088198014, 37.60758512998825], [35.998832088198014, 37.60704614081778], [35.999371077368494, 37.60704614081778], [35.999371077368494, 37.605968162476834], [35.99991006653897, 37.605968162476834], [35.99991006653897, 37.60381220579495], [36.000988044879904, 37.60381220579495], [36.000988044879904, 37.60327321662448]], [[35.998832088198014, 37.612436032522496], [35.998832088198014, 37.61297502169297], [35.998293099027535, 37.61297502169297], [35.998293099027535, 37.612436032522496], [35.998832088198014, 37.612436032522496]], [[35.999371077368494, 37.61135805418155], [35.999371077368494, 37.612436032522496], [35.998832088198014, 37.612436032522496], [35.998832088198014, 37.61135805418155], [35.999371077368494, 37.61135805418155]], [[36.004221979902724, 37.60758512998825], [36.004221979902724, 37.608124119158724], [36.00368299073227, 37.608124119158724], [36.00368299073227, 37.60758512998825], [36.004221979902724, 37.60758512998825]], [[36.000449055709424, 37.60650715164731], [36.000449055709424, 37.60704614081778], [35.99991006653897, 37.60704614081778], [35.99991006653897, 37.60650715164731], [36.000449055709424, 37.60650715164731]], [[36.002605012391314, 37.605968162476834], [36.002605012391314, 37.60650715164731], [36.00206602322086, 37.60650715164731], [36.00206602322086, 37.605968162476834], [36.002605012391314, 37.605968162476834]]]}, "properties": {"area_ha": 54.918085827482365, "mean_dnbr": 0.45251638173479625, "compactness": 0.094, "rectangularity": 0.52, "cropland_frac": 0.044, "persistent": true, "brightness_delta": 0.002}}, {"type": "Feature", "geometry": {"geodesic": false, "type": "Polygon", "coordinates": [[[36.77066458031351, 37.37581978668541], [36.77012559114303, 37.37581978668541], [36.77012559114303, 37.37528079751495], [36.76796963446117, 37.37528079751495], [36.76796963446117, 37.374202819174], [36.76689165612021, 37.374202819174], [36.76689165612021, 37.37312484083306], [36.76635266694973, 37.37312484083306], [36.76635266694973, 37.37366383000353], [36.76581367777928, 37.37366383000353], [36.76581367777928, 37.37312484083306], [36.76365772109739, 37.37312484083306], [36.76365772109739, 37.37204686249211], [36.75934580773361, 37.37204686249211], [36.75934580773361, 37.37096888415117], [36.75880681856313, 37.37096888415117], [36.75880681856313, 37.368812927469286], [36.75934580773361, 37.368812927469286], [36.75934580773361, 37.36773494912834], [36.76042378607454, 37.36773494912834], [36.76042378607454, 37.36557899244645], [36.76096277524502, 37.36557899244645], [36.76096277524502, 37.36504000327598], [36.76204075358598, 37.36504000327598], [36.76204075358598, 37.36450101410551], [36.76257974275643, 37.36450101410551], [36.76257974275643, 37.36342303576457], [36.7615017644155, 37.36342303576457], [36.7615017644155, 37.362345057423624], [36.76419671026784, 37.362345057423624], [36.76419671026784, 37.36342303576457], [36.76473569943832, 37.36342303576457], [36.76473569943832, 37.363962024935034], [36.7652746886088, 37.363962024935034], [36.7652746886088, 37.36450101410551], [36.76581367777928, 37.36450101410551], [36.76581367777928, 37.36342303576457], [36.76635266694973, 37.36342303576457], [36.76635266694973, 37.363962024935034], [36.76689165612021, 37.363962024935034], [36.76689165612021, 37.36342303576457], [36.76796963446117, 37.36342303576457], [36.76796963446117, 37.3628840465941], [36.76958660197258, 37.3628840465941], [36.76958660197258, 37.363962024935034], [36.77066458031351, 37.363962024935034], [36.77066458031351, 37.36342303576457], [36.77120356948399, 37.36342303576457], [36.77120356948399, 37.3628840465941], [36.77228154782492, 37.3628840465941], [36.77228154782492, 37.363962024935034], [36.7728205369954, 37.363962024935034], [36.7728205369954, 37.36450101410551], [36.773359526165876, 37.36450101410551], [36.773359526165876, 37.36504000327598], [36.77443750450681, 37.36504000327598], [36.77443750450681, 37.366117981616924], [36.775515482847766, 37.366117981616924], [36.775515482847766, 37.36557899244645], [36.77605447201822, 37.36557899244645], [36.77605447201822, 37.36504000327598], [36.776593461188696, 37.36504000327598], [36.776593461188696, 37.36450101410551], [36.77605447201822, 37.36450101410551], [36.77605447201822, 37.363962024935034], [36.776593461188696, 37.363962024935034], [36.776593461188696, 37.36342303576457], [36.777671439529655, 37.36342303576457], [36.777671439529655, 37.36504000327598], [36.778210428700106, 37.36504000327598], [36.778210428700106, 37.366117981616924], [36.780905374552475, 37.366117981616924], [36.780905374552475, 37.36557899244645], [36.781444363722954, 37.36557899244645], [36.781444363722954, 37.36504000327598], [36.781983352893405, 37.36504000327598], [36.781983352893405, 37.36450101410551], [36.784139309575295, 37.36450101410551], [36.784139309575295, 37.36557899244645], [36.785217287916254, 37.36557899244645], [36.785217287916254, 37.366117981616924], [36.784678298745774, 37.366117981616924], [36.784678298745774, 37.36719595995787], [36.783600320404844, 37.36719595995787], [36.783600320404844, 37.368812927469286], [36.784139309575295, 37.368812927469286], [36.784139309575295, 37.36827393829881], [36.787912233768594, 37.36827393829881], [36.787912233768594, 37.36935191663976], [36.790068190450484, 37.36935191663976], [36.790068190450484, 37.36989090581022], [36.79114616879144, 37.36989090581022], [36.79114616879144, 37.36935191663976], [36.79330212547333, 37.36935191663976], [36.79330212547333, 37.370429894980695], [36.79384111464378, 37.370429894980695], [36.79384111464378, 37.37096888415117], [36.79707504966663, 37.37096888415117], [36.79707504966663, 37.37150787332164], [36.79761403883711, 37.37150787332164], [36.79761403883711, 37.37204686249211], [36.79707504966663, 37.37204686249211], [36.79707504966663, 37.37366383000353], [36.79761403883711, 37.37366383000353], [36.79761403883711, 37.374741808344474], [36.79815302800756, 37.374741808344474], [36.79815302800756, 37.37581978668541], [36.79761403883711, 37.37581978668541], [36.79761403883711, 37.376358775855884], [36.79599707132567, 37.376358775855884], [36.79599707132567, 37.37689776502636], [36.79545808215522, 37.37689776502636], [36.79545808215522, 37.376358775855884], [36.79491909298474, 37.376358775855884], [36.79491909298474, 37.37581978668541], [36.79384111464378, 37.37581978668541], [36.79384111464378, 37.37528079751495], [36.79276313630285, 37.37528079751495], [36.79276313630285, 37.376358775855884], [36.79222414713237, 37.376358775855884], [36.79222414713237, 37.37689776502636], [36.79168515796192, 37.37689776502636], [36.79168515796192, 37.376358775855884], [36.79114616879144, 37.376358775855884], [36.79114616879144, 37.37581978668541], [36.79060717962096, 37.37581978668541], [36.79060717962096, 37.37689776502636], [36.790068190450484, 37.37689776502636], [36.790068190450484, 37.37743675419683], [36.79060717962096, 37.37743675419683], [36.79060717962096, 37.3779757433673], [36.79222414713237, 37.3779757433673], [36.79222414713237, 37.379053721708246], [36.79060717962096, 37.379053721708246], [36.79060717962096, 37.37959271087872], [36.78952920128003, 37.37959271087872], [36.78952920128003, 37.38013170004919], [36.78737324459814, 37.38013170004919], [36.78737324459814, 37.38067068921966], [36.786834255427664, 37.38067068921966], [36.786834255427664, 37.38013170004919], [36.784678298745774, 37.38013170004919], [36.784678298745774, 37.37959271087872], [36.784139309575295, 37.37959271087872], [36.784139309575295, 37.38013170004919], [36.783600320404844, 37.38013170004919], [36.783600320404844, 37.37959271087872], [36.783061331234364, 37.37959271087872], [36.783061331234364, 37.379053721708246], [36.780905374552475, 37.379053721708246], [36.780905374552475, 37.37959271087872], [36.779288407041065, 37.37959271087872], [36.779288407041065, 37.379053721708246], [36.778210428700106, 37.379053721708246], [36.778210428700106, 37.378514732537774], [36.77605447201822, 37.378514732537774], [36.77605447201822, 37.3779757433673], [36.775515482847766, 37.3779757433673], [36.775515482847766, 37.37743675419683], [36.773898515336356, 37.37743675419683], [36.773898515336356, 37.37689776502636], [36.771742558654466, 37.37689776502636], [36.771742558654466, 37.37743675419683], [36.77066458031351, 37.37743675419683], [36.77066458031351, 37.37689776502636], [36.77012559114303, 37.37689776502636], [36.77012559114303, 37.376358775855884], [36.77066458031351, 37.376358775855884], [36.77066458031351, 37.37581978668541]], [[36.78899021210955, 37.37743675419683], [36.78899021210955, 37.3779757433673], [36.788451222939074, 37.3779757433673], [36.788451222939074, 37.37743675419683], [36.78899021210955, 37.37743675419683]], [[36.779827396211545, 37.37689776502636], [36.779827396211545, 37.37743675419683], [36.779288407041065, 37.37743675419683], [36.779288407041065, 37.37689776502636], [36.779827396211545, 37.37689776502636]], [[36.79168515796192, 37.374741808344474], [36.79168515796192, 37.37528079751495], [36.79114616879144, 37.37528079751495], [36.79114616879144, 37.374741808344474], [36.79168515796192, 37.374741808344474]], [[36.77012559114303, 37.37366383000353], [36.77012559114303, 37.374202819174], [36.77120356948399, 37.374202819174], [36.77120356948399, 37.37528079751495], [36.77012559114303, 37.37528079751495], [36.77012559114303, 37.374741808344474], [36.76850862363162, 37.374741808344474], [36.76850862363162, 37.374202819174], [36.76796963446117, 37.374202819174], [36.76796963446117, 37.37366383000353], [36.77012559114303, 37.37366383000353]], [[36.781444363722954, 37.37366383000353], [36.781444363722954, 37.374202819174], [36.780905374552475, 37.374202819174], [36.780905374552475, 37.37366383000353], [36.781444363722954, 37.37366383000353]], [[36.77605447201822, 37.37312484083306], [36.77605447201822, 37.37366383000353], [36.776593461188696, 37.37366383000353], [36.776593461188696, 37.374202819174], [36.775515482847766, 37.374202819174], [36.775515482847766, 37.37366383000353], [36.774976493677286, 37.37366383000353], [36.774976493677286, 37.37312484083306], [36.77605447201822, 37.37312484083306]], [[36.774976493677286, 37.372585851662585], [36.774976493677286, 37.37312484083306], [36.77443750450681, 37.37312484083306], [36.77443750450681, 37.372585851662585], [36.774976493677286, 37.372585851662585]], [[36.77443750450681, 37.37204686249211], [36.77443750450681, 37.372585851662585], [36.773898515336356, 37.372585851662585], [36.773898515336356, 37.37204686249211], [36.77443750450681, 37.37204686249211]], [[36.76743064529069, 37.37150787332164], [36.76743064529069, 37.372585851662585], [36.76473569943832, 37.372585851662585], [36.76473569943832, 37.37204686249211], [36.76635266694973, 37.37204686249211], [36.76635266694973, 37.37150787332164], [36.76743064529069, 37.37150787332164]], [[36.782522342063885, 37.37096888415117], [36.782522342063885, 37.37204686249211], [36.781983352893405, 37.37204686249211], [36.781983352893405, 37.37096888415117], [36.782522342063885, 37.37096888415117]], [[36.787912233768594, 37.37096888415117], [36.787912233768594, 37.37150787332164], [36.78737324459814, 37.37150787332164], [36.78737324459814, 37.37096888415117], [36.787912233768594, 37.37096888415117]], [[36.781444363722954, 37.36935191663976], [36.781444363722954, 37.36989090581022], [36.780905374552475, 37.36989090581022], [36.780905374552475, 37.36935191663976], [36.781444363722954, 37.36935191663976]], [[36.777671439529655, 37.36827393829881], [36.777671439529655, 37.368812927469286], [36.777132450359176, 37.368812927469286], [36.777132450359176, 37.36827393829881], [36.777671439529655, 37.36827393829881]], [[36.781444363722954, 37.36773494912834], [36.781444363722954, 37.36827393829881], [36.780366385381996, 37.36827393829881], [36.780366385381996, 37.36773494912834], [36.781444363722954, 37.36773494912834]], [[36.783061331234364, 37.366117981616924], [36.783061331234364, 37.366656970787396], [36.781983352893405, 37.366656970787396], [36.781983352893405, 37.366117981616924], [36.783061331234364, 37.366117981616924]], [[36.76581367777928, 37.36557899244645], [36.76581367777928, 37.366656970787396], [36.7652746886088, 37.366656970787396], [36.7652746886088, 37.36557899244645], [36.76581367777928, 37.36557899244645]], [[36.784139309575295, 37.36557899244645], [36.784139309575295, 37.366117981616924], [36.783600320404844, 37.366117981616924], [36.783600320404844, 37.36557899244645], [36.784139309575295, 37.36557899244645]], [[36.76689165612021, 37.36504000327598], [36.76689165612021, 37.36557899244645], [36.76635266694973, 37.36557899244645], [36.76635266694973, 37.36504000327598], [36.76689165612021, 37.36504000327598]], [[36.781983352893405, 37.376358775855884], [36.782522342063885, 37.376358775855884], [36.782522342063885, 37.37689776502636], [36.781983352893405, 37.37689776502636], [36.781983352893405, 37.376358775855884]], [[36.771742558654466, 37.37581978668541], [36.771742558654466, 37.376358775855884], [36.77120356948399, 37.376358775855884], [36.77120356948399, 37.37581978668541], [36.771742558654466, 37.37581978668541]], [[36.775515482847766, 37.37581978668541], [36.775515482847766, 37.376358775855884], [36.774976493677286, 37.376358775855884], [36.774976493677286, 37.37581978668541], [36.773898515336356, 37.37581978668541], [36.773898515336356, 37.37528079751495], [36.77605447201822, 37.37528079751495], [36.77605447201822, 37.37581978668541], [36.775515482847766, 37.37581978668541]], [[36.775515482847766, 37.376358775855884], [36.777671439529655, 37.376358775855884], [36.777671439529655, 37.37689776502636], [36.778210428700106, 37.37689776502636], [36.778210428700106, 37.37743675419683], [36.779288407041065, 37.37743675419683], [36.779288407041065, 37.3779757433673], [36.777132450359176, 37.3779757433673], [36.777132450359176, 37.37743675419683], [36.77605447201822, 37.37743675419683], [36.77605447201822, 37.37689776502636], [36.775515482847766, 37.37689776502636], [36.775515482847766, 37.376358775855884]], [[36.780366385381996, 37.37581978668541], [36.780366385381996, 37.37689776502636], [36.779827396211545, 37.37689776502636], [36.779827396211545, 37.376358775855884], [36.779288407041065, 37.376358775855884], [36.779288407041065, 37.37581978668541], [36.780366385381996, 37.37581978668541]]]}, "properties": {"area_ha": 380.2314635285886, "mean_dnbr": 0.3003421693224888, "compactness": 0.086, "rectangularity": 0.619, "cropland_frac": 0.003, "persistent": true, "brightness_delta": -0.121}}]}