{"type": "FeatureCollection", "crs": {"type": "name", "properties": {"name": "urn:ogc:def:crs:OGC:1.3:CRS84"}}, "features": [{"type": "Feature", "geometry": {"geodesic": false, "type": "Polygon", "coordinates": [[[36.15567793680529, 36.291373575696326], [36.15837288265766, 36.291373575696326], [36.15837288265766, 36.2919125648668], [36.15891187182811, 36.2919125648668], [36.15891187182811, 36.29245155403727], [36.15945086099859, 36.29245155403727], [36.15945086099859, 36.29299054320774], [36.15891187182811, 36.29299054320774], [36.15891187182811, 36.293529532378216], [36.15945086099859, 36.293529532378216], [36.15945086099859, 36.29406852154869], [36.15998985016907, 36.29406852154869], [36.15998985016907, 36.29460751071916], [36.16052883933952, 36.29460751071916], [36.16052883933952, 36.295685489060105], [36.16214580685096, 36.295685489060105], [36.16214580685096, 36.29514649988963], [36.16268479602141, 36.29514649988963], [36.16268479602141, 36.29406852154869], [36.16052883933952, 36.29406852154869], [36.16052883933952, 36.29299054320774], [36.16268479602141, 36.29299054320774], [36.16268479602141, 36.29245155403727], [36.16430176353285, 36.29245155403727], [36.16430176353285, 36.293529532378216], [36.16591873104426, 36.293529532378216], [36.16591873104426, 36.29299054320774], [36.16645772021471, 36.29299054320774], [36.16645772021471, 36.29406852154869], [36.16699670938519, 36.29406852154869], [36.16699670938519, 36.293529532378216], [36.16807468772615, 36.293529532378216], [36.16807468772615, 36.29299054320774], [36.1686136768966, 36.29299054320774], [36.1686136768966, 36.29245155403727], [36.16915266606708, 36.29245155403727], [36.16915266606708, 36.29299054320774], [36.1686136768966, 36.29299054320774], [36.1686136768966, 36.293529532378216], [36.16807468772615, 36.293529532378216], [36.16807468772615, 36.29406852154869], [36.16699670938519, 36.29406852154869], [36.16699670938519, 36.29460751071916], [36.16753569855567, 36.29460751071916], [36.16753569855567, 36.29514649988963], [36.16807468772615, 36.29514649988963], [36.16807468772615, 36.295685489060105], [36.16753569855567, 36.295685489060105], [36.16753569855567, 36.29622447823058], [36.16699670938519, 36.29622447823058], [36.16699670938519, 36.29676346740104], [36.16753569855567, 36.29676346740104], [36.16753569855567, 36.297302456571515], [36.16645772021471, 36.297302456571515], [36.16645772021471, 36.29784144574199], [36.16699670938519, 36.29784144574199], [36.16699670938519, 36.29838043491246], [36.16645772021471, 36.29838043491246], [36.16645772021471, 36.299458413253404], [36.16753569855567, 36.299458413253404], [36.16753569855567, 36.29999740242388], [36.16915266606708, 36.29999740242388], [36.16915266606708, 36.299458413253404], [36.16969165523756, 36.299458413253404], [36.16969165523756, 36.29999740242388], [36.17076963357849, 36.29999740242388], [36.17076963357849, 36.30107538076482], [36.16969165523756, 36.30107538076482], [36.16969165523756, 36.29999740242388], [36.16915266606708, 36.29999740242388], [36.16915266606708, 36.30053639159435], [36.16807468772615, 36.30053639159435], [36.16807468772615, 36.30107538076482], [36.1686136768966, 36.30107538076482], [36.1686136768966, 36.30269234827623], [36.16699670938519, 36.30269234827623], [36.16699670938519, 36.303231337446704], [36.16753569855567, 36.303231337446704], [36.16753569855567, 36.30430931578765], [36.16537974187378, 36.30430931578765], [36.16537974187378, 36.30484830495812], [36.16645772021471, 36.30484830495812], [36.16645772021471, 36.30538729412859], [36.16807468772615, 36.30538729412859], [36.16807468772615, 36.30646527246954], [36.1686136768966, 36.30646527246954], [36.1686136768966, 36.30754325081048], [36.17130862274897, 36.30754325081048], [36.17130862274897, 36.30862122915142], [36.171847611919446, 36.30862122915142], [36.171847611919446, 36.308082239980955], [36.1723866010899, 36.308082239980955], [36.1723866010899, 36.30754325081048], [36.17292559026038, 36.30754325081048], [36.17292559026038, 36.30862122915142], [36.171847611919446, 36.30862122915142], [36.171847611919446, 36.31023819666284], [36.16969165523756, 36.31023819666284], [36.16969165523756, 36.31077718583331], [36.1686136768966, 36.31077718583331], [36.1686136768966, 36.31023819666284], [36.16699670938519, 36.31023819666284], [36.16699670938519, 36.31077718583331], [36.16645772021471, 36.31077718583331], [36.16645772021471, 36.309699207492365], [36.16591873104426, 36.309699207492365], [36.16591873104426, 36.31023819666284], [36.16537974187378, 36.31023819666284], [36.16537974187378, 36.31077718583331], [36.1648407527033, 36.31077718583331], [36.1648407527033, 36.31023819666284], [36.16376277436237, 36.31023819666284], [36.16376277436237, 36.30916021832189], [36.16268479602141, 36.30916021832189], [36.16268479602141, 36.309699207492365], [36.16214580685096, 36.309699207492365], [36.16214580685096, 36.30916021832189], [36.16106782851, 36.30916021832189], [36.16106782851, 36.31023819666284], [36.16052883933952, 36.31023819666284], [36.16052883933952, 36.31077718583331], [36.15945086099859, 36.31077718583331], [36.15945086099859, 36.31239415334473], [36.15998985016907, 36.31239415334473], [36.15998985016907, 36.31347213168567], [36.15837288265766, 36.31347213168567], [36.15837288265766, 36.31562808836755], [36.15783389348718, 36.31562808836755], [36.15783389348718, 36.314550110026616], [36.15675591514622, 36.314550110026616], [36.15675591514622, 36.314011120856144], [36.15621692597577, 36.314011120856144], [36.15621692597577, 36.31347213168567], [36.15567793680529, 36.31347213168567], [36.15567793680529, 36.314011120856144], [36.15190501261199, 36.314011120856144], [36.15190501261199, 36.31724505587897], [36.15136602344151, 36.31724505587897], [36.15136602344151, 36.316167077538026], [36.15082703427103, 36.316167077538026], [36.15082703427103, 36.314550110026616], [36.15028804510058, 36.314550110026616], [36.15028804510058, 36.314011120856144], [36.1497490559301, 36.314011120856144], [36.1497490559301, 36.31347213168567], [36.14813208841869, 36.31347213168567], [36.14813208841869, 36.3129331425152], [36.1459761317368, 36.3129331425152], [36.1459761317368, 36.31131617500378], [36.14651512090728, 36.31131617500378], [36.14651512090728, 36.30862122915142], [36.14705411007773, 36.30862122915142], [36.14705411007773, 36.308082239980955], [36.14651512090728, 36.308082239980955], [36.14651512090728, 36.30754325081048], [36.14705411007773, 36.30754325081048], [36.14705411007773, 36.30700426164001], [36.14813208841869, 36.30700426164001], [36.14813208841869, 36.305926283299065], [36.14759309924821, 36.305926283299065], [36.14759309924821, 36.303770326617176], [36.14813208841869, 36.303770326617176], [36.14813208841869, 36.30484830495812], [36.1497490559301, 36.30484830495812], [36.1497490559301, 36.30430931578765], [36.15028804510058, 36.30430931578765], [36.15028804510058, 36.30269234827623], [36.15082703427103, 36.30269234827623], [36.15082703427103, 36.301614369935294], [36.15028804510058, 36.301614369935294], [36.15028804510058, 36.30107538076482], [36.15082703427103, 36.30107538076482], [36.15082703427103, 36.29999740242388], [36.15028804510058, 36.29999740242388], [36.15028804510058, 36.299458413253404], [36.15190501261199, 36.299458413253404], [36.15190501261199, 36.29891942408293], [36.15406096929388, 36.29891942408293], [36.15406096929388, 36.29676346740104], [36.15459995846433, 36.29676346740104], [36.15459995846433, 36.29406852154869], [36.15406096929388, 36.29406852154869], [36.15406096929388, 36.293529532378216], [36.15459995846433, 36.293529532378216], [36.15459995846433, 36.29299054320774], [36.15567793680529, 36.29299054320774], [36.15567793680529, 36.293529532378216], [36.15621692597577, 36.293529532378216], [36.15621692597577, 36.2919125648668], [36.15567793680529, 36.2919125648668], [36.15567793680529, 36.291373575696326]], [[36.15028804510058, 36.308082239980955], [36.15028804510058, 36.30862122915142], [36.15082703427103, 36.30862122915142], [36.15082703427103, 36.31077718583331], [36.15136602344151, 36.31077718583331], [36.15136602344151, 36.3129331425152], [36.1497490559301, 36.3129331425152], [36.1497490559301, 36.31239415334473], [36.14921006675962, 36.31239415334473], [36.14921006675962, 36.311855164174254], [36.14867107758914, 36.311855164174254], [36.14867107758914, 36.31023819666284], [36.14921006675962, 36.31023819666284], [36.14921006675962, 36.308082239980955], [36.15028804510058, 36.308082239980955]], [[36.15891187182811, 36.30754325081048], [36.15891187182811, 36.308082239980955], [36.15945086099859, 36.308082239980955], [36.15945086099859, 36.309699207492365], [36.15891187182811, 36.309699207492365], [36.15891187182811, 36.31023819666284], [36.15783389348718, 36.31023819666284], [36.15783389348718, 36.31131617500378], [36.15891187182811, 36.31131617500378], [36.15891187182811, 36.31239415334473], [36.15675591514622, 36.31239415334473], [36.15675591514622, 36.311855164174254], [36.15459995846433, 36.311855164174254], [36.15459995846433, 36.31239415334473], [36.1535219801234, 36.31239415334473], [36.1535219801234, 36.311855164174254], [36.15298299095292, 36.311855164174254], [36.15298299095292, 36.31077718583331], [36.15567793680529, 36.31077718583331], [36.15567793680529, 36.30916021832189], [36.15621692597577, 36.30916021832189], [36.15621692597577, 36.30862122915142], [36.1572949043167, 36.30862122915142], [36.1572949043167, 36.30754325081048], [36.15891187182811, 36.30754325081048]], [[36.1535219801234, 36.305926283299065], [36.1535219801234, 36.30646527246954], [36.15298299095292, 36.30646527246954], [36.15298299095292, 36.305926283299065], [36.1535219801234, 36.305926283299065]], [[36.16753569855567, 36.305926283299065], [36.16753569855567, 36.30646527246954], [36.16645772021471, 36.30646527246954], [36.16645772021471, 36.305926283299065], [36.16753569855567, 36.305926283299065]], [[36.15945086099859, 36.303231337446704], [36.15945086099859, 36.303770326617176], [36.15891187182811, 36.303770326617176], [36.15891187182811, 36.30484830495812], [36.15621692597577, 36.30484830495812], [36.15621692597577, 36.30538729412859], [36.15675591514622, 36.30538729412859], [36.15675591514622, 36.305926283299065], [36.15621692597577, 36.305926283299065], [36.15621692597577, 36.30646527246954], [36.15459995846433, 36.30646527246954], [36.15459995846433, 36.30484830495812], [36.1535219801234, 36.30484830495812], [36.1535219801234, 36.303231337446704], [36.15459995846433, 36.303231337446704], [36.15459995846433, 36.303770326617176], [36.15621692597577, 36.303770326617176], [36.15621692597577, 36.30430931578765], [36.15675591514622, 36.30430931578765], [36.15675591514622, 36.303770326617176], [36.15783389348718, 36.303770326617176], [36.15783389348718, 36.303231337446704], [36.15945086099859, 36.303231337446704]], [[36.15567793680529, 36.30269234827623], [36.15567793680529, 36.303231337446704], [36.15513894763481, 36.303231337446704], [36.15513894763481, 36.30269234827623], [36.15567793680529, 36.30269234827623]], [[36.15783389348718, 36.30269234827623], [36.15783389348718, 36.303231337446704], [36.1572949043167, 36.303231337446704], [36.1572949043167, 36.30269234827623], [36.15783389348718, 36.30269234827623]], [[36.16537974187378, 36.30269234827623], [36.16537974187378, 36.303231337446704], [36.1648407527033, 36.303231337446704], [36.1648407527033, 36.30269234827623], [36.16537974187378, 36.30269234827623]], [[36.16591873104426, 36.301614369935294], [36.16591873104426, 36.302153359105766], [36.16645772021471, 36.302153359105766], [36.16645772021471, 36.30269234827623], [36.16537974187378, 36.30269234827623], [36.16537974187378, 36.301614369935294], [36.16591873104426, 36.301614369935294]], [[36.16268479602141, 36.299458413253404], [36.16268479602141, 36.29999740242388], [36.16214580685096, 36.29999740242388], [36.16214580685096, 36.299458413253404], [36.16268479602141, 36.299458413253404]], [[36.16376277436237, 36.29838043491246], [36.16376277436237, 36.29891942408293], [36.16322378519189, 36.29891942408293], [36.16322378519189, 36.29838043491246], [36.16376277436237, 36.29838043491246]], [[36.16214580685096, 36.297302456571515], [36.16214580685096, 36.29784144574199], [36.16268479602141, 36.29784144574199], [36.16268479602141, 36.29838043491246], [36.16160681768048, 36.29838043491246], [36.16160681768048, 36.301614369935294], [36.16106782851, 36.301614369935294], [36.16106782851, 36.302153359105766], [36.16160681768048, 36.302153359105766], [36.16160681768048, 36.301614369935294], [36.16268479602141, 36.301614369935294], [36.16268479602141, 36.302153359105766], [36.16322378519189, 36.302153359105766], [36.16322378519189, 36.303231337446704], [36.1648407527033, 36.303231337446704], [36.1648407527033, 36.30484830495812], [36.16430176353285, 36.30484830495812], [36.16430176353285, 36.30538729412859], [36.16376277436237, 36.30538729412859], [36.16376277436237, 36.30646527246954], [36.16268479602141, 36.30646527246954], [36.16268479602141, 36.305926283299065], [36.16214580685096, 36.305926283299065], [36.16214580685096, 36.308082239980955], [36.15998985016907, 36.308082239980955], [36.15998985016907, 36.30700426164001], [36.15891187182811, 36.30700426164001], [36.15891187182811, 36.30646527246954], [36.15945086099859, 36.30646527246954], [36.15945086099859, 36.305926283299065], [36.15998985016907, 36.305926283299065], [36.15998985016907, 36.30538729412859], [36.15945086099859, 36.30538729412859], [36.15945086099859, 36.30484830495812], [36.16052883933952, 36.30484830495812], [36.16052883933952, 36.30538729412859], [36.16106782851, 36.30538729412859], [36.16106782851, 36.30484830495812], [36.16052883933952, 36.30484830495812], [36.16052883933952, 36.30430931578765], [36.15998985016907, 36.30430931578765], [36.15998985016907, 36.303770326617176], [36.16052883933952, 36.303770326617176], [36.16052883933952, 36.303231337446704], [36.15998985016907, 36.303231337446704], [36.15998985016907, 36.30269234827623], [36.15837288265766, 36.30269234827623], [36.15837288265766, 36.301614369935294], [36.15891187182811, 36.301614369935294], [36.15891187182811, 36.299458413253404], [36.16106782851, 36.299458413253404], [36.16106782851, 36.29784144574199], [36.16160681768048, 36.29784144574199], [36.16160681768048, 36.297302456571515], [36.16214580685096, 36.297302456571515]], [[36.16537974187378, 36.295685489060105], [36.16537974187378, 36.29622447823058], [36.16591873104426, 36.29622447823058], [36.16591873104426, 36.29676346740104], [36.16430176353285, 36.29676346740104], [36.16430176353285, 36.295685489060105], [36.16537974187378, 36.295685489060105]], [[36.15621692597577, 36.29514649988963], [36.15621692597577, 36.295685489060105], [36.15567793680529, 36.295685489060105], [36.15567793680529, 36.29514649988963], [36.15621692597577, 36.29514649988963]], [[36.16753569855567, 36.29514649988963], [36.16753569855567, 36.295685489060105], [36.16699670938519, 36.295685489060105], [36.16699670938519, 36.29622447823058], [36.16645772021471, 36.29622447823058], [36.16645772021471, 36.29514649988963], [36.16753569855567, 36.29514649988963]], [[36.1648407527033, 36.29406852154869], [36.1648407527033, 36.29460751071916], [36.16430176353285, 36.29460751071916], [36.16430176353285, 36.29406852154869], [36.1648407527033, 36.29406852154869]], [[36.16645772021471, 36.29406852154869], [36.16645772021471, 36.29460751071916], [36.16537974187378, 36.29460751071916], [36.16537974187378, 36.29406852154869], [36.16645772021471, 36.29406852154869]]]}, "properties": {"area_ha": 277.6038258803548, "mean_dnbr": 0.4537113225283542, "compactness": 0.034, "rectangularity": 0.406, "cropland_frac": 0.008, "persistent": true, "brightness_delta": 0.009}}]}