{"type": "FeatureCollection", "crs": {"type": "name", "properties": {"name": "urn:ogc:def:crs:OGC:1.3:CRS84"}}, "features": [{"type": "Feature", "geometry": {"geodesic": false, "type": "Polygon", "coordinates": [[[36.266709705922466, 36.800179352621626], [36.267248695092945, 36.800179352621626], [36.267248695092945, 36.8007183417921], [36.267787684263396, 36.8007183417921], [36.267787684263396, 36.802335309303515], [36.268326673433876, 36.802335309303515], [36.268326673433876, 36.80287429847399], [36.267787684263396, 36.80287429847399], [36.267787684263396, 36.80341328764445], [36.266709705922466, 36.80341328764445], [36.266709705922466, 36.803952276814925], [36.26563172758151, 36.803952276814925], [36.26563172758151, 36.80503025515587], [36.265092738411056, 36.80503025515587], [36.265092738411056, 36.806108233496815], [36.26455374924058, 36.806108233496815], [36.26455374924058, 36.80718621183776], [36.2640147600701, 36.80718621183776], [36.2640147600701, 36.80934216851964], [36.26347577089962, 36.80934216851964], [36.26347577089962, 36.809881157690114], [36.26293678172917, 36.809881157690114], [36.26293678172917, 36.81042014686059], [36.26239779255869, 36.81042014686059], [36.26239779255869, 36.81095913603106], [36.26185880338821, 36.81095913603106], [36.26185880338821, 36.81149812520153], [36.26078082504728, 36.81149812520153], [36.26078082504728, 36.812576103542476], [36.25916385753587, 36.812576103542476], [36.25916385753587, 36.812037114372], [36.25970284670632, 36.812037114372], [36.25970284670632, 36.81149812520153], [36.2602418358768, 36.81149812520153], [36.2602418358768, 36.81042014686059], [36.25916385753587, 36.81042014686059], [36.25916385753587, 36.809881157690114], [36.25862486836539, 36.809881157690114], [36.25862486836539, 36.80880317934918], [36.25808587919491, 36.80880317934918], [36.25808587919491, 36.808264190178704], [36.25916385753587, 36.808264190178704], [36.25916385753587, 36.80772520100823], [36.25970284670632, 36.80772520100823], [36.25970284670632, 36.80718621183776], [36.25916385753587, 36.80718621183776], [36.25916385753587, 36.806108233496815], [36.25862486836539, 36.806108233496815], [36.25862486836539, 36.8044912659854], [36.25916385753587, 36.8044912659854], [36.25916385753587, 36.803952276814925], [36.26185880338821, 36.803952276814925], [36.26185880338821, 36.80341328764445], [36.26293678172917, 36.80341328764445], [36.26293678172917, 36.80287429847399], [36.2640147600701, 36.80287429847399], [36.2640147600701, 36.802335309303515], [36.26455374924058, 36.802335309303515], [36.26455374924058, 36.80179632013304], [36.26563172758151, 36.80179632013304], [36.26563172758151, 36.80125733096257], [36.266170716751986, 36.80125733096257], [36.266170716751986, 36.8007183417921], [36.266709705922466, 36.8007183417921], [36.266709705922466, 36.800179352621626]]]}, "properties": {"area_ha": 50.329237603582044, "mean_dnbr": 0.5692241271032207, "compactness": 0.257, "rectangularity": 0.478, "cropland_frac": 0, "persistent": true, "brightness_delta": 0.017}}]}