{"type": "FeatureCollection", "crs": {"type": "name", "properties": {"name": "urn:ogc:def:crs:OGC:1.3:CRS84"}}, "features": [{"type": "Feature", "geometry": {"geodesic": false, "type": "Polygon", "coordinates": [[[32.65853653572796, 37.61926322868181], [32.65871619878479, 37.61926322868181], [32.65871619878479, 37.619442891738636], [32.658895861841614, 37.619442891738636], [32.658895861841614, 37.619622554795455], [32.65907552489844, 37.619622554795455], [32.65907552489844, 37.61980221785228], [32.65925518795527, 37.61980221785228], [32.65925518795527, 37.61998188090911], [32.65907552489844, 37.61998188090911], [32.65907552489844, 37.62016154396593], [32.65871619878479, 37.62016154396593], [32.65871619878479, 37.620341207022754], [32.65817720961431, 37.620341207022754], [32.65817720961431, 37.62052087007958], [32.658356872671135, 37.62052087007958], [32.658356872671135, 37.6207005331364], [32.65871619878479, 37.6207005331364], [32.65871619878479, 37.62052087007958], [32.65907552489844, 37.62052087007958], [32.65907552489844, 37.620341207022754], [32.659434851012094, 37.620341207022754], [32.659434851012094, 37.62016154396593], [32.65979417712575, 37.62016154396593], [32.65979417712575, 37.620341207022754], [32.65997384018257, 37.620341207022754], [32.65997384018257, 37.62052087007958], [32.66015350323937, 37.62052087007958], [32.66015350323937, 37.6207005331364], [32.6603331662962, 37.6207005331364], [32.6603331662962, 37.621059859250046], [32.660512829353024, 37.621059859250046], [32.660512829353024, 37.62123952230687], [32.66069249240985, 37.62123952230687], [32.66069249240985, 37.6214191853637], [32.66087215546668, 37.6214191853637], [32.66087215546668, 37.62159884842052], [32.661051818523504, 37.62159884842052], [32.661051818523504, 37.621778511477345], [32.66123148158033, 37.621778511477345], [32.66123148158033, 37.62195817453417], [32.66141114463716, 37.62195817453417], [32.66141114463716, 37.62213783759099], [32.66159080769398, 37.62213783759099], [32.66159080769398, 37.62231750064782], [32.66141114463716, 37.62231750064782], [32.66141114463716, 37.622497163704644], [32.66123148158033, 37.622497163704644], [32.66123148158033, 37.62285648981829], [32.661051818523504, 37.62285648981829], [32.661051818523504, 37.62303615287511], [32.66087215546668, 37.62303615287511], [32.66087215546668, 37.62285648981829], [32.66069249240985, 37.62285648981829], [32.66069249240985, 37.62267682676146], [32.66087215546668, 37.62267682676146], [32.66087215546668, 37.622497163704644], [32.660512829353024, 37.622497163704644], [32.660512829353024, 37.62231750064782], [32.66015350323937, 37.62231750064782], [32.66015350323937, 37.622497163704644], [32.65961451406892, 37.622497163704644], [32.65961451406892, 37.62267682676146], [32.65979417712575, 37.62267682676146], [32.65979417712575, 37.62303615287511], [32.65997384018257, 37.62303615287511], [32.65997384018257, 37.62357514204558], [32.65979417712575, 37.62357514204558], [32.65979417712575, 37.62375480510241], [32.65961451406892, 37.62375480510241], [32.65961451406892, 37.623934468159234], [32.65907552489844, 37.623934468159234], [32.65907552489844, 37.624114131216054], [32.65871619878479, 37.624114131216054], [32.65871619878479, 37.62429379427288], [32.658356872671135, 37.62429379427288], [32.658356872671135, 37.62447345732971], [32.65853653572796, 37.62447345732971], [32.65853653572796, 37.624653120386526], [32.65871619878479, 37.624653120386526], [32.65871619878479, 37.62483278344335], [32.65853653572796, 37.62483278344335], [32.65853653572796, 37.62501244650017], [32.65871619878479, 37.62501244650017], [32.65871619878479, 37.625192109557], [32.658895861841614, 37.625192109557], [32.658895861841614, 37.625371772613825], [32.65871619878479, 37.625371772613825], [32.65871619878479, 37.625551435670644], [32.65853653572796, 37.625551435670644], [32.65853653572796, 37.625371772613825], [32.658356872671135, 37.625371772613825], [32.658356872671135, 37.625192109557], [32.65853653572796, 37.625192109557], [32.65853653572796, 37.62501244650017], [32.65799754655751, 37.62501244650017], [32.65799754655751, 37.625192109557], [32.65763822044386, 37.625192109557], [32.65763822044386, 37.62501244650017], [32.65745855738703, 37.62501244650017], [32.65745855738703, 37.62483278344335], [32.657278894330204, 37.62483278344335], [32.657278894330204, 37.62501244650017], [32.65709923127338, 37.62501244650017], [32.65709923127338, 37.62483278344335], [32.65691956821655, 37.62483278344335], [32.65691956821655, 37.624653120386526], [32.656739905159725, 37.624653120386526], [32.656739905159725, 37.62447345732971], [32.6565602421029, 37.62447345732971], [32.6565602421029, 37.62429379427288], [32.65638057904607, 37.62429379427288], [32.65638057904607, 37.624114131216054], [32.656200915989245, 37.624114131216054], [32.656200915989245, 37.623934468159234], [32.65602125293245, 37.623934468159234], [32.65602125293245, 37.62357514204558], [32.655661926818794, 37.62357514204558], [32.655661926818794, 37.62339547898876], [32.65548226376197, 37.62339547898876], [32.65548226376197, 37.623215815931935], [32.65530260070514, 37.623215815931935], [32.65530260070514, 37.62303615287511], [32.655122937648315, 37.62303615287511], [32.655122937648315, 37.62285648981829], [32.65494327459149, 37.62285648981829], [32.65494327459149, 37.62267682676146], [32.65476361153466, 37.62267682676146], [32.65476361153466, 37.622497163704644], [32.654583948477836, 37.622497163704644], [32.654583948477836, 37.62231750064782], [32.65440428542101, 37.62231750064782], [32.65440428542101, 37.62213783759099], [32.65422462236418, 37.62213783759099], [32.65422462236418, 37.62195817453417], [32.654044959307384, 37.62195817453417], [32.654044959307384, 37.62159884842052], [32.65422462236418, 37.62159884842052], [32.65422462236418, 37.6214191853637], [32.65440428542101, 37.6214191853637], [32.65440428542101, 37.62123952230687], [32.65476361153466, 37.62123952230687], [32.65476361153466, 37.621059859250046], [32.655122937648315, 37.621059859250046], [32.655122937648315, 37.62088019619323], [32.65548226376197, 37.62088019619323], [32.65548226376197, 37.6207005331364], [32.655661926818794, 37.6207005331364], [32.655661926818794, 37.62052087007958], [32.65602125293245, 37.62052087007958], [32.65602125293245, 37.620341207022754], [32.65638057904607, 37.620341207022754], [32.65638057904607, 37.62016154396593], [32.657278894330204, 37.62016154396593], [32.657278894330204, 37.620341207022754], [32.65745855738703, 37.620341207022754], [32.65745855738703, 37.62016154396593], [32.65763822044386, 37.62016154396593], [32.65763822044386, 37.61998188090911], [32.657817883500684, 37.61998188090911], [32.657817883500684, 37.62016154396593], [32.65799754655751, 37.62016154396593], [32.65799754655751, 37.619622554795455], [32.65817720961431, 37.619622554795455], [32.65817720961431, 37.619442891738636], [32.65853653572796, 37.619442891738636], [32.65853653572796, 37.61926322868181]], [[32.65961451406892, 37.62231750064782], [32.65961451406892, 37.622497163704644], [32.659434851012094, 37.622497163704644], [32.659434851012094, 37.62231750064782], [32.65961451406892, 37.62231750064782]], [[32.65925518795527, 37.62195817453417], [32.65925518795527, 37.62213783759099], [32.65907552489844, 37.62213783759099], [32.65907552489844, 37.62195817453417], [32.65925518795527, 37.62195817453417]], [[32.65817720961431, 37.62016154396593], [32.65817720961431, 37.620341207022754], [32.65799754655751, 37.620341207022754], [32.65799754655751, 37.62016154396593], [32.65817720961431, 37.62016154396593]]]}, "properties": {"area_ha": 22.317595561338685, "mean_dnbr": 0.46652073778133674, "compactness": 0.192, "rectangularity": 0.7, "cropland_frac": 0.458, "persistent": true, "brightness_delta": -0.279}}]}