{"type": "FeatureCollection", "crs": {"type": "name", "properties": {"name": "urn:ogc:def:crs:OGC:1.3:CRS84"}}, "features": [{"type": "Feature", "geometry": {"geodesic": false, "type": "Polygon", "coordinates": [[[28.23702870729167, 36.816888016906255], [28.237388033405324, 36.816888016906255], [28.237388033405324, 36.817067679963074], [28.237747359518977, 36.817067679963074], [28.237747359518977, 36.8172473430199], [28.238286348689456, 36.8172473430199], [28.238286348689456, 36.81742700607673], [28.238466011746283, 36.81742700607673], [28.238466011746283, 36.8172473430199], [28.23864567480311, 36.8172473430199], [28.23864567480311, 36.81742700607673], [28.239005000916734, 36.81742700607673], [28.239005000916734, 36.817606669133546], [28.23918466397356, 36.817606669133546], [28.23918466397356, 36.81778633219037], [28.239364327030387, 36.81778633219037], [28.239364327030387, 36.8179659952472], [28.239543990087213, 36.8179659952472], [28.239543990087213, 36.81850498441767], [28.239903316200866, 36.81850498441767], [28.239903316200866, 36.81868464747449], [28.240082979257693, 36.81868464747449], [28.240082979257693, 36.81904397358814], [28.24026264231452, 36.81904397358814], [28.24026264231452, 36.81922363664496], [28.240442305371346, 36.81922363664496], [28.240442305371346, 36.81958296275861], [28.240801631485, 36.81958296275861], [28.240801631485, 36.819762625815436], [28.24134062065545, 36.819762625815436], [28.24134062065545, 36.81994228887226], [28.241520283712276, 36.81994228887226], [28.241520283712276, 36.82012195192908], [28.241699946769103, 36.82012195192908], [28.241699946769103, 36.82030161498591], [28.241520283712276, 36.82030161498591], [28.241520283712276, 36.82155925638367], [28.24134062065545, 36.82155925638367], [28.24134062065545, 36.8217389194405], [28.241160957598623, 36.8217389194405], [28.241160957598623, 36.82263723472462], [28.240981294541797, 36.82263723472462], [28.240981294541797, 36.82281689778144], [28.240801631485, 36.82281689778144], [28.240801631485, 36.824254202236034], [28.240621968428172, 36.824254202236034], [28.240621968428172, 36.82443386529286], [28.240442305371346, 36.82443386529286], [28.240442305371346, 36.82461352834968], [28.24026264231452, 36.82461352834968], [28.24026264231452, 36.824793191406506], [28.240082979257693, 36.824793191406506], [28.240082979257693, 36.82461352834968], [28.239543990087213, 36.82461352834968], [28.239543990087213, 36.82443386529286], [28.239364327030387, 36.82443386529286], [28.239364327030387, 36.824254202236034], [28.239543990087213, 36.824254202236034], [28.239543990087213, 36.82407453917921], [28.239005000916734, 36.82407453917921], [28.239005000916734, 36.824254202236034], [28.238825337859936, 36.824254202236034], [28.238825337859936, 36.82407453917921], [28.238286348689456, 36.82407453917921], [28.238286348689456, 36.82389487612239], [28.23810668563263, 36.82389487612239], [28.23810668563263, 36.82371521306556], [28.237927022575803, 36.82371521306556], [28.237927022575803, 36.823535550008735], [28.23702870729167, 36.823535550008735], [28.23702870729167, 36.823355886951916], [28.236310055064394, 36.823355886951916], [28.236310055064394, 36.82317622389509], [28.236130392007567, 36.82317622389509], [28.236130392007567, 36.82299656083827], [28.235771065893914, 36.82299656083827], [28.235771065893914, 36.82281689778144], [28.235591402837088, 36.82281689778144], [28.235591402837088, 36.822098245554145], [28.23487275060981, 36.822098245554145], [28.23487275060981, 36.821918582497325], [28.234513424496157, 36.821918582497325], [28.234513424496157, 36.8217389194405], [28.233974435325678, 36.8217389194405], [28.233974435325678, 36.82155925638367], [28.23379477226885, 36.82155925638367], [28.23379477226885, 36.8217389194405], [28.233615109212025, 36.8217389194405], [28.233615109212025, 36.82155925638367], [28.23217780475744, 36.82155925638367], [28.23217780475744, 36.82137959332685], [28.231998141700615, 36.82137959332685], [28.231998141700615, 36.821199930270026], [28.23217780475744, 36.821199930270026], [28.23217780475744, 36.82102026721321], [28.231998141700615, 36.82102026721321], [28.231998141700615, 36.820481278042735], [28.23181847864379, 36.820481278042735], [28.23181847864379, 36.81994228887226], [28.231998141700615, 36.81994228887226], [28.231998141700615, 36.819762625815436], [28.23181847864379, 36.819762625815436], [28.23181847864379, 36.81958296275861], [28.231998141700615, 36.81958296275861], [28.231998141700615, 36.81940329970179], [28.23217780475744, 36.81940329970179], [28.23217780475744, 36.81922363664496], [28.232537130871094, 36.81922363664496], [28.232537130871094, 36.81904397358814], [28.232357467814268, 36.81904397358814], [28.232357467814268, 36.81868464747449], [28.232537130871094, 36.81868464747449], [28.232537130871094, 36.81850498441767], [28.23271679392792, 36.81850498441767], [28.23271679392792, 36.81868464747449], [28.232896456984747, 36.81868464747449], [28.232896456984747, 36.81850498441767], [28.233076120041545, 36.81850498441767], [28.233076120041545, 36.818325321360845], [28.23325578309837, 36.818325321360845], [28.23325578309837, 36.81814565830402], [28.233076120041545, 36.81814565830402], [28.233076120041545, 36.817606669133546], [28.23325578309837, 36.817606669133546], [28.23325578309837, 36.81742700607673], [28.233615109212025, 36.81742700607673], [28.233615109212025, 36.817606669133546], [28.234154098382504, 36.817606669133546], [28.234154098382504, 36.81742700607673], [28.234513424496157, 36.81742700607673], [28.234513424496157, 36.817606669133546], [28.234693087552984, 36.817606669133546], [28.234693087552984, 36.81778633219037], [28.23487275060981, 36.81778633219037], [28.23487275060981, 36.817606669133546], [28.235052413666608, 36.817606669133546], [28.235052413666608, 36.81742700607673], [28.235591402837088, 36.81742700607673], [28.235591402837088, 36.817606669133546], [28.235771065893914, 36.817606669133546], [28.235771065893914, 36.81742700607673], [28.236310055064394, 36.81742700607673], [28.236310055064394, 36.8172473430199], [28.236849044234873, 36.8172473430199], [28.236849044234873, 36.817067679963074], [28.23702870729167, 36.817067679963074], [28.23702870729167, 36.816888016906255]]]}, "properties": {"area_ha": 46.80548500277689, "mean_dnbr": 0.6777206611578713, "compactness": 0.368, "rectangularity": 0.704, "cropland_frac": 0, "persistent": true, "brightness_delta": -0.075}}]}