{"type": "FeatureCollection", "crs": {"type": "name", "properties": {"name": "urn:ogc:def:crs:OGC:1.3:CRS84"}}, "features": [{"type": "Feature", "geometry": {"geodesic": false, "type": "Polygon", "coordinates": [[[28.390281294762474, 37.041466837936134], [28.3904609578193, 37.041466837936134], [28.3904609578193, 37.04164650099296], [28.390820283932953, 37.04164650099296], [28.390820283932953, 37.04182616404978], [28.39099994698978, 37.04182616404978], [28.39099994698978, 37.04200582710661], [28.391179610046606, 37.04200582710661], [28.391179610046606, 37.042185490163426], [28.39153893616023, 37.042185490163426], [28.39153893616023, 37.04236515322025], [28.391718599217057, 37.04236515322025], [28.391718599217057, 37.042904142390725], [28.39153893616023, 37.042904142390725], [28.39153893616023, 37.04308380544755], [28.391179610046606, 37.04308380544755], [28.391179610046606, 37.04326346850437], [28.39099994698978, 37.04326346850437], [28.39099994698978, 37.0434431315612], [28.390820283932953, 37.0434431315612], [28.390820283932953, 37.043622794618024], [28.390640620876127, 37.043622794618024], [28.390640620876127, 37.04380245767484], [28.390281294762474, 37.04380245767484], [28.390281294762474, 37.04398212073167], [28.390101631705647, 37.04398212073167], [28.390101631705647, 37.04416178378849], [28.38992196864882, 37.04416178378849], [28.38992196864882, 37.04398212073167], [28.389742305591994, 37.04398212073167], [28.389742305591994, 37.04380245767484], [28.389562642535168, 37.04380245767484], [28.389562642535168, 37.043622794618024], [28.38938297947834, 37.043622794618024], [28.38938297947834, 37.0434431315612], [28.389023653364717, 37.0434431315612], [28.389023653364717, 37.04326346850437], [28.38884399030789, 37.04326346850437], [28.38884399030789, 37.04308380544755], [28.389023653364717, 37.04308380544755], [28.389023653364717, 37.0427244793339], [28.389203316421543, 37.0427244793339], [28.389203316421543, 37.04254481627708], [28.38938297947834, 37.04254481627708], [28.38938297947834, 37.04236515322025], [28.389562642535168, 37.04236515322025], [28.389562642535168, 37.042185490163426], [28.38992196864882, 37.042185490163426], [28.38992196864882, 37.04200582710661], [28.390101631705647, 37.04200582710661], [28.390101631705647, 37.04164650099296], [28.390281294762474, 37.04164650099296], [28.390281294762474, 37.041466837936134]]]}, "properties": {"area_ha": 4.01386620476765, "mean_dnbr": 0.4066882966332789, "compactness": 0.41, "rectangularity": 0.76, "cropland_frac": 0.228, "persistent": true, "brightness_delta": -0.094}}]}